"id";"lat";"lon";"amenity";"city";"state";"country";"scraped_country_code";"scraped_country_name";"authentication:nfc";"capacity";"capacity:car";"motorcar";"operator";"operator:wikidata";"socket:schuko";"socket:schuko:current";"socket:schuko:voltage";"socket:type2";"socket:type2:current";"socket:type2:voltage";"ref";"addr:housenumber";"addr:street";"addr:postcode";"brand";"charge";"opening_hours";"fee"
"4515733292";"4.8805606";"-8.3832957";"charging_station";"";"Liberia";"Grand Kru";"N/A";"N/A";"";"";"";"";"徐工矿区";"";"";"";"";"";"";"";"";"";"";"";"";"";"";""
"4515671392";"5.0606644";"-8.0982826";"charging_station";"";"Liberia";"River Gee";"N/A";"N/A";"";"";"";"";"";"";"";"";"";"";"";"";"";"";"";"";"";"";"";""
"10860641223";"5.4093211";"-4.0100152";"charging_station";"";"Côte d'Ivoire";"Lagunes";"N/A";"N/A";"";"";"";"";"";"";"";"";"";"";"";"";"";"";"";"";"";"";"";""
"12887281787";"5.3527436";"-4.002673";"charging_station";"";"Côte d'Ivoire";"Lagunes";"N/A";"N/A";"";"";"";"";"";"";"";"";"";"";"";"";"";"";"";"";"";"";"";""
"12887281788";"5.3526695";"-4.0027014";"charging_station";"";"Côte d'Ivoire";"Lagunes";"N/A";"N/A";"";"";"";"";"";"";"";"";"";"";"";"";"";"";"";"";"";"";"";""
"286243318";"";"";"charging_station";"N/A";"N/A";"N/A";"N/A";"N/A";"";"";"";"";"";"";"";"";"";"";"";"";"";"";"";"";"";"";"";""
"394160772";"";"";"charging_station";"N/A";"N/A";"N/A";"N/A";"N/A";"";"";"";"";"";"";"";"";"";"";"";"";"";"";"";"";"";"";"";""
"1331501027";"";"";"charging_station";"N/A";"N/A";"N/A";"N/A";"N/A";"";"";"";"";"";"";"";"";"";"";"";"";"";"";"";"";"";"";"";""
"3971767725";"5.3523466";"-4.0021864";"";"";"Côte d'Ivoire";"Lagunes";"N/A";"N/A";"";"";"";"";"";"";"";"";"";"";"";"";"";"";"";"";"";"";"";""
"3971767727";"5.3524158";"-4.0030413";"";"";"Côte d'Ivoire";"Lagunes";"N/A";"N/A";"";"";"";"";"";"";"";"";"";"";"";"";"";"";"";"";"";"";"";""
"3971767728";"5.3525459";"-4.0021812";"";"";"Côte d'Ivoire";"Lagunes";"N/A";"N/A";"";"";"";"";"";"";"";"";"";"";"";"";"";"";"";"";"";"";"";""
"3971767729";"5.3525989";"-4.0027701";"";"";"Côte d'Ivoire";"Lagunes";"N/A";"N/A";"";"";"";"";"";"";"";"";"";"";"";"";"";"";"";"";"";"";"";""
"3971767731";"5.3533674";"-4.0024789";"";"";"Côte d'Ivoire";"Lagunes";"N/A";"N/A";"";"";"";"";"";"";"";"";"";"";"";"";"";"";"";"";"";"";"";""
"3971767732";"5.3534272";"-4.0026573";"";"";"Côte d'Ivoire";"Lagunes";"N/A";"N/A";"";"";"";"";"";"";"";"";"";"";"";"";"";"";"";"";"";"";"";""
"12319714633";"5.3533808";"-4.0025164";"";"";"Côte d'Ivoire";"Lagunes";"N/A";"N/A";"";"";"";"";"";"";"";"";"";"";"";"";"";"";"";"";"";"";"";""
"12319714634";"5.3533118";"-4.0024989";"";"";"Côte d'Ivoire";"Lagunes";"N/A";"N/A";"";"";"";"";"";"";"";"";"";"";"";"";"";"";"";"";"";"";"";""
"12319714690";"5.3526265";"-4.0029613";"";"";"Côte d'Ivoire";"Lagunes";"N/A";"N/A";"";"";"";"";"";"";"";"";"";"";"";"";"";"";"";"";"";"";"";""
"12319714691";"5.3526132";"-4.0027647";"";"";"Côte d'Ivoire";"Lagunes";"N/A";"N/A";"";"";"";"";"";"";"";"";"";"";"";"";"";"";"";"";"";"";"";""
"12319720802";"5.3525953";"-4.0027298";"";"";"Côte d'Ivoire";"Lagunes";"N/A";"N/A";"";"";"";"";"";"";"";"";"";"";"";"";"";"";"";"";"";"";"";""
"12319720803";"5.3527936";"-4.0026538";"";"";"Côte d'Ivoire";"Lagunes";"N/A";"N/A";"";"";"";"";"";"";"";"";"";"";"";"";"";"";"";"";"";"";"";""
"12319720804";"5.3527743";"-4.0026047";"";"";"Côte d'Ivoire";"Lagunes";"N/A";"N/A";"";"";"";"";"";"";"";"";"";"";"";"";"";"";"";"";"";"";"";""
"12319720805";"5.3528447";"-4.0025768";"";"";"Côte d'Ivoire";"Lagunes";"N/A";"N/A";"";"";"";"";"";"";"";"";"";"";"";"";"";"";"";"";"";"";"";""
"12319720806";"5.3528135";"-4.0020971";"";"";"Côte d'Ivoire";"Lagunes";"N/A";"N/A";"";"";"";"";"";"";"";"";"";"";"";"";"";"";"";"";"";"";"";""
"12319720807";"5.3525473";"-4.0021304";"";"";"Côte d'Ivoire";"Lagunes";"N/A";"N/A";"";"";"";"";"";"";"";"";"";"";"";"";"";"";"";"";"";"";"";""
"2898917737";"5.3777074";"-3.996608";"";"";"Côte d'Ivoire";"Lagunes";"N/A";"N/A";"";"";"";"";"";"";"";"";"";"";"";"";"";"";"";"";"";"";"";""
"2898917738";"5.3778444";"-3.9967257";"";"";"Côte d'Ivoire";"Lagunes";"N/A";"N/A";"";"";"";"";"";"";"";"";"";"";"";"";"";"";"";"";"";"";"";""
"2898919414";"5.3779994";"-3.9958693";"";"";"Côte d'Ivoire";"Lagunes";"N/A";"N/A";"";"";"";"";"";"";"";"";"";"";"";"";"";"";"";"";"";"";"";""
"2898919415";"5.3776314";"-3.9960514";"";"";"Côte d'Ivoire";"Lagunes";"N/A";"N/A";"";"";"";"";"";"";"";"";"";"";"";"";"";"";"";"";"";"";"";""
"2898919416";"5.3776273";"-3.9962808";"";"";"Côte d'Ivoire";"Lagunes";"N/A";"N/A";"";"";"";"";"";"";"";"";"";"";"";"";"";"";"";"";"";"";"";""
"2898919417";"5.3779985";"-3.9968878";"";"";"Côte d'Ivoire";"Lagunes";"N/A";"N/A";"";"";"";"";"";"";"";"";"";"";"";"";"";"";"";"";"";"";"";""
"3318394514";"5.3776633";"-3.9964592";"";"";"Côte d'Ivoire";"Lagunes";"N/A";"N/A";"";"";"";"";"";"";"";"";"";"";"";"";"";"";"";"";"";"";"";""
"3318394519";"5.3777296";"-3.9960228";"";"";"Côte d'Ivoire";"Lagunes";"N/A";"N/A";"";"";"";"";"";"";"";"";"";"";"";"";"";"";"";"";"";"";"";""
"3318394576";"5.3785049";"-3.9963736";"";"";"Côte d'Ivoire";"Lagunes";"N/A";"N/A";"";"";"";"";"";"";"";"";"";"";"";"";"";"";"";"";"";"";"";""
"3318394873";"5.3778702";"-3.9959625";"";"";"Côte d'Ivoire";"Lagunes";"N/A";"N/A";"";"";"";"";"";"";"";"";"";"";"";"";"";"";"";"";"";"";"";""
"4541350977";"7.832924";"-8.5882262";"charging_station";"Lola";"Guinea";"Nzerekore";"N/A";"N/A";"";"";"";"";"";"";"";"";"";"";"";"";"";"";"";"";"";"";"";""
