"id";"lat";"lon";"amenity";"city";"state";"country";"scraped_country_code";"scraped_country_name";"authentication:nfc";"capacity";"capacity:car";"motorcar";"operator";"operator:wikidata";"socket:schuko";"socket:schuko:current";"socket:schuko:voltage";"socket:type2";"socket:type2:current";"socket:type2:voltage";"ref";"addr:housenumber";"addr:street";"addr:postcode";"brand";"charge";"opening_hours";"fee"
"4009256522";"55.6876124";"21.1567927";"charging_station";"Klaipeda";"Lithuania";"Klaipedos apskritis";"N/A";"N/A";"";"2";"";"";"";"";"1";"";"";"1";"";"";"";"";"";"";"";"";"24/7";"no"
"4009256542";"55.729185";"21.1245486";"charging_station";"Klaipeda";"Lithuania";"Klaipedos apskritis";"N/A";"N/A";"";"";"";"";"";"";"1";"";"";"1";"";"";"";"";"";"";"";"";"";"no"
"5280591362";"55.705232";"21.1323115";"charging_station";"Klaipeda";"Lithuania";"Klaipedos apskritis";"N/A";"N/A";"";"2";"";"";"Klaipėdos Savivaldybė";"";"";"";"";"";"";"";"";"";"";"";"";"";"";""
"5568851734";"55.7334541";"21.3827364";"charging_station";"";"Lithuania";"Klaipedos apskritis";"N/A";"N/A";"";"";"";"";"LAKD";"";"";"";"";"1";"";"";"";"";"";"";"";"";"";""
"5708357910";"55.6929859";"21.1535946";"charging_station";"Klaipeda";"Lithuania";"Klaipedos apskritis";"N/A";"N/A";"";"4";"";"";"Imbalance Grid";"";"";"";"";"";"";"";"";"";"";"";"";"";"";""
"5825797783";"55.6843521";"21.1447864";"charging_station";"Klaipeda";"Lithuania";"Klaipedos apskritis";"N/A";"N/A";"";"4";"";"";"Renerga";"";"";"";"";"";"";"";"";"";"";"";"";"";"";""
"6399647728";"56.1601538";"21.1613835";"charging_station";"";"Latvia";"Rucavas";"N/A";"N/A";"";"";"";"";"CSDD";"Q27055983";"";"";"";"";"";"";"";"";"";"LV-3477";"";"";"24/7";"yes"
"9750967440";"55.9190317";"21.078589";"charging_station";"Klaipeda";"Lithuania";"Klaipedos apskritis";"N/A";"N/A";"";"2";"";"";"Elektrum";"";"";"";"";"";"";"";"";"";"";"";"";"";"";"yes"
"10861645346";"55.6854654";"21.128955";"charging_station";"Klaipeda";"Lithuania";"Klaipedos apskritis";"N/A";"N/A";"";"4";"";"";"";"";"";"";"";"";"";"";"";"";"";"";"";"";"";""
"11053487767";"55.9090052";"21.0691489";"charging_station";"Klaipeda";"Lithuania";"Klaipedos apskritis";"N/A";"N/A";"";"3";"";"";"Elinta Charge";"";"";"";"";"";"";"";"";"";"";"";"";"";"";""
"11062056574";"55.9595533";"21.1451879";"charging_station";"Klaipeda";"Lithuania";"Klaipedos apskritis";"N/A";"N/A";"";"";"";"";"";"";"";"";"";"";"";"";"";"";"";"";"";"";"";""
"11138263169";"55.8956294";"21.2372075";"charging_station";"";"Lithuania";"Klaipedos apskritis";"N/A";"N/A";"";"2";"";"yes";"";"";"";"";"";"1";"32 A";"";"";"";"";"";"";"";"24/7";""
"11694981264";"55.8950912";"21.234342";"charging_station";"";"Lithuania";"Klaipedos apskritis";"N/A";"N/A";"";"";"";"";"";"";"";"";"";"";"";"";"";"";"";"";"";"";"";""
"12073786870";"56.0260066";"21.0764382";"charging_station";"Palanga";"Lithuania";"Klaipedos apskritis";"N/A";"N/A";"";"";"";"";"";"";"";"";"";"";"";"";"";"";"";"";"";"";"";""
"12073856569";"56.0260122";"21.0756823";"charging_station";"Palanga";"Lithuania";"Klaipedos apskritis";"N/A";"N/A";"";"";"";"";"";"";"";"";"";"";"";"";"";"";"";"";"";"";"";""
"12073865870";"56.0260079";"21.076421";"charging_station";"Palanga";"Lithuania";"Klaipedos apskritis";"N/A";"N/A";"";"";"";"";"";"";"";"";"";"";"";"";"";"";"";"";"";"";"";""
"12161473310";"55.7024133";"21.1363111";"charging_station";"Klaipeda";"Lithuania";"Klaipedos apskritis";"N/A";"N/A";"";"";"";"";"";"";"";"";"";"";"";"";"";"";"";"";"";"";"";""
"12263160501";"55.6993561";"21.1374875";"charging_station";"Klaipeda";"Lithuania";"Klaipedos apskritis";"N/A";"N/A";"";"";"";"";"";"";"";"";"";"";"";"";"";"";"";"";"";"";"";""
"12804242777";"55.7122439";"21.3874054";"charging_station";"";"Lithuania";"Klaipedos apskritis";"N/A";"N/A";"";"";"";"";"";"";"";"";"";"";"";"";"";"";"";"";"";"";"";""
"10314429859";"56.0045467";"22.9334106";"charging_station";"";"Lithuania";"";"N/A";"N/A";"";"";"";"";"";"";"";"";"";"";"";"";"";"";"";"";"";"";"";""
"4952418854";"55.7444403";"24.3348482";"charging_station";"Panevezys City";"Lithuania";"Panevezys";"N/A";"N/A";"";"";"";"";"";"";"yes";"";"";"yes";"";"";"";"";"";"";"";"";"";""
"4952418866";"55.7298295";"24.3116859";"charging_station";"Panevezys City";"Lithuania";"Panevezys";"N/A";"N/A";"";"";"";"";"";"";"yes";"";"";"yes";"";"";"";"";"";"";"";"";"";""
"11883538269";"55.7388603";"24.3412009";"charging_station";"Panevezys City";"Lithuania";"Panevezys";"N/A";"N/A";"";"";"";"";"Dentavita";"";"";"";"";"";"";"";"";"";"";"";"Įkrautas";"";"24/7";""
"11885251869";"55.7273538";"24.3799536";"charging_station";"Panevezys City";"Lithuania";"Panevezys";"N/A";"N/A";"";"";"";"";"IKI Dembava";"";"";"";"";"";"";"";"";"";"";"";"Inbalance";"";"24/7";""
"11885268469";"55.7269456";"24.3630218";"charging_station";"Panevezys City";"Lithuania";"Panevezys";"N/A";"N/A";"";"";"";"";"";"";"";"";"";"";"";"";"";"";"";"";"Elinta";"";"";"no"
"12920162030";"55.768106";"24.2969171";"charging_station";"Panevezys City";"Lithuania";"Panevezys";"N/A";"N/A";"";"20";"";"yes";"Eldrive";"";"";"";"";"";"";"";"";"";"";"";"";"";"";"yes"
"11883354969";"56.1228186";"24.4711478";"charging_station";"";"Lithuania";"Panevezys";"N/A";"N/A";"";"";"";"";"";"";"";"";"";"";"";"";"";"";"";"";"Inbalance";"";"24/7";""
"6617428677";"55.8383361";"24.9743003";"charging_station";"";"Lithuania";"";"N/A";"N/A";"";"2";"";"";"Elinta Charge";"";"";"";"";"";"";"";"";"";"";"";"";"";"";"yes"
"11387519681";"55.8494004";"24.9763886";"charging_station";"";"Lithuania";"";"N/A";"N/A";"";"2";"";"";"Elinta Charge";"";"";"";"";"";"";"";"";"";"";"";"Elinta Charge CityCharge Mini2";"";"";"yes"
"12348981123";"55.8304554";"24.9872734";"charging_station";"";"Lithuania";"";"N/A";"N/A";"";"";"";"";"";"";"";"";"";"";"";"";"";"";"";"";"";"";"";""
"12626325781";"55.8360825";"24.9770956";"charging_station";"";"Lithuania";"";"N/A";"N/A";"";"";"";"";"";"";"";"";"";"";"";"";"";"";"";"";"";"";"";"yes"
"12626325782";"55.8361464";"24.9770793";"charging_station";"";"Lithuania";"";"N/A";"N/A";"";"";"";"";"";"";"";"";"";"";"";"";"";"";"";"";"";"";"";"yes"
"12626325783";"55.8364198";"24.9932388";"charging_station";"";"Lithuania";"";"N/A";"N/A";"";"";"";"";"";"";"";"";"";"";"";"";"";"";"";"";"";"";"";""
"12626325784";"55.8364008";"24.9932526";"charging_station";"";"Lithuania";"";"N/A";"N/A";"";"";"";"";"";"";"";"";"";"";"";"";"";"";"";"";"";"";"";""
"5734651121";"56.1576942";"25.5194873";"charging_station";"";"Lithuania";"";"N/A";"N/A";"";"1";"";"";"";"";"";"";"";"";"";"";"";"";"";"";"";"";"";""
"9344023706";"55.9493843";"25.5901243";"charging_station";"";"Lithuania";"Panevezys";"N/A";"N/A";"";"2";"";"";"";"";"";"";"";"";"";"";"";"";"";"";"";"";"";""
"7596360071";"56.0748529";"26.7352778";"charging_station";"";"Latvia";"Preilu Rajons";"N/A";"N/A";"";"50";"";"";"";"";"";"";"";"";"";"";"";"3";"Šosejas iela";"LV-5481";"";"";"";""
"7814292273";"55.8814603";"26.5046748";"charging_station";"";"Latvia";"Daugavpils";"N/A";"N/A";"";"50";"";"";"CSDD - Ceļu Satiksmes Drošības Direkcija";"";"";"";"";"";"";"";"";"3";"Kraujas iela";"LV-5401";"";"";"";""
"8658074912";"55.8763726";"26.5219938";"charging_station";"";"Latvia";"Daugavpils";"N/A";"N/A";"";"3";"";"";"e-mobi";"";"";"";"";"";"";"";"0108";"";"";"";"";"";"24/7";"yes"
"9825697890";"55.8721513";"26.5090064";"charging_station";"";"Latvia";"Daugavpils";"N/A";"N/A";"";"";"";"";"CSDD";"Q27055983";"";"";"";"";"";"";"";"";"";"";"";"";"";""
"9825731490";"55.8804884";"26.5593353";"charging_station";"";"Latvia";"Daugavpils";"N/A";"N/A";"";"2";"";"";"CSDD";"Q27055983";"";"";"";"";"";"";"";"3";"Valkas iela";"LV-5417";"";"";"";""
"5720950159";"55.8880368";"27.1842737";"charging_station";"";"Latvia";"Kraslavas Rajons";"N/A";"N/A";"";"2";"";"yes";"Virši";"";"";"";"";"";"";"";"";"165A";"Rīgas iela";"LV-5601";"Virši";"";"24/7";""
"5797574734";"56.346082";"21.0654607";"charging_station";"";"Latvia";"Nica";"N/A";"N/A";"";"2";"";"";"CSDD";"Q27055983";"";"";"";"";"";"";"";"";"";"LV-3473";"";"";"24/7";"yes"
"7599975507";"56.5795622";"21.3354155";"charging_station";"";"Latvia";"Durbe";"N/A";"N/A";"";"";"";"";"";"";"";"";"";"";"";"";"";"2A";"Parka iela";"LV-3447";"";"";"";"yes"
"7600021548";"56.5317258";"21.047559";"charging_station";"";"Latvia";"Liepaja";"N/A";"N/A";"";"";"";"";"Ceļu satiksmes drošības direkcija";"";"";"";"";"";"";"";"";"11";"Satiksmes iela";"LV-3401";"e-mobi";"";"24/7";"yes"
"9160220620";"56.5196016";"21.0146677";"charging_station";"";"Latvia";"Liepaja";"N/A";"N/A";"";"2";"";"";"Ceļu satiksmes drošības direkcija";"";"";"";"";"";"";"";"";"22";"Tirgus iela";"LV-3401";"";"";"24/7";"yes"
"9160220621";"56.5038224";"21.0075023";"charging_station";"";"Latvia";"Liepaja";"N/A";"N/A";"";"";"";"";"Ceļu satiksmes drošības direkcija";"";"";"";"";"";"";"";"";"12";"Kuršu iela";"LV-3401";"";"";"24/7";"yes"
"9160220622";"56.5055909";"21.0093546";"charging_station";"";"Latvia";"Liepaja";"N/A";"N/A";"";"";"";"";"";"";"";"";"";"";"";"";"";"";"";"";"";"";"24/7";"yes"
"9160220623";"56.5229491";"21.0172631";"charging_station";"";"Latvia";"Liepaja";"N/A";"N/A";"";"3";"";"";"";"";"";"";"";"";"";"";"";"56";"Rīgas iela";"LV-3401";"";"";"24/7";""
"10133134327";"56.4858725";"21.0065876";"charging_station";"";"Latvia";"Liepaja";"N/A";"N/A";"";"";"";"";"CSDD";"Q27055983";"";"";"";"";"";"";"";"";"";"";"";"";"";""
"11012029874";"56.5446659";"21.0541019";"charging_station";"";"Latvia";"Liepaja";"N/A";"N/A";"";"";"";"";"";"";"";"";"";"";"";"";"";"29";"Cukura iela";"LV-3414";"";"";"";""
"11301651643";"56.5123858";"21.0104296";"charging_station";"";"Latvia";"Liepaja";"N/A";"N/A";"";"4";"";"";"Elektrum";"";"";"";"";"";"";"";"";"16";"Jūras iela";"LV-3401";"";"";"";"yes"
"11301651644";"56.5126491";"21.0117021";"charging_station";"";"Latvia";"Liepaja";"N/A";"N/A";"";"";"";"";"";"";"";"";"";"";"";"";"";"41";"Vecā ostmala";"LV-3401";"";"";"";""
"12629757920";"56.5404399";"21.1686562";"charging_station";"";"Latvia";"Grobina";"N/A";"N/A";"";"150";"";"";"Ignitis ON";"";"";"";"";"";"";"";"";"45";"Rīgas iela";"LV-3430";"";"0.35€/kWh";"";"yes"
"1185123020";"";"";"charging_station";"N/A";"N/A";"N/A";"N/A";"N/A";"";"2";"";"";"Ceļu satiksmes drošības direkcija";"";"";"";"";"";"";"";"";"";"";"";"e-mobi";"";"";"yes"
"11008670670";"56.48571";"21.0066677";"";"";"Latvia";"Liepaja";"N/A";"N/A";"";"";"";"";"";"";"";"";"";"";"";"";"";"";"";"";"";"";"";""
"11008670671";"56.485697";"21.0065462";"";"";"Latvia";"Liepaja";"N/A";"N/A";"";"";"";"";"";"";"";"";"";"";"";"";"";"";"";"";"";"";"";""
"11008670672";"56.4856417";"21.0065656";"";"";"Latvia";"Liepaja";"N/A";"N/A";"";"";"";"";"";"";"";"";"";"";"";"";"";"";"";"";"";"";"";""
"11008670673";"56.4856547";"21.0066871";"";"";"Latvia";"Liepaja";"N/A";"N/A";"";"";"";"";"";"";"";"";"";"";"";"";"";"";"";"";"";"";"";""
"7600938307";"56.6050263";"21.7382538";"charging_station";"";"Latvia";"Aizpute";"N/A";"N/A";"";"";"";"";"";"";"";"";"";"";"";"";"";"";"";"";"";"";"24/7";"yes"
"9155642743";"56.4429921";"21.5848033";"charging_station";"";"Latvia";"Priekule";"N/A";"N/A";"";"2";"";"";"";"";"";"";"";"";"";"";"";"";"";"";"";"";"";""
"7600024340";"56.6746847";"22.0141927";"charging_station";"";"Latvia";"Skrunda";"N/A";"N/A";"";"";"";"";"";"";"";"";"";"";"";"";"";"13A";"Liepājas iela";"LV-3326";"";"";"";"yes"
"7600953495";"56.6676612";"22.4937633";"charging_station";"";"Latvia";"Saldus Rajons";"N/A";"N/A";"";"50";"";"";"e-mobi";"";"";"";"";"";"";"";"";"1";"Tirgus iela";"LV-3801";"e-mobi";"0.20 EUR/min";"24/7";"yes"
"5318343259";"56.4874028";"23.3730878";"charging_station";"";"Latvia";"";"N/A";"N/A";"";"";"";"";"";"";"";"";"";"";"";"";"";"";"";"LV-3730";"";"";"";""
"5816404564";"56.6641255";"22.9698616";"charging_station";"";"Latvia";"Jaunpils";"N/A";"N/A";"no";"";"";"yes";"CSSD";"";"";"";"";"1";"";"";"";"";"";"LV-3713";"";"";"";""
"6415815404";"56.6254474";"23.2862682";"charging_station";"";"Latvia";"Dobeles Rajons";"N/A";"N/A";"";"2";"";"";"CSDD";"";"";"";"";"1";"";"";"";"2";"Jāņa Čakstes iela";"LV-3701";"";"";"24/7";"yes"
"3968775686";"56.65108";"23.73025";"charging_station";"";"Latvia";"Jelgava";"N/A";"N/A";"";"1";"";"yes";"Latvenergo";"";"1";"";"";"";"";"";"";"5";"Jāņa Čakstes bulvāris";"LV-3001";"";"";"";"no"
"7613564049";"56.4168205";"23.6820813";"charging_station";"Joniskis";"Lithuania";"Siauliu apskritis";"N/A";"N/A";"";"";"";"";"";"";"";"";"";"";"";"";"";"28";"Lietuvas iela";"LV-3023";"";"";"24/7";"yes"
"7617665914";"56.6571676";"23.8094746";"charging_station";"";"Latvia";"Ozolnieku";"N/A";"N/A";"";"";"";"";"";"";"";"";"";"";"";"";"";"";"";"LV-3043";"";"";"24/7";"yes"
"10554835375";"56.6487444";"23.7262386";"charging_station";"";"Latvia";"Jelgava";"N/A";"N/A";"";"";"";"";"";"";"";"";"";"";"";"";"";"18";"Katoļu iela";"LV-3001";"";"";"";""
"958196998";"";"";"charging_station";"N/A";"N/A";"N/A";"N/A";"N/A";"";"4";"";"";"";"";"";"";"";"";"";"";"";"";"";"";"";"";"24/7";""
"5552968348";"56.1942167";"23.5694841";"";"Joniskis";"Lithuania";"Siauliu apskritis";"N/A";"N/A";"";"";"";"";"";"";"";"";"";"";"";"";"";"";"";"";"";"";"";""
"8865935762";"56.1941966";"23.5695589";"";"Joniskis";"Lithuania";"Siauliu apskritis";"N/A";"N/A";"";"";"";"";"";"";"";"";"";"";"";"";"";"";"";"";"";"";"";""
"8865935763";"56.1942872";"23.5696482";"";"Joniskis";"Lithuania";"Siauliu apskritis";"N/A";"N/A";"";"";"";"";"";"";"";"";"";"";"";"";"";"";"";"";"";"";"";""
"8865935764";"56.1943115";"23.5695664";"";"Joniskis";"Lithuania";"Siauliu apskritis";"N/A";"N/A";"";"";"";"";"";"";"";"";"";"";"";"";"";"";"";"";"";"";"";""
"7613512942";"56.4054236";"24.1856725";"charging_station";"";"Latvia";"Bauskas Rajons";"N/A";"N/A";"";"2";"";"";"";"";"";"";"";"";"";"";"";"2";"Pionieru iela";"LV-3901";"";"";"24/7";"yes"
"7613586551";"56.5929189";"24.1915663";"charging_station";"";"Latvia";"Lecava";"N/A";"N/A";"";"1";"";"";"";"";"";"";"";"";"";"";"";"2B";"Rīgas iela";"LV-3913";"";"";"24/7";"yes"
"12109975505";"56.602252";"24.2222144";"charging_station";"";"Latvia";"Lecava";"N/A";"N/A";"";"";"";"";"";"";"";"";"";"";"";"";"";"65A";"Baldones iela";"LV-3913";"";"";"";""
"12568593315";"56.6048356";"24.2083344";"charging_station";"";"Latvia";"Lecava";"N/A";"N/A";"";"";"";"yes";"";"";"";"";"";"";"";"";"";"";"";"LV-3913";"";"";"";"no"
"12568593316";"56.6049109";"24.208995";"charging_station";"";"Latvia";"Lecava";"N/A";"N/A";"";"";"";"yes";"";"";"";"";"";"";"";"";"";"";"";"LV-3913";"";"";"";"no"
"9600996914";"56.5013645";"25.874231";"charging_station";"";"Latvia";"Jekabpils Rajons";"N/A";"N/A";"";"";"";"";"";"";"";"";"";"";"";"";"";"103B";"Rīgas iela";"LV-5202";"";"";"";""
"12604092351";"56.4922103";"25.8658213";"charging_station";"";"Latvia";"Jekabpils Rajons";"N/A";"N/A";"";"";"";"";"";"";"";"";"";"";"";"";"";"31A";"Jaunā iela";"LV-5201";"Elektrum Drive";"";"";""
"11112686558";"56.5437045";"26.0930332";"charging_station";"";"Latvia";"Livani";"N/A";"N/A";"";"1";"";"";"";"";"";"";"";"";"";"";"";"";"";"LV-5222";"e-mobi";"";"";"yes"
"1161973537";"";"";"charging_station";"N/A";"N/A";"N/A";"N/A";"N/A";"";"";"";"";"";"";"";"";"";"";"";"";"";"";"";"";"e-mobi";"";"";"yes"
"10806751019";"56.3759173";"26.1636958";"";"";"Latvia";"Livani";"N/A";"N/A";"";"";"";"";"";"";"";"";"";"";"";"";"";"";"";"";"";"";"";""
"10806751020";"56.3758677";"26.1637504";"";"";"Latvia";"Livani";"N/A";"N/A";"";"";"";"";"";"";"";"";"";"";"";"";"";"";"";"";"";"";"";""
"10806751021";"56.375891";"26.1638246";"";"";"Latvia";"Livani";"N/A";"N/A";"";"";"";"";"";"";"";"";"";"";"";"";"";"";"";"";"";"";"";""
"10806751022";"56.3759398";"26.16377";"";"";"Latvia";"Livani";"N/A";"N/A";"";"";"";"";"";"";"";"";"";"";"";"";"";"";"";"";"";"";"";""
"7814292272";"56.2951473";"26.7268104";"charging_station";"";"Latvia";"Preilu Rajons";"N/A";"N/A";"";"50";"";"";"CSDD - Ceļu Satiksmes Drošības Direkcija";"";"";"";"";"";"";"";"";"11";"Tirgus laukums";"LV-5301";"";"";"";""
"11480456589";"56.6100614";"26.7530142";"charging_station";"";"Latvia";"Varaklani";"N/A";"N/A";"";"";"";"";"";"";"";"";"";"";"";"";"";"13";"Rīgas iela";"LV-4838";"e-mobi";"";"";""
"11736212270";"56.2879049";"26.737404";"charging_station";"";"Latvia";"Preilu Rajons";"N/A";"N/A";"";"60";"";"";"Elektrum Drive";"";"";"";"";"";"";"";"";"60";"Aglonas iela";"LV-5301";"";"";"";""
"7814327143";"56.5059092";"27.3314173";"charging_station";"";"Latvia";"Rezekne";"N/A";"N/A";"";"3";"";"";"CSDD";"Q27055983";"";"";"";"";"";"";"";"";"";"";"";"";"";""
"8270507617";"56.3581184";"27.260195";"charging_station";"";"Latvia";"Rezekne";"N/A";"N/A";"";"1";"";"";"Lūznavas muiža";"";"";"";"";"";"";"";"";"6";"Pils iela";"LV-4627";"";"";"";"no"
"10118429508";"56.5148471";"27.3512441";"charging_station";"";"Latvia";"Rezekne";"N/A";"N/A";"";"4";"";"";"Tesla";"Q478214";"";"";"";"";"";"";"";"30";"Stacijas iela";"LV-4601";"Tesla Supercharger";"";"";"yes"
"10118506393";"56.5161743";"27.3522779";"charging_station";"";"Latvia";"Rezekne";"N/A";"N/A";"";"3";"";"";"CSDD";"Q27055983";"";"";"";"";"";"";"";"";"";"";"";"";"";""
"10118506394";"56.3441205";"27.1598459";"charging_station";"";"Latvia";"Rezekne";"N/A";"N/A";"";"3";"";"";"CSDD";"Q27055983";"";"";"";"";"";"";"";"";"";"";"";"";"";""
"10118506391";"56.5442672";"27.7216614";"charging_station";"";"Latvia";"Ludzas Rajons";"N/A";"N/A";"";"3";"";"";"CSDD";"Q27055983";"";"";"";"";"";"";"";"19";"Raiņa iela";"LV-5701";"";"";"";""
"10118506392";"56.3897241";"28.1169564";"charging_station";"";"Latvia";"Zilupes";"N/A";"N/A";"";"3";"";"";"CSDD";"Q27055983";"";"";"";"";"";"";"";"3";"Stacijas iela";"LV-5751";"";"";"";""
"10555063476";"57.0124617";"21.391719";"charging_station";"";"Latvia";"Alsunga";"N/A";"N/A";"";"2";"";"";"";"";"";"";"";"";"";"";"";"";"";"LV-3626";"";"";"";""
"6048297015";"56.966771";"21.9659618";"charging_station";"";"Latvia";"Kuldigas Rajons";"N/A";"N/A";"";"";"";"";"";"";"";"";"";"";"";"";"";"9";"Dzirnavu iela";"LV-3301";"";"";"24/7";"yes"
"7613547361";"57.0328701";"22.7807087";"charging_station";"";"Latvia";"Kandava";"N/A";"N/A";"";"";"";"";"";"";"";"";"";"";"";"";"";"3A";"Kūrorta iela";"LV-3120";"";"";"24/7";"yes"
"8519086682";"56.9230199";"22.5607621";"charging_station";"";"Latvia";"Talsu Rajons";"N/A";"N/A";"";"";"";"";"";"";"";"";"";"";"";"";"0082";"2A";"Draudzības iela";"LV-3131";"";"";"";""
"12506801571";"56.6856705";"22.462352";"charging_station";"";"Latvia";"Saldus Rajons";"N/A";"N/A";"";"22, 47";"";"";"Enefit Volt";"";"";"";"";"";"";"";"";"";"";"LV-3862";"Enefit Volt";"0.29 EUR/kWh, 0.32 EUR/kWh";"";"yes"
"7613547362";"56.9500846";"23.1184417";"charging_station";"";"Latvia";"Tukuma Rajons";"N/A";"N/A";"";"";"";"";"";"";"";"";"";"";"";"";"";"67";"Kuldīgas iela";"LV-3104";"";"";"24/7";"yes"
"12411822764";"56.967026";"23.1578174";"charging_station";"";"Latvia";"Tukuma Rajons";"N/A";"N/A";"";"120";"";"";"Eleport";"Q107394758";"";"";"";"";"";"";"";"14";"Pasta iela";"LV-3101";"";"";"";""
"5890727157";"56.9764966";"24.1646935";"charging_station";"";"Latvia";"Riga";"N/A";"N/A";"";"8";"";"";"";"";"";"";"";"";"";"";"";"76";"Gustava Zemgala gatve";"LV-1039";"";"";"";""
"5981179008";"56.9319248";"24.0381068";"charging_station";"";"Latvia";"Marupe";"N/A";"N/A";"";"2";"";"";"SIA ""EMI Electronics""";"";"";"";"";"";"";"";"";"13";"Jaunmoku iela";"LV-1046";"Eleport";"";"";""
"6583959106";"56.7997147";"23.987836";"charging_station";"";"Latvia";"Olaine";"N/A";"N/A";"";"3";"";"";"CSDD";"Q27055983";"";"";"";"";"";"";"";"2";"Meža iela";"LV-2127";"";"";"";""
"6584127305";"56.9613282";"24.1060841";"charging_station";"";"Latvia";"Riga";"N/A";"N/A";"";"2";"";"";"Elektrum";"";"";"";"";"";"";"";"";"";"";"";"";"";"";"yes"
"6616182550";"56.9391214";"24.001153";"charging_station";"";"Latvia";"Marupe";"N/A";"N/A";"";"1";"";"";"CSDD";"Q27055983";"";"";"";"";"";"";"";"122";"Kārļa Ulmaņa gatve";"LV-1029";"";"";"";"yes"
"6697062218";"56.9258711";"24.1747104";"charging_station";"";"Latvia";"Riga";"N/A";"N/A";"";"4";"";"";"";"";"";"";"";"";"";"";"";"257";"Latgales iela";"LV-1019";"";"";"";""
"6697062219";"56.9054873";"24.1924165";"charging_station";"";"Latvia";"Kekava";"N/A";"N/A";"";"1";"";"";"lgvnetwork.lv";"";"";"";"";"";"";"";"";"357";"Latgales iela";"LV-1063";"";"";"";"no"
"6697080469";"56.931835";"24.1508313";"charging_station";"";"Latvia";"Riga";"N/A";"N/A";"";"2";"";"";"Mollers Krasta";"";"";"";"";"";"";"";"";"54";"Krasta iela";"LV-1003";"Elektrum Drive";"";"";"yes"
"6697097831";"56.9556701";"24.2306275";"charging_station";"";"Latvia";"Stopini";"N/A";"N/A";"";"1";"";"";"SIA ENERGOLUKSS. Access: Plugsurfing App";"";"";"";"";"";"";"";"";"46 k-1";"Ulbrokas iela";"LV-1021";"";"";"";""
"6697097832";"56.9661672";"24.2327304";"charging_station";"";"Latvia";"Stopini";"N/A";"N/A";"";"2";"";"";"CSDD";"";"";"";"";"";"";"";"";"16";"Sergeja Eizenšteina iela";"LV-1079";"";"";"";"no"
"6697106658";"57.0053164";"24.2922986";"charging_station";"";"Latvia";"Riga";"N/A";"N/A";"";"1";"";"";"CSDD";"";"";"";"";"";"";"";"";"";"";"";"";"";"";""
"6697107374";"56.9383327";"24.1818875";"charging_station";"";"Latvia";"Riga";"N/A";"N/A";"";"2";"";"";"Inchcape";"";"";"";"";"";"";"";"";"";"";"";"";"";"";""
"6771162460";"56.95327";"24.2549451";"charging_station";"";"Latvia";"Stopini";"N/A";"N/A";"";"4";"";"";"";"";"";"";"";"";"";"";"";"2";"Biķeru iela";"LV-1079";"";"";"";"yes"
"6783211514";"56.9412543";"24.0935943";"charging_station";"";"Latvia";"Riga";"N/A";"N/A";"";"3";"";"";"Elektrum";"";"";"";"";"2";"";"";"";"7";"Uzvaras bulvāris";"LV-1048";"";"";"";"yes"
"7051223135";"56.9887998";"24.232399";"charging_station";"";"Latvia";"Riga";"N/A";"N/A";"";"2";"";"";"e-motion.lv";"";"";"";"";"";"";"";"";"401";"Brīvības gatve";"LV-1024";"";"0,40 €/kWh, 1,- €/h";"";"yes"
"7059999965";"56.9152212";"24.1129471";"charging_station";"";"Latvia";"Riga";"N/A";"N/A";"";"2";"";"";"CSDD";"";"";"";"";"1";"";"";"";"86";"Bauskas iela";"LV-1004";"";"";"";"yes"
"7175533114";"56.9933482";"24.1623111";"charging_station";"";"Latvia";"Riga";"N/A";"N/A";"";"2";"";"";"";"";"";"";"";"2";"";"";"";"1";"Ķelnes iela";"LV-1014";"";"";"";""
"7670538782";"56.8808243";"24.1487454";"charging_station";"";"Latvia";"Kekava";"N/A";"N/A";"";"1";"";"";"";"";"";"";"";"1";"";"";"";"1A";"Uzvaras prospekts";"LV-2128";"";"";"";"no"
"7670661263";"56.8772776";"24.118918";"charging_station";"";"Latvia";"Kekava";"N/A";"N/A";"";"2";"";"";"";"";"";"";"";"1";"";"";"";"4";"Skolas iela";"LV-2112";"";"0.15 EUR/minute";"";"yes"
"7843182858";"56.9472808";"24.1078497";"charging_station";"";"Latvia";"Riga";"N/A";"N/A";"";"2";"";"";"";"";"";"";"";"";"";"";"";"";"";"";"";"";"";""
"8281723226";"56.9119829";"24.086011";"charging_station";"";"Latvia";"Marupe";"N/A";"N/A";"";"2";"";"";"KRASO SIA";"";"";"";"";"";"";"";"";"93";"Vienības gatve";"LV-1058";"";"";"";""
"8894583793";"56.9347576";"24.1355359";"charging_station";"";"Latvia";"Riga";"N/A";"N/A";"";"1";"";"";"";"";"";"";"";"1";"";"";"";"5";"Krasta iela";"LV-1003";"";"";"";"no"
"9174340321";"57.0691591";"24.3174515";"charging_station";"";"Latvia";"Adazi";"N/A";"N/A";"";"6";"";"";"Ionity";"Q42717773";"";"";"";"";"";"";"";"1";"Vidlauku iela";"LV-2164";"Ionity";"";"24/7";"yes"
"9265129526";"56.953021";"24.172703";"charging_station";"";"Latvia";"Riga";"N/A";"N/A";"";"";"";"";"";"";"";"";"";"";"";"";"";"26A";"Nīcgales iela";"LV-1035";"";"";"";""
"9265129527";"56.9529852";"24.1726891";"charging_station";"";"Latvia";"Riga";"N/A";"N/A";"";"";"";"";"";"";"";"";"";"";"";"";"";"26A";"Nīcgales iela";"LV-1035";"";"";"";""
"9265129528";"56.9529728";"24.1726326";"charging_station";"";"Latvia";"Riga";"N/A";"N/A";"";"";"";"";"";"";"";"";"";"";"";"";"";"26A";"Nīcgales iela";"LV-1035";"";"";"";""
"9265129534";"56.9529055";"24.159785";"charging_station";"";"Latvia";"Riga";"N/A";"N/A";"";"2";"";"";"";"";"";"";"";"";"";"";"";"1";"Augšiela";"LV-1009";"";"";"";""
"9442474436";"57.0357369";"24.1130662";"charging_station";"";"Latvia";"Riga";"N/A";"N/A";"";"2";"";"";"CSDD";"";"";"";"";"";"";"";"";"2C";"Vecāķu prospekts";"LV-1015";"";"";"";"yes"
"9712369858";"56.9650559";"24.104059";"charging_station";"";"Latvia";"Riga";"N/A";"N/A";"";"2";"";"";"CSDD";"Q27055983";"";"";"";"";"";"";"";"33A";"Pulkveža Brieža iela";"LV-1045";"e-mobi";"";"";"yes"
"9955147518";"57.0708365";"24.3204558";"charging_station";"";"Latvia";"Adazi";"N/A";"N/A";"";"";"";"";"";"";"";"";"";"";"";"";"";"5";"Rīgas gatve";"LV-2164";"";"";"";""
"9969969766";"56.9666086";"24.1420811";"charging_station";"";"Latvia";"Riga";"N/A";"N/A";"";"";"";"";"";"";"";"";"";"";"";"";"";"31";"Cēsu iela";"LV-1012";"";"";"";""
"9992706837";"56.9644056";"24.1877387";"charging_station";"";"Latvia";"Riga";"N/A";"N/A";"";"2";"";"";"";"";"";"";"";"";"";"";"";"11";"Žagatu iela";"LV-1084";"";"";"";""
"9992706838";"56.9644472";"24.1877726";"charging_station";"";"Latvia";"Riga";"N/A";"N/A";"";"2";"";"";"";"";"";"";"";"";"";"";"";"11";"Žagatu iela";"LV-1084";"";"";"";""
"10055850601";"56.9557653";"23.9984473";"charging_station";"";"Latvia";"Marupe";"N/A";"N/A";"";"2";"";"";"Elektrum";"";"";"";"";"";"";"";"";"1";"Tālavas gatve";"LV-1029";"";"";"";""
"10118165486";"56.9709819";"24.2320422";"charging_station";"";"Latvia";"Stopini";"N/A";"N/A";"";"1";"";"";"";"";"";"";"";"";"";"";"";"30A";"Druvienas iela";"LV-1079";"";"";"";""
"10118429507";"56.9243023";"24.1768207";"charging_station";"";"Latvia";"Riga";"N/A";"N/A";"";"4";"";"";"Tesla, Inc.";"Q478214";"";"";"";"";"";"";"";"257";"Latgales iela";"LV-1019";"Tesla Supercharger";"";"";""
"10118506319";"57.0787021";"24.3176155";"charging_station";"";"Latvia";"Adazi";"N/A";"N/A";"";"3";"";"";"CSDD";"Q27055983";"";"";"";"";"";"";"";"45";"Rīgas gatve";"LV-2164";"";"";"";""
"10143247200";"56.9709679";"24.2319711";"charging_station";"";"Latvia";"Stopini";"N/A";"N/A";"";"1";"";"";"";"";"";"";"";"";"";"";"";"30A";"Druvienas iela";"LV-1079";"";"";"";""
"10159251944";"56.9517158";"24.0343193";"charging_station";"";"Latvia";"Marupe";"N/A";"N/A";"";"";"";"";"";"";"";"";"";"";"";"";"";"46B";"Jūrmalas gatve";"LV-1083";"";"";"";""
"10646883063";"56.9507584";"24.1871464";"charging_station";"";"Latvia";"Riga";"N/A";"N/A";"";"";"";"";"";"";"";"";"";"";"";"";"";"10";"Gunāra Astras iela";"LV-1082";"";"";"";""
"10811923824";"56.9364498";"24.0976907";"charging_station";"";"Latvia";"Riga";"N/A";"N/A";"";"2";"";"";"";"";"";"";"";"";"";"";"";"1";"Jelgavas iela";"LV-1004";"";"";"";""
"10880517719";"56.9442045";"24.0040245";"charging_station";"";"Latvia";"Marupe";"N/A";"N/A";"";"2";"";"yes";"Elektrum";"";"";"";"";"2";"";"";"";"4";"Imantas 18. līnija";"LV-1029";"";"";"24/7";"yes"
"10931360032";"56.9510219";"24.0793563";"charging_station";"";"Latvia";"Riga";"N/A";"N/A";"";"1";"";"";"";"";"";"";"";"";"";"";"";"6";"Ķīpsalas iela";"LV-1048";"";"";"";""
"10931360033";"56.9509274";"24.0794069";"charging_station";"";"Latvia";"Riga";"N/A";"N/A";"";"1";"";"";"";"";"";"";"";"";"";"";"";"6";"Ķīpsalas iela";"LV-1048";"";"";"";""
"10931360036";"56.9510672";"24.0786953";"charging_station";"";"Latvia";"Riga";"N/A";"N/A";"";"";"";"";"";"";"";"";"";"";"";"";"";"";"";"";"";"";"";""
"11081122587";"57.0388412";"24.1014976";"charging_station";"";"Latvia";"Riga";"N/A";"N/A";"";"";"";"";"";"";"";"";"";"";"";"";"";"4A";"Kalngales iela";"LV-1015";"";"";"";""
"11081122588";"57.0388481";"24.1015611";"charging_station";"";"Latvia";"Riga";"N/A";"N/A";"";"";"";"";"";"";"";"";"";"";"";"";"";"4A";"Kalngales iela";"LV-1015";"";"";"";""
"11081122589";"57.0388338";"24.1015862";"charging_station";"";"Latvia";"Riga";"N/A";"N/A";"";"";"";"";"";"";"";"";"";"";"";"";"";"4A";"Kalngales iela";"LV-1015";"";"";"";""
"11091482891";"56.9812197";"24.1844212";"charging_station";"";"Latvia";"Riga";"N/A";"N/A";"";"";"";"";"";"";"";"";"";"";"";"";"260147";"63";"Ropažu iela";"LV-1006";"";"";"";""
"11115555105";"56.9784136";"24.1820391";"charging_station";"";"Latvia";"Riga";"N/A";"N/A";"";"2";"";"";"CSDD";"Q27055983";"";"";"";"";"";"";"";"255";"Brīvības gatve";"LV-1006";"";"";"";""
"11128596358";"57.0708005";"24.3208316";"charging_station";"";"Latvia";"Adazi";"N/A";"N/A";"";"";"";"";"Energolukss";"";"";"";"";"";"";"";"";"5";"Rīgas gatve";"LV-2164";"";"";"";""
"11178317973";"56.9525486";"24.1002195";"charging_station";"";"Latvia";"Riga";"N/A";"N/A";"";"2";"";"";"";"";"";"";"";"";"";"";"";"4";"Muitas iela";"LV-1010";"";"";"";"yes"
"11230809016";"56.9825889";"24.1999273";"charging_station";"";"Latvia";"Riga";"N/A";"N/A";"";"";"";"";"";"";"";"";"";"";"";"";"";"366";"Brīvības gatve";"LV-1006";"";"";"";""
"11230809019";"56.9827627";"24.2001684";"charging_station";"";"Latvia";"Riga";"N/A";"N/A";"";"";"";"";"";"";"";"";"";"";"";"";"";"366";"Brīvības gatve";"LV-1006";"";"";"";""
"11230809031";"56.9828795";"24.1999914";"charging_station";"";"Latvia";"Riga";"N/A";"N/A";"";"";"";"";"";"";"";"";"";"";"";"";"";"366";"Brīvības gatve";"LV-1006";"";"";"";""
"11230845138";"56.9826919";"24.1998393";"charging_station";"";"Latvia";"Riga";"N/A";"N/A";"";"";"";"";"";"";"";"";"";"";"";"";"";"366";"Brīvības gatve";"LV-1006";"";"";"";""
"11295897782";"56.9888233";"24.2326123";"charging_station";"";"Latvia";"Riga";"N/A";"N/A";"";"1";"";"";"";"";"";"";"";"";"";"";"";"403";"Brīvības gatve";"LV-1024";"";"";"";""
"11359113761";"56.9953144";"24.1293045";"charging_station";"";"Latvia";"Riga";"N/A";"N/A";"";"";"";"";"Bolt";"";"";"";"";"";"";"";"";"30";"Tilta iela";"LV-1005";"";"";"";""
"11409752514";"56.9157351";"24.1800633";"charging_station";"";"Latvia";"Kekava";"N/A";"N/A";"";"";"";"";"";"";"";"";"";"";"";"";"";"1";"Prūšu iela";"LV-1057";"";"";"";""
"11584893511";"56.9115427";"24.1092654";"charging_station";"";"Latvia";"Riga";"N/A";"N/A";"";"1";"";"";"ChargePoint";"Q5176149";"";"";"";"";"";"";"";"43A";"Kartupeļu iela";"LV-1058";"ChargePoint";"";"";""
"11584893512";"56.9115579";"24.1093133";"charging_station";"";"Latvia";"Riga";"N/A";"N/A";"";"1";"";"";"ChargePoint";"Q5176149";"";"";"";"";"";"";"";"43A";"Kartupeļu iela";"LV-1058";"ChargePoint";"";"";""
"11584896241";"56.9089284";"24.0807989";"charging_station";"";"Latvia";"Marupe";"N/A";"N/A";"";"";"";"";"ChargePoint";"Q5176149";"";"";"";"";"";"";"";"109";"Vienības gatve";"LV-1058";"ChargePoint";"";"";""
"11584896242";"56.9089514";"24.0808172";"charging_station";"";"Latvia";"Marupe";"N/A";"N/A";"";"";"";"";"ChargePoint";"Q5176149";"";"";"";"";"";"";"";"109";"Vienības gatve";"LV-1058";"ChargePoint";"";"";""
"11584896243";"56.9089727";"24.0808323";"charging_station";"";"Latvia";"Marupe";"N/A";"N/A";"";"";"";"";"ChargePoint";"Q5176149";"";"";"";"";"";"";"";"109";"Vienības gatve";"LV-1058";"ChargePoint";"";"";""
"11584896244";"56.9089932";"24.0808467";"charging_station";"";"Latvia";"Marupe";"N/A";"N/A";"";"";"";"";"ChargePoint";"Q5176149";"";"";"";"";"";"";"";"109";"Vienības gatve";"LV-1058";"ChargePoint";"";"";""
"11632259981";"56.9866171";"24.3014807";"charging_station";"";"Latvia";"Riga";"N/A";"N/A";"";"";"";"yes";"";"";"";"";"";"";"";"";"";"";"";"";"";"";"";"yes"
"11645658020";"56.9425";"24.0676756";"charging_station";"";"Latvia";"Riga";"N/A";"N/A";"";"2";"";"";"Lidl";"Q151954";"";"";"";"";"";"";"";"38";"Kalnciema iela";"LV-1083";"";"";"";""
"11810328891";"56.9585998";"24.1340494";"charging_station";"";"Latvia";"Riga";"N/A";"N/A";"";"";"";"";"Europark";"";"";"";"";"";"";"";"";"4";"Lielgabalu iela";"LV-1001";"";"";"";"yes"
"11811935868";"56.9913941";"24.1684148";"charging_station";"";"Latvia";"Riga";"N/A";"N/A";"";"4";"";"";"Ignitis";"";"";"";"";"";"";"";"";"";"";"";"";"";"";"yes"
"11813506091";"56.9433938";"24.1653015";"charging_station";"";"Latvia";"Riga";"N/A";"N/A";"";"2";"";"";"";"";"";"";"";"";"";"";"";"35";"Vestienas iela";"LV-1035";"";"";"";""
"11817126076";"56.9117514";"24.0861709";"charging_station";"";"Latvia";"Marupe";"N/A";"N/A";"";"2";"";"";"Eleport";"Q107394758";"";"";"";"";"";"";"";"95";"Vienības gatve";"LV-1058";"";"";"";""
"11817126077";"56.9116971";"24.0861584";"charging_station";"";"Latvia";"Marupe";"N/A";"N/A";"";"2";"";"";"Eleport";"Q107394758";"";"";"";"";"";"";"";"95";"Vienības gatve";"LV-1058";"";"";"";""
"11866164383";"56.9501418";"23.9619867";"charging_station";"";"Latvia";"Babite";"N/A";"N/A";"";"";"";"";"";"";"";"";"";"";"";"";"";"";"";"";"";"";"";""
"11874448158";"56.951099";"24.2535829";"charging_station";"";"Latvia";"Stopini";"N/A";"N/A";"";"2";"";"";"ChargePoint";"Q5176149";"";"";"";"";"";"";"";"4";"Biķeru iela";"LV-1079";"ChargePoint";"";"";""
"11874455661";"56.9511301";"24.2533209";"charging_station";"";"Latvia";"Stopini";"N/A";"N/A";"";"2";"";"";"ChargePoint";"Q5176149";"";"";"";"";"";"";"";"4";"Biķeru iela";"LV-1079";"ChargePoint";"";"";""
"11874457486";"56.951117";"24.2534495";"charging_station";"";"Latvia";"Stopini";"N/A";"N/A";"";"2";"";"";"ChargePoint";"Q5176149";"";"";"";"";"";"";"";"4";"Biķeru iela";"LV-1079";"ChargePoint";"";"";""
"11937870873";"56.9452565";"24.2077087";"charging_station";"";"Latvia";"Stopini";"N/A";"N/A";"";"";"";"";"Bolt";"";"";"";"";"";"";"";"";"30";"Andreja Saharova iela";"LV-1021";"";"";"";""
"11949658694";"56.9348354";"24.1446119";"charging_station";"";"Latvia";"Riga";"N/A";"N/A";"";"2";"";"";"Energolukss";"";"";"";"";"";"";"";"";"46";"Krasta iela";"LV-1003";"";"";"";"yes"
"11958934799";"56.987518";"24.2270907";"charging_station";"";"Latvia";"Riga";"N/A";"N/A";"";"";"";"";"Eleport";"";"";"";"";"";"";"";"260197;260196";"402C";"Brīvības gatve";"LV-1024";"";"";"";""
"11968404927";"56.9283077";"24.1031437";"charging_station";"";"Latvia";"Riga";"N/A";"N/A";"";"";"";"";"";"";"";"";"";"";"";"";"";"71";"Mūkusalas iela";"LV-1004";"";"";"";""
"11968412965";"56.9283381";"24.1029683";"charging_station";"";"Latvia";"Riga";"N/A";"N/A";"";"";"";"";"";"";"";"";"";"";"";"";"";"71";"Mūkusalas iela";"LV-1004";"";"";"";""
"11968430492";"56.9282811";"24.1032582";"charging_station";"";"Latvia";"Riga";"N/A";"N/A";"";"";"";"";"";"";"";"";"";"";"";"";"";"71";"Mūkusalas iela";"LV-1004";"";"";"";""
"11968438810";"56.9283239";"24.1030655";"charging_station";"";"Latvia";"Riga";"N/A";"N/A";"";"";"";"";"";"";"";"";"";"";"";"";"";"71";"Mūkusalas iela";"LV-1004";"";"";"";""
"12066298578";"56.9409798";"24.1382076";"charging_station";"";"Latvia";"Riga";"N/A";"N/A";"";"2";"";"";"Ignitis";"";"";"";"";"";"";"";"";"4";"Katoļu iela";"LV-1003";"";"";"";""
"12066298579";"56.9409394";"24.1380095";"charging_station";"";"Latvia";"Riga";"N/A";"N/A";"";"2";"";"";"Ignitis";"";"";"";"";"";"";"";"";"4";"Katoļu iela";"LV-1003";"";"";"";""
"12079939035";"56.9214056";"24.1695874";"charging_station";"";"Latvia";"Kekava";"N/A";"N/A";"";"2";"";"";"Enefit";"";"";"";"";"";"";"";"";"240";"Latgales iela";"LV-1063";"Volt";"";"";""
"12104159869";"56.9105943";"24.1785763";"charging_station";"";"Latvia";"Kekava";"N/A";"N/A";"";"2";"";"";"";"";"";"";"";"";"";"";"";"256B";"Latgales iela";"LV-1063";"Eleport";"";"";"yes"
"12133419646";"56.9166803";"24.0870199";"charging_station";"";"Latvia";"Riga";"N/A";"N/A";"";"2";"";"";"ignitis";"";"";"";"";"";"";"";"";"77";"Vienības gatve";"LV-1004";"";"";"";""
"12133741247";"56.9781795";"24.1365702";"charging_station";"";"Latvia";"Riga";"N/A";"N/A";"";"";"";"";"";"";"";"";"";"";"";"";"";"6";"Duntes iela";"LV-1013";"";"";"";""
"12344083615";"56.9370701";"24.0490319";"charging_station";"";"Latvia";"Marupe";"N/A";"N/A";"";"";"";"";"";"";"";"";"";"";"";"";"";"1";"Lielirbes iela";"LV-1046";"";"";"";""
"12356488998";"56.9097283";"24.0849673";"charging_station";"";"Latvia";"Marupe";"N/A";"N/A";"";"";"";"";"";"";"";"";"";"";"";"";"";"103";"Vienības gatve";"LV-1058";"";"";"";""
"12356493242";"56.909999";"24.0865732";"charging_station";"";"Latvia";"Marupe";"N/A";"N/A";"";"";"";"";"";"";"";"";"";"";"";"";"";"144";"Vienības gatve";"LV-1058";"";"";"";""
"12377367356";"56.9122088";"24.0673536";"charging_station";"";"Latvia";"Marupe";"N/A";"N/A";"";"";"";"";"";"";"";"";"";"";"";"";"";"62";"Tēriņu iela";"LV-1058";"";"";"";""
"12415464218";"56.9241038";"23.9830023";"charging_station";"";"Latvia";"Marupe";"N/A";"N/A";"";"";"";"";"";"";"";"";"";"";"";"";"";"";"";"";"";"";"";""
"12419546726";"56.9263366";"24.1023643";"charging_station";"";"Latvia";"Riga";"N/A";"N/A";"";"";"";"";"Bolt";"";"";"";"";"";"";"";"";"71";"Mūkusalas iela";"LV-1004";"";"";"";""
"12421246764";"56.9949445";"24.130267";"charging_station";"";"Latvia";"Riga";"N/A";"N/A";"";"2";"";"";"Eleport";"Q107394758";"";"";"";"";"";"";"";"32";"Tilta iela";"LV-1005";"";"";"";"yes"
"12422882456";"56.9642923";"24.1199473";"charging_station";"";"Latvia";"Riga";"N/A";"N/A";"";"";"";"";"Bolt";"";"";"";"";"";"";"";"";"1";"Grostonas iela";"LV-1013";"";"";"";""
"12469594755";"56.9918327";"24.123618";"charging_station";"";"Latvia";"Riga";"N/A";"N/A";"";"2";"";"";"";"";"";"";"";"";"";"";"";"25";"Duntes iela";"LV-1005";"";"";"";""
"12492356520";"56.9213567";"24.1696419";"charging_station";"";"Latvia";"Kekava";"N/A";"N/A";"";"2";"";"";"Enefit";"";"";"";"";"";"";"";"";"240";"Latgales iela";"LV-1063";"Volt";"";"";""
"12492356521";"56.9213398";"24.1696971";"charging_station";"";"Latvia";"Kekava";"N/A";"N/A";"";"2";"";"";"Enefit";"";"";"";"";"";"";"";"";"240";"Latgales iela";"LV-1063";"Volt";"";"";""
"12492549130";"56.930169";"24.1544772";"charging_station";"";"Latvia";"Riga";"N/A";"N/A";"";"2";"";"";"Elektrum";"Q124728932";"";"";"";"";"";"";"";"68";"Krasta iela";"LV-1019";"Elektrum Drive";"";"";"yes"
"12504915859";"56.7759709";"24.4048089";"charging_station";"";"Latvia";"Baldone";"N/A";"N/A";"";"";"";"";"";"";"";"";"";"";"";"";"";"";"";"LV-2125";"Enefit";"";"";""
"12514203890";"56.932404";"24.1493619";"charging_station";"";"Latvia";"Riga";"N/A";"N/A";"";"2";"";"";"Porsche";"Q40993";"";"";"";"";"";"";"";"54";"Krasta iela";"LV-1003";"";"";"";""
"12514203891";"56.9323703";"24.1494575";"charging_station";"";"Latvia";"Riga";"N/A";"N/A";"";"2";"";"";"Porsche";"Q40993";"";"";"";"";"";"";"";"54";"Krasta iela";"LV-1003";"";"";"";""
"12514230081";"56.9349773";"24.1355536";"charging_station";"";"Latvia";"Riga";"N/A";"N/A";"";"1";"";"";"";"";"";"";"";"";"";"";"";"5";"Krasta iela";"LV-1003";"";"";"";""
"12556315976";"56.921963";"24.2094763";"charging_station";"";"Latvia";"Stopini";"N/A";"N/A";"";"1";"";"";"Inovat";"";"";"";"";"";"";"";"";"28";"Rencēnu iela";"LV-1073";"";"";"";""
"12630266739";"56.9290657";"24.1067413";"charging_station";"";"Latvia";"Riga";"N/A";"N/A";"";"2";"";"";"elelevi";"";"";"";"";"2";"";"";"";"59A";"Mūkusalas iela";"LV-1004";"Elelevi";"0.29";"";"yes"
"12718207453";"56.9431058";"24.2890893";"charging_station";"";"Latvia";"Stopini";"N/A";"N/A";"";"";"";"";"";"";"";"";"";"";"";"";"";"3";"Institūta iela";"LV-2130";"";"";"";""
"12718207454";"56.9430721";"24.2891831";"charging_station";"";"Latvia";"Stopini";"N/A";"N/A";"";"";"";"";"";"";"";"";"";"";"";"";"";"3";"Institūta iela";"LV-2130";"";"";"";""
"12734452834";"56.9749985";"24.1752063";"charging_station";"";"Latvia";"Riga";"N/A";"N/A";"";"";"";"";"";"";"";"";"";"";"";"";"";"254";"Brīvības gatve";"LV-1039";"";"";"";""
"12899663916";"56.9160582";"24.1183503";"charging_station";"";"Latvia";"Riga";"N/A";"N/A";"";"";"";"";"";"";"";"";"";"";"";"";"";"93";"Mūkusalas iela";"LV-1004";"";"";"";""
"12899676121";"56.9246703";"24.1106967";"charging_station";"";"Latvia";"Riga";"N/A";"N/A";"";"";"";"";"";"";"";"";"";"";"";"";"";"1";"Lucavsalas iela";"LV-1004";"";"";"";""
"1311600138";"";"";"charging_station";"N/A";"N/A";"N/A";"N/A";"N/A";"";"";"";"";"Bolt";"";"";"";"";"";"";"";"";"";"";"";"";"";"";""
"1342413563";"";"";"charging_station";"N/A";"N/A";"N/A";"N/A";"N/A";"";"10";"";"";"";"";"";"";"";"";"";"";"";"";"";"";"";"";"";""
"1352903109";"";"";"charging_station";"N/A";"N/A";"N/A";"N/A";"N/A";"";"";"";"";"";"";"";"";"";"";"";"";"";"";"";"";"";"";"";""
"1352903204";"";"";"charging_station";"N/A";"N/A";"N/A";"N/A";"N/A";"";"";"";"";"";"";"";"";"";"";"";"";"";"";"";"";"";"";"";""
"1354444612";"";"";"charging_station";"N/A";"N/A";"N/A";"N/A";"N/A";"";"";"";"";"";"";"";"";"";"";"";"";"";"";"";"";"";"";"";""
"1361196963";"";"";"charging_station";"N/A";"N/A";"N/A";"N/A";"N/A";"";"";"";"";"Bolt";"";"";"";"";"";"";"";"";"";"";"";"";"";"";""
"1361197096";"";"";"charging_station";"N/A";"N/A";"N/A";"N/A";"N/A";"";"";"";"";"Bolt";"";"";"";"";"";"";"";"";"";"";"";"";"";"";""
"12140680291";"56.9112628";"24.0857045";"";"";"Latvia";"Marupe";"N/A";"N/A";"";"";"";"";"";"";"";"";"";"";"";"";"";"";"";"";"";"";"";""
"12140680292";"56.9112619";"24.0857159";"";"";"Latvia";"Marupe";"N/A";"N/A";"";"";"";"";"";"";"";"";"";"";"";"";"";"";"";"";"";"";"";""
"12140680293";"56.9111766";"24.0856947";"";"";"Latvia";"Marupe";"N/A";"N/A";"";"";"";"";"";"";"";"";"";"";"";"";"";"";"";"";"";"";"";""
"12140680294";"56.9111775";"24.0856833";"";"";"Latvia";"Marupe";"N/A";"N/A";"";"";"";"";"";"";"";"";"";"";"";"";"";"";"";"";"";"";"";""
"2216140700";"56.924852";"24.1045793";"";"";"Latvia";"Riga";"N/A";"N/A";"";"";"";"";"";"";"";"";"";"";"";"";"";"";"";"";"";"";"";""
"12419546842";"56.9249436";"24.1041806";"";"";"Latvia";"Riga";"N/A";"N/A";"";"";"";"";"";"";"";"";"";"";"";"";"";"";"";"";"";"";"";""
"12419546843";"56.9249772";"24.1042076";"";"";"Latvia";"Riga";"N/A";"N/A";"";"";"";"";"";"";"";"";"";"";"";"";"";"";"";"";"";"";"";""
"12419546845";"56.9249338";"24.1042215";"";"";"Latvia";"Riga";"N/A";"N/A";"";"";"";"";"";"";"";"";"";"";"";"";"";"";"";"";"";"";"";""
"12419546846";"56.9249278";"24.1042478";"";"";"Latvia";"Riga";"N/A";"N/A";"";"";"";"";"";"";"";"";"";"";"";"";"";"";"";"";"";"";"";""
"12419546849";"56.9249101";"24.1043257";"";"";"Latvia";"Riga";"N/A";"N/A";"";"";"";"";"";"";"";"";"";"";"";"";"";"";"";"";"";"";"";""
"12419546850";"56.9249022";"24.104359";"";"";"Latvia";"Riga";"N/A";"N/A";"";"";"";"";"";"";"";"";"";"";"";"";"";"";"";"";"";"";"";""
"12419546852";"56.9248267";"24.1046863";"";"";"Latvia";"Riga";"N/A";"N/A";"";"";"";"";"";"";"";"";"";"";"";"";"";"";"";"";"";"";"";""
"12419546854";"56.9248546";"24.1047491";"";"";"Latvia";"Riga";"N/A";"N/A";"";"";"";"";"";"";"";"";"";"";"";"";"";"";"";"";"";"";"";""
"12419546855";"56.9248186";"24.1047206";"";"";"Latvia";"Riga";"N/A";"N/A";"";"";"";"";"";"";"";"";"";"";"";"";"";"";"";"";"";"";"";""
"12419546856";"56.9248358";"24.1046504";"";"";"Latvia";"Riga";"N/A";"N/A";"";"";"";"";"";"";"";"";"";"";"";"";"";"";"";"";"";"";"";""
"12419546859";"56.9248605";"24.1045395";"";"";"Latvia";"Riga";"N/A";"N/A";"";"";"";"";"";"";"";"";"";"";"";"";"";"";"";"";"";"";"";""
"12419546862";"56.9248775";"24.1044681";"";"";"Latvia";"Riga";"N/A";"N/A";"";"";"";"";"";"";"";"";"";"";"";"";"";"";"";"";"";"";"";""
"12419546864";"56.9248848";"24.1044352";"";"";"Latvia";"Riga";"N/A";"N/A";"";"";"";"";"";"";"";"";"";"";"";"";"";"";"";"";"";"";"";""
"12419835299";"56.9249938";"24.1042228";"";"";"Latvia";"Riga";"N/A";"N/A";"";"";"";"";"";"";"";"";"";"";"";"";"";"";"";"";"";"";"";""
"12419835300";"56.9248679";"24.1047592";"";"";"Latvia";"Riga";"N/A";"N/A";"";"";"";"";"";"";"";"";"";"";"";"";"";"";"";"";"";"";"";""
"12518107327";"56.9418722";"24.1163565";"";"";"Latvia";"Riga";"N/A";"N/A";"";"";"";"";"";"";"";"";"";"";"";"";"";"";"";"";"";"";"";""
"12518107328";"56.9418024";"24.1163163";"";"";"Latvia";"Riga";"N/A";"N/A";"";"";"";"";"";"";"";"";"";"";"";"";"";"";"";"";"";"";"";""
"12534399894";"56.8983472";"24.2046827";"";"";"Latvia";"Kekava";"N/A";"N/A";"";"";"";"";"";"";"";"";"";"";"";"";"";"";"";"";"";"";"";""
"12534399895";"56.8983164";"24.2047571";"";"";"Latvia";"Kekava";"N/A";"N/A";"";"";"";"";"";"";"";"";"";"";"";"";"";"";"";"";"";"";"";""
"12518193295";"56.9273128";"24.1785395";"";"";"Latvia";"Riga";"N/A";"N/A";"";"";"";"";"";"";"";"";"";"";"";"";"";"";"";"";"";"";"";""
"12518193296";"56.9274066";"24.178627";"";"";"Latvia";"Riga";"N/A";"N/A";"";"";"";"";"";"";"";"";"";"";"";"";"";"";"";"";"";"";"";""
"12601248849";"56.9337608";"24.2022589";"";"";"Latvia";"Stopini";"N/A";"N/A";"";"";"";"";"";"";"";"";"";"";"";"";"";"";"";"";"";"";"";""
"12601248850";"56.9337453";"24.2023899";"";"";"Latvia";"Stopini";"N/A";"N/A";"";"";"";"";"";"";"";"";"";"";"";"";"";"";"";"";"";"";"";""
"12601248851";"56.9337529";"24.2022554";"";"";"Latvia";"Stopini";"N/A";"N/A";"";"";"";"";"";"";"";"";"";"";"";"";"";"";"";"";"";"";"";""
"12601248852";"56.9337376";"24.2023874";"";"";"Latvia";"Stopini";"N/A";"N/A";"";"";"";"";"";"";"";"";"";"";"";"";"";"";"";"";"";"";"";""
"12601039309";"56.9370762";"24.2035134";"";"";"Latvia";"Stopini";"N/A";"N/A";"";"";"";"";"";"";"";"";"";"";"";"";"";"";"";"";"";"";"";""
"12601039310";"56.9370596";"24.2036321";"";"";"Latvia";"Stopini";"N/A";"N/A";"";"";"";"";"";"";"";"";"";"";"";"";"";"";"";"";"";"";"";""
"12601039311";"56.9370526";"24.2036288";"";"";"Latvia";"Stopini";"N/A";"N/A";"";"";"";"";"";"";"";"";"";"";"";"";"";"";"";"";"";"";"";""
"12601039312";"56.9370692";"24.2035101";"";"";"Latvia";"Stopini";"N/A";"N/A";"";"";"";"";"";"";"";"";"";"";"";"";"";"";"";"";"";"";"";""
"9027947190";"56.895908";"25.6309354";"charging_station";"";"Latvia";"Ergli";"N/A";"N/A";"";"";"";"";"";"";"";"";"";"";"";"";"";"";"";"";"";"";"";""
"7083064592";"56.8534687";"26.2199393";"charging_station";"";"Latvia";"Madonas Rajons";"N/A";"N/A";"";"2";"";"";"e-mobi";"";"";"";"";"";"";"";"";"";"";"";"";"";"";"yes"
"12800149466";"56.8598241";"26.2279262";"charging_station";"";"Latvia";"Madonas Rajons";"N/A";"N/A";"";"2";"";"";"";"";"";"";"";"";"";"";"";"24";"Rūpniecības iela";"LV-4801";"Ignitis ON";"";"";""
"10118506383";"57.1313817";"27.2680929";"charging_station";"";"Latvia";"Balvu Rajons";"N/A";"N/A";"";"3";"";"";"CSDD";"Q27055983";"";"";"";"";"";"";"";"";"";"";"";"";"";""
"10118506384";"56.848458";"27.0849073";"charging_station";"";"Latvia";"Rugaju";"N/A";"N/A";"";"3";"";"";"CSDD";"Q27055983";"";"";"";"";"";"";"";"25A";"Dārza iela";"LV-4576";"";"";"";""
"10118506390";"56.7794427";"27.6966408";"charging_station";"";"Latvia";"Karsava";"N/A";"N/A";"";"3";"";"";"CSDD";"Q27055983";"";"";"";"";"";"";"";"";"";"LV-5750";"";"";"";""
"7603794000";"57.3942105";"21.562009";"charging_station";"";"Latvia";"Ventspils";"N/A";"N/A";"";"2";"";"";"";"";"";"";"";"";"";"";"";"10";"Platā iela";"LV-3601";"";"";"24/7";"yes"
"11124710349";"57.3860365";"21.5833566";"charging_station";"";"Latvia";"Ventspils";"N/A";"N/A";"";"";"";"";"";"";"";"";"";"";"";"";"";"2";"Rūpniecības iela";"LV-3601";"";"";"";""
"11155997052";"57.3973552";"21.5691192";"charging_station";"";"Latvia";"Ventspils";"N/A";"N/A";"";"4";"";"yes";"";"";"";"";"";"";"";"";"";"12";"Katrīnas iela";"LV-3601";"";"";"24/7";"yes"
"12471124795";"57.3904873";"21.542883";"charging_station";"";"Latvia";"Ventspils";"N/A";"N/A";"";"";"";"";"ChargePoint";"Q5176149";"";"";"";"";"";"";"";"30";"Kapteiņu iela";"LV-3601";"ChargePoint";"";"";""
"5910138890";"57.5094041";"24.7221354";"charging_station";"";"Latvia";"Limbazu Rajons";"N/A";"N/A";"";"2";"";"";"e-mobi.lv";"";"";"";"";"";"";"";"";"7";"Stacijas iela";"LV-4001";"";"";"";""
"5484536878";"57.7517251";"24.3576118";"charging_station";"";"Latvia";"Salacgrivas";"N/A";"N/A";"";"3";"";"";"CSDD";"Q27055983";"";"";"";"";"";"";"";"";"";"";"";"";"";""
"11878375569";"57.7864981";"24.3519039";"charging_station";"";"Latvia";"Salacgrivas";"N/A";"N/A";"";"";"";"";"";"";"";"";"";"";"";"";"";"53";"Pērnavas iela";"LV-4033";"";"";"24/7";""
"6778352502";"58.0624619";"26.4980447";"charging_station";"Elva linn";"Estonia";"Tartu";"N/A";"N/A";"";"";"";"yes";"ELMO";"";"";"";"";"";"";"";"82147";"";"";"";"";"";"24/7";"yes"
"8910336298";"57.7297418";"26.9177853";"charging_station";"Voru linn";"Estonia";"Vorumaa";"N/A";"N/A";"";"1";"";"";"-";"";"";"";"";"";"";"";"";"";"";"";"";"";"";""
"8331243198";"56.6452034";"25.4363756";"charging_station";"";"Latvia";"Koknese";"N/A";"N/A";"";"";"";"";"CSDD";"Q27055983";"";"";"";"";"";"";"";"14A";"1905. gada iela";"LV-5113";"";"";"";""
"2463187068";"56.972009";"23.7891683";"charging_station";"";"Latvia";"Jurmala";"N/A";"N/A";"";"2";"";"";"Elektrum";"";"";"";"";"";"";"";"";"4";"Jomas iela";"LV-2015";"";"";"";""
"6679956258";"56.8423427";"23.5865365";"charging_station";"";"Latvia";"";"N/A";"N/A";"";"";"";"";"CSDD";"";"";"";"";"";"";"";"";"3";"Rīgas iela";"LV-3017";"";"";"24/7";"yes"
"6697080470";"56.9719455";"23.7892183";"charging_station";"";"Latvia";"Jurmala";"N/A";"N/A";"";"1";"";"";"Elektrum";"";"";"";"";"";"";"";"";"4";"Jomas iela";"LV-2015";"";"";"";""
"6697097830";"56.9975757";"23.9008354";"charging_station";"";"Latvia";"Babite";"N/A";"N/A";"";"1";"";"";"Restaurant 36. līnija";"";"";"";"";"";"";"";"";"";"";"";"";"";"";"yes"
"7617699313";"56.9304711";"23.5871007";"charging_station";"";"Latvia";"";"N/A";"N/A";"";"2";"";"";"";"";"";"";"";"";"";"";"";"70";"Ventspils šoseja";"LV-2011";"";"";"24/7";"yes"
"9423374848";"56.9638096";"23.6044875";"charging_station";"";"Latvia";"";"N/A";"N/A";"";"";"";"";"";"";"";"";"";"";"";"";"";"66";"Talsu šoseja";"LV-2016";"";"";"";""
"9423378927";"56.9631154";"23.7258968";"charging_station";"";"Latvia";"Jurmala";"N/A";"N/A";"";"3";"";"";"";"";"";"";"";"";"";"";"";"";"";"";"";"";"";""
"10951652680";"56.9789077";"23.842392";"charging_station";"";"Latvia";"Jurmala";"N/A";"N/A";"";"";"";"";"";"";"";"";"";"";"";"";"";"";"";"";"";"";"";""
"10957889538";"56.9459951";"23.9221427";"charging_station";"";"Latvia";"Babite";"N/A";"N/A";"";"";"";"";"";"";"";"";"";"";"";"";"";"23";"Rīgas iela";"LV-2107";"";"";"";""
"10967633833";"56.9429753";"23.905266";"charging_station";"";"Latvia";"Babite";"N/A";"N/A";"";"2";"";"";"e-mobi";"";"";"";"";"";"";"";"";"1";"Rīgas iela";"LV-2107";"";"";"";""
"11118886605";"56.9826515";"23.85699";"charging_station";"";"Latvia";"Babite";"N/A";"N/A";"";"2";"";"";"";"";"";"";"";"";"";"";"";"36";"Meža prospekts";"LV-2010";"";"";"";""
"5318343260";"56.8145928";"24.6013252";"charging_station";"";"Latvia";"Ogre";"N/A";"N/A";"";"";"";"";"";"";"";"";"";"";"";"";"";"7";"Brīvības iela";"LV-5001";"";"";"";""
"7043248627";"56.7397051";"24.7024651";"charging_station";"";"Latvia";"Kegums";"N/A";"N/A";"";"";"";"";"Elektrum";"";"";"";"";"";"";"";"";"";"";"";"";"";"";"no"
"7682132886";"56.7182293";"24.8137849";"charging_station";"";"Latvia";"Lielvarde";"N/A";"N/A";"";"";"";"";"";"";"";"";"";"";"";"";"";"";"";"";"";"";"";""
"10118506320";"57.1137008";"24.6252496";"charging_station";"";"Latvia";"Seja";"N/A";"N/A";"";"3";"";"";"CSDD";"Q27055983";"";"";"";"";"";"";"";"";"";"LV-2136";"";"";"";""
"10118506321";"57.1557411";"24.8518886";"charging_station";"";"Latvia";"Sigulda";"N/A";"N/A";"";"3";"";"";"CSDD";"Q27055983";"";"";"";"";"";"";"";"10";"Pils iela";"LV-2150";"";"";"";""
"10280120232";"56.8176659";"24.5750492";"charging_station";"";"Latvia";"Ogre";"N/A";"N/A";"";"50";"";"";"e-mobi";"";"";"";"";"";"";"";"";"33";"Rīgas iela";"LV-5001";"";"";"";""
"10973231757";"57.1445231";"24.8594676";"charging_station";"";"Latvia";"Sigulda";"N/A";"N/A";"";"";"";"";"";"";"";"";"";"1";"";"";"";"16";"Vidzemes šoseja";"LV-2150";"Eleport";"";"";""
"11021683352";"57.1440427";"24.8445083";"charging_station";"";"Latvia";"Sigulda";"N/A";"N/A";"";"1";"";"";"";"";"";"";"";"1";"";"";"";"1";"Strēlnieku iela";"LV-2150";"Eleport";"";"";""
"11967765947";"57.1562708";"24.8725768";"charging_station";"";"Latvia";"Sigulda";"N/A";"N/A";"";"";"";"yes";"Elektrum";"";"";"";"";"";"";"";"";"28";"Dārza iela";"LV-2150";"";"";"";"yes"
"11967765948";"57.1561675";"24.8725406";"charging_station";"";"Latvia";"Sigulda";"N/A";"N/A";"";"";"";"yes";"";"";"";"";"";"";"";"";"";"28";"Dārza iela";"LV-2150";"";"";"";"yes"
"12130933988";"56.8578196";"24.5633524";"charging_station";"";"Latvia";"Ogre";"N/A";"N/A";"";"";"";"";"";"";"";"";"";"";"";"";"";"";"";"LV-5015";"";"";"";""
"7613437900";"57.2743456";"22.0194724";"charging_station";"";"Latvia";"Kuldigas Rajons";"N/A";"N/A";"";"";"";"";"";"";"";"";"";"";"";"";"";"";"";"LV-3615";"";"";"24/7";"yes"
"7938039340";"57.5049829";"22.3500874";"charging_station";"";"Latvia";"Dundaga";"N/A";"N/A";"";"2";"";"";"CSDD";"Q27055983";"";"";"";"";"";"";"";"";"";"";"";"";"";""
"8634136602";"57.5060442";"22.3613473";"charging_station";"";"Latvia";"Dundaga";"N/A";"N/A";"";"";"";"";"";"";"";"";"";"";"";"";"";"1";"Parka iela";"LV-3270";"";"";"";""
"12928089807";"57.5105453";"22.3517269";"charging_station";"";"Latvia";"Dundaga";"N/A";"N/A";"";"";"";"";"";"";"";"";"";"";"";"";"";"";"";"";"";"";"";""
"7613437926";"57.2477645";"22.586547";"charging_station";"";"Latvia";"Talsu Rajons";"N/A";"N/A";"";"";"";"";"";"";"";"";"";"";"";"";"";"12";"Kareivju iela";"LV-3201";"";"";"24/7";"yes"
"7613437927";"57.1936056";"22.5770136";"charging_station";"";"Latvia";"Talsu Rajons";"N/A";"N/A";"";"";"";"";"";"";"";"";"";"";"";"";"";"";"";"LV-3258";"";"";"";"yes"
"9927513617";"57.497317";"22.8212087";"charging_station";"";"Latvia";"Rojas";"N/A";"N/A";"";"2";"";"";"CSDD";"Q27055983";"";"";"";"1";"";"";"Roja";"70";"Selgas iela";"LV-3264";"e-mobi";"";"";"yes"
"12258275666";"57.2508632";"22.5790839";"charging_station";"";"Latvia";"Talsu Rajons";"N/A";"N/A";"";"";"";"";"";"";"";"";"";"";"";"";"";"21";"Dundagas iela";"LV-3201";"";"";"";""
"7140875518";"57.4049197";"24.4247774";"charging_station";"";"Latvia";"Saulkrastu";"N/A";"N/A";"";"2";"";"";"e-mobi";"";"";"";"";"";"";"";"";"";"";"LV-4023";"";"";"";""
"9914723023";"57.6219706";"24.3861026";"charging_station";"";"Latvia";"Salacgrivas";"N/A";"N/A";"";"3";"";"";"CSDD";"Q27055983";"";"";"";"";"";"";"";"";"";"";"";"";"";""
"10118506318";"57.2295611";"24.4204881";"charging_station";"";"Latvia";"Saulkrastu";"N/A";"N/A";"";"3";"";"";"CSDD";"Q27055983";"";"";"";"";"";"";"";"";"";"LV-2160";"";"";"";""
"12630628165";"57.2720472";"24.4176131";"charging_station";"";"Latvia";"Saulkrastu";"N/A";"N/A";"";"";"";"yes";"";"";"";"";"";"";"";"";"";"30";"Ainažu iela";"LV-2160";"";"";"";"yes"
"12630628166";"57.2721226";"24.4176158";"charging_station";"";"Latvia";"Saulkrastu";"N/A";"N/A";"";"";"";"yes";"";"";"";"";"";"";"";"";"";"30";"Ainažu iela";"LV-2160";"";"";"";"yes"
"5916532504";"57.1827931";"25.0343697";"charging_station";"";"Latvia";"Ligatne";"N/A";"N/A";"";"3";"";"";"CSDD";"Q27055983";"";"";"";"";"";"";"";"8";"Nītaures iela";"LV-4108";"";"";"";""
"9609597791";"57.5232842";"25.3809581";"charging_station";"";"Latvia";"Koceni";"N/A";"N/A";"";"3";"";"";"CSDD";"Q27055983";"";"";"";"";"";"";"";"3";"Eduarda Lācera iela";"LV-4201";"";"";"";"yes"
"9609597792";"57.5392963";"25.4192701";"charging_station";"";"Latvia";"Valmieras Rajons";"N/A";"N/A";"";"3";"";"";"CSDD";"Q27055983";"";"";"";"";"";"";"";"8A";"Kārļa Baumaņa iela";"LV-4201";"";"";"";""
"9609597793";"57.547354";"25.422678";"charging_station";"";"Latvia";"Valmieras Rajons";"N/A";"N/A";"";"4";"";"";"Elektrum";"";"";"";"";"";"";"";"";"12B";"Raiņa iela";"LV-4201";"";"";"";""
"9821998915";"57.3146374";"25.2807812";"charging_station";"";"Latvia";"Cesu Rajons";"N/A";"N/A";"";"";"";"";"";"";"";"";"";"";"";"";"";"22";"Uzvaras bulvāris";"LV-4101";"";"";"";""
"9886626037";"57.5200652";"25.3404397";"charging_station";"";"Latvia";"Koceni";"N/A";"N/A";"";"2";"";"";"";"";"";"";"";"2";"";"";"";"8";"Alejas iela";"LV-4220";"";"";"";""
"10118429509";"57.5300405";"25.3883231";"charging_station";"";"Latvia";"Valmieras Rajons";"N/A";"N/A";"";"2";"";"";"";"";"";"";"";"";"";"";"";"86A";"Rīgas iela";"LV-4201";"";"";"";""
"6291414996";"57.4239849";"25.9019878";"charging_station";"";"Latvia";"Smiltene";"N/A";"N/A";"";"";"";"";"";"";"";"";"";"";"";"";"";"";"";"";"";"";"";""
"10118429516";"57.627621";"25.6868615";"charging_station";"";"Latvia";"Strenci";"N/A";"N/A";"";"3";"";"";"CSDD";"Q27055983";"";"";"";"";"";"";"";"";"";"";"";"";"";""
"10118506322";"57.2796218";"25.491316";"charging_station";"";"Latvia";"Raunas";"N/A";"N/A";"";"3";"";"";"CSDD";"Q27055983";"";"";"";"";"";"";"";"";"";"LV-4116";"";"";"";""
"6187742886";"57.4560315";"26.3760748";"charging_station";"";"Latvia";"Apes Novads";"N/A";"N/A";"";"";"";"";"";"";"";"";"";"";"";"";"";"";"";"LV-4355";"";"";"";""
"10118506323";"57.3831319";"25.9550374";"charging_station";"";"Latvia";"Smiltene";"N/A";"N/A";"";"3";"";"";"CSDD";"Q27055983";"";"";"";"";"";"";"";"";"";"LV-4729";"";"";"";""
"10118506378";"57.455771";"26.3748175";"charging_station";"";"Latvia";"Apes Novads";"N/A";"N/A";"";"3";"";"";"CSDD";"Q27055983";"";"";"";"";"";"";"";"";"";"";"";"";"";""
"10118506380";"57.5393649";"26.6921774";"charging_station";"";"Latvia";"Apes Novads";"N/A";"N/A";"";"3";"";"";"CSDD";"Q27055983";"";"";"";"";"";"";"";"1B";"Dzirnavu iela";"LV-4337";"";"";"";""
"11023542838";"57.5706247";"26.6611463";"charging_station";"";"Latvia";"Apes Novads";"N/A";"N/A";"";"2";"";"";"Alexela";"";"";"";"";"";"";"";"";"";"";"";"";"";"";""
"8567627794";"57.6410976";"27.3703506";"charging_station";"";"Russian Federation";"Pskov";"N/A";"N/A";"";"";"";"";"Elmo";"";"";"";"";"";"";"";"";"";"";"";"";"";"";""
"10118506381";"57.5694154";"26.9829472";"charging_station";"";"Latvia";"Aluksnes Rajons";"N/A";"N/A";"";"3";"";"";"CSDD";"Q27055983";"";"";"";"";"";"";"";"";"";"";"";"";"";""
"10118506382";"57.4254564";"27.0522966";"charging_station";"";"Latvia";"Aluksnes Rajons";"N/A";"N/A";"";"3";"";"";"CSDD";"Q27055983";"";"";"";"";"";"";"";"";"";"";"";"";"";""
"11472420642";"57.4128945";"27.045484";"charging_station";"";"Latvia";"Aluksnes Rajons";"N/A";"N/A";"";"";"";"no";"";"";"2";"";"";"";"";"";"";"50";"Jāņkalna iela";"LV-4301";"";"";"";""
"6103529573";"57.7508863";"22.5958675";"charging_station";"";"Latvia";"Rojas";"N/A";"N/A";"";"2";"";"";"";"";"";"";"";"2";"";"";"";"";"";"";"";"";"";""
"8018939839";"57.7429095";"22.5849153";"charging_station";"";"Latvia";"Dundaga";"N/A";"N/A";"";"";"";"";"";"";"";"";"";"";"";"";"";"";"";"";"";"";"";""
"9061882456";"57.7658054";"24.8822369";"charging_station";"";"Latvia";"Aloja";"N/A";"N/A";"";"";"";"";"";"";"";"";"";"";"";"";"";"4";"Rīgas iela";"LV-4064";"";"";"";""
"9609707965";"57.7662459";"24.8822016";"charging_station";"";"Latvia";"Aloja";"N/A";"N/A";"";"3";"";"";"CSDD";"Q27055983";"";"";"";"";"";"";"";"2A";"Rīgas iela";"LV-4064";"";"";"";""
"11262575412";"58.074338";"24.5125271";"charging_station";"";"Latvia";"Salacgrivas";"N/A";"N/A";"";"6";"";"";"Ionity";"";"";"";"";"";"";"";"";"";"";"";"Ionity";"";"24/7";"yes"
"11948444399";"58.0743396";"24.5126341";"charging_station";"";"Latvia";"Salacgrivas";"N/A";"N/A";"";"";"";"";"Enefit Volt";"";"";"";"";"";"";"";"CH10254";"";"";"";"Volt";"";"24/7";"yes"
"9609707964";"57.8976711";"25.3229383";"charging_station";"";"Latvia";"Rujienas";"N/A";"N/A";"";"3";"";"";"CSDD";"Q27055983";"";"";"";"";"";"";"";"12";"Brīvības iela";"LV-4240";"";"";"";""
"12179279628";"57.9981483";"25.9315692";"charging_station";"Torva linn";"Estonia";"Valgamaa";"N/A";"N/A";"";"2";"";"";"Circle K";"Q3268010";"";"";"";"";"";"";"";"";"";"";"Circle K";"";"24/7";"yes"
"8895868446";"57.7923204";"26.0404727";"charging_station";"Valga linn";"Estonia";"Valgamaa";"N/A";"N/A";"";"";"";"";"Enefit";"";"";"";"";"";"";"";"";"";"";"";"";"";"24/7";"yes"
"10118506317";"57.7592981";"25.987742";"charging_station";"";"Latvia";"Valkas Rajons";"N/A";"N/A";"";"3";"";"";"CSDD";"Q27055983";"";"";"";"";"";"";"";"80";"Rīgas iela";"LV-4701";"";"";"";""
"12064948349";"58.0019853";"26.3900262";"charging_station";"Antsla vald";"Estonia";"Vorumaa";"N/A";"N/A";"";"";"";"";"";"";"";"";"";"";"";"";"";"";"";"";"";"";"";""
"2541053894";"58.0549795";"27.0562712";"charging_station";"Polva linn";"Estonia";"Polvamaa";"N/A";"N/A";"";"";"";"";"";"";"";"";"";"";"";"";"";"";"";"";"";"";"";""
"3921107522";"57.858277";"26.975958";"charging_station";"Voru linn";"Estonia";"Vorumaa";"N/A";"N/A";"";"";"";"";"";"";"";"";"";"";"";"";"";"";"";"";"";"";"";""
"10259420082";"57.8091128";"26.99755";"charging_station";"Voru linn";"Estonia";"Vorumaa";"N/A";"N/A";"";"1";"";"";"Enefit Volt";"";"";"";"";"";"";"";"";"";"";"";"";"";"";"yes"
