"id";"lat";"lon";"amenity";"city";"state";"country";"scraped_country_code";"scraped_country_name";"authentication:nfc";"capacity";"capacity:car";"motorcar";"operator";"operator:wikidata";"socket:schuko";"socket:schuko:current";"socket:schuko:voltage";"socket:type2";"socket:type2:current";"socket:type2:voltage";"ref";"addr:housenumber";"addr:street";"addr:postcode";"brand";"charge";"opening_hours";"fee"
"9687358926";"8.9623334";"-83.4567179";"charging_station";"";"Costa Rica";"Puntarenas";"N/A";"N/A";"";"";"";"";"";"";"";"";"";"";"";"";"";"";"";"";"";"";"";""
"9687358974";"8.6454246";"-83.1727576";"charging_station";"Canton de Golfito";"Costa Rica";"Puntarenas";"N/A";"N/A";"";"";"";"";"ICE";"";"";"";"";"";"";"";"";"";"";"";"";"";"";""
"9687358975";"8.6377342";"-83.1687698";"charging_station";"Canton de Golfito";"Costa Rica";"Puntarenas";"N/A";"N/A";"";"";"";"";"";"";"";"";"";"";"";"";"";"";"";"";"";"";"";""
"9687358976";"8.6335739";"-83.1619721";"charging_station";"Canton de Golfito";"Costa Rica";"Puntarenas";"N/A";"N/A";"";"";"";"";"";"";"";"";"";"";"";"";"";"";"";"";"";"";"";""
"9687358977";"8.5384577";"-83.3072636";"charging_station";"Canton de Golfito";"Costa Rica";"Puntarenas";"N/A";"N/A";"";"";"";"";"";"";"";"";"";"";"";"";"";"";"";"";"";"";"";""
"10299654512";"8.9624048";"-83.4567114";"charging_station";"";"Costa Rica";"Puntarenas";"N/A";"N/A";"";"";"";"";"";"";"";"";"";"";"";"";"";"";"";"";"";"";"";""
"9687335616";"9.4425971";"-84.1374973";"charging_station";"";"Costa Rica";"Puntarenas";"N/A";"N/A";"";"";"";"";"ICE";"";"";"";"";"";"";"";"";"";"";"";"";"";"";""
"9687358917";"9.426665";"-84.1664558";"charging_station";"";"Costa Rica";"Puntarenas";"N/A";"N/A";"";"";"";"";"";"";"";"";"";"";"";"";"";"";"";"";"";"";"";""
"9687358924";"9.2557862";"-83.8615702";"charging_station";"";"Costa Rica";"San Jose";"N/A";"N/A";"";"";"";"";"ICE";"";"";"";"";"";"";"";"";"";"";"";"";"";"";""
"9687358925";"9.1711577";"-83.7385821";"charging_station";"";"Costa Rica";"San Jose";"N/A";"N/A";"";"";"";"";"ICE";"";"";"";"";"";"";"";"";"";"";"";"";"";"";""
"9687358927";"9.3759516";"-83.7025371";"charging_station";"";"Costa Rica";"San Jose";"N/A";"N/A";"";"";"";"";"ICE";"";"";"";"";"";"";"";"";"";"";"";"";"";"";""
"9687358928";"9.3734492";"-83.7029394";"charging_station";"";"Costa Rica";"San Jose";"N/A";"N/A";"";"";"";"";"";"";"";"";"";"";"";"";"";"";"";"";"";"";"";""
"9687358929";"9.3739596";"-83.7048186";"charging_station";"";"Costa Rica";"San Jose";"N/A";"N/A";"";"";"";"";"ICE";"";"";"";"";"";"";"";"";"";"";"";"";"";"";""
"9687358936";"9.3307883";"-83.6695146";"charging_station";"";"Costa Rica";"San Jose";"N/A";"N/A";"";"";"";"";"";"";"";"";"";"";"";"";"";"";"";"";"";"";"";""
"9690710529";"9.3719978";"-83.7003595";"charging_station";"";"Costa Rica";"San Jose";"N/A";"N/A";"";"";"";"";"";"";"";"";"";"";"";"";"";"";"";"";"";"";"";""
"9687358978";"9.1452388";"-83.330341";"charging_station";"";"Costa Rica";"Puntarenas";"N/A";"N/A";"";"";"";"";"";"";"";"";"";"";"";"";"";"";"";"";"";"";"";""
"9707954247";"9.1465011";"-83.3325133";"charging_station";"";"Costa Rica";"Puntarenas";"N/A";"N/A";"";"";"";"";"";"";"";"";"";"";"";"";"";"";"";"";"";"";"";""
"1304157725";"";"";"charging_station";"N/A";"N/A";"N/A";"N/A";"N/A";"";"";"";"";"Qviva Resorts";"";"";"";"";"";"";"";"";"";"";"";"Qviva Electric Chargin Station";"";"";""
"12077579644";"9.8724748";"-85.5071281";"";"";"Costa Rica";"Guanacaste";"N/A";"N/A";"";"";"";"";"";"";"";"";"";"";"";"";"";"";"";"";"";"";"";""
"12077579645";"9.8724906";"-85.5070859";"";"";"Costa Rica";"Guanacaste";"N/A";"N/A";"";"";"";"";"";"";"";"";"";"";"";"";"";"";"";"";"";"";"";""
"12077579646";"9.8724758";"-85.5070269";"";"";"Costa Rica";"Guanacaste";"N/A";"N/A";"";"";"";"";"";"";"";"";"";"";"";"";"";"";"";"";"";"";"";""
"12077579647";"9.8723761";"-85.5070247";"";"";"Costa Rica";"Guanacaste";"N/A";"N/A";"";"";"";"";"";"";"";"";"";"";"";"";"";"";"";"";"";"";"";""
"12077579648";"9.872372";"-85.5071636";"";"";"Costa Rica";"Guanacaste";"N/A";"N/A";"";"";"";"";"";"";"";"";"";"";"";"";"";"";"";"";"";"";"";""
"12077579649";"9.8724716";"-85.5071666";"";"";"Costa Rica";"Guanacaste";"N/A";"N/A";"";"";"";"";"";"";"";"";"";"";"";"";"";"";"";"";"";"";"";""
"9687335587";"9.9862794";"-84.737643";"charging_station";"Canton Central de Puntarenas";"Costa Rica";"Puntarenas";"N/A";"N/A";"";"";"";"";"";"";"";"";"";"";"";"";"";"";"";"";"";"";"";""
"9687335607";"9.9686051";"-84.7386785";"charging_station";"Canton Central de Puntarenas";"Costa Rica";"Puntarenas";"N/A";"N/A";"";"";"";"";"";"";"";"";"";"";"";"";"";"";"";"";"";"";"";""
"9687335608";"9.9230134";"-84.7134336";"charging_station";"";"Costa Rica";"Puntarenas";"N/A";"N/A";"";"";"";"";"";"";"";"";"";"";"";"";"";"";"";"";"";"";"";""
"9687335609";"9.661243";"-84.6397664";"charging_station";"Canton de Garabito";"Costa Rica";"Puntarenas";"N/A";"N/A";"";"";"";"";"ICE";"";"";"";"";"";"";"";"";"";"";"";"";"";"";""
"9687335614";"9.6181777";"-84.632064";"charging_station";"Canton de Garabito";"Costa Rica";"Puntarenas";"N/A";"N/A";"";"";"";"";"ICE";"";"";"";"";"";"";"";"";"";"";"";"";"";"";""
"9687335615";"9.6112075";"-84.6246871";"charging_station";"Canton de Garabito";"Costa Rica";"Puntarenas";"N/A";"N/A";"";"";"";"";"";"";"";"";"";"";"";"";"";"";"";"";"";"";"";""
"11561027681";"9.8295865";"-84.9033655";"charging_station";"";"Costa Rica";"Puntarenas";"N/A";"N/A";"";"";"";"";"";"";"";"";"";"";"";"";"";"";"";"";"";"";"";""
"5401218156";"9.9851593";"-84.1097605";"charging_station";"";"Costa Rica";"Heredia";"N/A";"N/A";"";"";"";"";"Estación de Recarga";"";"";"";"";"";"";"";"";"";"";"";"";"";"";""
"5401218745";"9.9788027";"-84.1461305";"charging_station";"";"Costa Rica";"Heredia";"N/A";"N/A";"";"";"";"";"Estación de Recarga";"";"";"";"";"";"";"";"";"";"";"";"";"";"";""
"6417120480";"9.9644658";"-84.1204548";"charging_station";"";"Costa Rica";"Heredia";"N/A";"N/A";"";"";"";"";"";"";"";"";"";"";"";"";"";"";"";"";"";"";"";"no"
"6816342334";"9.9518474";"-84.1080032";"charging_station";"";"Costa Rica";"San Jose";"N/A";"N/A";"";"";"";"";"CNFL";"";"";"";"";"";"";"";"";"";"";"";"";"";"";""
"9647552945";"9.9931593";"-84.1207775";"charging_station";"";"Costa Rica";"Heredia";"N/A";"N/A";"";"";"";"";"";"";"";"";"";"";"";"";"";"";"";"";"";"";"";""
"9647552948";"9.9945128";"-84.1303341";"charging_station";"";"Costa Rica";"Heredia";"N/A";"N/A";"";"";"";"";"";"";"";"";"";"";"";"";"";"";"";"";"";"";"";""
"9647569485";"9.9757626";"-84.1515876";"charging_station";"";"Costa Rica";"Heredia";"N/A";"N/A";"";"5";"";"";"";"";"";"";"";"";"";"";"";"";"";"";"";"";"";""
"9687358939";"9.8879951";"-84.5708943";"charging_station";"";"Costa Rica";"Alajuela";"N/A";"N/A";"";"";"";"";"ICE";"";"";"";"";"";"";"";"";"";"";"";"";"";"";""
"9687358940";"9.9129909";"-84.5194248";"charging_station";"";"Costa Rica";"Alajuela";"N/A";"N/A";"";"";"";"";"ICE";"";"";"";"";"";"";"";"";"";"";"";"";"";"";""
"9687358941";"9.9606721";"-84.3599904";"charging_station";"";"Costa Rica";"Alajuela";"N/A";"N/A";"";"";"";"";"ICE";"Q3431114";"";"";"";"";"";"";"";"";"";"";"";"";"";""
"9689060129";"9.9808237";"-84.3799645";"charging_station";"";"Costa Rica";"Alajuela";"N/A";"N/A";"";"";"";"";"ICE";"Q3431114";"";"";"";"";"";"";"";"";"";"";"";"";"";"yes"
"9978907033";"9.9815549";"-84.1598818";"charging_station";"";"Costa Rica";"Heredia";"N/A";"N/A";"";"";"";"";"";"";"";"";"";"";"";"";"";"";"";"";"";"";"";""
"9978907034";"9.9815549";"-84.1598879";"charging_station";"";"Costa Rica";"Heredia";"N/A";"N/A";"";"";"";"";"";"";"";"";"";"";"";"";"";"";"";"";"";"";"";""
"9978907035";"9.981555";"-84.1598942";"charging_station";"";"Costa Rica";"Heredia";"N/A";"N/A";"";"";"";"";"";"";"";"";"";"";"";"";"";"";"";"";"";"";"";""
"9998699955";"9.9802816";"-84.1599768";"charging_station";"";"Costa Rica";"Heredia";"N/A";"N/A";"";"";"";"";"";"";"";"";"";"";"";"";"";"";"";"";"";"";"";""
"9998699956";"9.9802816";"-84.1599621";"charging_station";"";"Costa Rica";"Heredia";"N/A";"N/A";"";"";"";"";"";"";"";"";"";"";"";"";"";"";"";"";"";"";"";""
"10131775267";"9.9520051";"-84.2318511";"charging_station";"";"Costa Rica";"Heredia";"N/A";"N/A";"";"";"";"";"";"";"";"";"";"";"";"";"";"";"";"";"";"";"";""
"10131775268";"9.9520021";"-84.2318682";"charging_station";"";"Costa Rica";"Heredia";"N/A";"N/A";"";"";"";"";"";"";"";"";"";"";"";"";"";"";"";"";"";"";"";""
"10830920791";"9.9398869";"-84.1176959";"charging_station";"";"Costa Rica";"San Jose";"N/A";"N/A";"";"";"";"";"BAC Credomatic";"";"";"";"";"";"";"";"Electroliniera BAC";"";"";"";"";"";"";"no"
"11232829330";"9.9480003";"-84.1093757";"charging_station";"";"Costa Rica";"San Jose";"N/A";"N/A";"";"";"";"";"Holiday Inn San José";"";"";"";"";"";"";"";"Estación de Carga Irazú";"";"";"";"";"";"";"no"
"6816348507";"9.9375113";"-84.0782424";"charging_station";"";"Costa Rica";"San Jose";"N/A";"N/A";"";"";"";"";"CNFL";"";"";"";"";"";"";"";"";"";"";"";"";"";"";""
"8313237540";"9.6162814";"-83.8193541";"charging_station";"";"Costa Rica";"Cartago";"N/A";"N/A";"";"";"";"";"ICE";"";"";"";"";"";"";"";"";"";"";"";"";"";"";"yes"
"8313237542";"9.7514552";"-83.9778863";"charging_station";"";"Costa Rica";"Cartago";"N/A";"N/A";"";"7";"";"";"Coopesantos";"";"";"";"";"";"";"";"";"";"";"";"";"";"";""
"8313237543";"9.6695511";"-84.0269557";"charging_station";"";"Costa Rica";"San Jose";"N/A";"N/A";"";"7";"";"";"Coopesantos";"";"";"";"";"";"";"";"";"";"";"";"";"";"";""
"9217175399";"9.9468493";"-84.0515936";"charging_station";"Canton de Goicoechea";"Costa Rica";"San Jose";"N/A";"N/A";"";"";"";"";"";"";"";"";"";"";"";"";"";"";"";"";"";"";"";""
"9647569464";"9.9945802";"-84.098198";"charging_station";"";"Costa Rica";"Heredia";"N/A";"N/A";"";"";"";"";"";"";"";"";"";"";"";"";"";"";"";"";"";"";"";""
"9688992434";"9.5579555";"-83.7236134";"charging_station";"";"Costa Rica";"San Jose";"N/A";"N/A";"";"";"";"";"";"";"";"";"";"";"";"";"";"";"";"";"";"";"";""
"9688992435";"9.6448632";"-83.9139811";"charging_station";"";"Costa Rica";"San Jose";"N/A";"N/A";"";"";"";"";"";"";"";"";"";"";"";"";"";"";"";"";"";"";"";""
"9688992443";"9.6697175";"-84.025831";"charging_station";"";"Costa Rica";"San Jose";"N/A";"N/A";"";"";"";"";"";"";"";"";"";"";"";"";"";"";"";"";"";"";"";""
"9865330929";"9.9494715";"-84.0296491";"charging_station";"";"Costa Rica";"San Jose";"N/A";"N/A";"";"";"";"";"";"";"";"";"";"";"";"";"";"";"";"";"";"";"";""
"9865330930";"9.9950347";"-84.0372368";"charging_station";"";"Costa Rica";"Heredia";"N/A";"N/A";"";"";"";"";"";"";"";"";"";"";"";"";"";"";"";"";"";"";"";""
"9946400206";"9.8646586";"-83.9203679";"charging_station";"";"Costa Rica";"Cartago";"N/A";"N/A";"";"";"";"";"JASEC";"";"";"";"";"";"";"";"";"";"";"";"";"";"";""
"10087926441";"9.9525175";"-84.0196359";"charging_station";"";"Costa Rica";"San Jose";"N/A";"N/A";"";"";"";"";"";"";"";"";"";"";"";"";"";"";"";"";"";"";"";""
"10566404762";"9.8450427";"-83.9388455";"charging_station";"";"Costa Rica";"Cartago";"N/A";"N/A";"";"";"";"";"JASEC";"";"";"";"";"";"";"";"";"";"";"";"";"";"";""
"10840051900";"9.9352908";"-84.097334";"charging_station";"";"Costa Rica";"San Jose";"N/A";"N/A";"";"";"";"";"";"";"";"";"";"";"";"";"";"";"";"";"";"";"";"yes"
"12952325149";"9.9310255";"-84.0468168";"charging_station";"";"Costa Rica";"San Jose";"N/A";"N/A";"";"1";"";"";"";"";"";"";"";"";"";"";"";"";"";"";"";"";"";""
"12960356713";"9.9318379";"-84.0482007";"charging_station";"";"Costa Rica";"San Jose";"N/A";"N/A";"";"";"";"";"";"";"";"";"";"";"";"";"";"";"";"";"";"";"";""
"9765958396";"9.9900659";"-83.0332993";"charging_station";"";"Costa Rica";"Limon";"N/A";"N/A";"";"";"";"";"";"";"";"";"";"";"";"";"";"";"";"";"";"";"";""
"9654873080";"10.2652894";"-85.0203436";"charging_station";"";"Costa Rica";"Guanacaste";"N/A";"N/A";"";"";"";"";"";"";"";"";"";"";"";"";"";"";"";"";"";"";"";""
"9654873081";"10.2655795";"-85.0205636";"charging_station";"";"Costa Rica";"Guanacaste";"N/A";"N/A";"";"";"";"";"ICE";"";"";"";"";"";"";"";"";"";"";"";"";"";"";""
"9687359031";"10.4915118";"-84.7115558";"charging_station";"";"Costa Rica";"Alajuela";"N/A";"N/A";"";"";"";"";"";"";"";"";"";"";"";"";"";"";"";"";"";"";"";""
"9687359032";"10.4914946";"-84.7221307";"charging_station";"";"Costa Rica";"Alajuela";"N/A";"N/A";"";"";"";"";"";"";"";"";"";"";"";"";"";"";"";"";"";"";"";""
"9687359231";"10.4851673";"-84.6815842";"charging_station";"";"Costa Rica";"Alajuela";"N/A";"N/A";"";"";"";"";"";"";"";"";"";"";"";"";"";"";"";"";"";"";"";""
"9687359235";"10.4696241";"-84.6540735";"charging_station";"";"Costa Rica";"Alajuela";"N/A";"N/A";"";"";"";"";"";"";"";"";"";"";"";"";"";"";"";"";"";"";"";""
"9687359236";"10.4724395";"-84.6440683";"charging_station";"";"Costa Rica";"Alajuela";"N/A";"N/A";"";"";"";"";"";"";"";"";"";"";"";"";"";"";"";"";"";"";"";""
"9687359239";"10.4276354";"-84.7500268";"charging_station";"";"Costa Rica";"Alajuela";"N/A";"N/A";"";"";"";"";"";"";"";"";"";"";"";"";"";"";"";"";"";"";"";""
"11384425691";"10.4715538";"-84.6447572";"charging_station";"";"Costa Rica";"Alajuela";"N/A";"N/A";"";"";"";"no";"";"";"";"";"";"";"";"";"";"";"";"";"";"";"";"no"
"11874890369";"10.3134587";"-84.815987";"charging_station";"";"Costa Rica";"Guanacaste";"N/A";"N/A";"";"";"";"";"";"";"";"";"";"";"";"";"";"";"";"";"";"";"";""
"11879443855";"10.3154976";"-84.8228739";"charging_station";"";"Costa Rica";"Guanacaste";"N/A";"N/A";"";"";"";"";"";"";"";"";"";"";"";"";"";"";"";"";"";"";"";""
"5401217027";"9.9999887";"-84.1344353";"charging_station";"";"Costa Rica";"Heredia";"N/A";"N/A";"";"";"";"";"Estación de Recarga";"";"";"";"";"";"";"";"";"";"Calle 38";"";"";"";"";""
"9508024989";"10.0001756";"-84.1345306";"charging_station";"";"Costa Rica";"Heredia";"N/A";"N/A";"";"";"";"";"Estación de Recarga";"";"";"";"";"";"";"";"";"";"Calle 38";"";"";"";"";""
"9508024990";"10.0001656";"-84.13456";"charging_station";"";"Costa Rica";"Heredia";"N/A";"N/A";"";"";"";"";"Estación de Recarga";"";"";"";"";"";"";"";"";"";"Calle 38";"";"";"";"";""
"9647552905";"10.1581524";"-84.1557061";"charging_station";"";"Costa Rica";"Heredia";"N/A";"N/A";"";"";"";"";"ICE";"";"";"";"";"";"";"";"";"";"";"";"";"";"";""
"9647552906";"10.0129524";"-84.2063901";"charging_station";"";"Costa Rica";"Alajuela";"N/A";"N/A";"";"2";"";"";"";"";"";"";"";"";"";"";"";"";"";"";"";"";"";""
"9647552934";"10.0007951";"-84.1955912";"charging_station";"Canton de Belen";"Costa Rica";"Heredia";"N/A";"N/A";"";"";"";"";"";"";"";"";"";"";"";"";"";"";"";"";"";"";"";""
"9647552935";"10.0058351";"-84.1533722";"charging_station";"";"Costa Rica";"Heredia";"N/A";"N/A";"";"";"";"";"";"";"";"";"";"";"";"";"";"";"";"";"";"";"";""
"9647552944";"10.0015545";"-84.1140452";"charging_station";"";"Costa Rica";"Heredia";"N/A";"N/A";"";"";"";"";"";"";"";"";"";"";"";"";"";"";"";"";"";"";"";""
"9687358965";"10.0987412";"-84.4687058";"charging_station";"";"Costa Rica";"Alajuela";"N/A";"N/A";"";"";"";"";"ICE";"";"";"";"";"";"";"";"";"";"";"";"";"";"";""
"9687358966";"10.0874426";"-84.4697863";"charging_station";"";"Costa Rica";"Alajuela";"N/A";"N/A";"";"";"";"";"";"";"";"";"";"";"";"";"";"";"";"";"";"";"";""
"9687358967";"10.0721431";"-84.3132511";"charging_station";"";"Costa Rica";"Alajuela";"N/A";"N/A";"";"";"";"";"";"";"";"";"";"";"";"";"";"";"";"";"";"";"";""
"9687358992";"10.1571145";"-84.1960363";"charging_station";"";"Costa Rica";"Alajuela";"N/A";"N/A";"";"";"";"";"ICE";"Q3431114";"";"";"";"";"";"";"";"";"";"";"";"";"";""
"9687358993";"10.123709";"-84.2477022";"charging_station";"";"Costa Rica";"Alajuela";"N/A";"N/A";"";"";"";"";"Enerza";"";"";"";"";"";"";"";"";"";"";"";"";"";"";""
"9687358994";"10.0510542";"-84.361829";"charging_station";"";"Costa Rica";"Alajuela";"N/A";"N/A";"";"";"";"";"";"";"";"";"";"";"";"";"";"";"";"";"";"";"";""
"9687359012";"10.0857291";"-84.4698514";"charging_station";"";"Costa Rica";"Alajuela";"N/A";"N/A";"";"";"";"";"";"";"";"";"";"";"";"";"";"";"";"";"";"";"";""
"9687359013";"10.0131542";"-84.2086573";"charging_station";"";"Costa Rica";"Alajuela";"N/A";"N/A";"";"";"";"";"";"";"";"";"";"";"";"";"";"";"";"";"";"";"";""
"9687359014";"10.0130386";"-84.2104979";"charging_station";"";"Costa Rica";"Alajuela";"N/A";"N/A";"";"";"";"";"";"";"";"";"";"";"";"";"";"";"";"";"";"";"";""
"9687359021";"10.0128158";"-84.2229641";"charging_station";"";"Costa Rica";"Alajuela";"N/A";"N/A";"";"";"";"";"";"";"";"";"";"";"";"";"";"";"";"";"";"";"";""
"9687359022";"10.0048189";"-84.2114186";"charging_station";"";"Costa Rica";"Alajuela";"N/A";"N/A";"";"";"";"";"ICE";"Q3431114";"";"";"";"";"";"";"";"";"";"";"";"";"";""
"9687359348";"10.3749982";"-84.3428735";"charging_station";"";"Costa Rica";"Alajuela";"N/A";"N/A";"";"";"";"";"";"";"";"";"";"";"";"";"";"";"";"";"";"";"";""
"9687359349";"10.3971851";"-84.2209613";"charging_station";"";"Costa Rica";"Alajuela";"N/A";"N/A";"";"";"";"";"";"";"";"";"";"";"";"";"";"";"";"";"";"";"";""
"9689060130";"10.2024466";"-84.4849818";"charging_station";"";"Costa Rica";"Alajuela";"N/A";"N/A";"";"";"";"";"";"";"";"";"";"";"";"";"";"";"";"";"";"";"";""
"10069132719";"10.0123894";"-84.2101501";"charging_station";"";"Costa Rica";"Alajuela";"N/A";"N/A";"";"";"";"";"";"";"";"";"";"";"";"";"";"";"";"";"";"";"";""
"10286620717";"10.0215662";"-84.2044224";"charging_station";"";"Costa Rica";"Alajuela";"N/A";"N/A";"";"";"";"";"";"";"";"";"";"";"";"";"";"";"";"";"";"";"";""
"10294315214";"10.0134854";"-84.2109478";"charging_station";"";"Costa Rica";"Alajuela";"N/A";"N/A";"";"";"";"";"";"";"";"";"";"";"";"";"";"";"";"";"";"";"";""
"11052101825";"10.0102201";"-84.225682";"charging_station";"";"Costa Rica";"Alajuela";"N/A";"N/A";"";"";"";"";"";"";"";"";"";"";"";"";"";"";"";"";"";"";"";""
"12749169975";"10.3217894";"-84.2438155";"charging_station";"";"Costa Rica";"Alajuela";"N/A";"N/A";"";"";"";"";"";"";"";"";"";"";"";"";"";"";"";"";"";"";"";""
"9687358968";"10.4522987";"-84.0117307";"charging_station";"";"Costa Rica";"Heredia";"N/A";"N/A";"";"";"";"";"";"";"";"";"";"";"";"";"";"";"";"";"";"";"";""
"11811965335";"10.0177129";"-84.0560206";"charging_station";"";"Costa Rica";"Heredia";"N/A";"N/A";"";"";"";"";"ESPH";"";"";"";"";"";"";"";"";"";"";"";"";"";"";"yes"
"10169300870";"10.5459646";"-85.6939897";"charging_station";"";"Costa Rica";"Guanacaste";"N/A";"N/A";"";"";"";"";"";"";"";"";"";"";"";"";"";"";"";"";"";"";"";""
"9870624547";"10.6330658";"-85.4433586";"charging_station";"";"Costa Rica";"Guanacaste";"N/A";"N/A";"";"";"";"";"ICE";"";"";"";"";"";"";"";"";"";"";"";"";"";"";""
"9687359023";"10.545122";"-84.8928119";"charging_station";"Canton de Tilaran";"Costa Rica";"Guanacaste";"N/A";"N/A";"";"";"";"";"ICE";"";"";"";"";"";"";"";"";"";"";"";"";"";"";""
"10112216151";"10.4986241";"-84.6861692";"charging_station";"";"Costa Rica";"Alajuela";"N/A";"N/A";"";"";"";"";"";"";"";"";"";"";"";"";"";"";"";"";"";"";"";""
"11380439690";"10.5025634";"-84.6782579";"charging_station";"";"Costa Rica";"Alajuela";"N/A";"N/A";"";"1";"";"";"Hotel Arenal Manoa";"";"";"";"";"";"";"";"";"";"";"";"";"";"24/7";"no"
"11847894772";"10.6243643";"-84.5262207";"charging_station";"";"Costa Rica";"Alajuela";"N/A";"N/A";"";"";"";"";"Coopelesca";"";"";"";"";"";"";"";"";"";"";"";"";"";"";"yes"
"9687358937";"8.6487039";"-82.9423429";"charging_station";"";"Costa Rica";"Puntarenas";"N/A";"N/A";"";"";"";"";"";"";"";"";"";"";"";"";"";"";"";"";"";"";"";""
"9687358987";"8.8196898";"-82.9703156";"charging_station";"";"Costa Rica";"Puntarenas";"N/A";"N/A";"";"";"";"";"";"";"";"";"";"";"";"";"";"";"";"";"";"";"";""
