"id";"lat";"lon";"amenity";"city";"state";"country";"scraped_country_code";"scraped_country_name";"authentication:nfc";"capacity";"capacity:car";"motorcar";"operator";"operator:wikidata";"socket:schuko";"socket:schuko:current";"socket:schuko:voltage";"socket:type2";"socket:type2:current";"socket:type2:voltage";"ref";"addr:housenumber";"addr:street";"addr:postcode";"brand";"charge";"opening_hours";"fee"
"12815524337";"10.3416643";"103.8546884";"charging_station";"";"Vietnam";"Kien Giang";"N/A";"N/A";"";"";"";"yes";"";"";"";"";"";"";"";"";"";"";"";"";"";"";"";""
"6968535485";"10.3065762";"105.4726978";"charging_station";"";"Vietnam";"Can Tho";"N/A";"N/A";"";"";"";"";"";"";"";"";"";"";"";"";"";"";"";"";"";"";"";""
"4987326421";"10.1028546";"105.6669451";"charging_station";"";"Vietnam";"Can Tho";"N/A";"N/A";"";"";"";"";"CNĐ Cao Thế Cần Thơ";"";"";"";"";"";"";"";"";"";"";"";"";"";"";""
"11497362331";"10.3395039";"107.0716165";"charging_station";"";"Vietnam";"Ba Ria-Vung Tau";"N/A";"N/A";"";"";"";"";"";"";"";"";"";"";"";"";"";"";"";"";"";"";"";""
"11497362337";"10.3394379";"107.0716072";"charging_station";"";"Vietnam";"Ba Ria-Vung Tau";"N/A";"N/A";"";"";"";"";"";"";"";"";"";"";"";"";"";"";"";"";"";"";"";""
"11497362356";"10.339576";"107.0716251";"charging_station";"";"Vietnam";"Ba Ria-Vung Tau";"N/A";"N/A";"";"";"";"";"";"";"";"";"";"";"";"";"";"";"";"";"";"";"";""
"5850347786";"10.4505544";"105.3282984";"charging_station";"";"Vietnam";"An Giang";"N/A";"N/A";"";"";"";"";"TBA 220kV Châu Thành, tỉnh An Giang";"";"";"";"";"";"";"";"";"";"";"";"";"";"";""
"9587618739";"10.8695365";"106.6157273";"charging_station";"";"Vietnam";"Ho Chi Minh City";"N/A";"N/A";"";"";"";"";"";"";"";"";"";"";"";"";"";"";"";"";"";"";"";""
"12839151406";"10.5345592";"106.4102917";"charging_station";"";"Vietnam";"Long An";"N/A";"N/A";"";"";"";"";"";"";"";"";"";"";"";"";"";"";"";"";"Vinfast";"";"";""
"1156672840";"";"";"charging_station";"N/A";"N/A";"N/A";"N/A";"N/A";"";"";"";"";"";"";"";"";"";"";"";"";"";"";"";"";"";"";"";""
"1222752686";"";"";"charging_station";"N/A";"N/A";"N/A";"N/A";"N/A";"";"";"";"";"";"";"";"";"";"";"";"";"";"";"";"";"VinFast";"";"";"yes"
"1222753571";"";"";"charging_station";"N/A";"N/A";"N/A";"N/A";"N/A";"";"";"";"";"";"";"";"";"";"";"";"";"";"";"";"";"VinFast";"";"";""
"1223356296";"";"";"charging_station";"N/A";"N/A";"N/A";"N/A";"N/A";"";"";"";"";"VinFast";"";"";"";"";"";"";"";"";"";"";"";"VinFast";"";"";""
"1308942233";"";"";"charging_station";"N/A";"N/A";"N/A";"N/A";"N/A";"";"";"";"";"VinFast";"";"";"";"";"";"";"";"";"";"";"";"VinFast";"";"";""
"10755504927";"10.7912679";"106.7128314";"";"";"Vietnam";"Ho Chi Minh City";"N/A";"N/A";"";"";"";"";"";"";"";"";"";"";"";"";"";"";"";"";"";"";"";""
"10755504928";"10.7912724";"106.7128205";"";"";"Vietnam";"Ho Chi Minh City";"N/A";"N/A";"";"";"";"";"";"";"";"";"";"";"";"";"";"";"";"";"";"";"";""
"10756457718";"10.7912632";"106.7128296";"";"";"Vietnam";"Ho Chi Minh City";"N/A";"N/A";"";"";"";"";"";"";"";"";"";"";"";"";"";"";"";"";"";"";"";""
"10756458809";"10.7912674";"106.7128188";"";"";"Vietnam";"Ho Chi Minh City";"N/A";"N/A";"";"";"";"";"";"";"";"";"";"";"";"";"";"";"";"";"";"";"";""
"11341371343";"10.8387919";"106.8329958";"";"";"Vietnam";"Ho Chi Minh City";"N/A";"N/A";"";"";"";"";"";"";"";"";"";"";"";"";"";"";"";"";"";"";"";""
"11341371344";"10.8387369";"106.8330159";"";"";"Vietnam";"Ho Chi Minh City";"N/A";"N/A";"";"";"";"";"";"";"";"";"";"";"";"";"";"";"";"";"";"";"";""
"11341371345";"10.838821";"106.833254";"";"";"Vietnam";"Ho Chi Minh City";"N/A";"N/A";"";"";"";"";"";"";"";"";"";"";"";"";"";"";"";"";"";"";"";""
"11341371346";"10.8388749";"106.8332311";"";"";"Vietnam";"Ho Chi Minh City";"N/A";"N/A";"";"";"";"";"";"";"";"";"";"";"";"";"";"";"";"";"";"";"";""
"11347595662";"10.8361767";"106.8427235";"";"";"Vietnam";"Ho Chi Minh City";"N/A";"N/A";"";"";"";"";"";"";"";"";"";"";"";"";"";"";"";"";"";"";"";""
"11347595663";"10.8361587";"106.8426869";"";"";"Vietnam";"Ho Chi Minh City";"N/A";"N/A";"";"";"";"";"";"";"";"";"";"";"";"";"";"";"";"";"";"";"";""
"11347595664";"10.8363604";"106.8421268";"";"";"Vietnam";"Ho Chi Minh City";"N/A";"N/A";"";"";"";"";"";"";"";"";"";"";"";"";"";"";"";"";"";"";"";""
"367725355";"10.8378291";"106.839076";"";"";"Vietnam";"Ho Chi Minh City";"N/A";"N/A";"";"";"";"";"";"";"";"";"";"";"";"";"";"";"";"";"";"";"";""
"11341407858";"10.837928";"106.8379478";"";"";"Vietnam";"Ho Chi Minh City";"N/A";"N/A";"";"";"";"";"";"";"";"";"";"";"";"";"";"";"";"";"";"";"";""
"11341407859";"10.8375174";"106.8389539";"";"";"Vietnam";"Ho Chi Minh City";"N/A";"N/A";"";"";"";"";"";"";"";"";"";"";"";"";"";"";"";"";"";"";"";""
"11341407860";"10.8382525";"106.8380927";"";"";"Vietnam";"Ho Chi Minh City";"N/A";"N/A";"";"";"";"";"";"";"";"";"";"";"";"";"";"";"";"";"";"";"";""
"11347588688";"10.8368348";"106.8429482";"";"";"Vietnam";"Ho Chi Minh City";"N/A";"N/A";"";"";"";"";"";"";"";"";"";"";"";"";"";"";"";"";"";"";"";""
"11347595661";"10.836914";"106.8427063";"";"";"Vietnam";"Ho Chi Minh City";"N/A";"N/A";"";"";"";"";"";"";"";"";"";"";"";"";"";"";"";"";"";"";"";""
"11347595665";"10.836705";"106.8422568";"";"";"Vietnam";"Ho Chi Minh City";"N/A";"N/A";"";"";"";"";"";"";"";"";"";"";"";"";"";"";"";"";"";"";"";""
"11347595666";"10.836563";"106.8426592";"";"";"Vietnam";"Ho Chi Minh City";"N/A";"N/A";"";"";"";"";"";"";"";"";"";"";"";"";"";"";"";"";"";"";"";""
"11347595667";"10.8367143";"106.8426361";"";"";"Vietnam";"Ho Chi Minh City";"N/A";"N/A";"";"";"";"";"";"";"";"";"";"";"";"";"";"";"";"";"";"";"";""
"11347595668";"10.8366902";"106.8427054";"";"";"Vietnam";"Ho Chi Minh City";"N/A";"N/A";"";"";"";"";"";"";"";"";"";"";"";"";"";"";"";"";"";"";"";""
"12121502304";"10.8375118";"106.8398625";"";"";"Vietnam";"Ho Chi Minh City";"N/A";"N/A";"";"";"";"";"";"";"";"";"";"";"";"";"";"";"";"";"";"";"";""
"12121502305";"10.8374753";"106.8399453";"";"";"Vietnam";"Ho Chi Minh City";"N/A";"N/A";"";"";"";"";"";"";"";"";"";"";"";"";"";"";"";"";"";"";"";""
"12121502306";"10.8371871";"106.8398137";"";"";"Vietnam";"Ho Chi Minh City";"N/A";"N/A";"";"";"";"";"";"";"";"";"";"";"";"";"";"";"";"";"";"";"";""
"12121502307";"10.8372237";"106.8397308";"";"";"Vietnam";"Ho Chi Minh City";"N/A";"N/A";"";"";"";"";"";"";"";"";"";"";"";"";"";"";"";"";"";"";"";""
"11329202535";"10.9664144";"106.85481";"charging_station";"";"Vietnam";"Dong Nai";"N/A";"N/A";"";"";"";"";"";"";"";"";"";"";"";"";"";"1135";"Đường Nguyễn Ái Quốc";"810000";"VinFast";"";"05:30-21:30";""
"6036048187";"11.3236914";"108.8135745";"charging_station";"";"Vietnam";"Binh Thuan";"N/A";"N/A";"";"";"";"";"Nhiệt điện vĩnh tân";"";"";"";"";"";"";"";"";"";"";"";"";"";"";""
"10916618777";"11.3596597";"108.8776653";"charging_station";"";"Vietnam";"Ninh Thuan";"N/A";"N/A";"";"";"";"";"PVOIL";"";"";"";"";"";"";"";"";"";"";"";"VinFast";"";"";""
"6798115385";"11.7702394";"104.4099452";"charging_station";"";"Cambodia";"Kampong Speu";"N/A";"N/A";"";"";"";"";"Solar Panel Station";"";"";"";"";"";"";"";"";"";"";"";"";"";"";""
"12588857469";"11.5525959";"104.9425563";"charging_station";"";"Cambodia";"Phnom Penh";"N/A";"N/A";"";"";"";"";"";"";"";"";"";"";"";"";"";"";"";"";"";"";"";""
"12670246354";"11.6488936";"107.2187814";"charging_station";"";"Vietnam";"Lam Dong";"N/A";"N/A";"";"";"";"yes";"";"";"";"";"";"";"";"";"";"";"";"";"";"";"";""
"10266701247";"12.1383421";"102.2713433";"charging_station";"";"Thailand";"Trat";"N/A";"N/A";"";"1";"";"";"";"";"";"";"";"";"";"";"Haupcar";"";"";"";"";"";"";""
"12692800583";"12.0417409";"102.2956032";"charging_station";"";"Thailand";"Trat";"N/A";"N/A";"";"";"";"";"";"";"";"";"";"";"";"";"";"";"";"";"Erge";"";"";""
"12695855786";"12.0572433";"102.2921303";"charging_station";"";"Thailand";"Trat";"N/A";"N/A";"";"";"";"";"";"";"";"";"";"";"";"";"";"";"";"";"private";"";"";""
"3242091565";"12.5611824";"107.8223039";"charging_station";"";"Vietnam";"Dak Nong";"N/A";"N/A";"";"";"";"";"";"";"";"";"";"";"";"";"";"";"";"";"";"";"";""
"12511775801";"13.1022087";"103.1998374";"charging_station";"";"Cambodia";"Battambang";"N/A";"N/A";"";"";"";"";"I. M.B Group";"";"";"";"";"";"";"";"";"";"";"";"";"";"";""
"12011746685";"13.3739";"104.2222988";"charging_station";"";"Cambodia";"Siem Reap";"N/A";"N/A";"";"";"";"";"";"";"";"";"";"";"";"";"";"";"";"";"Mobile Charging";"";"";"no"
"5188469122";"13.4328934";"103.9056629";"charging_station";"";"Cambodia";"Siem Reap";"N/A";"N/A";"";"";"";"";"Green E-Bike";"";"";"";"";"";"";"";"";"";"";"";"";"";"";""
"5188470621";"13.4616779";"103.8664946";"charging_station";"";"Cambodia";"Siem Reap";"N/A";"N/A";"";"";"";"";"Green E-Bike";"";"";"";"";"";"";"";"";"";"";"";"";"";"";""
"10704498805";"13.4328678";"103.9050668";"charging_station";"";"Cambodia";"Siem Reap";"N/A";"N/A";"";"";"";"";"Green E-Bike";"";"";"";"";"";"";"";"";"";"";"";"";"";"";""
"4578480992";"14.5549414";"109.0344287";"charging_station";"";"Vietnam";"Binh Dinh";"N/A";"N/A";"";"";"";"";"Trạm TBA Tam Quan";"";"";"";"";"";"";"";"";"";"";"";"";"";"";""
"12665203901";"14.8353817";"108.9464247";"charging_station";"";"Vietnam";"Quang Ngai";"N/A";"N/A";"";"";"";"";"";"";"";"";"";"";"";"";"";"";"";"";"";"";"";""
"12706494266";"14.992857";"108.8832844";"charging_station";"";"Vietnam";"Quang Ngai";"N/A";"N/A";"";"4";"";"";"";"";"";"";"";"";"";"";"";"";"";"";"VinFast";"";"";""
"11171092437";"15.90371";"108.3297712";"charging_station";"";"Vietnam";"Quang Nam";"N/A";"N/A";"";"";"";"";"";"";"";"";"";"";"";"";"";"";"";"";"VinFast";"";"";""
"5181712421";"16.0316176";"108.2082919";"charging_station";"";"Vietnam";"Da Nang";"N/A";"N/A";"";"";"";"";"";"";"";"";"";"";"";"";"";"";"";"";"";"";"";""
"10310391815";"16.0062128";"108.2656768";"charging_station";"";"Vietnam";"Da Nang";"N/A";"N/A";"";"";"";"";"";"";"";"";"";"";"";"";"";"";"";"";"Vinfast";"";"";""
"5372039621";"16.8311133";"102.7147888";"charging_station";"";"Thailand";"Khon Kaen";"N/A";"N/A";"";"";"";"";"564";"";"";"";"";"";"";"";"";"";"";"";"";"";"";""
"10012701304";"16.4567847";"102.8182323";"charging_station";"";"Thailand";"Khon Kaen";"N/A";"N/A";"";"";"";"";"";"";"";"";"";"";"";"";"";"";"";"";"";"";"";""
"12263100001";"16.7917247";"107.1875662";"charging_station";"";"Vietnam";"Quang Tri";"N/A";"N/A";"";"";"";"";"";"";"";"";"";"";"";"";"";"";"";"";"";"";"";""
"12905247601";"17.5093094";"102.8008346";"charging_station";"";"Thailand";"Changwat Udon Thani";"N/A";"N/A";"";"";"";"";"";"";"";"";"";"";"";"";"";"";"";"";"";"";"";""
"9025014750";"17.4651702";"106.6260301";"charging_station";"";"Vietnam";"Quang Binh";"N/A";"N/A";"";"";"";"";"";"";"";"";"";"";"";"";"";"";"";"";"";"";"";""
"6745969385";"18.2917606";"109.4176619";"charging_station";"";"China";"Hainan";"N/A";"N/A";"";"";"";"";"";"";"";"";"";"";"";"";"";"";"";"";"";"";"";""
"12504359657";"20.5736573";"102.6055169";"charging_station";"";"Laos";"Phongsali";"N/A";"N/A";"";"2";"";"";"";"";"";"";"";"";"";"";"";"";"";"";"";"";"";""
"9673566433";"20.8450805";"106.0583564";"charging_station";"";"Vietnam";"Hung Yen";"N/A";"N/A";"";"15";"";"";"";"";"";"";"";"";"";"";"";"";"";"";"";"";"";""
"11203075431";"20.6846624";"105.9118115";"charging_station";"";"Vietnam";"Ha Noi";"N/A";"N/A";"";"";"";"";"VinFast";"Q56660561";"";"";"";"";"";"";"";"";"";"";"VinFast";"";"";"yes"
"11203075432";"20.6982596";"105.9900602";"charging_station";"";"Vietnam";"Ha Nam";"N/A";"N/A";"";"";"";"";"VinFast";"Q56660561";"";"";"";"";"";"";"";"";"";"";"VinFast";"";"Mo-Su 06:00-20:00";"yes"
"11203075433";"20.6981999";"105.990346";"charging_station";"";"Vietnam";"Ha Nam";"N/A";"N/A";"";"";"";"";"VinFast";"Q56660561";"4";"";"";"";"";"";"";"";"";"";"VinFast";"";"";"yes"
"11204387949";"20.8577406";"105.8696778";"charging_station";"";"Vietnam";"Ha Noi";"N/A";"N/A";"";"";"";"";"VinFast";"Q56660561";"";"";"";"";"";"";"";"";"";"";"VinFast";"";"Mo-Fr 08:00-17:00";"yes"
"11204387965";"20.6893385";"105.7492714";"charging_station";"";"Vietnam";"Ha Noi";"N/A";"N/A";"";"";"";"";"VinFast";"Q56660561";"";"";"";"";"";"";"";"";"";"";"VinFast";"";"";"yes"
"12944151533";"20.8882596";"105.7963824";"charging_station";"";"Vietnam";"Ha Noi";"N/A";"N/A";"";"";"";"";"Vinfast";"";"";"";"";"";"";"";"";"";"";"";"Vinfast";"";"";""
"9673606304";"20.8576645";"106.3313727";"charging_station";"";"Vietnam";"Hai Duong";"N/A";"N/A";"";"7";"";"";"";"";"";"";"";"";"";"";"";"";"";"";"";"";"";""
"9673633693";"20.7935346";"106.546469";"charging_station";"";"Vietnam";"Hai Phong";"N/A";"N/A";"";"10";"";"";"";"";"";"";"";"";"";"";"";"";"";"";"";"";"";""
"11203075385";"21.2314951";"105.3596155";"charging_station";"";"Vietnam";"Phu Tho";"N/A";"N/A";"";"";"";"";"VinFast";"Q56660561";"";"";"";"";"";"";"";"";"";"";"VinFast";"";"";"yes"
"11203075386";"21.206373";"105.4160223";"charging_station";"";"Vietnam";"Ha Noi";"N/A";"N/A";"";"";"";"";"VinFast";"Q56660561";"";"";"";"";"";"";"";"";"";"";"VinFast";"";"";"yes"
"11203075387";"21.1766438";"105.3150393";"charging_station";"";"Vietnam";"Phu Tho";"N/A";"N/A";"";"";"";"";"VinFast";"Q56660561";"";"";"";"";"";"";"";"";"";"";"VinFast";"";"";"yes"
"11203075388";"21.0723524";"105.3209957";"charging_station";"";"Vietnam";"Phu Tho";"N/A";"N/A";"";"";"";"";"VinFast";"Q56660561";"";"";"";"";"";"";"";"";"";"";"VinFast";"";"";"yes"
"11203075389";"21.0673259";"105.4363022";"charging_station";"";"Vietnam";"Ha Noi";"N/A";"N/A";"";"";"";"";"VinFast";"Q56660561";"";"";"";"";"";"";"";"";"";"";"VinFast";"";"";"yes"
"11203075390";"21.1037214";"105.4153401";"charging_station";"";"Vietnam";"Ha Noi";"N/A";"N/A";"";"";"";"";"VinFast";"Q56660561";"";"";"";"";"";"";"";"";"";"";"VinFast";"";"";"yes"
"11203078939";"21.1230823";"105.5213215";"charging_station";"";"Vietnam";"Ha Noi";"N/A";"N/A";"";"";"";"";"VinFast";"Q56660561";"";"";"";"";"";"";"";"";"";"";"VinFast";"";"";"yes"
"11203078940";"20.9698174";"105.5353332";"charging_station";"";"Vietnam";"Ha Noi";"N/A";"N/A";"";"";"";"";"VinFast";"Q56660561";"";"";"";"";"";"";"";"";"";"";"VinFast";"";"";"yes"
"11204387955";"21.018423";"105.460179";"charging_station";"";"Vietnam";"Ha Noi";"N/A";"N/A";"";"";"";"";"VinFast";"Q56660561";"";"";"";"";"";"";"";"";"";"";"VinFast";"";"";"yes"
"11204387956";"20.999463";"105.5433304";"charging_station";"";"Vietnam";"Ha Noi";"N/A";"N/A";"";"";"";"";"VinFast";"Q56660561";"";"";"";"";"";"";"";"";"";"";"VinFast";"";"";"yes"
"11204387957";"20.9999018";"105.5446255";"charging_station";"";"Vietnam";"Ha Noi";"N/A";"N/A";"";"";"";"";"VinFast";"Q56660561";"44";"";"";"";"";"";"";"";"";"";"VinFast";"";"";"yes"
"11204387958";"20.9882861";"105.5694284";"charging_station";"";"Vietnam";"Ha Noi";"N/A";"N/A";"";"";"";"";"VinFast";"Q56660561";"";"";"";"";"";"";"";"";"";"";"VinFast";"";"";"yes"
"11208375964";"21.056101";"105.4997321";"charging_station";"";"Vietnam";"Ha Noi";"N/A";"N/A";"";"";"";"";"VinFast";"Q56660561";"";"";"";"";"";"";"";"";"";"";"VinFast";"";"";"yes"
"6924855573";"21.024143";"105.8550444";"charging_station";"";"Vietnam";"Ha Noi";"N/A";"N/A";"";"1";"";"";"";"";"";"";"";"";"";"";"";"D4";"";"";"";"";"";""
"9424945491";"21.0064811";"105.7530759";"charging_station";"";"Vietnam";"Ha Noi";"N/A";"N/A";"";"";"";"";"VinFast";"Q56660561";"";"";"";"";"";"";"";"";"";"";"VinFast";"";"";"yes"
"9705391237";"21.0068699";"105.7536328";"charging_station";"";"Vietnam";"Ha Noi";"N/A";"N/A";"";"";"";"";"VinFast";"Q56660561";"486";"";"";"";"";"";"";"";"";"";"VinFast";"";"";"yes"
"11200062857";"21.0062731";"105.7531876";"charging_station";"";"Vietnam";"Ha Noi";"N/A";"N/A";"";"";"";"";"VinFast";"Q56660561";"";"";"";"";"";"";"";"";"";"";"VinFast";"";"";"yes"
"11200062864";"21.0071044";"105.7511818";"charging_station";"";"Vietnam";"Ha Noi";"N/A";"N/A";"";"";"";"";"VinFast";"Q56660561";"";"";"";"";"";"";"";"";"";"";"VinFast";"";"";"yes"
"11200062869";"21.0035106";"105.7561945";"charging_station";"";"Vietnam";"Ha Noi";"N/A";"N/A";"";"";"";"";"VinFast";"Q56660561";"";"";"";"";"";"";"";"";"";"";"VinFast";"";"";"yes"
"11200062870";"21.0087306";"105.7429849";"charging_station";"";"Vietnam";"Ha Noi";"N/A";"N/A";"";"";"";"";"VinFast";"Q56660561";"";"";"";"";"";"";"";"";"";"";"VinFast";"";"";"yes"
"11200062871";"21.0081158";"105.7422541";"charging_station";"";"Vietnam";"Ha Noi";"N/A";"N/A";"";"";"";"";"VinFast";"Q56660561";"";"";"";"";"";"";"";"";"";"";"VinFast";"";"";"yes"
"11200062872";"21.0090064";"105.7391453";"charging_station";"";"Vietnam";"Ha Noi";"N/A";"N/A";"";"";"";"";"VinFast";"Q56660561";"";"";"";"";"";"";"";"";"";"";"VinFast";"";"";"yes"
"11200062876";"21.0088396";"105.7377803";"charging_station";"";"Vietnam";"Ha Noi";"N/A";"N/A";"";"";"";"";"VinFast";"Q56660561";"";"";"";"";"";"";"";"";"";"";"VinFast";"";"";"yes"
"11200062895";"21.007159";"105.7383447";"charging_station";"";"Vietnam";"Ha Noi";"N/A";"N/A";"";"";"";"";"VinFast";"Q56660561";"";"";"";"";"";"";"";"";"";"";"VinFast";"";"";"yes"
"11200062896";"21.0076943";"105.7398249";"charging_station";"";"Vietnam";"Ha Noi";"N/A";"N/A";"";"";"";"";"VinFast";"Q56660561";"";"";"";"";"";"";"";"";"";"";"VinFast";"";"";"yes"
"11200062936";"21.0046844";"105.7390631";"charging_station";"";"Vietnam";"Ha Noi";"N/A";"N/A";"";"";"";"";"VinFast";"Q56660561";"";"";"";"";"";"";"";"";"";"";"VinFast";"";"";"yes"
"11200062941";"21.0029381";"105.7407158";"charging_station";"";"Vietnam";"Ha Noi";"N/A";"N/A";"";"";"";"";"VinFast";"Q56660561";"";"";"";"";"";"";"";"";"";"";"VinFast";"";"";"yes"
"11200062942";"21.0027151";"105.7378925";"charging_station";"";"Vietnam";"Ha Noi";"N/A";"N/A";"";"";"";"";"VinFast";"Q56660561";"";"";"";"";"";"";"";"";"";"";"VinFast";"";"";"yes"
"11200062943";"21.0015855";"105.7380468";"charging_station";"";"Vietnam";"Ha Noi";"N/A";"N/A";"";"";"";"";"VinFast";"Q56660561";"";"";"";"";"";"";"";"";"";"";"VinFast";"";"";"yes"
"11200062947";"20.9977004";"105.7378592";"charging_station";"";"Vietnam";"Ha Noi";"N/A";"N/A";"";"";"";"";"VinFast";"Q56660561";"";"";"";"";"";"";"";"";"";"";"VinFast";"";"";"yes"
"11200062985";"21.0088387";"105.7426371";"charging_station";"";"Vietnam";"Ha Noi";"N/A";"N/A";"";"";"";"";"VinFast";"Q56660561";"34";"";"";"";"";"";"";"";"";"";"VinFast";"";"";"yes"
"11200062986";"21.0082609";"105.7422817";"charging_station";"";"Vietnam";"Ha Noi";"N/A";"N/A";"";"";"";"";"VinFast";"Q56660561";"64";"";"";"";"";"";"";"";"";"";"VinFast";"";"";"yes"
"11200062987";"21.0046119";"105.7391917";"charging_station";"";"Vietnam";"Ha Noi";"N/A";"N/A";"";"";"";"";"VinFast";"Q56660561";"118";"";"";"";"";"";"";"";"";"";"VinFast";"";"";"yes"
"11200062988";"21.0014106";"105.7379718";"charging_station";"";"Vietnam";"Ha Noi";"N/A";"N/A";"";"";"";"";"VinFast";"Q56660561";"30";"";"";"";"";"";"";"";"";"";"VinFast";"";"";"yes"
"11200062989";"21.0036675";"105.7387332";"charging_station";"";"Vietnam";"Ha Noi";"N/A";"N/A";"";"";"";"";"VinFast";"Q56660561";"";"";"";"";"";"";"";"";"";"";"VinFast";"";"";"yes"
"11200062990";"20.9979431";"105.7379423";"charging_station";"";"Vietnam";"Ha Noi";"N/A";"N/A";"";"";"";"";"VinFast";"Q56660561";"62";"";"";"";"";"";"";"";"";"";"VinFast";"";"";"yes"
"11200062991";"20.9975095";"105.7379678";"charging_station";"";"Vietnam";"Ha Noi";"N/A";"N/A";"";"";"";"";"VinFast";"Q56660561";"64";"";"";"";"";"";"";"";"";"";"VinFast";"";"";"yes"
"11203075391";"21.0267848";"105.9955353";"charging_station";"";"Vietnam";"Hung Yen";"N/A";"N/A";"";"";"";"";"VinFast";"Q56660561";"";"";"";"";"";"";"";"";"";"";"VinFast";"";"";"yes"
"11203075392";"20.9974213";"105.9193656";"charging_station";"";"Vietnam";"Ha Noi";"N/A";"N/A";"";"";"";"";"VinFast";"Q56660561";"";"";"";"";"";"";"";"";"";"";"VinFast";"";"";"yes"
"11203075393";"20.9945812";"105.9597978";"charging_station";"";"Vietnam";"Hung Yen";"N/A";"N/A";"";"";"";"";"VinFast";"Q56660561";"";"";"";"";"";"";"";"";"";"";"VinFast";"";"";"yes"
"11203075396";"20.9938704";"105.960978";"charging_station";"";"Vietnam";"Hung Yen";"N/A";"N/A";"";"";"";"";"VinFast";"Q56660561";"";"";"";"";"";"";"";"";"";"";"VinFast";"";"";"yes"
"11203075397";"20.9943031";"105.9603343";"charging_station";"";"Vietnam";"Hung Yen";"N/A";"N/A";"";"";"";"";"VinFast";"Q56660561";"176";"";"";"";"";"";"";"";"";"";"VinFast";"";"";"yes"
"11203075399";"20.9941819";"105.9585283";"charging_station";"";"Vietnam";"Hung Yen";"N/A";"N/A";"";"";"";"";"VinFast";"Q56660561";"";"";"";"";"";"";"";"";"";"";"VinFast";"";"Mo-Su 05:00-15:00";"yes"
"11203075400";"20.9931775";"105.9605032";"charging_station";"";"Vietnam";"Hung Yen";"N/A";"N/A";"";"";"";"";"VinFast";"Q56660561";"";"";"";"";"";"";"";"";"";"";"VinFast";"";"Mo-Su 08:00-21:00; PH off";"yes"
"11203075401";"20.9913935";"105.9557446";"charging_station";"";"Vietnam";"Hung Yen";"N/A";"N/A";"";"";"";"";"VinFast";"Q56660561";"";"";"";"";"";"";"";"";"";"";"VinFast";"";"";"yes"
"11203075402";"20.9910168";"105.956663";"charging_station";"";"Vietnam";"Hung Yen";"N/A";"N/A";"";"";"";"";"VinFast";"Q56660561";"";"";"";"";"";"";"";"";"";"";"VinFast";"";"";"yes"
"11203075403";"20.9911691";"105.9562681";"charging_station";"";"Vietnam";"Hung Yen";"N/A";"N/A";"";"";"";"";"VinFast";"Q56660561";"64";"";"";"";"";"";"";"";"";"";"VinFast";"";"";"yes"
"11203075404";"20.9893244";"105.9484704";"charging_station";"";"Vietnam";"Ha Noi";"N/A";"N/A";"";"";"";"";"VinFast";"Q56660561";"";"";"";"";"";"";"";"";"";"";"VinFast";"";"";"yes"
"11203075405";"20.9894068";"105.9486491";"charging_station";"";"Vietnam";"Ha Noi";"N/A";"N/A";"";"";"";"";"VinFast";"Q56660561";"";"";"";"";"";"";"";"";"";"";"VinFast";"";"";"yes"
"11203075406";"20.9898045";"105.9438542";"charging_station";"";"Vietnam";"Ha Noi";"N/A";"N/A";"";"";"";"";"VinFast";"Q56660561";"";"";"";"";"";"";"";"";"";"";"VinFast";"";"";"yes"
"11203075407";"20.9892123";"105.9489796";"charging_station";"";"Vietnam";"Ha Noi";"N/A";"N/A";"";"";"";"";"VinFast";"Q56660561";"40";"";"";"";"";"";"";"";"";"";"VinFast";"";"";"yes"
"11203075408";"20.9914424";"105.943669";"charging_station";"";"Vietnam";"Ha Noi";"N/A";"N/A";"";"";"";"";"VinFast";"Q56660561";"";"";"";"";"";"";"";"";"";"";"VinFast";"";"";"yes"
"11203075409";"20.9896532";"105.9425232";"charging_station";"";"Vietnam";"Ha Noi";"N/A";"N/A";"";"";"";"";"VinFast";"Q56660561";"16";"";"";"";"";"";"";"";"";"";"VinFast";"";"";"yes"
"11203075410";"20.9887216";"105.9418339";"charging_station";"";"Vietnam";"Ha Noi";"N/A";"N/A";"";"";"";"";"VinFast";"Q56660561";"";"";"";"";"";"";"";"";"";"";"VinFast";"";"";"yes"
"11203075411";"20.9887862";"105.9415068";"charging_station";"";"Vietnam";"Ha Noi";"N/A";"N/A";"";"";"";"";"VinFast";"Q56660561";"";"";"";"";"";"";"";"";"";"";"VinFast";"";"";"yes"
"11203075412";"20.9887586";"105.9420271";"charging_station";"";"Vietnam";"Ha Noi";"N/A";"N/A";"";"";"";"";"VinFast";"Q56660561";"236";"";"";"";"";"";"";"";"";"";"VinFast";"";"";"yes"
"11203075413";"20.990359";"105.940081";"charging_station";"";"Vietnam";"Ha Noi";"N/A";"N/A";"";"";"";"";"VinFast";"Q56660561";"";"";"";"";"";"";"";"";"";"";"VinFast";"";"";"yes"
"11203075414";"20.9904634";"105.9405285";"charging_station";"";"Vietnam";"Ha Noi";"N/A";"N/A";"";"";"";"";"VinFast";"Q56660561";"";"";"";"";"";"";"";"";"";"";"VinFast";"";"";"yes"
"11203075415";"20.9905761";"105.94064";"charging_station";"";"Vietnam";"Ha Noi";"N/A";"N/A";"";"";"";"";"VinFast";"Q56660561";"";"";"";"";"";"";"";"";"";"";"VinFast";"";"Mo-Su 06:00-18:00";"yes"
"11203075416";"20.993725";"105.9428084";"charging_station";"";"Vietnam";"Ha Noi";"N/A";"N/A";"";"";"";"";"VinFast";"Q56660561";"80";"";"";"";"";"";"";"";"";"";"VinFast";"";"";"yes"
"11203075417";"20.991982";"105.9409847";"charging_station";"";"Vietnam";"Ha Noi";"N/A";"N/A";"";"";"";"";"VinFast";"Q56660561";"";"";"";"";"";"";"";"";"";"";"VinFast";"";"";"yes"
"11203075418";"20.9917656";"105.941358";"charging_station";"";"Vietnam";"Ha Noi";"N/A";"N/A";"";"";"";"";"VinFast";"Q56660561";"";"";"";"";"";"";"";"";"";"";"VinFast";"";"";"yes"
"11203075419";"20.9945946";"105.9414338";"charging_station";"";"Vietnam";"Ha Noi";"N/A";"N/A";"";"";"";"";"VinFast";"Q56660561";"";"";"";"";"";"";"";"";"";"";"VinFast";"";"";"yes"
"11203075420";"20.9936422";"105.9427937";"charging_station";"";"Vietnam";"Ha Noi";"N/A";"N/A";"";"";"";"";"VinFast";"Q56660561";"";"";"";"";"";"";"";"";"";"";"VinFast";"";"Mo-Su 06:00-18:00";"yes"
"11203075421";"20.9957352";"105.9441007";"charging_station";"";"Vietnam";"Ha Noi";"N/A";"N/A";"";"";"";"";"VinFast";"Q56660561";"";"";"";"";"";"";"";"";"";"";"VinFast";"";"Mo-Su 06:00-18:00";"yes"
"11203075422";"20.9944171";"105.9416588";"charging_station";"";"Vietnam";"Ha Noi";"N/A";"N/A";"";"";"";"";"VinFast";"Q56660561";"";"";"";"";"";"";"";"";"";"";"VinFast";"";"";"yes"
"11203075423";"21.0010903";"105.9428671";"charging_station";"";"Vietnam";"Ha Noi";"N/A";"N/A";"";"";"";"";"VinFast";"Q56660561";"";"";"";"";"";"";"";"";"";"";"VinFast";"";"Mo-Su 06:00-18:00";"yes"
"11203075424";"21.0010474";"105.9430585";"charging_station";"";"Vietnam";"Ha Noi";"N/A";"N/A";"";"";"";"";"VinFast";"Q56660561";"";"";"";"";"";"";"";"";"";"";"VinFast";"";"";"yes"
"11203075425";"21.0164064";"105.7227587";"charging_station";"";"Vietnam";"Ha Noi";"N/A";"N/A";"";"";"";"";"VinFast";"Q56660561";"";"";"";"";"";"";"";"";"";"";"VinFast";"";"";"yes"
"11203075426";"20.998382";"105.7211257";"charging_station";"";"Vietnam";"Ha Noi";"N/A";"N/A";"";"";"";"";"VinFast";"Q56660561";"";"";"";"";"";"";"";"";"";"";"VinFast";"";"";"yes"
"11203075427";"21.1552909";"105.7312517";"charging_station";"";"Vietnam";"Ha Noi";"N/A";"N/A";"";"";"";"";"VinFast";"Q56660561";"";"";"";"";"";"";"";"";"";"";"VinFast";"";"";"yes"
"11203075428";"21.1966076";"105.7312632";"charging_station";"";"Vietnam";"Ha Noi";"N/A";"N/A";"";"";"";"";"VinFast";"Q56660561";"";"";"";"";"";"";"";"";"";"";"VinFast";"";"";"yes"
"11203075429";"21.1982952";"105.7762525";"charging_station";"";"Vietnam";"Ha Noi";"N/A";"N/A";"";"";"";"";"VinFast";"Q56660561";"";"";"";"";"";"";"";"";"";"";"VinFast";"";"Mo-Su 05:00-22:00";"yes"
"11203078942";"21.2592422";"105.8491066";"charging_station";"";"Vietnam";"Ha Noi";"N/A";"N/A";"";"";"";"";"VinFast";"Q56660561";"";"";"";"";"";"";"";"";"";"";"VinFast";"";"";"yes"
"11203078943";"21.1980847";"105.8196466";"charging_station";"";"Vietnam";"Ha Noi";"N/A";"N/A";"";"";"";"";"VinFast";"Q56660561";"";"";"";"";"";"";"";"";"";"";"VinFast";"";"";"yes"
"11204387937";"20.929402";"105.7848078";"charging_station";"";"Vietnam";"Ha Noi";"N/A";"N/A";"";"";"";"";"VinFast";"Q56660561";"";"";"";"";"";"";"";"";"";"";"VinFast";"";"";"yes"
"11204387938";"20.9304856";"105.7847583";"charging_station";"";"Vietnam";"Ha Noi";"N/A";"N/A";"";"";"";"";"VinFast";"Q56660561";"";"";"";"";"";"";"";"";"";"";"VinFast";"";"";"yes"
"11204387939";"20.9323831";"105.7846771";"charging_station";"";"Vietnam";"Ha Noi";"N/A";"N/A";"";"";"";"";"VinFast";"Q56660561";"";"";"";"";"";"";"";"";"";"";"VinFast";"";"";"yes"
"11204387940";"20.9337751";"105.784641";"charging_station";"";"Vietnam";"Ha Noi";"N/A";"N/A";"";"";"";"";"VinFast";"Q56660561";"";"";"";"";"";"";"";"";"";"";"VinFast";"";"";"yes"
"11204387941";"20.9300958";"105.7884238";"charging_station";"";"Vietnam";"Ha Noi";"N/A";"N/A";"";"";"";"";"VinFast";"Q56660561";"";"";"";"";"";"";"";"";"";"";"VinFast";"";"";"yes"
"11204387942";"20.9333702";"105.7917322";"charging_station";"";"Vietnam";"Ha Noi";"N/A";"N/A";"";"";"";"";"VinFast";"Q56660561";"";"";"";"";"";"";"";"";"";"";"VinFast";"";"";"yes"
"11204387943";"20.929959";"105.7776408";"charging_station";"";"Vietnam";"Ha Noi";"N/A";"N/A";"";"";"";"";"VinFast";"Q56660561";"";"";"";"";"";"";"";"";"";"";"VinFast";"";"";"yes"
"11204387944";"20.946147";"105.8292135";"charging_station";"";"Vietnam";"Ha Noi";"N/A";"N/A";"";"";"";"";"VinFast";"Q56660561";"";"";"";"";"";"";"";"";"";"";"VinFast";"";"";"yes"
"11204387945";"20.9505966";"105.8535402";"charging_station";"";"Vietnam";"Ha Noi";"N/A";"N/A";"";"";"";"";"VinFast";"Q56660561";"";"";"";"";"";"";"";"";"";"";"VinFast";"";"";"yes"
"11204387946";"20.9487446";"105.8532125";"charging_station";"";"Vietnam";"Ha Noi";"N/A";"N/A";"";"";"";"";"VinFast";"Q56660561";"";"";"";"";"";"";"";"";"";"";"VinFast";"";"";"yes"
"11204387947";"20.9330665";"105.8513042";"charging_station";"";"Vietnam";"Ha Noi";"N/A";"N/A";"";"";"";"";"VinFast";"Q56660561";"";"";"";"";"";"";"";"";"";"";"VinFast";"";"";"yes"
"11204387948";"20.9323069";"105.8504211";"charging_station";"";"Vietnam";"Ha Noi";"N/A";"N/A";"";"";"";"";"VinFast";"Q56660561";"";"";"";"";"";"";"";"";"";"";"VinFast";"";"";"yes"
"11204387959";"21.1329664";"105.7600791";"charging_station";"";"Vietnam";"Ha Noi";"N/A";"N/A";"";"";"";"";"VinFast";"Q56660561";"";"";"";"";"";"";"";"";"";"";"VinFast";"";"";"yes"
"11204387961";"21.112381";"105.8284485";"charging_station";"";"Vietnam";"Ha Noi";"N/A";"N/A";"";"";"";"";"VinFast";"Q56660561";"";"";"";"";"";"";"";"";"";"";"VinFast";"";"";"yes"
"11204387962";"21.1483607";"105.8365487";"charging_station";"";"Vietnam";"Ha Noi";"N/A";"N/A";"";"";"";"";"VinFast";"Q56660561";"";"";"";"";"";"";"";"";"";"";"VinFast";"";"";"yes"
"11204387963";"21.127481";"105.8676893";"charging_station";"";"Vietnam";"Ha Noi";"N/A";"N/A";"";"";"";"";"VinFast";"Q56660561";"";"";"";"";"";"";"";"";"";"";"VinFast";"";"";"yes"
"11204387964";"21.141312";"105.8740299";"charging_station";"";"Vietnam";"Ha Noi";"N/A";"N/A";"";"";"";"";"VinFast";"Q56660561";"";"";"";"";"";"";"";"";"";"";"VinFast";"";"";"yes"
"11204387966";"21.0345817";"105.819124";"charging_station";"";"Vietnam";"Ha Noi";"N/A";"N/A";"";"";"";"";"VinFast";"Q56660561";"";"";"";"";"";"";"";"";"";"";"VinFast";"";"";"yes"
"11204387967";"21.0318593";"105.8143599";"charging_station";"";"Vietnam";"Ha Noi";"N/A";"N/A";"";"";"";"";"VinFast";"Q56660561";"";"";"";"";"";"";"";"";"";"";"VinFast";"";"";"yes"
"11204387968";"21.03163";"105.8143033";"charging_station";"";"Vietnam";"Ha Noi";"N/A";"N/A";"";"";"";"";"VinFast";"Q56660561";"";"";"";"";"";"";"";"";"";"";"VinFast";"";"";"yes"
"11204387969";"21.042177";"105.7591934";"charging_station";"";"Vietnam";"Ha Noi";"N/A";"N/A";"";"";"";"";"VinFast";"Q56660561";"";"";"";"";"";"";"";"";"";"";"VinFast";"";"";"yes"
"11204387970";"21.0518173";"105.7803964";"charging_station";"";"Vietnam";"Ha Noi";"N/A";"N/A";"";"";"";"";"VinFast";"Q56660561";"";"";"";"";"";"";"";"";"";"";"VinFast";"";"";"yes"
"11204387973";"21.0717119";"105.7851026";"charging_station";"";"Vietnam";"Ha Noi";"N/A";"N/A";"";"";"";"";"VinFast";"Q56660561";"";"";"";"";"";"";"";"";"";"";"VinFast";"";"Mo-Sa 07:00-22:00; PH off";"yes"
"11204387974";"21.0682996";"105.7862281";"charging_station";"";"Vietnam";"Ha Noi";"N/A";"N/A";"";"";"";"";"VinFast";"Q56660561";"";"";"";"";"";"";"";"";"";"";"VinFast";"";"";"yes"
"11204387975";"21.0639605";"105.796396";"charging_station";"";"Vietnam";"Ha Noi";"N/A";"N/A";"";"";"";"";"VinFast";"Q56660561";"";"";"";"";"";"";"";"";"";"";"VinFast";"";"";"yes"
"11204387976";"21.0390193";"105.8053982";"charging_station";"";"Vietnam";"Ha Noi";"N/A";"N/A";"";"";"";"";"VinFast";"Q56660561";"";"";"";"";"";"";"";"";"";"";"VinFast";"";"";"yes"
"11204387977";"21.0355197";"105.7947678";"charging_station";"";"Vietnam";"Ha Noi";"N/A";"N/A";"";"";"";"";"VinFast";"Q56660561";"";"";"";"";"";"";"";"";"";"";"VinFast";"";"";"yes"
"11204387978";"21.035453";"105.7949235";"charging_station";"";"Vietnam";"Ha Noi";"N/A";"N/A";"";"";"";"";"VinFast";"Q56660561";"16";"";"";"";"";"";"";"";"";"";"VinFast";"";"";"yes"
"11204387979";"21.0337047";"105.779678";"charging_station";"";"Vietnam";"Ha Noi";"N/A";"N/A";"";"";"";"";"VinFast";"Q56660561";"";"";"";"";"";"";"";"";"";"";"VinFast";"";"Mo-Sa 07:00-19:00; PH off";"yes"
"11204387980";"21.0310639";"105.7811902";"charging_station";"";"Vietnam";"Ha Noi";"N/A";"N/A";"";"";"";"";"VinFast";"Q56660561";"";"";"";"";"";"";"";"";"";"";"VinFast";"";"";"yes"
"11204387981";"21.0129356";"105.7909211";"charging_station";"";"Vietnam";"Ha Noi";"N/A";"N/A";"";"";"";"";"VinFast";"Q56660561";"";"";"";"";"";"";"";"";"";"";"VinFast";"";"";"yes"
"11204387982";"21.0070676";"105.7939337";"charging_station";"";"Vietnam";"Ha Noi";"N/A";"N/A";"";"";"";"";"VinFast";"Q56660561";"";"";"";"";"";"";"";"";"";"";"VinFast";"";"";"yes"
"11204387984";"21.0040704";"105.7943858";"charging_station";"";"Vietnam";"Ha Noi";"N/A";"N/A";"";"";"";"";"VinFast";"Q56660561";"";"";"";"";"";"";"";"";"";"";"VinFast";"";"";"yes"
"11204387985";"21.0045718";"105.7942311";"charging_station";"";"Vietnam";"Ha Noi";"N/A";"N/A";"";"";"";"";"VinFast";"Q56660561";"";"";"";"";"";"";"";"";"";"";"VinFast";"";"";"yes"
"11204387986";"21.0052433";"105.7944223";"charging_station";"";"Vietnam";"Ha Noi";"N/A";"N/A";"";"";"";"";"VinFast";"Q56660561";"";"";"";"";"";"";"";"";"";"";"VinFast";"";"";"yes"
"11204387987";"21.0095758";"105.8474603";"charging_station";"";"Vietnam";"Ha Noi";"N/A";"N/A";"";"";"";"";"VinFast";"Q56660561";"";"";"";"";"";"";"";"";"";"";"VinFast";"";"";"yes"
"11204387988";"20.9980806";"105.8680793";"charging_station";"";"Vietnam";"Ha Noi";"N/A";"N/A";"";"";"";"";"VinFast";"Q56660561";"";"";"";"";"";"";"";"";"";"";"VinFast";"";"";"yes"
"11204387989";"20.9969716";"105.8671593";"charging_station";"";"Vietnam";"Ha Noi";"N/A";"N/A";"";"";"";"";"VinFast";"Q56660561";"";"";"";"";"";"";"";"";"";"";"VinFast";"";"";"yes"
"11204387990";"20.9969835";"105.8667127";"charging_station";"";"Vietnam";"Ha Noi";"N/A";"N/A";"";"";"";"";"VinFast";"Q56660561";"";"";"";"";"";"";"";"";"";"";"VinFast";"";"";"yes"
"11204387991";"20.9954803";"105.8670164";"charging_station";"";"Vietnam";"Ha Noi";"N/A";"N/A";"";"";"";"";"VinFast";"Q56660561";"";"";"";"";"";"";"";"";"";"";"VinFast";"";"";"yes"
"11204387992";"20.9952992";"105.8669909";"charging_station";"";"Vietnam";"Ha Noi";"N/A";"N/A";"";"";"";"";"VinFast";"Q56660561";"";"";"";"";"";"";"";"";"";"";"VinFast";"";"";"yes"
"11204387994";"20.9967679";"105.869389";"charging_station";"";"Vietnam";"Ha Noi";"N/A";"N/A";"";"";"";"";"VinFast";"Q56660561";"";"";"";"";"";"";"";"";"";"";"VinFast";"";"";"yes"
"11204387995";"20.996663";"105.8695778";"charging_station";"";"Vietnam";"Ha Noi";"N/A";"N/A";"";"";"";"";"VinFast";"Q56660561";"";"";"";"";"";"";"";"";"";"";"VinFast";"";"";"yes"
"11204387996";"20.997501";"105.8683757";"charging_station";"";"Vietnam";"Ha Noi";"N/A";"N/A";"";"";"";"";"VinFast";"Q56660561";"";"";"";"";"";"";"";"";"";"";"VinFast";"";"";"yes"
"11204387997";"20.9906469";"105.8682409";"charging_station";"";"Vietnam";"Ha Noi";"N/A";"N/A";"";"";"";"";"VinFast";"Q56660561";"";"";"";"";"";"";"";"";"";"";"VinFast";"";"";"yes"
"11204387998";"20.9906469";"105.8696944";"charging_station";"";"Vietnam";"Ha Noi";"N/A";"N/A";"";"";"";"";"VinFast";"Q56660561";"";"";"";"";"";"";"";"";"";"";"VinFast";"";"";"yes"
"11204387999";"20.9917349";"105.867194";"charging_station";"";"Vietnam";"Ha Noi";"N/A";"N/A";"";"";"";"";"VinFast";"Q56660561";"";"";"";"";"";"";"";"";"";"";"VinFast";"";"";"yes"
"11204388000";"20.9850391";"105.8464213";"charging_station";"";"Vietnam";"Ha Noi";"N/A";"N/A";"";"";"";"";"VinFast";"Q56660561";"";"";"";"";"";"";"";"";"";"";"VinFast";"";"";"yes"
"11204388001";"20.9852571";"105.8465131";"charging_station";"";"Vietnam";"Ha Noi";"N/A";"N/A";"";"";"";"";"VinFast";"Q56660561";"8";"";"";"";"";"";"";"";"";"";"VinFast";"";"";"yes"
"11204388011";"20.9731509";"105.8384642";"charging_station";"";"Vietnam";"Ha Noi";"N/A";"N/A";"";"";"";"";"VinFast";"Q56660561";"";"";"";"";"";"";"";"";"";"";"VinFast";"";"";"yes"
"11204388012";"20.9727668";"105.839331";"charging_station";"";"Vietnam";"Ha Noi";"N/A";"N/A";"";"";"";"";"VinFast";"Q56660561";"";"";"";"";"";"";"";"";"";"";"VinFast";"";"";"yes"
"11204388013";"20.9737961";"105.8382899";"charging_station";"";"Vietnam";"Ha Noi";"N/A";"N/A";"";"";"";"";"VinFast";"Q56660561";"";"";"";"";"";"";"";"";"";"";"VinFast";"";"";"yes"
"11204388014";"20.9805775";"105.8137416";"charging_station";"";"Vietnam";"Ha Noi";"N/A";"N/A";"";"8";"";"";"VinFast";"Q56660561";"";"";"";"";"";"";"";"";"";"";"VinFast";"";"";"yes"
"11204388015";"20.9724956";"105.8769823";"charging_station";"";"Vietnam";"Ha Noi";"N/A";"N/A";"";"";"";"";"VinFast";"Q56660561";"";"";"";"";"";"";"";"";"";"";"VinFast";"";"";"yes"
"11204388016";"20.9710014";"105.8790261";"charging_station";"";"Vietnam";"Ha Noi";"N/A";"N/A";"";"";"";"";"VinFast";"Q56660561";"";"";"";"";"";"";"";"";"";"";"VinFast";"";"";"yes"
"11204388017";"20.9704104";"105.8780777";"charging_station";"";"Vietnam";"Ha Noi";"N/A";"N/A";"";"";"";"";"VinFast";"Q56660561";"";"";"";"";"";"";"";"";"";"";"VinFast";"";"";"yes"
"11204388018";"20.9647702";"105.853345";"charging_station";"";"Vietnam";"Ha Noi";"N/A";"N/A";"";"";"";"";"VinFast";"Q56660561";"";"";"";"";"";"";"";"";"";"";"VinFast";"";"Mo-Sa 07:00-19:00; PH off";"yes"
"11204388031";"20.9611752";"105.8598868";"charging_station";"";"Vietnam";"Ha Noi";"N/A";"N/A";"";"";"";"";"VinFast";"Q56660561";"";"";"";"";"";"";"";"";"";"";"VinFast";"";"Mo-Sa 00:00-23:59; PH off";"yes"
"11204388032";"20.9640591";"105.844595";"charging_station";"";"Vietnam";"Ha Noi";"N/A";"N/A";"";"";"";"";"VinFast";"Q56660561";"";"";"";"";"";"";"";"";"";"";"VinFast";"";"";"yes"
"11204388033";"20.9631627";"105.8447358";"charging_station";"";"Vietnam";"Ha Noi";"N/A";"N/A";"";"";"";"";"VinFast";"Q56660561";"";"";"";"";"";"";"";"";"";"";"VinFast";"";"";"yes"
"11204388034";"20.9640153";"105.8445494";"charging_station";"";"Vietnam";"Ha Noi";"N/A";"N/A";"";"";"";"";"VinFast";"Q56660561";"";"";"";"";"";"";"";"";"";"";"VinFast";"";"";"yes"
"11204388035";"20.9630498";"105.8447231";"charging_station";"";"Vietnam";"Ha Noi";"N/A";"N/A";"";"";"";"";"VinFast";"Q56660561";"";"";"";"";"";"";"";"";"";"";"VinFast";"";"";"yes"
"11204388082";"20.9642832";"105.8220043";"charging_station";"";"Vietnam";"Ha Noi";"N/A";"N/A";"";"";"";"";"VinFast";"Q56660561";"";"";"";"";"";"";"";"";"";"";"VinFast";"";"";"yes"
"11204388083";"20.9640139";"105.8240304";"charging_station";"";"Vietnam";"Ha Noi";"N/A";"N/A";"";"";"";"";"VinFast";"Q56660561";"";"";"";"";"";"";"";"";"";"";"VinFast";"";"";"yes"
"11207463890";"20.9747509";"105.787769";"charging_station";"";"Vietnam";"Ha Noi";"N/A";"N/A";"";"";"";"";"VinFast";"Q56660561";"";"";"";"";"";"";"";"";"";"";"VinFast";"";"";"yes"
"11207463891";"20.9679613";"105.7926404";"charging_station";"";"Vietnam";"Ha Noi";"N/A";"N/A";"";"";"";"";"VinFast";"Q56660561";"";"";"";"";"";"";"";"";"";"";"VinFast";"";"";"yes"
"11207463892";"20.9808112";"105.7666676";"charging_station";"";"Vietnam";"Ha Noi";"N/A";"N/A";"";"";"";"";"VinFast";"Q56660561";"";"";"";"";"";"";"";"";"";"";"VinFast";"";"Mo-Su 06:00-22:00";"yes"
"11207463893";"20.9809855";"105.7666889";"charging_station";"";"Vietnam";"Ha Noi";"N/A";"N/A";"";"";"";"";"VinFast";"Q56660561";"8";"";"";"";"";"";"";"";"";"";"VinFast";"";"Mo-Su 06:00-22:00";"yes"
"11207463894";"20.9760445";"105.7628467";"charging_station";"";"Vietnam";"Ha Noi";"N/A";"N/A";"";"";"";"";"VinFast";"Q56660561";"";"";"";"";"";"";"";"";"";"";"VinFast";"";"";"yes"
"11207463912";"20.9866529";"105.7377467";"charging_station";"";"Vietnam";"Ha Noi";"N/A";"N/A";"";"";"";"";"VinFast";"Q56660561";"";"";"";"";"";"";"";"";"";"";"VinFast";"";"";"yes"
"11207463917";"20.9668086";"105.7699121";"charging_station";"";"Vietnam";"Ha Noi";"N/A";"N/A";"";"";"";"";"VinFast";"Q56660561";"";"";"";"";"";"";"";"";"";"";"VinFast";"";"";"yes"
"11207463918";"20.9629422";"105.7593465";"charging_station";"";"Vietnam";"Ha Noi";"N/A";"N/A";"";"";"";"";"VinFast";"Q56660561";"";"";"";"";"";"";"";"";"";"";"VinFast";"";"Mo-Su 06:00-22:00; PH off";"yes"
"11207463924";"20.9568709";"105.756534";"charging_station";"";"Vietnam";"Ha Noi";"N/A";"N/A";"";"";"";"";"VinFast";"Q56660561";"";"";"";"";"";"";"";"";"";"";"VinFast";"";"";"yes"
"11207463926";"20.9525991";"105.7515475";"charging_station";"";"Vietnam";"Ha Noi";"N/A";"N/A";"";"";"";"";"VinFast";"Q56660561";"";"";"";"";"";"";"";"";"";"";"VinFast";"";"";"yes"
"11207463928";"20.9605816";"105.7407354";"charging_station";"";"Vietnam";"Ha Noi";"N/A";"N/A";"";"";"";"";"VinFast";"Q56660561";"";"";"";"";"";"";"";"";"";"";"VinFast";"";"";"yes"
"11207463929";"20.9601509";"105.7418127";"charging_station";"";"Vietnam";"Ha Noi";"N/A";"N/A";"";"";"";"";"VinFast";"Q56660561";"";"";"";"";"";"";"";"";"";"";"VinFast";"";"";"yes"
"11207463930";"21.0264214";"105.8948789";"charging_station";"";"Vietnam";"Ha Noi";"N/A";"N/A";"";"";"";"";"VinFast";"Q56660561";"";"";"";"";"";"";"";"";"";"";"VinFast";"";"";"yes"
"11207463931";"21.0188214";"105.9064403";"charging_station";"";"Vietnam";"Ha Noi";"N/A";"N/A";"";"";"";"";"VinFast";"Q56660561";"";"";"";"";"";"";"";"";"";"";"VinFast";"";"";"yes"
"11207463932";"21.035589";"105.9333772";"charging_station";"";"Vietnam";"Ha Noi";"N/A";"N/A";"";"";"";"";"VinFast";"Q56660561";"";"";"";"";"";"";"";"";"";"";"VinFast";"";"Mo-Sa 06:00-21:00; PH off";"yes"
"11207463933";"21.0357454";"105.9335284";"charging_station";"";"Vietnam";"Ha Noi";"N/A";"N/A";"";"";"";"";"VinFast";"Q56660561";"32";"";"";"";"";"";"";"";"";"";"VinFast";"";"PH off";"yes"
"11207463934";"21.0408088";"105.9274084";"charging_station";"";"Vietnam";"Ha Noi";"N/A";"N/A";"";"";"";"";"VinFast";"Q56660561";"";"";"";"";"";"";"";"";"";"";"VinFast";"";"";"yes"
"11207463935";"21.0405809";"105.9240032";"charging_station";"";"Vietnam";"Ha Noi";"N/A";"N/A";"";"";"";"";"VinFast";"Q56660561";"";"";"";"";"";"";"";"";"";"";"VinFast";"";"";"yes"
"11207463936";"21.045837";"105.9178718";"charging_station";"";"Vietnam";"Ha Noi";"N/A";"N/A";"";"";"";"";"VinFast";"Q56660561";"";"";"";"";"";"";"";"";"";"";"VinFast";"";"";"yes"
"11207515037";"21.0460514";"105.9181168";"charging_station";"";"Vietnam";"Ha Noi";"N/A";"N/A";"";"";"";"";"VinFast";"Q56660561";"48";"";"";"";"";"";"";"";"";"";"VinFast";"";"";"yes"
"11207515038";"21.0490564";"105.9168564";"charging_station";"";"Vietnam";"Ha Noi";"N/A";"N/A";"";"";"";"";"VinFast";"Q56660561";"8";"";"";"";"";"";"";"";"";"";"VinFast";"";"";"yes"
"11207515040";"21.0505281";"105.9157827";"charging_station";"";"Vietnam";"Ha Noi";"N/A";"N/A";"";"";"";"";"VinFast";"Q56660561";"";"";"";"";"";"";"";"";"";"";"VinFast";"";"";"yes"
"11207515041";"21.0508851";"105.9154164";"charging_station";"";"Vietnam";"Ha Noi";"N/A";"N/A";"";"";"";"";"VinFast";"Q56660561";"";"";"";"";"";"";"";"";"";"";"VinFast";"";"";"yes"
"11207515042";"21.0513785";"105.9167751";"charging_station";"";"Vietnam";"Ha Noi";"N/A";"N/A";"";"";"";"";"VinFast";"Q56660561";"";"";"";"";"";"";"";"";"";"";"VinFast";"";"Mo-Sa 00:00-23:59; PH off";"yes"
"11207515043";"21.0429064";"105.9035624";"charging_station";"";"Vietnam";"Ha Noi";"N/A";"N/A";"";"";"";"";"VinFast";"Q56660561";"160";"";"";"";"";"";"";"";"";"";"VinFast";"";"";"yes"
"11207515044";"21.0477251";"105.9030661";"charging_station";"";"Vietnam";"Ha Noi";"N/A";"N/A";"";"";"";"";"VinFast";"Q56660561";"";"";"";"";"";"";"";"";"";"";"VinFast";"";"";"yes"
"11207515045";"21.0440943";"105.9112741";"charging_station";"";"Vietnam";"Ha Noi";"N/A";"N/A";"";"";"";"";"VinFast";"Q56660561";"";"";"";"";"";"";"";"";"";"";"VinFast";"";"";"yes"
"11207515046";"21.0482716";"105.9089476";"charging_station";"";"Vietnam";"Ha Noi";"N/A";"N/A";"";"";"";"";"VinFast";"Q56660561";"";"";"";"";"";"";"";"";"";"";"VinFast";"";"";"yes"
"11207515047";"21.0511529";"105.9082591";"charging_station";"";"Vietnam";"Ha Noi";"N/A";"N/A";"";"";"";"";"VinFast";"Q56660561";"";"";"";"";"";"";"";"";"";"";"VinFast";"";"";"yes"
"11207515048";"21.0515791";"105.9084245";"charging_station";"";"Vietnam";"Ha Noi";"N/A";"N/A";"";"";"";"";"VinFast";"Q56660561";"";"";"";"";"";"";"";"";"";"";"VinFast";"";"";"yes"
"11207515049";"21.0514118";"105.9098139";"charging_station";"";"Vietnam";"Ha Noi";"N/A";"N/A";"";"";"";"";"VinFast";"Q56660561";"";"";"";"";"";"";"";"";"";"";"VinFast";"";"";"yes"
"11207515050";"21.0516381";"105.9096207";"charging_station";"";"Vietnam";"Ha Noi";"N/A";"N/A";"";"";"";"";"VinFast";"Q56660561";"";"";"";"";"";"";"";"";"";"";"VinFast";"";"";"yes"
"11207515051";"21.0433412";"105.907767";"charging_station";"";"Vietnam";"Ha Noi";"N/A";"N/A";"";"";"";"";"VinFast";"Q56660561";"";"";"";"";"";"";"";"";"";"";"VinFast";"";"";"yes"
"11207515052";"21.0435253";"105.9077533";"charging_station";"";"Vietnam";"Ha Noi";"N/A";"N/A";"";"";"";"";"VinFast";"Q56660561";"";"";"";"";"";"";"";"";"";"";"VinFast";"";"";"yes"
"11207515053";"21.0459154";"105.9049556";"charging_station";"";"Vietnam";"Ha Noi";"N/A";"N/A";"";"";"";"";"VinFast";"Q56660561";"";"";"";"";"";"";"";"";"";"";"VinFast";"";"";"yes"
"11207515054";"21.0431705";"105.9032371";"charging_station";"";"Vietnam";"Ha Noi";"N/A";"N/A";"";"";"";"";"VinFast";"Q56660561";"";"";"";"";"";"";"";"";"";"";"VinFast";"";"";"yes"
"11207515055";"21.0415572";"105.9072825";"charging_station";"";"Vietnam";"Ha Noi";"N/A";"N/A";"";"";"";"";"VinFast";"Q56660561";"";"";"";"";"";"";"";"";"";"";"VinFast";"";"";"yes"
"11207515056";"21.03931";"105.9066833";"charging_station";"";"Vietnam";"Ha Noi";"N/A";"N/A";"";"";"";"";"VinFast";"Q56660561";"";"";"";"";"";"";"";"";"";"";"VinFast";"";"";"yes"
"11207515057";"21.0374179";"105.9080502";"charging_station";"";"Vietnam";"Ha Noi";"N/A";"N/A";"";"";"";"";"VinFast";"Q56660561";"";"";"";"";"";"";"";"";"";"";"VinFast";"";"";"yes"
"11208353264";"21.0557105";"105.9112879";"charging_station";"";"Vietnam";"Ha Noi";"N/A";"N/A";"";"";"";"";"VinFast";"Q56660561";"";"";"";"";"";"";"";"";"";"";"VinFast";"";"Mo-Sa 06:00-21:00; PH off";"yes"
"11208353265";"21.0560856";"105.9120926";"charging_station";"";"Vietnam";"Ha Noi";"N/A";"N/A";"";"";"";"";"VinFast";"Q56660561";"";"";"";"";"";"";"";"";"";"";"VinFast";"";"Mo-Sa 06:00-21:00; PH off";"yes"
"11208353282";"21.0595766";"105.9143705";"charging_station";"";"Vietnam";"Ha Noi";"N/A";"N/A";"";"";"";"";"VinFast";"Q56660561";"";"";"";"";"";"";"";"";"";"";"VinFast";"";"";"yes"
"11208353283";"21.0593811";"105.9140556";"charging_station";"";"Vietnam";"Ha Noi";"N/A";"N/A";"";"";"";"";"VinFast";"Q56660561";"12";"";"";"";"";"";"";"";"";"";"VinFast";"";"";"yes"
"11208353284";"21.0628941";"105.9135807";"charging_station";"";"Vietnam";"Ha Noi";"N/A";"N/A";"";"";"";"";"VinFast";"Q56660561";"";"";"";"";"";"";"";"";"";"";"VinFast";"";"Mo-Sa 06:00-21:00; PH off";"yes"
"11208353285";"21.0680098";"105.9050962";"charging_station";"";"Vietnam";"Ha Noi";"N/A";"N/A";"";"";"";"";"VinFast";"Q56660561";"";"";"";"";"";"";"";"";"";"";"VinFast";"";"";"yes"
"11208353286";"21.0561808";"105.8846786";"charging_station";"";"Vietnam";"Ha Noi";"N/A";"N/A";"";"";"";"";"VinFast";"Q56660561";"";"";"";"";"";"";"";"";"";"";"VinFast";"";"Mo-Sa 06:00-21:00; PH off";"yes"
"11208353287";"21.0537975";"105.8761257";"charging_station";"";"Vietnam";"Ha Noi";"N/A";"N/A";"";"";"";"";"VinFast";"Q56660561";"";"";"";"";"";"";"";"";"";"";"VinFast";"";"Mo-Sa 06:00-21:00; PH off";"yes"
"11208353288";"21.0649569";"105.879475";"charging_station";"";"Vietnam";"Ha Noi";"N/A";"N/A";"";"";"";"";"VinFast";"Q56660561";"";"";"";"";"";"";"";"";"";"";"VinFast";"";"";"yes"
"11208353289";"21.0449062";"105.7681693";"charging_station";"";"Vietnam";"Ha Noi";"N/A";"N/A";"";"";"";"";"VinFast";"Q56660561";"";"";"";"";"";"";"";"";"";"";"VinFast";"";"";"yes"
"11208353291";"21.0402763";"105.7413163";"charging_station";"";"Vietnam";"Ha Noi";"N/A";"N/A";"";"";"";"";"VinFast";"Q56660561";"";"";"";"";"";"";"";"";"";"";"VinFast";"";"";"yes"
"11208353292";"21.0355101";"105.7598233";"charging_station";"";"Vietnam";"Ha Noi";"N/A";"N/A";"";"";"";"";"VinFast";"Q56660561";"";"";"";"";"";"";"";"";"";"";"VinFast";"";"";"yes"
"11208353293";"21.0356363";"105.7599585";"charging_station";"";"Vietnam";"Ha Noi";"N/A";"N/A";"";"";"";"";"VinFast";"Q56660561";"54";"";"";"";"";"";"";"";"";"";"VinFast";"";"";"yes"
"11208353294";"21.0347282";"105.7615384";"charging_station";"";"Vietnam";"Ha Noi";"N/A";"N/A";"";"";"";"";"VinFast";"Q56660561";"";"";"";"";"";"";"";"";"";"";"VinFast";"";"";"yes"
"11208353316";"21.0338511";"105.7596078";"charging_station";"";"Vietnam";"Ha Noi";"N/A";"N/A";"";"";"";"";"VinFast";"Q56660561";"";"";"";"";"";"";"";"";"";"";"VinFast";"";"";"yes"
"11208353317";"21.0166523";"105.7477388";"charging_station";"";"Vietnam";"Ha Noi";"N/A";"N/A";"";"";"";"";"VinFast";"Q56660561";"";"";"";"";"";"";"";"";"";"";"VinFast";"";"";"yes"
"11208353318";"21.0202922";"105.781753";"charging_station";"";"Vietnam";"Ha Noi";"N/A";"N/A";"";"";"";"";"VinFast";"Q56660561";"";"";"";"";"";"";"";"";"";"";"VinFast";"";"";"yes"
"11208353319";"21.0203686";"105.7814648";"charging_station";"";"Vietnam";"Ha Noi";"N/A";"N/A";"";"";"";"";"VinFast";"Q56660561";"";"";"";"";"";"";"";"";"";"";"VinFast";"";"";"yes"
"11208353320";"21.0144259";"105.7815678";"charging_station";"";"Vietnam";"Ha Noi";"N/A";"N/A";"";"";"";"";"VinFast";"Q56660561";"10";"";"";"";"";"";"";"";"";"";"VinFast";"";"";"yes"
"11208353321";"21.0143704";"105.78139";"charging_station";"";"Vietnam";"Ha Noi";"N/A";"N/A";"";"";"";"";"VinFast";"Q56660561";"";"";"";"";"";"";"";"";"";"";"VinFast";"";"";"yes"
"11208375935";"21.0060202";"105.7907696";"charging_station";"";"Vietnam";"Ha Noi";"N/A";"N/A";"";"";"";"";"VinFast";"Q56660561";"";"";"";"";"";"";"";"";"";"";"VinFast";"";"";"yes"
"11208375936";"21.0035042";"105.7829848";"charging_station";"";"Vietnam";"Ha Noi";"N/A";"N/A";"";"";"";"";"VinFast";"Q56660561";"";"";"";"";"";"";"";"";"";"";"VinFast";"";"";"yes"
"11208375937";"21.0007987";"105.7833589";"charging_station";"";"Vietnam";"Ha Noi";"N/A";"N/A";"";"";"";"";"VinFast";"Q56660561";"";"";"";"";"";"";"";"";"";"";"VinFast";"";"";"yes"
"11208375938";"21.0007024";"105.7832254";"charging_station";"";"Vietnam";"Ha Noi";"N/A";"N/A";"";"";"";"";"VinFast";"Q56660561";"";"";"";"";"";"";"";"";"";"";"VinFast";"";"";"yes"
"11208375939";"21.0005623";"105.791333";"charging_station";"";"Vietnam";"Ha Noi";"N/A";"N/A";"";"";"";"";"VinFast";"Q56660561";"486";"";"";"";"";"";"";"";"";"";"VinFast";"";"";"yes"
"11208375940";"20.9926606";"105.7884789";"charging_station";"";"Vietnam";"Ha Noi";"N/A";"N/A";"";"";"";"";"VinFast";"Q56660561";"";"";"";"";"";"";"";"";"";"";"VinFast";"";"";"yes"
"11208375941";"20.9909791";"105.7877886";"charging_station";"";"Vietnam";"Ha Noi";"N/A";"N/A";"";"";"";"";"VinFast";"Q56660561";"";"";"";"";"";"";"";"";"";"";"VinFast";"";"";"yes"
"11208375942";"21.000863";"105.8157156";"charging_station";"";"Vietnam";"Ha Noi";"N/A";"N/A";"";"";"";"";"VinFast";"Q56660561";"";"";"";"";"";"";"";"";"";"";"VinFast";"";"";"yes"
"11208375943";"21.0009885";"105.8157871";"charging_station";"";"Vietnam";"Ha Noi";"N/A";"N/A";"";"";"";"";"VinFast";"Q56660561";"";"";"";"";"";"";"";"";"";"";"VinFast";"";"";"yes"
"11208375944";"21.0003345";"105.8143601";"charging_station";"";"Vietnam";"Ha Noi";"N/A";"N/A";"";"";"";"";"VinFast";"Q56660561";"";"";"";"";"";"";"";"";"";"";"VinFast";"";"";"yes"
"11208375945";"21.0002724";"105.8145789";"charging_station";"";"Vietnam";"Ha Noi";"N/A";"N/A";"";"";"";"";"VinFast";"Q56660561";"";"";"";"";"";"";"";"";"";"";"VinFast";"";"";"yes"
"11208375946";"21.0024869";"105.8023139";"charging_station";"";"Vietnam";"Ha Noi";"N/A";"N/A";"";"";"";"";"VinFast";"Q56660561";"";"";"";"";"";"";"";"";"";"";"VinFast";"";"";"yes"
"11208375947";"21.0001043";"105.7999944";"charging_station";"";"Vietnam";"Ha Noi";"N/A";"N/A";"";"";"";"";"VinFast";"Q56660561";"";"";"";"";"";"";"";"";"";"";"VinFast";"";"Mo-Su 08:30-22:00";"yes"
"11208375949";"21.0005399";"105.8039611";"charging_station";"";"Vietnam";"Ha Noi";"N/A";"N/A";"";"";"";"";"VinFast";"Q56660561";"";"";"";"";"";"";"";"";"";"";"VinFast";"";"";"yes"
"11208375950";"21.0006713";"105.8038529";"charging_station";"";"Vietnam";"Ha Noi";"N/A";"N/A";"";"";"";"";"VinFast";"Q56660561";"16";"";"";"";"";"";"";"";"";"";"VinFast";"";"";"yes"
"11208375951";"20.9837682";"105.7989441";"charging_station";"";"Vietnam";"Ha Noi";"N/A";"N/A";"";"";"";"";"VinFast";"Q56660561";"";"";"";"";"";"";"";"";"";"";"VinFast";"";"";"yes"
"11208375952";"21.0755478";"105.8133106";"charging_station";"";"Vietnam";"Ha Noi";"N/A";"N/A";"";"";"";"";"VinFast";"Q56660561";"";"";"";"";"";"";"";"";"";"";"VinFast";"";"";"yes"
"11208375953";"21.0707561";"105.8095734";"charging_station";"";"Vietnam";"Ha Noi";"N/A";"N/A";"";"";"";"";"VinFast";"Q56660561";"";"";"";"";"";"";"";"";"";"";"VinFast";"";"";"yes"
"11208375954";"21.0698553";"105.8115546";"charging_station";"";"Vietnam";"Ha Noi";"N/A";"N/A";"";"";"";"";"VinFast";"Q56660561";"";"";"";"";"";"";"";"";"";"";"VinFast";"";"";"yes"
"11208375955";"21.0663165";"105.8261229";"charging_station";"";"Vietnam";"Ha Noi";"N/A";"N/A";"";"";"";"";"VinFast";"Q56660561";"";"";"";"";"";"";"";"";"";"";"VinFast";"";"";"yes"
"11208375956";"21.0663547";"105.8260258";"charging_station";"";"Vietnam";"Ha Noi";"N/A";"N/A";"";"";"";"";"VinFast";"Q56660561";"8";"";"";"";"";"";"";"";"";"";"VinFast";"";"";"yes"
"11208375957";"21.0658044";"105.8269546";"charging_station";"";"Vietnam";"Ha Noi";"N/A";"N/A";"";"";"";"";"VinFast";"Q56660561";"";"";"";"";"";"";"";"";"";"";"VinFast";"";"";"yes"
"11208375958";"21.044122";"105.818662";"charging_station";"";"Vietnam";"Ha Noi";"N/A";"N/A";"";"";"";"";"VinFast";"Q56660561";"";"";"";"";"";"";"";"";"";"";"VinFast";"";"";"yes"
"11208375959";"21.0232202";"105.8086192";"charging_station";"";"Vietnam";"Ha Noi";"N/A";"N/A";"";"";"";"";"VinFast";"Q56660561";"";"";"";"";"";"";"";"";"";"";"VinFast";"";"";"yes"
"11208375960";"21.0231166";"105.808697";"charging_station";"";"Vietnam";"Ha Noi";"N/A";"N/A";"";"";"";"";"VinFast";"Q56660561";"";"";"";"";"";"";"";"";"";"";"VinFast";"";"";"yes"
"11208375961";"21.0089892";"105.8150227";"charging_station";"";"Vietnam";"Ha Noi";"N/A";"N/A";"";"";"";"";"VinFast";"Q56660561";"";"";"";"";"";"";"";"";"";"";"VinFast";"";"Mo-Sa 08:00-17:30";"yes"
"11208375962";"21.0063691";"105.8322732";"charging_station";"";"Vietnam";"Ha Noi";"N/A";"N/A";"";"";"";"";"VinFast";"Q56660561";"";"";"";"";"";"";"";"";"";"";"VinFast";"";"";"yes"
"11208375963";"21.0058318";"105.8306058";"charging_station";"";"Vietnam";"Ha Noi";"N/A";"N/A";"";"";"";"";"VinFast";"Q56660561";"";"";"";"";"";"";"";"";"";"";"VinFast";"";"";"yes"
"11367995432";"20.987621";"105.9423992";"charging_station";"";"Vietnam";"Ha Noi";"N/A";"N/A";"";"16";"";"";"VinFast";"Q56660561";"";"";"";"";"";"";"";"";"";"";"VinFast";"";"";"yes"
"12240739583";"20.965844";"105.7557656";"charging_station";"";"Vietnam";"Ha Noi";"N/A";"N/A";"";"";"";"";"";"";"";"";"";"";"";"";"";"";"";"";"Charge+";"";"";""
"12311603571";"21.1424076";"106.0738037";"charging_station";"";"Vietnam";"Bac Ninh";"N/A";"N/A";"";"";"";"";"VinFast";"Q56660561";"";"";"";"";"";"";"";"";"";"";"VinFast";"";"";"yes"
"12311603572";"21.1735435";"106.0644094";"charging_station";"";"Vietnam";"Bac Ninh";"N/A";"N/A";"";"";"";"";"VinFast";"Q56660561";"";"";"";"";"";"";"";"";"";"";"VinFast";"";"";"yes"
"12311603577";"21.1783846";"106.0726283";"charging_station";"";"Vietnam";"Bac Ninh";"N/A";"N/A";"";"";"";"";"VinFast";"Q56660561";"";"";"";"";"";"";"";"";"";"";"VinFast";"";"";"yes"
"12311603579";"21.1767209";"106.0678293";"charging_station";"";"Vietnam";"Bac Ninh";"N/A";"N/A";"";"";"";"";"VinFast";"Q56660561";"";"";"";"";"";"";"";"28";"Đường Lý Thái Tổ";"";"VinFast";"";"";"yes"
"12311603596";"21.1910651";"106.074693";"charging_station";"";"Vietnam";"Bac Ninh";"N/A";"N/A";"";"";"";"";"VinFast";"Q56660561";"";"";"";"";"";"";"";"";"";"";"VinFast";"";"";"yes"
"12311675103";"21.0919961";"105.9602975";"charging_station";"";"Vietnam";"Ha Noi";"N/A";"N/A";"";"";"";"";"VinFast";"Q56660561";"";"";"";"";"";"";"";"";"";"";"VinFast";"";"";"yes"
"12311675104";"21.1030388";"105.9624048";"charging_station";"";"Vietnam";"Bac Ninh";"N/A";"N/A";"";"";"";"";"VinFast";"Q56660561";"";"";"";"";"";"";"";"";"";"";"VinFast";"";"";"yes"
"12311675105";"21.1802789";"106.0191732";"charging_station";"";"Vietnam";"Bac Ninh";"N/A";"N/A";"";"";"";"";"VinFast";"Q56660561";"";"";"";"";"";"";"";"";"";"";"VinFast";"";"";"yes"
"12311675106";"21.2093903";"105.9967797";"charging_station";"";"Vietnam";"Bac Ninh";"N/A";"N/A";"";"";"";"";"VinFast";"Q56660561";"";"";"";"";"";"";"";"";"";"";"VinFast";"";"";"yes"
"12311675107";"21.2351532";"106.0073308";"charging_station";"";"Vietnam";"Bac Ninh";"N/A";"N/A";"";"";"";"";"VinFast";"Q56660561";"";"";"";"";"";"";"";"";"";"";"VinFast";"";"";"yes"
"12311675112";"21.17809";"105.9565941";"charging_station";"";"Vietnam";"Bac Ninh";"N/A";"N/A";"";"";"";"";"VinFast";"Q56660561";"";"";"";"";"";"";"";"";"";"";"VinFast";"";"";"yes"
"12311675113";"21.2034641";"105.9516543";"charging_station";"";"Vietnam";"Bac Ninh";"N/A";"N/A";"";"";"";"";"VinFast";"Q56660561";"";"";"";"";"";"";"";"";"";"";"VinFast";"";"";"yes"
"12311675114";"21.1959157";"106.1311807";"charging_station";"";"Vietnam";"Bac Ninh";"N/A";"N/A";"";"";"";"";"VinFast";"Q56660561";"";"";"";"";"";"";"";"";"";"";"VinFast";"";"";"yes"
"12311675115";"21.0296063";"106.1002884";"charging_station";"";"Vietnam";"Bac Ninh";"N/A";"N/A";"";"";"";"";"VinFast";"Q56660561";"";"";"";"";"";"";"";"";"";"";"VinFast";"";"";"yes"
"12311675128";"21.0636352";"106.0950053";"charging_station";"";"Vietnam";"Bac Ninh";"N/A";"N/A";"";"";"";"";"VinFast";"Q56660561";"";"";"";"";"";"";"";"";"";"";"VinFast";"";"";"yes"
"12311675135";"21.1182824";"106.0847593";"charging_station";"";"Vietnam";"Bac Ninh";"N/A";"N/A";"";"";"";"";"VinFast";"Q56660561";"";"";"";"";"";"";"";"";"";"";"VinFast";"";"";"yes"
"12311675136";"21.1232376";"106.0088471";"charging_station";"";"Vietnam";"Bac Ninh";"N/A";"N/A";"";"";"";"";"VinFast";"Q56660561";"";"";"";"";"";"";"";"";"";"";"VinFast";"";"";"yes"
"12344217036";"21.0179338";"105.8133155";"charging_station";"";"Vietnam";"Ha Noi";"N/A";"N/A";"";"";"";"";"Tổng Công ty Điện lực Dầu khí Việt Nam";"";"";"";"";"";"";"";"";"";"";"";"PV Power";"";"";"yes"
"1208800265";"";"";"charging_station";"N/A";"N/A";"N/A";"N/A";"N/A";"";"12";"";"";"VinFast";"Q56660561";"";"";"";"";"";"";"";"";"";"";"VinFast";"";"";"yes"
"9967948807";"21.0051808";"105.7544809";"";"";"Vietnam";"Ha Noi";"N/A";"N/A";"";"";"";"";"";"";"";"";"";"";"";"";"";"";"";"";"";"";"";""
"11200062840";"21.0050251";"105.7547219";"";"";"Vietnam";"Ha Noi";"N/A";"N/A";"";"";"";"";"";"";"";"";"";"";"";"";"";"";"";"";"";"";"";""
"11200062841";"21.0050825";"105.7547504";"";"";"Vietnam";"Ha Noi";"N/A";"N/A";"";"";"";"";"";"";"";"";"";"";"";"";"";"";"";"";"";"";"";""
"11200062842";"21.0051959";"105.7544885";"";"";"Vietnam";"Ha Noi";"N/A";"N/A";"";"";"";"";"";"";"";"";"";"";"";"";"";"";"";"";"";"";"";""
"11200062843";"21.0051386";"105.75446";"";"";"Vietnam";"Ha Noi";"N/A";"N/A";"";"";"";"";"";"";"";"";"";"";"";"";"";"";"";"";"";"";"";""
"12311603569";"21.1547324";"106.1447015";"charging_station";"";"Vietnam";"Bac Ninh";"N/A";"N/A";"";"";"";"";"VinFast";"Q56660561";"";"";"";"";"";"";"";"";"";"";"VinFast";"";"";"yes"
"12311603570";"21.1298558";"106.1939451";"charging_station";"";"Vietnam";"Bac Ninh";"N/A";"N/A";"";"";"";"";"VinFast";"Q56660561";"";"";"";"";"";"";"";"";"";"";"VinFast";"";"";"yes"
"12311675155";"21.0274554";"106.2179729";"charging_station";"";"Vietnam";"Bac Ninh";"N/A";"N/A";"";"";"";"";"VinFast";"Q56660561";"";"";"";"";"";"";"";"";"";"";"VinFast";"";"";"yes"
"12311675160";"21.0526105";"106.1651557";"charging_station";"";"Vietnam";"Bac Ninh";"N/A";"N/A";"";"";"";"";"VinFast";"Q56660561";"";"";"";"";"";"";"";"";"";"";"VinFast";"";"";"yes"
"12311675161";"21.0698475";"106.2416266";"charging_station";"";"Vietnam";"Bac Ninh";"N/A";"N/A";"";"";"";"";"VinFast";"Q56660561";"";"";"";"";"";"";"";"";"";"";"VinFast";"";"";"yes"
"10023518306";"21.4541876";"105.6453057";"charging_station";"";"Vietnam";"Vinh Phuc";"N/A";"N/A";"";"";"";"yes";"";"";"";"";"";"";"";"";"";"";"";"";"VinFast";"";"";"yes"
"7680445779";"21.7855204";"108.3817612";"charging_station";"";"China";"Guangxi Zhuangzu Zizhiqu";"N/A";"N/A";"";"4";"";"yes";"";"";"";"";"";"";"";"";"";"";"";"";"";"";"";"yes"
"8836084702";"21.7671823";"108.3526642";"charging_station";"";"China";"Guangxi Zhuangzu Zizhiqu";"N/A";"N/A";"";"2";"";"yes";"";"";"";"";"";"";"";"";"";"";"";"";"";"";"24/7";"yes"
"9951813560";"21.6150583";"108.3433847";"charging_station";"";"Vietnam";"Quang Ninh";"N/A";"N/A";"";"";"";"";"";"";"";"";"";"";"";"";"";"";"";"";"";"";"";""
"9998845968";"21.7026591";"108.3699439";"charging_station";"";"China";"Guangxi Zhuangzu Zizhiqu";"N/A";"N/A";"";"4";"";"yes";"江苏云快充新能源科技有限公司";"";"";"";"";"";"";"";"";"";"";"";"";"1.26 CNY/kWh";"24/7";"yes"
"10002299822";"21.6447327";"108.3497871";"charging_station";"";"Vietnam";"Quang Ninh";"N/A";"N/A";"";"16";"";"yes";"广西防城港超大运输有限责任公司";"";"";"";"";"";"";"";"";"";"";"";"防城港超大充电站";"1.29 CNY/kWh";"24/7";"yes"
"10002299823";"21.6446318";"108.348902";"charging_station";"";"Vietnam";"Quang Ninh";"N/A";"N/A";"";"16";"";"yes";"广西防城港超大运输有限责任公司";"";"";"";"";"";"";"";"";"";"";"";"防城港超大充电站";"1.29 CNY/kWh";"24/7";"yes"
"10004627579";"21.6862385";"108.3454205";"charging_station";"";"China";"Guangxi Zhuangzu Zizhiqu";"N/A";"N/A";"";"6";"";"yes";"柳州特来电新能源有限公司";"";"";"";"";"";"";"";"";"";"";"";"";"1.45 CNY/kWh";"24/7";"yes"
"10005484033";"21.6900536";"108.3596054";"charging_station";"";"China";"Guangxi Zhuangzu Zizhiqu";"N/A";"N/A";"";"4";"";"yes";"";"";"";"";"";"";"";"";"";"";"";"";"NIO Power";"1.41 CNY/kWh";"24/7";"yes"
"10005484036";"21.6950755";"108.3608285";"charging_station";"";"China";"Guangxi Zhuangzu Zizhiqu";"N/A";"N/A";"";"2";"";"yes";"防城港市中蓝环保科技有限公司";"";"";"";"";"";"";"";"";"";"";"";"";"1.38 CNY/kWh";"24/7";"yes"
"10005484037";"21.7153782";"108.3726147";"charging_station";"";"China";"Guangxi Zhuangzu Zizhiqu";"N/A";"N/A";"";"4";"";"";"防城港市城投红树林汽车投资有限责任公司";"";"";"";"";"";"";"";"";"";"";"";"";"1.10 CNY/kWh";"24/7";"yes"
"10005484038";"21.7172315";"108.370758";"charging_station";"";"China";"Guangxi Zhuangzu Zizhiqu";"N/A";"N/A";"";"8";"";"yes";"防城港市城投红树林汽车投资有限责任公司";"";"";"";"";"";"";"";"";"";"";"";"";"1.10 CNY/kWh";"24/7";"yes"
"10005484039";"21.7382915";"108.3632129";"charging_station";"";"China";"Guangxi Zhuangzu Zizhiqu";"N/A";"N/A";"";"2";"";"yes";"江苏云快充新能源科技有限公司";"";"";"";"";"";"";"";"";"";"";"";"";"1.10 CNY/kWh";"24/7";"yes"
"10005484040";"21.6825391";"108.3555552";"charging_station";"";"China";"Guangxi Zhuangzu Zizhiqu";"N/A";"N/A";"";"2";"";"yes";"防城港市数字生活科技有限公司";"";"";"";"";"";"";"";"";"";"";"";"";"1.23 CNY/kWh";"24/7";"yes"
"10005484042";"21.7152325";"108.3734867";"charging_station";"";"China";"Guangxi Zhuangzu Zizhiqu";"N/A";"N/A";"";"54";"";"yes";"广西防城港超大运输有限责任公司";"";"";"";"";"";"";"";"";"";"";"";"防城港超大充电站";"1.29 CNY/kWh";"24/7";"yes"
"10008228138";"21.7889721";"108.3860329";"charging_station";"";"China";"Guangxi Zhuangzu Zizhiqu";"N/A";"N/A";"";"6";"";"yes";"南方电网广西电动汽车服务有限公司";"";"";"";"";"";"";"";"";"";"";"";"南网电动";"1.36 CNY/kWh";"24/7";"yes"
"10008228139";"21.7773";"108.3704603";"charging_station";"";"China";"Guangxi Zhuangzu Zizhiqu";"N/A";"N/A";"";"4";"";"yes";"南方电网广西电动汽车服务有限公司";"";"";"";"";"";"";"";"";"";"";"";"南网电动";"1.10 CNY/kWh";"24/7";"yes"
"10008228140";"21.7641804";"108.3568487";"charging_station";"";"China";"Guangxi Zhuangzu Zizhiqu";"N/A";"N/A";"";"4";"";"yes";"广西电网有限责任公司防城港供电局";"";"";"";"";"";"";"";"";"";"";"";"";"1.08 CNY/kWh";"24/7";"yes"
"10008228141";"21.718392";"108.3595879";"charging_station";"";"China";"Guangxi Zhuangzu Zizhiqu";"N/A";"N/A";"";"12";"";"yes";"南方电网广西电动汽车服务有限公司";"";"";"";"";"";"";"";"";"";"";"";"";"1.05 CNY/kWh";"08:00-18:00";"yes"
"10008228142";"21.687291";"108.3547886";"charging_station";"";"China";"Guangxi Zhuangzu Zizhiqu";"N/A";"N/A";"";"6";"";"yes";"广西电网有限责任公司防城港供电局";"";"";"";"";"";"";"";"";"";"";"";"";"1.08 CNY/kWh";"24/7";"yes"
"10008228143";"21.7545796";"108.3548568";"charging_station";"";"China";"Guangxi Zhuangzu Zizhiqu";"N/A";"N/A";"";"3";"";"yes";"江苏云快充新能源科技有限公司";"";"";"";"";"";"";"";"";"";"";"";"";"1.15 CNY/kWh";"24/7";"yes"
"10008228144";"21.7529982";"108.3526902";"charging_station";"";"China";"Guangxi Zhuangzu Zizhiqu";"N/A";"N/A";"";"18";"";"yes";"广西防城港超大运输有限责任公司";"";"";"";"";"";"";"";"";"";"";"";"防城港超大充电站";"1.29 CNY/kWh";"24/7";"yes"
"10008228145";"21.7495936";"108.3535235";"charging_station";"";"China";"Guangxi Zhuangzu Zizhiqu";"N/A";"N/A";"";"4";"";"yes";"防城港市数字生活科技有限公司";"";"";"";"";"";"";"";"";"";"";"";"";"1.20 CNY/kWh";"24/7";"yes"
"10008228146";"21.7479356";"108.3593935";"charging_station";"";"China";"Guangxi Zhuangzu Zizhiqu";"N/A";"N/A";"";"10";"";"yes";"防城港市数字生活科技有限公司";"";"";"";"";"";"";"";"";"";"";"";"";"1.20 CNY/kWh";"24/7";"yes"
"10008228147";"21.7151265";"108.3660185";"charging_station";"";"China";"Guangxi Zhuangzu Zizhiqu";"N/A";"N/A";"";"3";"";"yes";"防城港市数字生活科技有限公司";"";"";"";"";"";"";"";"";"";"";"";"";"1.10 CNY/kWh";"24/7";"yes"
"10008228148";"21.77528";"108.3512435";"charging_station";"";"China";"Guangxi Zhuangzu Zizhiqu";"N/A";"N/A";"";"4";"";"yes";"防城港市数字生活科技有限公司";"";"";"";"";"";"";"";"";"";"";"";"";"1.10 CNY/kWh";"24/7";"yes"
"10009041852";"21.6800517";"108.4033978";"charging_station";"";"China";"Guangxi Zhuangzu Zizhiqu";"N/A";"N/A";"";"14";"";"";"长沙凯瑞重工机械有限公司";"";"";"";"";"";"";"";"";"";"";"";"特来电";"";"24/7";"no"
"10009041853";"21.6684487";"108.4014398";"charging_station";"";"China";"Guangxi Zhuangzu Zizhiqu";"N/A";"N/A";"";"6";"";"";"广西盛隆冶金有限公司";"";"";"";"";"";"";"";"";"";"";"";"特来电";"";"24/7";"no"
"10009041854";"21.6948537";"108.4034273";"charging_station";"";"China";"Guangxi Zhuangzu Zizhiqu";"N/A";"N/A";"";"6";"";"yes";"广西电网有限责任公司防城港供电局";"";"";"";"";"";"";"";"";"";"";"";"";"1.08 CNY/kWh";"08:00-18:00";"yes"
"10009041855";"21.6937534";"108.3932651";"charging_station";"";"China";"Guangxi Zhuangzu Zizhiqu";"N/A";"N/A";"";"12";"";"yes";"南方电网广西电动汽车服务有限公司";"";"";"";"";"";"";"";"";"";"";"";"";"1.07 CNY/kWh";"24/7";"yes"
"10009230743";"21.6122155";"108.3343577";"charging_station";"";"Vietnam";"Quang Ninh";"N/A";"N/A";"";"4";"";"yes";"深圳市车电网络有限公司";"";"";"";"";"";"";"";"";"";"";"";"";"1.20 CNY/kWh";"24/7";"yes"
"10009230744";"21.612208";"108.3357659";"charging_station";"";"Vietnam";"Quang Ninh";"N/A";"N/A";"";"4";"";"yes";"深圳市车电网络有限公司";"";"";"";"";"";"";"";"";"";"";"";"";"1.20 CNY/kWh";"24/7";"yes"
"10009230745";"21.6158313";"108.338711";"charging_station";"";"Vietnam";"Quang Ninh";"N/A";"N/A";"";"4";"";"yes";"深圳市车电网络有限公司";"";"";"";"";"";"";"";"";"";"";"";"";"1.20 CNY/kWh";"24/7";"yes"
"10009230746";"21.6195292";"108.338664";"charging_station";"";"Vietnam";"Quang Ninh";"N/A";"N/A";"";"4";"";"yes";"深圳市车电网络有限公司";"";"";"";"";"";"";"";"";"";"";"";"";"1.20 CNY/kWh";"24/7";"yes"
"10009230747";"21.6181129";"108.3432224";"charging_station";"";"Vietnam";"Quang Ninh";"N/A";"N/A";"";"4";"";"yes";"深圳市车电网络有限公司";"";"";"";"";"";"";"";"";"";"";"";"";"1.20 CNY/kWh";"24/7";"yes"
"10009230748";"21.6115098";"108.3398321";"charging_station";"";"Vietnam";"Quang Ninh";"N/A";"N/A";"";"4";"";"yes";"";"";"";"";"";"";"";"";"";"";"";"";"";"1.70 CNY/kWh";"24/7";"yes"
"10009230749";"21.5997966";"108.3335692";"charging_station";"";"Vietnam";"Quang Ninh";"N/A";"N/A";"";"20";"";"yes";"北部湾港防城港码头有限公司";"";"";"";"";"";"";"";"";"";"";"";"";"";"24/7";"no"
"10009230750";"21.655389";"108.3813286";"charging_station";"";"China";"Guangxi Zhuangzu Zizhiqu";"N/A";"N/A";"";"1";"";"yes";"防城港市中蓝环保科技有限公司";"";"";"";"";"";"";"";"";"";"";"";"";"1.38 CNY/kWh";"24/7";"yes"
"10009230751";"21.6264137";"108.3533022";"charging_station";"";"Vietnam";"Quang Ninh";"N/A";"N/A";"";"4";"";"yes";"防城港市数字生活科技有限公司";"";"";"";"";"";"";"";"";"";"";"";"";"0.835 CNY/kWh";"24/7";"yes"
"10009230752";"21.6268456";"108.3551389";"charging_station";"";"Vietnam";"Quang Ninh";"N/A";"N/A";"";"5";"";"yes";"江苏云快充新能源科技有限公司";"";"";"";"";"";"";"";"";"";"";"";"";"1.25 CNY/kWh";"24/7";"yes"
"10009230753";"21.6274996";"108.3516861";"charging_station";"";"Vietnam";"Quang Ninh";"N/A";"N/A";"";"5";"";"yes";"广西电网有限责任公司防城港供电局";"";"";"";"";"";"";"";"";"";"";"";"";"1.08 CNY/kWh";"08:00-20:00";"yes"
"10009230754";"21.653801";"108.3736816";"charging_station";"";"China";"Guangxi Zhuangzu Zizhiqu";"N/A";"N/A";"";"4";"";"yes";"雄安联行";"";"";"";"";"";"";"";"";"";"";"";"";"1.45 CNY/kWh";"24/7";"yes"
"10009230755";"21.6739905";"108.36444";"charging_station";"";"China";"Guangxi Zhuangzu Zizhiqu";"N/A";"N/A";"";"4";"";"yes";"南方电网广西电动汽车服务有限公司";"";"";"";"";"";"";"";"";"";"";"";"";"1.36 CNY/kWh";"24/7";"yes"
"10017858165";"21.7685354";"108.3572269";"charging_station";"";"China";"Guangxi Zhuangzu Zizhiqu";"N/A";"N/A";"";"5";"";"yes";"广西南宁智博电子科技有限公司";"";"";"";"";"";"";"";"";"";"";"";"";"1.362 CNY/kWh";"24/7";"yes"
"10049051618";"21.6884423";"108.3566482";"charging_station";"";"China";"Guangxi Zhuangzu Zizhiqu";"N/A";"N/A";"";"4";"";"yes";"防城港市最集智能科技有限公司";"";"";"";"";"";"";"";"";"";"";"";"";"";"24/7";"yes"
"10160976850";"21.6438395";"108.3464954";"charging_station";"";"Vietnam";"Quang Ninh";"N/A";"N/A";"";"10";"";"yes";"全享通（海南）能源科技有限公司";"";"";"";"";"";"";"";"";"";"";"";"";"";"";""
"10572749043";"21.6516548";"108.3505562";"charging_station";"";"Vietnam";"Quang Ninh";"N/A";"N/A";"";"";"";"";"";"";"";"";"";"";"";"";"";"";"";"";"";"";"";""
"11030026460";"21.6186858";"108.3375274";"charging_station";"";"Vietnam";"Quang Ninh";"N/A";"N/A";"";"7";"";"yes";"";"";"";"";"";"";"";"";"";"";"";"";"";"";"24/7";"yes"
"12253360502";"21.6706809";"108.366449";"charging_station";"";"China";"Guangxi Zhuangzu Zizhiqu";"N/A";"N/A";"";"";"";"";"";"";"";"";"";"";"";"";"";"";"";"";"";"";"";""
"12827628978";"21.5297497";"108.2315809";"charging_station";"";"Vietnam";"Quang Ninh";"N/A";"N/A";"";"20";"";"yes";"广西中飏建筑废弃物再生技术有限责任公司";"";"";"";"";"";"";"";"";"";"";"";"";"1.4069 CNY/kWh";"24/7";"yes"
"12855598265";"21.7047543";"108.3586777";"charging_station";"";"China";"Guangxi Zhuangzu Zizhiqu";"N/A";"N/A";"";"";"";"yes";"";"";"";"";"";"";"";"";"";"68";"金花茶大道";"";"";"";"";""
"11192141328";"21.4262892";"109.1271378";"charging_station";"";"China";"Guangxi Zhuangzu Zizhiqu";"N/A";"N/A";"";"";"";"";"";"";"";"";"";"";"";"";"";"";"";"";"NIO Power";"";"";""
"11393966619";"22.0541812";"108.1382078";"charging_station";"";"China";"Guangxi Zhuangzu Zizhiqu";"N/A";"N/A";"";"10";"";"";"";"";"";"";"";"";"";"";"";"";"";"";"";"";"24/7";""
"11393966620";"22.0546983";"108.1393826";"charging_station";"";"China";"Guangxi Zhuangzu Zizhiqu";"N/A";"N/A";"";"10";"";"";"";"";"";"";"";"";"";"";"";"";"";"";"";"";"24/7";""
"12538538091";"22.8191912";"107.0261478";"charging_station";"";"China";"Guangxi Zhuangzu Zizhiqu";"N/A";"N/A";"";"";"";"";"";"";"";"";"";"";"";"";"";"";"";"";"";"";"";""
"12538538105";"22.820939";"107.0281997";"charging_station";"";"China";"Guangxi Zhuangzu Zizhiqu";"N/A";"N/A";"";"";"";"";"";"";"";"";"";"";"";"";"";"";"";"";"";"";"";""
"9199183907";"22.7595604";"108.4790079";"charging_station";"";"China";"Guangxi Zhuangzu Zizhiqu";"N/A";"N/A";"";"";"";"";"";"";"";"";"";"";"";"";"";"";"";"";"";"";"";""
"9199183908";"22.7592295";"108.4545537";"charging_station";"";"China";"Guangxi Zhuangzu Zizhiqu";"N/A";"N/A";"";"";"";"";"";"";"";"";"";"";"";"";"";"";"";"";"";"";"";""
"9199183909";"22.7857733";"108.4554769";"charging_station";"";"China";"Guangxi Zhuangzu Zizhiqu";"N/A";"N/A";"";"";"";"";"";"";"";"";"";"";"";"";"";"";"";"";"";"";"";""
"9199183910";"22.7748644";"108.4673672";"charging_station";"";"China";"Guangxi Zhuangzu Zizhiqu";"N/A";"N/A";"";"";"";"";"";"";"";"";"";"";"";"";"";"";"";"";"";"";"";""
"9199183911";"22.7772091";"108.4280106";"charging_station";"";"China";"Guangxi Zhuangzu Zizhiqu";"N/A";"N/A";"";"";"";"";"";"";"";"";"";"";"";"";"";"";"";"";"";"";"";""
"9199183912";"22.7473621";"108.4128079";"charging_station";"";"China";"Guangxi Zhuangzu Zizhiqu";"N/A";"N/A";"";"";"";"";"";"";"";"";"";"";"";"";"";"";"";"";"";"";"";""
"9257564382";"22.7638757";"108.4815654";"charging_station";"";"China";"Guangxi Zhuangzu Zizhiqu";"N/A";"N/A";"";"";"";"";"";"";"";"";"";"";"";"";"";"";"";"";"";"";"";""
"9360411055";"22.7579892";"108.3145102";"charging_station";"";"China";"Guangxi Zhuangzu Zizhiqu";"N/A";"N/A";"";"3";"";"";"广西交投石油";"";"";"";"";"";"";"";"";"";"";"";"";"";"";""
"10991197551";"22.7632703";"108.3933341";"charging_station";"";"China";"Guangxi Zhuangzu Zizhiqu";"N/A";"N/A";"";"";"";"";"";"";"";"";"";"";"";"";"";"";"";"";"NIO Power";"";"";""
"11001322496";"22.8090445";"108.3336081";"charging_station";"";"China";"Guangxi Zhuangzu Zizhiqu";"N/A";"N/A";"";"6";"";"yes";"";"";"";"";"";"";"";"";"";"";"";"";"";"";"24/7";"yes"
"11152009641";"22.8652364";"108.3389277";"charging_station";"";"China";"Guangxi Zhuangzu Zizhiqu";"N/A";"N/A";"";"";"";"";"";"";"";"";"";"";"";"";"";"";"";"";"NIO Power";"";"";""
"11218310337";"22.7690535";"108.4295209";"charging_station";"";"China";"Guangxi Zhuangzu Zizhiqu";"N/A";"N/A";"";"18";"";"";"天天快充";"";"";"";"";"";"";"";"";"";"";"";"";"";"";"yes"
"11231240964";"22.7682674";"108.4200302";"charging_station";"";"China";"Guangxi Zhuangzu Zizhiqu";"N/A";"N/A";"";"";"";"";"";"";"";"";"";"";"";"";"";"";"";"";"";"";"";""
"11250488305";"22.7663696";"108.3058563";"charging_station";"";"China";"Guangxi Zhuangzu Zizhiqu";"N/A";"N/A";"";"";"";"";"";"";"";"";"";"";"";"";"";"";"";"";"";"";"";""
"12222467261";"22.7703271";"108.4363261";"charging_station";"";"China";"Guangxi Zhuangzu Zizhiqu";"N/A";"N/A";"";"";"";"";"中国石油";"";"";"";"";"";"";"";"";"";"";"";"中国石油";"";"";"yes"
"12388234630";"22.7523651";"108.385372";"charging_station";"";"China";"Guangxi Zhuangzu Zizhiqu";"N/A";"N/A";"";"";"";"";"";"";"";"";"";"";"";"";"";"";"";"";"";"";"";""
"12549050789";"22.7777037";"108.4398271";"charging_station";"";"China";"Guangxi Zhuangzu Zizhiqu";"N/A";"N/A";"";"";"";"";"";"";"";"";"";"";"";"";"";"";"";"";"快满鑫易胜龙华充电站";"";"";""
"12662814646";"22.6026407";"108.1826024";"charging_station";"";"China";"Guangxi Zhuangzu Zizhiqu";"N/A";"N/A";"";"60";"";"yes";"柳州特来电新能源有限公司";"";"";"";"";"";"";"";"";"";"";"";"";"1.36 CNY/kWh";"24/7";"yes"
"12896426619";"22.7950534";"108.3659045";"charging_station";"";"China";"Guangxi Zhuangzu Zizhiqu";"N/A";"N/A";"";"";"";"";"";"";"";"";"";"";"";"";"";"";"";"";"";"";"";""
"1187633834";"";"";"charging_station";"N/A";"N/A";"N/A";"N/A";"N/A";"";"";"";"";"";"";"";"";"";"";"";"";"";"";"";"";"";"";"";""
"1212196155";"";"";"charging_station";"N/A";"N/A";"N/A";"N/A";"N/A";"";"";"";"";"";"";"";"";"";"";"";"";"";"";"";"";"南方电网";"";"";""
"11230729897";"22.802257";"108.4022902";"";"";"China";"Guangxi Zhuangzu Zizhiqu";"N/A";"N/A";"";"";"";"";"";"";"";"";"";"";"";"";"";"";"";"";"";"";"";""
"11230729898";"22.8022726";"108.4026415";"";"";"China";"Guangxi Zhuangzu Zizhiqu";"N/A";"N/A";"";"";"";"";"";"";"";"";"";"";"";"";"";"";"";"";"";"";"";""
"11230729899";"22.8019772";"108.4027093";"";"";"China";"Guangxi Zhuangzu Zizhiqu";"N/A";"N/A";"";"";"";"";"";"";"";"";"";"";"";"";"";"";"";"";"";"";"";""
"11230729900";"22.8019872";"108.4023164";"";"";"China";"Guangxi Zhuangzu Zizhiqu";"N/A";"N/A";"";"";"";"";"";"";"";"";"";"";"";"";"";"";"";"";"";"";"";""
"11027993648";"22.8240365";"108.419212";"";"";"China";"Guangxi Zhuangzu Zizhiqu";"N/A";"N/A";"";"";"";"";"";"";"";"";"";"";"";"";"";"";"";"";"";"";"";""
"11027993649";"22.8243723";"108.4202493";"";"";"China";"Guangxi Zhuangzu Zizhiqu";"N/A";"N/A";"";"";"";"";"";"";"";"";"";"";"";"";"";"";"";"";"";"";"";""
"11027993650";"22.8245541";"108.4203088";"";"";"China";"Guangxi Zhuangzu Zizhiqu";"N/A";"N/A";"";"";"";"";"";"";"";"";"";"";"";"";"";"";"";"";"";"";"";""
"11027993651";"22.8247117";"108.4202279";"";"";"China";"Guangxi Zhuangzu Zizhiqu";"N/A";"N/A";"";"";"";"";"";"";"";"";"";"";"";"";"";"";"";"";"";"";"";""
"11027993652";"22.8248438";"108.420127";"";"";"China";"Guangxi Zhuangzu Zizhiqu";"N/A";"N/A";"";"";"";"";"";"";"";"";"";"";"";"";"";"";"";"";"";"";"";""
"11027993653";"22.8249588";"108.4204975";"";"";"China";"Guangxi Zhuangzu Zizhiqu";"N/A";"N/A";"";"";"";"";"";"";"";"";"";"";"";"";"";"";"";"";"";"";"";""
"11027993654";"22.8243184";"108.4203805";"";"";"China";"Guangxi Zhuangzu Zizhiqu";"N/A";"N/A";"";"";"";"";"";"";"";"";"";"";"";"";"";"";"";"";"";"";"";""
"11027993655";"22.8242644";"108.4203419";"";"";"China";"Guangxi Zhuangzu Zizhiqu";"N/A";"N/A";"";"";"";"";"";"";"";"";"";"";"";"";"";"";"";"";"";"";"";""
"11027993656";"22.8242346";"108.4202256";"";"";"China";"Guangxi Zhuangzu Zizhiqu";"N/A";"N/A";"";"";"";"";"";"";"";"";"";"";"";"";"";"";"";"";"";"";"";""
"11027993657";"22.8240841";"108.4196926";"";"";"China";"Guangxi Zhuangzu Zizhiqu";"N/A";"N/A";"";"";"";"";"";"";"";"";"";"";"";"";"";"";"";"";"";"";"";""
"11027993658";"22.8239535";"108.4192482";"";"";"China";"Guangxi Zhuangzu Zizhiqu";"N/A";"N/A";"";"";"";"";"";"";"";"";"";"";"";"";"";"";"";"";"";"";"";""
