"id";"lat";"lon";"amenity";"city";"state";"country";"scraped_country_code";"scraped_country_name";"authentication:nfc";"capacity";"capacity:car";"motorcar";"operator";"operator:wikidata";"socket:schuko";"socket:schuko:current";"socket:schuko:voltage";"socket:type2";"socket:type2:current";"socket:type2:voltage";"ref";"addr:housenumber";"addr:street";"addr:postcode";"brand";"charge";"opening_hours";"fee"
"6187385784";"1.2935896";"103.6250008";"charging_station";"";"Malaysia";"Johor";"N/A";"N/A";"";"";"";"";"Shell Recharge Solutions";"Q105883058";"";"";"";"";"";"";"";"22";"Tuas South Street 5";"637822";"";"";"";""
"6187385985";"1.3429484";"103.6793041";"charging_station";"";"Malaysia";"Johor";"N/A";"N/A";"";"";"";"";"";"";"";"";"";"";"";"";"";"";"";"";"";"";"";""
"6187385986";"1.3459534";"103.6809334";"charging_station";"";"Malaysia";"Johor";"N/A";"N/A";"";"";"";"";"";"";"";"";"";"";"";"";"";"";"";"";"";"";"";""
"6187385987";"1.3557407";"103.6918741";"charging_station";"";"Malaysia";"Johor";"N/A";"N/A";"";"";"";"";"Greenlots";"";"";"";"";"";"";"";"";"";"";"";"";"";"";""
"6187385988";"1.3550221";"103.6935318";"charging_station";"";"Malaysia";"Johor";"N/A";"N/A";"";"";"";"";"Greenlots";"";"";"";"";"";"";"";"";"";"";"";"";"";"";""
"6187385989";"1.3399407";"103.7066559";"charging_station";"";"Malaysia";"Johor";"N/A";"N/A";"";"";"";"";"";"";"";"";"";"";"";"";"";"";"";"";"";"";"";""
"6187385990";"1.3354471";"103.7446382";"charging_station";"";"Singapore";"";"N/A";"N/A";"";"";"";"";"Greenlots";"";"";"";"";"";"";"";"";"";"";"";"";"";"";""
"6187576091";"1.304077";"103.7729998";"charging_station";"";"Singapore";"";"N/A";"N/A";"";"";"";"";"";"";"";"";"";"";"";"";"";"2";"College Avenue West";"";"";"";"";""
"6187576092";"1.3110623";"103.7766219";"charging_station";"";"Singapore";"";"N/A";"N/A";"";"";"";"";"";"";"";"";"";"";"";"";"";"";"";"";"";"";"";""
"6187576093";"1.299848";"103.7884233";"charging_station";"";"Singapore";"";"N/A";"N/A";"";"";"";"";"Shell Recharge Solutions";"Q105883058";"";"";"";"";"";"";"";"";"";"";"";"";"";""
"6187576094";"1.2951494";"103.7900199";"charging_station";"";"Singapore";"";"N/A";"N/A";"";"";"";"";"Shell Recharge Solutions";"Q105883058";"";"";"";"";"";"";"";"";"";"";"";"";"";""
"6187576095";"1.3039591";"103.7926167";"charging_station";"";"Singapore";"";"N/A";"N/A";"";"";"";"";"Shell Recharge Solutions";"Q105883058";"";"";"";"";"";"";"";"";"";"";"";"";"";""
"6187576096";"1.3787383";"103.7620578";"charging_station";"";"Malaysia";"Johor";"N/A";"N/A";"";"";"";"";"Greenlots";"";"";"";"";"";"";"";"";"";"";"";"";"";"";""
"6187576097";"1.2882569";"103.8058213";"charging_station";"";"Singapore";"";"N/A";"N/A";"";"";"";"";"";"";"";"";"";"";"";"";"";"";"";"";"";"";"";""
"6187576098";"1.2900536";"103.8073769";"charging_station";"";"Singapore";"";"N/A";"N/A";"";"";"";"";"";"";"";"";"";"";"";"";"";"";"";"";"";"";"";""
"6187608030";"1.4181808";"103.8637781";"charging_station";"";"Malaysia";"Johor";"N/A";"N/A";"";"";"";"";"Greenlots";"";"";"";"";"";"";"";"";"700";"West Camp Road";"";"";"";"";""
"6187681000";"1.3758845";"103.9252672";"charging_station";"";"Malaysia";"Johor";"N/A";"N/A";"";"";"";"";"Greenlots";"";"";"";"";"";"";"";"";"";"";"";"";"";"";""
"6187681001";"1.3743132";"103.9323912";"charging_station";"";"Malaysia";"Johor";"N/A";"N/A";"";"";"";"";"";"";"";"";"";"";"";"";"";"";"";"";"";"";"";""
"6187681002";"1.3520089";"103.940112";"charging_station";"";"Singapore";"";"N/A";"N/A";"";"";"";"";"";"";"";"";"";"";"";"";"";"";"";"";"";"";"";""
"6187681003";"1.3408252";"103.9633488";"charging_station";"";"Singapore";"";"N/A";"N/A";"";"";"";"";"Shell Recharge Solutions";"Q105883058";"";"";"";"";"";"";"";"";"";"";"";"";"";""
"6187681004";"1.3372971";"103.9641889";"charging_station";"";"Singapore";"";"N/A";"N/A";"";"";"";"";"";"";"";"";"";"";"";"";"";"";"";"";"";"";"";""
"6187681005";"1.3354179";"103.9637112";"charging_station";"";"Singapore";"";"N/A";"N/A";"";"";"";"";"Shell Recharge Solutions";"Q105883058";"";"";"";"";"";"";"";"";"";"";"";"";"";""
"6187681006";"1.3044763";"103.9047275";"charging_station";"";"Singapore";"";"N/A";"N/A";"";"";"";"";"";"";"";"";"";"";"";"";"";"";"";"";"";"";"";""
"6187681007";"1.3345969";"103.884048";"charging_station";"";"Singapore";"";"N/A";"N/A";"";"";"";"";"";"";"";"";"";"";"";"";"";"9";"Harrison Road";"";"";"";"";""
"6187681008";"1.3321623";"103.8902281";"charging_station";"";"Singapore";"";"N/A";"N/A";"";"";"";"";"";"";"";"";"";"";"";"";"";"61";"Ubi Road 1";"";"";"";"";""
"6480314548";"1.3058096";"103.7739695";"charging_station";"";"Singapore";"";"N/A";"N/A";"";"";"";"";"";"";"";"";"";"";"";"";"";"";"";"";"";"";"";""
"6832397585";"1.3077734";"103.8299303";"charging_station";"";"Singapore";"";"N/A";"N/A";"";"3";"";"";"BlueSG";"";"";"";"";"";"";"";"";"";"";"";"";"";"";""
"8059369423";"1.3269279";"103.8465671";"charging_station";"";"Singapore";"";"N/A";"N/A";"";"2";"";"yes";"Singapore Power";"";"";"";"";"2";"";"";"";"";"";"";"";"SGD 0.594/kWh (AC43); SGD 0.648/kWh (DC50)";"";"yes"
"8362857163";"1.3274474";"103.8524768";"charging_station";"";"Singapore";"";"N/A";"N/A";"";"4";"";"yes";"BlueSG";"";"";"";"";"4";"";"";"";"";"";"";"";"SGD 1/hour";"";"yes"
"8939175499";"1.3006004";"103.8399626";"charging_station";"";"Singapore";"";"N/A";"N/A";"";"3";"";"";"Tesla, Inc.";"Q478214";"";"";"";"";"";"";"";"";"";"";"Tesla Supercharger";"";"";""
"8972125866";"1.3027016";"103.8520918";"charging_station";"";"Singapore";"";"N/A";"N/A";"";"4";"";"";"BlueSG";"";"";"";"";"";"";"";"";"";"";"";"";"";"";""
"9082240444";"1.3916658";"103.8928146";"charging_station";"";"Malaysia";"Johor";"N/A";"N/A";"";"";"";"";"Shell";"Q110716465";"";"";"";"";"";"";"";"";"";"";"";"";"";""
"9083535422";"1.3623461";"103.8901907";"charging_station";"";"Singapore";"";"N/A";"N/A";"";"4";"";"";"Blue SG";"";"";"";"";"";"";"";"";"";"";"";"";"";"";""
"9149321843";"1.324356";"103.8421054";"charging_station";"";"Singapore";"";"N/A";"N/A";"";"1";"";"yes";"Shell";"Q110716465";"";"";"";"";"";"";"";"";"";"";"";"SGD 0.55/kWh";"24/7";"yes"
"9165216476";"1.3139056";"103.6952615";"charging_station";"";"Singapore";"";"N/A";"N/A";"";"4";"";"";"SP Group";"";"";"";"";"4";"";"";"";"";"";"";"";"";"";""
"9238076263";"1.3162308";"103.8999522";"charging_station";"";"Singapore";"";"N/A";"N/A";"";"2";"";"";"Singapore Power";"";"";"";"";"";"";"";"";"78";"Changi Road";"";"";"";"";""
"9272089717";"1.3027555";"103.9033371";"charging_station";"";"Singapore";"";"N/A";"N/A";"";"3";"";"";"Tesla";"";"";"";"";"";"";"";"";"30";"East Coast Road";"";"Tesla";"";"";""
"9611628937";"1.4062174";"103.902338";"charging_station";"";"Malaysia";"Johor";"N/A";"N/A";"";"3";"";"";"Tesla, Inc.";"Q478214";"";"";"";"";"";"";"";"";"";"";"Tesla Supercharger";"";"";"yes"
"9621281408";"1.3085";"103.8587944";"charging_station";"";"Singapore";"";"N/A";"N/A";"";"";"";"";"BlueSG";"";"";"";"";"";"";"";"";"";"";"";"";"";"";""
"9627733668";"1.292233";"103.8596813";"charging_station";"";"Singapore";"";"N/A";"N/A";"";"3";"";"";"Tesla, Inc.";"Q478214";"";"";"";"";"";"";"";"9";"Raffles Boulevard";"039596";"Tesla Supercharger";"";"24/7";""
"9627751468";"1.3069522";"103.7881631";"charging_station";"";"Singapore";"";"N/A";"N/A";"";"3";"";"";"Tesla, Inc.";"Q478214";"";"";"";"";"";"";"";"1";"Vista Exchange Green";"138617";"Tesla Supercharger";"";"24/7";""
"9858405298";"1.3119367";"103.863531";"charging_station";"";"Singapore";"";"N/A";"N/A";"";"1";"";"";"Charge+";"";"";"";"";"";"";"";"";"";"";"";"";"";"";"yes"
"9858420584";"1.3118791";"103.8635739";"charging_station";"";"Singapore";"";"N/A";"N/A";"";"2";"";"";"Charge+";"";"";"";"";"";"";"";"";"114";"Lavender Street";"338729";"";"";"";"yes"
"9858450176";"1.3489596";"103.8376137";"charging_station";"";"Singapore";"";"N/A";"N/A";"";"";"";"";"Shell";"";"";"";"";"";"";"";"";"";"";"";"";"";"";""
"9998908020";"1.3535358";"103.9561861";"charging_station";"";"Singapore";"";"N/A";"N/A";"";"";"";"";"";"";"";"";"";"";"";"";"";"";"";"";"";"";"";""
"10036337915";"1.373973";"103.8904969";"charging_station";"";"Singapore";"";"N/A";"N/A";"";"";"";"";"";"";"";"";"";"";"";"";"";"";"";"";"";"";"";""
"10287172719";"1.311146";"103.8640258";"charging_station";"";"Singapore";"";"N/A";"N/A";"";"4";"";"";"Singapore Power";"";"";"";"";"2";"";"";"";"";"";"";"";"";"";"yes"
"10611615451";"1.3186269";"103.8335768";"charging_station";"";"Singapore";"";"N/A";"N/A";"";"1";"";"";"Singapore Power";"";"";"";"";"";"";"";"";"";"";"";"";"";"";""
"10702069371";"1.3253154";"103.8485691";"charging_station";"";"Singapore";"";"N/A";"N/A";"";"4";"";"";"CDG Engie";"";"";"";"";"4";"32";"";"";"";"";"";"CDG Engie";"0.59 SGD/kWh";"";"yes"
"10877063833";"1.3133248";"103.9007334";"charging_station";"";"Singapore";"";"N/A";"N/A";"";"";"";"";"Comfort DelGro";"";"";"";"";"";"";"";"";"";"";"";"";"";"";"yes"
"11012000772";"1.3698645";"103.8842485";"charging_station";"";"Singapore";"";"N/A";"N/A";"";"";"";"yes";"";"";"";"";"";"";"";"";"";"";"";"";"BlueSG";"";"";""
"11039879139";"1.2967027";"103.8549566";"charging_station";"";"Singapore";"";"N/A";"N/A";"";"";"";"";"TotalEnergies";"Q154037";"";"";"";"";"";"";"";"";"";"";"";"";"";"yes"
"11288841798";"1.3968741";"103.6268215";"charging_station";"";"Malaysia";"Johor";"N/A";"N/A";"";"4";"";"";"Tesla, Inc.";"Q478214";"";"";"";"";"";"";"";"";"";"";"Tesla Supercharger";"";"24/7";"yes"
"11288842086";"1.3968486";"103.6272334";"charging_station";"";"Malaysia";"Johor";"N/A";"N/A";"";"2";"";"";"";"";"";"";"";"";"";"";"";"";"";"";"Tesla, Inc.";"";"24/7";"no"
"11288849242";"1.3954973";"103.6253779";"charging_station";"";"Malaysia";"Johor";"N/A";"N/A";"";"1";"";"";"Gentari";"";"";"";"";"";"";"";"";"";"";"";"Gentari @ XPark Sunway Iskandar";"";"";"yes"
"11521903328";"1.3246845";"103.8425155";"charging_station";"";"Singapore";"";"N/A";"N/A";"";"6";"";"";"Charge+";"";"";"";"";"";"";"";"";"";"";"";"Charge+";"";"";"yes"
"11524379853";"1.4634195";"103.7621918";"charging_station";"";"Malaysia";"Johor";"N/A";"N/A";"";"";"";"";"JomCharge";"";"";"";"";"";"";"";"";"";"";"";"JomCharge";"";"";"yes"
"11524379854";"1.4643898";"103.762523";"charging_station";"";"Malaysia";"Johor";"N/A";"N/A";"";"";"";"";"chargEV";"";"";"";"";"";"";"";"";"";"";"";"chargEV";"";"";"yes"
"11524392899";"1.4655091";"103.7597496";"charging_station";"";"Malaysia";"Johor";"N/A";"N/A";"";"";"";"";"";"";"";"";"";"";"";"";"";"";"";"";"EV Charging Station DoubleTree by Hilton Hotel Johor Bahru";"";"";"no"
"11542379072";"1.3972034";"103.6295452";"charging_station";"";"Malaysia";"Johor";"N/A";"N/A";"";"";"";"";"";"";"";"";"";"";"";"";"";"";"";"";"";"";"";"no"
"11585795009";"1.2892791";"103.836977";"charging_station";"";"Singapore";"";"N/A";"N/A";"";"";"";"";"";"";"";"";"";"";"";"";"";"";"";"";"Tesla, Inc.";"";"";"no"
"11585795010";"1.2898342";"103.8385427";"charging_station";"";"Singapore";"";"N/A";"N/A";"";"";"";"";"";"";"";"";"";"";"";"";"";"";"";"";"Tesla, Inc.";"";"";"no"
"11585999017";"1.4362293";"103.7863791";"charging_station";"";"Malaysia";"Johor";"N/A";"N/A";"";"";"";"";"Tesla, Inc.";"Q478214";"";"";"";"";"";"";"";"";"";"";"Tesla Supercharger";"";"";"yes"
"11627248777";"1.3002855";"103.8524749";"charging_station";"";"Singapore";"";"N/A";"N/A";"";"";"";"";"";"";"";"";"";"";"";"";"";"";"";"";"";"";"";"yes"
"11676052933";"1.3971185";"103.6316071";"charging_station";"";"Malaysia";"Johor";"N/A";"N/A";"";"";"";"";"chargEV";"";"";"";"";"";"";"";"";"";"";"";"chargEV";"";"";"yes"
"11917937514";"1.3137542";"103.8656726";"charging_station";"";"Singapore";"";"N/A";"N/A";"";"2";"";"";"SP Mobility";"";"";"";"";"";"";"";"";"";"";"";"";"";"";"yes"
"11917937518";"1.3349071";"103.8414208";"charging_station";"";"Singapore";"";"N/A";"N/A";"";"4";"";"";"";"";"";"";"";"";"";"";"";"";"";"";"";"";"";""
"11917937537";"1.3139238";"103.8654534";"charging_station";"";"Singapore";"";"N/A";"N/A";"";"4";"";"";"SP Mobility";"";"";"";"";"";"";"";"";"";"";"";"";"";"";"yes"
"12005122407";"1.3229666";"103.854379";"charging_station";"";"Singapore";"";"N/A";"N/A";"";"6";"";"";"Charge+";"";"";"";"";"";"";"";"";"";"";"";"Charge+";"";"";"yes"
"12005122415";"1.3228207";"103.8532874";"charging_station";"";"Singapore";"";"N/A";"N/A";"";"3";"";"";"Seraya YTL";"";"";"";"";"";"";"";"";"";"";"";"ChargEco";"";"";"yes"
"12073952530";"1.3873076";"103.7611319";"charging_station";"";"Malaysia";"Johor";"N/A";"N/A";"";"1";"";"";"";"";"";"";"";"";"";"";"";"";"";"";"";"";"";"yes"
"12091963974";"1.3751391";"103.7690277";"charging_station";"";"Malaysia";"Johor";"N/A";"N/A";"";"";"";"";"";"";"";"";"";"";"";"";"";"";"";"";"";"";"";""
"12093251000";"1.3726893";"103.7631673";"charging_station";"";"Malaysia";"Johor";"N/A";"N/A";"";"1";"";"";"LHN Energy";"";"";"";"";"";"";"";"";"";"";"";"";"";"";"yes"
"12238567377";"1.3193492";"103.7671144";"charging_station";"";"Singapore";"";"N/A";"N/A";"";"";"";"";"";"";"";"";"";"";"";"";"";"";"";"";"";"";"";""
"12470619067";"1.380345";"103.7641373";"charging_station";"";"Malaysia";"Johor";"N/A";"N/A";"";"2";"";"";"Singapore Power";"";"";"";"";"";"";"";"";"";"";"";"";"SGD 0.654/kWh";"11:00-23:00";"yes"
"12533886460";"1.3324082";"103.8959836";"charging_station";"";"Singapore";"";"N/A";"N/A";"";"";"";"";"";"";"";"";"";"";"";"";"";"";"";"";"";"";"";""
"12628368729";"1.4360294";"103.843883";"charging_station";"";"Malaysia";"Johor";"N/A";"N/A";"";"2";"";"";"";"";"";"";"";"";"";"";"";"";"";"";"";"";"";""
"12637515812";"1.3101872";"103.8628704";"charging_station";"";"Singapore";"";"N/A";"N/A";"";"2";"";"";"CDG Engie";"";"";"";"";"";"";"";"";"";"";"";"";"";"";""
"12761938915";"1.3403923";"103.7739341";"charging_station";"";"Singapore";"";"N/A";"N/A";"";"";"";"";"";"";"";"";"";"";"";"";"";"";"";"";"";"";"";""
"12886492796";"1.2931093";"103.8524072";"charging_station";"";"Singapore";"";"N/A";"N/A";"";"2";"";"";"SMRT";"";"";"";"";"";"";"";"";"";"";"";"";"";"";"no"
"12944665013";"1.3286692";"103.8443767";"charging_station";"";"Singapore";"";"N/A";"N/A";"";"4";"";"";"Charge+";"";"";"";"";"";"";"";"";"";"";"";"";"";"";"yes"
"6970836697";"1.3614215";"103.9903191";"charging_station";"";"Singapore";"";"N/A";"N/A";"";"";"";"";"";"";"";"";"";"";"";"";"";"";"";"";"";"";"";""
"6970840886";"1.3614638";"103.9902225";"charging_station";"";"Singapore";"";"N/A";"N/A";"";"";"";"";"";"";"";"";"";"";"";"";"";"";"";"";"";"";"";""
"11391109082";"1.9328012";"103.1878649";"charging_station";"";"Malaysia";"Johor";"N/A";"N/A";"";"";"";"";"Gentari";"";"";"";"";"";"";"";"";"";"";"";"Gentari";"";"";"yes"
"5104827024";"1.5180372";"103.5158573";"charging_station";"";"Malaysia";"Johor";"N/A";"N/A";"";"";"";"";"松家园";"";"";"";"";"";"";"";"";"";"";"";"";"";"";""
"9173660911";"1.5309568";"103.7806642";"charging_station";"";"Malaysia";"Johor";"N/A";"N/A";"";"22 kW, 40 kW (100A)";"";"";"Palkom Motors";"";"";"";"";"1";"";"";"";"";"";"";"Exicom Harmony";"FOC initially";"";"no"
"11237231468";"1.5758687";"103.7478477";"charging_station";"";"Malaysia";"Johor";"N/A";"N/A";"";"2";"";"";"chargEV";"";"";"";"";"";"";"";"";"";"";"";"chargEV";"";"";"yes"
"11253973173";"1.5485937";"103.7175605";"charging_station";"";"Malaysia";"Johor";"N/A";"N/A";"";"2";"";"";"chargEV";"";"";"";"";"";"";"";"";"";"";"";"chargEV";"";"";"yes"
"11254037866";"1.5896637";"103.6359419";"charging_station";"";"Malaysia";"Johor";"N/A";"N/A";"";"1";"";"";"JomCharge";"";"";"";"";"";"";"";"";"";"";"";"JomCharge BHP R&R Skudai Charging Station";"";"";"yes"
"11254038968";"1.5488828";"103.7143672";"charging_station";"";"Malaysia";"Johor";"N/A";"N/A";"";"3";"";"";"Gentari";"";"";"";"";"";"";"";"";"";"";"";"Gentari";"";"";"yes"
"11254068691";"1.5907961";"103.6359783";"charging_station";"";"Malaysia";"Johor";"N/A";"N/A";"";"";"";"";"chargEV";"";"";"";"";"";"";"";"";"";"";"";"Starbucks R&R Skudai Charging Station";"";"";"yes"
"11254068692";"1.5910443";"103.6352088";"charging_station";"";"Malaysia";"Johor";"N/A";"N/A";"";"2";"";"";"JomCharge";"";"";"";"";"";"";"";"";"";"";"";"FamilyMart R&R Skudai EV Charging Station";"";"";"yes"
"11254118466";"1.5899128";"103.6352084";"charging_station";"";"Malaysia";"Johor";"N/A";"N/A";"";"1";"";"";"JomCharge";"";"";"";"";"";"";"";"";"";"";"";"Caltex R&R Skudai Charging Station";"";"";"yes"
"11287557611";"1.5872118";"103.7585463";"charging_station";"";"Malaysia";"Johor";"N/A";"N/A";"";"";"";"";"JomCharge Eco Palladium Charging Station";"";"";"";"";"";"";"";"";"";"";"";"JomCharge";"";"";"yes"
"11294595079";"1.5892773";"103.6359475";"charging_station";"";"Malaysia";"Johor";"N/A";"N/A";"";"";"";"";"Shell Recharge Solutions";"Q105883058";"";"";"";"";"";"";"";"";"";"";"Shell Recharge";"";"";"yes"
"11385382711";"1.591432";"103.635316";"charging_station";"";"Malaysia";"Johor";"N/A";"N/A";"";"2";"";"";"CHARGE+";"";"";"";"";"";"";"";"";"";"";"";"CHARGE+";"";"";"yes"
"11481305041";"1.5930489";"103.6475928";"charging_station";"";"Malaysia";"Johor";"N/A";"N/A";"";"2";"";"";"ChargeSini";"";"";"";"";"";"";"";"";"";"";"";"ChargeSini";"";"";"yes"
"11481890856";"1.58889";"103.7564326";"charging_station";"";"Malaysia";"Johor";"N/A";"N/A";"";"";"";"";"ChargeSini";"";"";"";"";"";"";"";"";"";"";"";"ChargeSini";"";"";"yes"
"11518965813";"1.6350433";"103.6660276";"charging_station";"";"Malaysia";"Johor";"N/A";"N/A";"";"";"";"";"Gentari";"";"";"";"";"";"";"";"";"";"";"";"Gentari";"";"";"yes"
"11518984403";"1.5436137";"103.7398848";"charging_station";"";"Malaysia";"Johor";"N/A";"N/A";"";"";"";"";"Gentari";"";"";"";"";"";"";"";"";"";"";"";"Gentari";"";"";"yes"
"11518984680";"1.5359947";"103.753584";"charging_station";"";"Malaysia";"Johor";"N/A";"N/A";"";"";"";"";"JomCharge";"";"";"";"";"";"";"";"";"";"";"";"JomCharge";"";"";""
"11524337214";"1.5175849";"103.6729878";"charging_station";"";"Malaysia";"Johor";"N/A";"N/A";"";"";"";"";"JomCharge";"";"";"";"";"";"";"";"";"";"";"";"JomCharge";"";"";"yes"
"11524337215";"1.5170239";"103.6700851";"charging_station";"";"Malaysia";"Johor";"N/A";"N/A";"";"";"";"";"ChargeSini";"";"";"";"";"";"";"";"";"";"";"";"ChargeSini";"";"";"yes"
"11524337217";"1.5170613";"103.6746135";"charging_station";"";"Malaysia";"Johor";"N/A";"N/A";"";"";"";"";"JomCharge";"";"";"";"";"";"";"";"";"";"";"";"JomCharge";"";"";"yes"
"11524337369";"1.5176859";"103.6722384";"charging_station";"";"Malaysia";"Johor";"N/A";"N/A";"";"";"";"";"JomCharge";"";"";"";"";"";"";"";"";"";"";"";"JomCharge";"";"";"yes"
"11524337785";"1.5175847";"103.6722432";"charging_station";"";"Malaysia";"Johor";"N/A";"N/A";"";"";"";"";"ChargeSini";"";"";"";"";"";"";"";"";"";"";"";"ChargeSini";"";"";"yes"
"11524363796";"1.5156556";"103.68608";"charging_station";"";"Malaysia";"Johor";"N/A";"N/A";"";"";"";"";"Gentari";"";"";"";"";"";"";"";"";"";"";"";"Gentari";"";"";"yes"
"11524363797";"1.5158835";"103.6858527";"charging_station";"";"Malaysia";"Johor";"N/A";"N/A";"";"";"";"";"Shell Recharge Solutions";"Q105883058";"";"";"";"";"";"";"";"";"";"";"ParkEasy";"";"";"yes"
"11524369957";"1.4908128";"103.7420182";"charging_station";"";"Malaysia";"Johor";"N/A";"N/A";"";"";"";"";"ChargeSini";"";"";"";"";"";"";"";"";"";"";"";"ChargeSini";"";"";"yes"
"11524379086";"1.4863458";"103.7696378";"charging_station";"";"Malaysia";"Johor";"N/A";"N/A";"";"";"";"";"chargEV";"";"";"";"";"";"";"";"";"";"";"";"chargEV";"";"";"yes"
"11524379650";"1.4861604";"103.7622735";"charging_station";"";"Malaysia";"Johor";"N/A";"N/A";"";"";"";"";"ChargeSini";"";"";"";"";"";"";"";"";"";"";"";"ChargeSini";"";"";"yes"
"11524379651";"1.4851363";"103.7627197";"charging_station";"";"Malaysia";"Johor";"N/A";"N/A";"";"";"";"";"ChargeSini";"";"";"";"";"";"";"";"";"";"";"";"ChargeSini";"";"";"yes"
"11524392039";"1.4840738";"103.7744656";"charging_station";"";"Malaysia";"Johor";"N/A";"N/A";"";"";"";"";"Gentari";"";"";"";"";"";"";"";"";"";"";"";"Gentari";"";"";"yes"
"11524830242";"1.4803951";"103.7650938";"charging_station";"";"Malaysia";"Johor";"N/A";"N/A";"";"";"";"";"Gentari";"";"";"";"";"";"";"";"";"";"";"";"Gentari";"";"";"yes"
"11524886149";"1.5793822";"103.6504208";"charging_station";"";"Malaysia";"Johor";"N/A";"N/A";"";"";"";"";"chargEV";"";"";"";"";"";"";"";"";"";"";"";"chargEV";"";"";"yes"
"11527083846";"1.5493109";"103.7963316";"charging_station";"";"Malaysia";"Johor";"N/A";"N/A";"";"";"";"";"chargEV";"";"";"";"";"";"";"";"";"";"";"";"chargEV";"";"";"yes"
"11527094771";"1.5520702";"103.7983195";"charging_station";"";"Malaysia";"Johor";"N/A";"N/A";"";"";"";"";"ParkEasy";"";"";"";"";"";"";"";"";"";"";"";"ParkEasy";"";"";"yes"
"11527094772";"1.5516963";"103.7996184";"charging_station";"";"Malaysia";"Johor";"N/A";"N/A";"";"";"";"";"IKEA";"";"";"";"";"";"";"";"";"";"";"";"";"";"";"no"
"11670619688";"1.5487863";"103.716434";"charging_station";"";"Malaysia";"Johor";"N/A";"N/A";"";"";"";"";"chargEV";"";"";"";"";"";"";"";"";"";"";"";"chargEV";"";"";"yes"
"11824773064";"1.6030099";"103.6224559";"charging_station";"";"Malaysia";"Johor";"N/A";"N/A";"";"";"";"";"DC Handal";"";"";"";"";"";"";"";"";"";"";"";"DC Handal";"";"";""
"11830833245";"1.4757432";"103.7415311";"charging_station";"";"Malaysia";"Johor";"N/A";"N/A";"";"";"";"";"Gentari";"";"";"";"";"";"";"";"";"";"";"";"Gentari";"";"";"yes"
"11830833246";"1.4758797";"103.7406661";"charging_station";"";"Malaysia";"Johor";"N/A";"N/A";"";"";"";"";"Gentari";"";"";"";"";"";"";"";"";"";"";"";"Gentari";"";"";"yes"
"11846040050";"1.6022872";"103.6456799";"charging_station";"";"Malaysia";"Johor";"N/A";"N/A";"";"";"";"";"Gentari";"Q123457836";"";"";"";"";"";"";"";"";"";"";"Gentari";"";"";"yes"
"11876524839";"1.517588";"103.6730687";"charging_station";"";"Malaysia";"Johor";"N/A";"N/A";"";"";"";"";"ChargeSini";"";"";"";"";"";"";"";"";"";"";"";"ChargeSini";"";"";"yes"
"12096199642";"1.5638802";"103.7776929";"charging_station";"";"Malaysia";"Johor";"N/A";"N/A";"";"";"";"";"EVPower";"";"";"";"";"";"";"";"";"";"";"";"EVPower";"";"";"yes"
"12187362422";"1.5907962";"103.6353344";"charging_station";"";"Malaysia";"Johor";"N/A";"N/A";"";"";"";"";"Tesla, Inc.";"Q478214";"";"";"";"";"";"";"";"";"";"";"Tesla Supercharger";"";"";"yes"
"12217307751";"1.5877876";"103.7593811";"charging_station";"";"Malaysia";"Johor";"N/A";"N/A";"";"";"";"";"chargEV";"";"";"";"";"";"";"";"";"";"";"";"chargEV";"";"";"yes"
"11414391709";"1.5386593";"104.264171";"charging_station";"";"Malaysia";"Johor";"N/A";"N/A";"";"2";"";"";"DC Handal";"";"";"";"";"";"";"";"";"";"";"";"DC Handal";"";"";"yes"
"11414391710";"1.5379136";"104.2675336";"charging_station";"";"Malaysia";"Johor";"N/A";"N/A";"";"";"";"";"chargEV";"";"";"";"";"";"";"";"";"";"";"";"chargEV";"";"";"yes"
"11414391711";"1.5406321";"104.2643074";"charging_station";"";"Malaysia";"Johor";"N/A";"N/A";"";"";"";"";"chargEV";"";"";"";"";"";"";"";"";"";"";"";"chargEV";"";"";"yes"
"7092610874";"1.5587312";"110.3447372";"charging_station";"";"Malaysia";"Sarawak";"N/A";"N/A";"";"1";"";"yes";"Sarawak Energy";"";"";"";"";"";"";"";"";"";"";"";"";"";"";""
"1328536518";"";"";"charging_station";"N/A";"N/A";"N/A";"N/A";"N/A";"";"2";"";"";"PT PLN (Persero)";"";"";"";"";"";"";"";"";"";"";"";"SPKLU";"";"";"yes"
"12291508682";"1.4864299";"124.8339777";"";"";"Indonesia";"North Sulawesi";"N/A";"N/A";"";"";"";"";"";"";"";"";"";"";"";"";"";"";"";"";"";"";"";""
"12291508683";"1.486396";"124.8340486";"";"";"Indonesia";"North Sulawesi";"N/A";"N/A";"";"";"";"";"";"";"";"";"";"";"";"";"";"";"";"";"";"";"";""
"12291508684";"1.486242";"124.83397";"";"";"Indonesia";"North Sulawesi";"N/A";"N/A";"";"";"";"";"";"";"";"";"";"";"";"";"";"";"";"";"";"";"";""
"12291508685";"1.4862782";"124.8338999";"";"";"Indonesia";"North Sulawesi";"N/A";"N/A";"";"";"";"";"";"";"";"";"";"";"";"";"";"";"";"";"";"";"";""
"8366319578";"2.3948999";"102.2236875";"charging_station";"";"Malaysia";"Melaka";"N/A";"N/A";"";"";"";"yes";"JomCharge";"";"";"";"";"1";"";"";"";"";"North-South Expressway Southbound";"";"JomCharge";"RM1.20 per minute";"";"yes"
"8369963394";"2.3982849";"102.2196277";"charging_station";"";"Malaysia";"Melaka";"N/A";"N/A";"";"";"";"yes";"JomCharge";"";"";"";"";"1";"";"";"";"";"North-South Expressway Northbound";"";"JomCharge";"RM1.20 per minute";"";"yes"
"11382919205";"2.4667032";"102.1198072";"charging_station";"";"Malaysia";"Negeri Sembilan";"N/A";"N/A";"";"2";"";"";"Gentari";"";"";"";"";"";"";"";"";"";"";"";"Gentari";"";"";"yes"
"11391086505";"2.4452524";"102.2065328";"charging_station";"";"Malaysia";"Melaka";"N/A";"N/A";"";"4";"";"";"Tesla, Inc.";"Q478214";"";"";"";"";"";"";"";"";"";"";"Tesla Supercharger";"";"";"yes"
"11500980138";"2.3984706";"102.2217222";"charging_station";"";"Malaysia";"Melaka";"N/A";"N/A";"";"";"";"";"chargEV";"";"";"";"";"";"";"";"";"";"";"";"chargEV";"";"";"yes"
"11501042949";"2.3945396";"102.2239535";"charging_station";"";"Malaysia";"Melaka";"N/A";"N/A";"";"";"";"";"chargEV";"";"";"";"";"";"";"";"";"";"";"";"chargEV";"";"";""
"12671964221";"2.1482655";"102.6982759";"charging_station";"";"Malaysia";"Johor";"N/A";"N/A";"";"2";"";"";"Shell Recharge Solutions";"Q105883058";"";"";"";"";"";"";"";"";"";"";"";"";"";"yes"
"12882368669";"2.2438411";"102.5316578";"charging_station";"";"Malaysia";"Johor";"N/A";"N/A";"";"";"";"";"chargEV";"";"";"";"";"";"";"";"";"";"";"";"chargEV";"";"";"yes"
"4276388925";"2.2917938";"111.9310806";"charging_station";"";"Malaysia";"Sarawak";"N/A";"N/A";"";"";"";"";"Petronas Petrol Station";"";"";"";"";"";"";"";"";"";"";"";"";"";"";""
"4326718690";"2.2692707";"111.8579264";"charging_station";"";"Malaysia";"Sarawak";"N/A";"N/A";"";"";"";"";"Shell";"Q110716465";"";"";"";"";"";"";"";"";"";"";"";"";"";""
"11416040934";"2.9089805";"101.6571641";"charging_station";"";"Malaysia";"Putrajaya";"N/A";"N/A";"";"";"";"";"GO TO-U";"";"";"";"";"";"";"";"";"";"";"";"GO TO-U";"";"";"yes"
"11416040935";"2.9088289";"101.6566397";"charging_station";"";"Malaysia";"Putrajaya";"N/A";"N/A";"";"";"";"";"chargEV";"";"";"";"";"";"";"";"";"";"";"";"chargEV";"";"";"yes"
"11490173943";"2.7645458";"101.6830042";"charging_station";"";"Malaysia";"";"N/A";"N/A";"";"";"";"";"Gentari";"";"";"";"";"";"";"";"";"";"";"";"Gentari";"";"";"yes"
"11757683232";"2.8851044";"101.6172601";"charging_station";"";"Malaysia";"Putrajaya";"N/A";"N/A";"";"";"";"";"Tesla, Inc.";"Q478214";"";"";"";"";"";"";"";"";"";"";"Tesla Supercharger";"";"";"yes"
"11757683233";"2.8849195";"101.6173062";"charging_station";"";"Malaysia";"Putrajaya";"N/A";"N/A";"";"";"";"";"";"";"";"";"";"";"";"";"";"";"";"";"Tesla, Inc.";"";"";"no"
"11757695500";"2.8860489";"101.6163671";"charging_station";"";"Malaysia";"Putrajaya";"N/A";"N/A";"";"";"";"";"";"";"";"";"";"";"";"";"";"";"";"";"";"";"";""
"11763114271";"2.9701078";"101.7161964";"charging_station";"";"Malaysia";"Putrajaya";"N/A";"N/A";"";"";"";"";"";"";"";"";"";"";"";"";"";"";"";"";"Tesla, Inc.";"";"";""
"11763124114";"2.9705213";"101.7135594";"charging_station";"";"Malaysia";"Putrajaya";"N/A";"N/A";"";"";"";"";"Shell Recharge Solutions";"Q105883058";"";"";"";"";"";"";"";"";"";"";"Shell Recharge";"";"";"yes"
"11875216016";"2.9696481";"101.7134794";"charging_station";"";"Malaysia";"Putrajaya";"N/A";"N/A";"";"";"";"";"DC Handal";"";"";"";"";"";"";"";"";"";"";"";"DC Handal";"";"";"yes"
"11875321339";"2.9698847";"101.71547";"charging_station";"";"Malaysia";"Putrajaya";"N/A";"N/A";"";"";"";"";"Tesla, Inc.";"Q478214";"";"";"";"";"";"";"";"";"";"";"Tesla Supercharger";"";"";"yes"
"11934911245";"2.9152446";"101.6581696";"charging_station";"";"Malaysia";"Putrajaya";"N/A";"N/A";"";"";"";"";"Tesla, Inc.";"Q478214";"";"";"";"";"";"";"";"";"";"";"Tesla Supercharger";"";"";"yes"
"12093421882";"2.7641531";"101.8306805";"charging_station";"";"Malaysia";"Negeri Sembilan";"N/A";"N/A";"";"";"";"";"Shell Recharge Solutions";"Q105883058";"";"";"";"";"";"";"";"";"";"";"";"";"";"yes"
"12093421883";"2.7636997";"101.831229";"charging_station";"";"Malaysia";"Negeri Sembilan";"N/A";"N/A";"";"";"";"";"Gentari";"";"";"";"";"";"";"";"";"";"";"";"Gentari";"";"";""
"12093461484";"2.7568347";"101.8461598";"charging_station";"";"Malaysia";"Negeri Sembilan";"N/A";"N/A";"";"";"";"";"chargEV";"";"";"";"";"";"";"";"";"";"";"";"chargEV";"";"";"yes"
"12093461485";"2.7571409";"101.8455834";"charging_station";"";"Malaysia";"Negeri Sembilan";"N/A";"N/A";"";"";"";"";"Shell Recharge Solutions";"Q105883058";"";"";"";"";"";"";"";"";"";"";"Shell";"";"";"yes"
"12093477717";"2.7572489";"101.8442515";"charging_station";"";"Malaysia";"Negeri Sembilan";"N/A";"N/A";"";"";"";"";"Gentari";"";"";"";"";"";"";"";"";"";"";"";"Gentari";"";"";"yes"
"12252901049";"2.8852818";"101.6164816";"charging_station";"";"Malaysia";"Putrajaya";"N/A";"N/A";"";"";"";"";"Gentari";"";"";"";"";"";"";"";"";"";"";"";"Gentari Charging Station";"";"";"yes"
"12300608434";"2.765871";"101.6853896";"charging_station";"";"Malaysia";"";"N/A";"N/A";"";"";"";"";"Gentari";"Q123457836";"";"";"";"";"";"";"";"";"";"";"Gentari";"";"";"yes"
"1308062027";"";"";"charging_station";"N/A";"N/A";"N/A";"N/A";"N/A";"";"";"";"";"";"";"";"";"";"";"";"";"";"";"";"";"";"";"";""
"12113783677";"2.9697198";"101.6546004";"";"";"Malaysia";"Putrajaya";"N/A";"N/A";"";"";"";"";"";"";"";"";"";"";"";"";"";"";"";"";"";"";"";""
"12113783678";"2.9696116";"101.6546004";"";"";"Malaysia";"Putrajaya";"N/A";"N/A";"";"";"";"";"";"";"";"";"";"";"";"";"";"";"";"";"";"";"";""
"12113783679";"2.9696116";"101.6546602";"";"";"Malaysia";"Putrajaya";"N/A";"N/A";"";"";"";"";"";"";"";"";"";"";"";"";"";"";"";"";"";"";"";""
"12113783680";"2.9697198";"101.6546583";"";"";"Malaysia";"Putrajaya";"N/A";"N/A";"";"";"";"";"";"";"";"";"";"";"";"";"";"";"";"";"";"";"";""
"4631705470";"3.1277894";"101.6788434";"charging_station";"";"Malaysia";"Kuala Lumpur";"N/A";"N/A";"";"4";"";"";"COSMOS Bangsar";"";"";"";"";"";"";"";"";"";"";"";"";"";"";""
"5426265125";"3.1525979";"101.6983896";"charging_station";"";"Malaysia";"Kuala Lumpur";"N/A";"N/A";"";"";"";"";"COSMOS Munshi Abdullah";"";"";"";"";"";"";"";"";"";"";"";"";"";"";""
"8323408889";"3.0650098";"101.5970579";"charging_station";"";"Malaysia";"Selangor";"N/A";"N/A";"";"";"";"";"ABB Malaysia Sunway";"";"";"";"";"1";"";"";"";"";"";"";"ABB Terra 53 CJG";"";"";"no"
"8323408892";"3.0819419";"101.5841829";"charging_station";"Petaling";"Malaysia";"Selangor";"N/A";"N/A";"";"22 kW";"";"";"chargEV";"";"";"";"";"3";"";"";"";"";"Persiaran Kemajuan";"";"chargEV";"chargEV subscription";"";"yes"
"8326566629";"3.0814414";"101.5824283";"charging_station";"Petaling";"Malaysia";"Selangor";"N/A";"N/A";"";"";"";"";"chargEV";"";"";"";"";"";"";"";"";"";"";"";"";"";"";"yes"
"8326566630";"3.0844995";"101.5835375";"charging_station";"Petaling";"Malaysia";"Selangor";"N/A";"N/A";"";"22 kW";"";"";"chargEV";"";"";"";"";"1";"";"";"";"";"Federal Highway";"";"chargEV";"chargEV subscription";"";"yes"
"8326566631";"3.080612";"101.5723465";"charging_station";"";"Malaysia";"Selangor";"N/A";"N/A";"";"22 kW";"";"";"chargEV";"";"";"";"";"1";"";"";"";"";"Federal Highway";"";"chargEV";"chargEV subscription";"";"yes"
"8366097714";"3.1337766";"101.6096955";"charging_station";"Petaling";"Malaysia";"Selangor";"N/A";"N/A";"";"22, 40 kW";"";"yes";"Vision Motorsports";"";"";"";"";"1";"";"";"";"";"";"";"";"";"";"no"
"8559980141";"3.0353047";"101.5570565";"charging_station";"";"Malaysia";"Selangor";"N/A";"N/A";"";"22-60 kW";"";"";"Pekema Malaysia";"";"";"";"";"1";"";"";"";"";"";"";"Exicom Harmony";"";"";"no"
"9119751721";"3.1606063";"101.7415416";"charging_station";"";"Malaysia";"Kuala Lumpur";"N/A";"N/A";"";"22, 40 kW";"";"";"Utama Motors";"";"";"";"";"1";"";"";"";"";"";"";"Exicom Harmony";"FOC initially";"";"no"
"9173640665";"3.1616628";"101.623275";"charging_station";"Petaling";"Malaysia";"Selangor";"N/A";"N/A";"";"60 kW";"";"";"Hamza Motors";"";"";"";"";"";"";"";"";"";"";"";"Exicom Harmony";"FOC initially";"";"no"
"9296913495";"3.1212153";"101.6551042";"charging_station";"";"Malaysia";"Kuala Lumpur";"N/A";"N/A";"";"";"";"";"";"";"";"";"";"";"";"";"";"";"";"";"";"";"";""
"9963470059";"3.0444818";"101.7064622";"charging_station";"";"Malaysia";"Selangor";"N/A";"N/A";"";"50kW";"";"";"Kuro EV Malaysia";"";"";"";"";"";"";"";"";"";"";"";"";"MYR1.20/min";"";"yes"
"10919668792";"3.0656547";"101.6630485";"charging_station";"Petaling";"Malaysia";"Selangor";"N/A";"N/A";"";"18";"";"";"Gentari / EV Connection";"";"";"";"";"";"";"";"";"";"";"";"ABB Terra";"MYR0.50/min";"";"yes"
"10919805096";"3.1429376";"101.7106726";"charging_station";"";"Malaysia";"Kuala Lumpur";"N/A";"N/A";"";"225kW";"";"";"ChargEV Yinson Green Tech";"";"";"";"";"";"";"";"";"";"";"";"Kempower";"MYR1.20/kWh";"";"yes"
"10919836503";"3.0491375";"101.7057034";"charging_station";"";"Malaysia";"Selangor";"N/A";"N/A";"";"22kW";"";"";"Shell Recharge / ParkEasy";"";"";"";"";"";"";"";"";"";"";"";"BMW i";"MYR1 for first 2 hour, subsequent hour MYR2.80";"";"yes"
"11027104974";"3.1301251";"101.6420686";"charging_station";"Petaling";"Malaysia";"Selangor";"N/A";"N/A";"";"";"";"";"";"";"";"";"";"";"";"";"";"";"";"";"ChargEV";"";"";""
"11382845488";"3.0735536";"101.6072087";"charging_station";"Petaling";"Malaysia";"Selangor";"N/A";"N/A";"";"4";"";"";"Tesla, Inc.";"Q478214";"";"";"";"";"";"";"";"";"";"";"Tesla Supercharger";"";"";"yes"
"11396044526";"3.1715556";"101.6649854";"charging_station";"";"Malaysia";"Kuala Lumpur";"N/A";"N/A";"";"";"";"";"";"";"";"";"";"";"";"";"";"";"";"";"";"";"";"yes"
"11585795011";"3.1281617";"101.7241665";"charging_station";"";"Malaysia";"Kuala Lumpur";"N/A";"N/A";"";"";"";"";"";"";"";"";"";"";"";"";"";"";"";"";"Tesla, Inc.";"";"";"no"
"11585801904";"3.1664141";"101.6917172";"charging_station";"";"Malaysia";"Kuala Lumpur";"N/A";"N/A";"";"6";"";"";"";"";"";"";"";"6";"";"";"";"";"";"";"Tesla, Inc.";"";"";"yes"
"11596719321";"3.0332795";"101.7652185";"charging_station";"";"Malaysia";"Selangor";"N/A";"N/A";"";"";"";"";"chargEV";"";"";"";"";"";"";"";"";"";"";"";"chargEV";"";"";"yes"
"11596766851";"3.0271608";"101.7541855";"charging_station";"";"Malaysia";"Selangor";"N/A";"N/A";"";"";"";"";"JomCharge";"";"";"";"";"";"";"";"";"";"";"";"JomCharge";"";"";"yes"
"11602330395";"3.0493739";"101.6721036";"charging_station";"";"Malaysia";"Selangor";"N/A";"N/A";"";"";"";"";"Tesla, Inc.";"Q478214";"";"";"";"";"";"";"";"";"";"";"Tesla Supercharger";"";"";"yes"
"11662266719";"3.0058004";"101.7250896";"charging_station";"";"Malaysia";"Selangor";"N/A";"N/A";"";"";"";"";"Gentari";"";"";"";"";"";"";"";"";"";"";"";"Gentari";"";"";"yes"
"11934605603";"3.1672296";"101.6919158";"charging_station";"";"Malaysia";"Kuala Lumpur";"N/A";"N/A";"";"";"";"";"EVGuru";"";"";"";"";"";"";"";"";"";"";"";"EVGuru";"";"";"yes"
"11934607478";"3.1663889";"101.6917486";"charging_station";"";"Malaysia";"Kuala Lumpur";"N/A";"N/A";"";"";"";"";"Gentari";"";"";"";"";"";"";"";"";"";"";"";"Gentari";"";"";"yes"
"11934857366";"3.0260201";"101.7509655";"charging_station";"";"Malaysia";"Selangor";"N/A";"N/A";"";"";"";"";"EVGuru";"";"";"";"";"";"";"";"";"";"";"";"EVGuru";"";"";"yes"
"11951127590";"3.1277517";"101.7246183";"charging_station";"";"Malaysia";"Kuala Lumpur";"N/A";"N/A";"";"";"";"";"Shell Recharge Solutions";"Q105883058";"";"";"";"";"";"";"";"";"";"";"Shell Recharge";"";"";"yes"
"11951127591";"3.1281133";"101.7220326";"charging_station";"";"Malaysia";"Kuala Lumpur";"N/A";"N/A";"";"";"";"";"Gentari";"";"";"";"";"";"";"";"";"";"";"";"Gentari";"";"";"yes"
"12075111082";"3.0274973";"101.7528222";"charging_station";"";"Malaysia";"Selangor";"N/A";"N/A";"";"";"";"";"Gentari";"";"";"";"";"";"";"";"";"";"";"";"Gentari";"";"";"yes"
"12150039409";"3.1577198";"101.6498666";"charging_station";"";"Malaysia";"Kuala Lumpur";"N/A";"N/A";"";"8";"";"";"Oyika";"";"";"";"";"";"";"";"";"";"";"";"rydeEV";"";"";"yes"
"12181443002";"3.2261916";"101.650399";"charging_station";"";"Malaysia";"Kuala Lumpur";"N/A";"N/A";"";"6";"";"";"gentari";"";"";"";"";"";"";"";"";"";"";"";"";"";"";""
"12202866911";"3.0356408";"101.7090853";"charging_station";"";"Malaysia";"Selangor";"N/A";"N/A";"";"";"";"";"Carput Zap";"";"";"";"";"";"";"";"";"";"";"";"Carput Zap";"";"";"yes"
"12270317495";"3.0248884";"101.7511751";"charging_station";"";"Malaysia";"Selangor";"N/A";"N/A";"";"";"";"";"ChargeSini";"";"";"";"";"";"";"";"";"";"";"";"ChargeSini";"";"";""
"12279220588";"3.1398375";"101.6960665";"charging_station";"";"Malaysia";"Kuala Lumpur";"N/A";"N/A";"";"";"";"";"";"";"";"";"";"";"";"";"";"";"";"";"";"";"";""
"12348097689";"3.1411667";"101.6427499";"charging_station";"";"Malaysia";"Kuala Lumpur";"N/A";"N/A";"";"";"";"";"";"";"";"";"";"";"";"";"";"";"";"";"chargEV";"";"";"yes"
"12533954008";"3.1347819";"101.6873764";"charging_station";"";"Malaysia";"Kuala Lumpur";"N/A";"N/A";"";"";"";"";"";"";"";"";"";"";"";"";"";"";"";"";"";"";"";""
"12704408649";"3.1445925";"101.72218";"charging_station";"";"Malaysia";"Kuala Lumpur";"N/A";"N/A";"";"3";"";"";"";"";"";"";"";"";"";"";"";"";"";"";"ChargeSINI";"";"";"yes"
"12725133452";"3.0444087";"101.5602394";"charging_station";"";"Malaysia";"Selangor";"N/A";"N/A";"";"2";"";"";"Virta";"";"";"";"";"";"";"";"";"";"";"";"Virta Global";"";"";"yes"
"1189698698";"";"";"charging_station";"N/A";"N/A";"N/A";"N/A";"N/A";"";"4";"";"";"DC Handal";"";"";"";"";"";"";"";"";"";"";"";"";"1.50 MYR/kWh";"";"yes"
"1198467958";"";"";"charging_station";"N/A";"N/A";"N/A";"N/A";"N/A";"";"4";"";"";"Charge Sini";"";"";"";"";"";"";"";"";"";"";"";"ChargeSini Station";"";"";"yes"
"1226598073";"";"";"charging_station";"N/A";"N/A";"N/A";"N/A";"N/A";"";"2";"";"";"EvAIMS";"";"";"";"";"";"";"";"";"";"";"";"";"";"";"yes"
"11046872786";"3.1942759";"101.672878";"";"";"Malaysia";"Kuala Lumpur";"N/A";"N/A";"";"";"";"";"";"";"";"";"";"";"";"";"";"";"";"";"";"";"";""
"11046872787";"3.1942779";"101.6729329";"";"";"Malaysia";"Kuala Lumpur";"N/A";"N/A";"";"";"";"";"";"";"";"";"";"";"";"";"";"";"";"";"";"";"";""
"11046872788";"3.194114";"101.6729427";"";"";"Malaysia";"Kuala Lumpur";"N/A";"N/A";"";"";"";"";"";"";"";"";"";"";"";"";"";"";"";"";"";"";"";""
"11046872789";"3.1941116";"101.6728884";"";"";"Malaysia";"Kuala Lumpur";"N/A";"N/A";"";"";"";"";"";"";"";"";"";"";"";"";"";"";"";"";"";"";"";""
"11374282952";"3.1936532";"101.6729658";"";"";"Malaysia";"Kuala Lumpur";"N/A";"N/A";"";"";"";"";"";"";"";"";"";"";"";"";"";"";"";"";"";"";"";""
"11374282953";"3.1936535";"101.6730159";"";"";"Malaysia";"Kuala Lumpur";"N/A";"N/A";"";"";"";"";"";"";"";"";"";"";"";"";"";"";"";"";"";"";"";""
"11374282954";"3.1935521";"101.6730158";"";"";"Malaysia";"Kuala Lumpur";"N/A";"N/A";"";"";"";"";"";"";"";"";"";"";"";"";"";"";"";"";"";"";"";""
"11374282955";"3.1935527";"101.6729672";"";"";"Malaysia";"Kuala Lumpur";"N/A";"N/A";"";"";"";"";"";"";"";"";"";"";"";"";"";"";"";"";"";"";"";""
"11117526225";"3.2089405";"101.6689422";"";"";"Malaysia";"Kuala Lumpur";"N/A";"N/A";"";"";"";"";"";"";"";"";"";"";"";"";"";"";"";"";"";"";"";""
"11117566302";"3.2089009";"101.6689395";"";"";"Malaysia";"Kuala Lumpur";"N/A";"N/A";"";"";"";"";"";"";"";"";"";"";"";"";"";"";"";"";"";"";"";""
"11117566303";"3.2088948";"101.6690299";"";"";"Malaysia";"Kuala Lumpur";"N/A";"N/A";"";"";"";"";"";"";"";"";"";"";"";"";"";"";"";"";"";"";"";""
"11117566304";"3.2089345";"101.6690325";"";"";"Malaysia";"Kuala Lumpur";"N/A";"N/A";"";"";"";"";"";"";"";"";"";"";"";"";"";"";"";"";"";"";"";""
"11500046001";"3.6628853";"101.5206194";"charging_station";"";"Malaysia";"Selangor";"N/A";"N/A";"";"";"";"";"Gentari";"";"";"";"";"";"";"";"";"";"";"";"Gentari";"";"";"no"
"4663295908";"4.4512705";"100.6238526";"charging_station";"";"Malaysia";"Perak";"N/A";"N/A";"";"";"";"";"ooooooik";"";"";"";"";"";"";"";"";"";"";"";"";"";"";""
"8370035578";"4.3886294";"103.4559755";"charging_station";"";"Malaysia";"Terengganu";"N/A";"N/A";"";"";"";"yes";"Resorts World Kijal";"";"";"";"";"1";"32";"400";"BMW I Wallbox";"";"";"";"BMW i Wallbox";"Guests and facilities customers.";"";"yes"
"8566605832";"4.7726251";"100.761468";"charging_station";"";"Malaysia";"Perak";"N/A";"N/A";"";"43-50 kW";"";"";"EV Connection";"";"";"";"";"1";"";"";"";"";"North-South Expressway Northbound";"";"ABB Terra CJG";"RM1.20 per minute";"";"yes"
"8568358419";"4.7738068";"100.7552531";"charging_station";"";"Malaysia";"Perak";"N/A";"N/A";"";"43-50 kW";"";"";"EV Connection";"";"";"";"";"1";"";"";"";"";"North-South Expressway Southbound";"";"ABB Terra CJG";"RM1.20 per minute";"";"yes"
"11493155072";"4.71309";"100.9450512";"charging_station";"";"Malaysia";"Perak";"N/A";"N/A";"";"";"";"";"JomCharge";"";"";"";"";"";"";"";"";"";"";"";"JomCharge";"";"";"yes"
"10063847912";"4.598138";"101.0761023";"charging_station";"";"Malaysia";"Perak";"N/A";"N/A";"";"1";"";"";"ChargEV";"";"";"";"";"";"";"";"";"";"";"";"";"";"";"no"
"11738057754";"4.6206763";"101.1479652";"charging_station";"";"Malaysia";"Perak";"N/A";"N/A";"";"";"";"";"chargEV";"";"";"";"";"";"";"";"";"";"";"";"chargEV";"";"";"yes"
"11738057755";"4.6203541";"101.1483179";"charging_station";"";"Malaysia";"Perak";"N/A";"N/A";"";"";"";"";"Gentari";"";"";"";"";"";"";"";"";"";"";"";"Gentari";"";"";"yes"
"9378705731";"5.341803";"100.2714113";"charging_station";"";"Malaysia";"Penang";"N/A";"N/A";"";"2";"";"";"Malaysian Green Technology And Climate Change Corporation (MTGC)";"";"";"";"";"";"";"";"";"";"";"";"chargEV";"";"";""
"9626165813";"5.410685";"100.3019409";"charging_station";"";"Malaysia";"Penang";"N/A";"N/A";"";"1";"";"";"";"";"";"";"";"";"";"";"";"";"";"";"Hager";"";"";""
"9626165814";"5.4209418";"100.3249895";"charging_station";"";"Malaysia";"Penang";"N/A";"N/A";"";"";"";"";"ChargEV";"";"";"";"";"";"";"";"";"";"";"";"";"";"";""
"9626165815";"5.3706501";"100.2743624";"charging_station";"";"Malaysia";"Penang";"N/A";"N/A";"";"";"";"";"ChargEV";"";"";"";"";"";"";"";"";"";"";"";"";"";"";""
"11054240110";"5.3292389";"100.2788465";"charging_station";"";"Malaysia";"Penang";"N/A";"N/A";"";"1";"";"";"";"";"";"";"";"";"";"";"";"";"";"";"ChargEV";"";"";"yes"
"11637282520";"5.3422508";"100.4352292";"charging_station";"";"Malaysia";"Penang";"N/A";"N/A";"";"";"";"";"JomCharge";"";"";"";"";"";"";"";"";"";"";"";"JomCharge";"";"";"yes"
"11637282521";"5.342058";"100.432938";"charging_station";"";"Malaysia";"Penang";"N/A";"N/A";"";"";"";"";"";"";"";"";"";"";"";"";"";"";"";"";"Icon Hotel Penang EV Charging Station";"";"";""
"11637282522";"5.3361309";"100.4342556";"charging_station";"";"Malaysia";"Penang";"N/A";"N/A";"";"";"";"";"JomCharge";"";"";"";"";"";"";"";"";"";"";"";"JomCharge";"";"";"yes"
"11637282900";"5.3686435";"100.4146636";"charging_station";"";"Malaysia";"Penang";"N/A";"N/A";"";"";"";"";"ChargeSini";"";"";"";"";"";"";"";"";"";"";"";"ChargeSini";"";"";"yes"
"11637282901";"5.3735055";"100.4074139";"charging_station";"";"Malaysia";"Penang";"N/A";"N/A";"";"";"";"";"chargEV";"";"";"";"";"";"";"";"";"";"";"";"chargEV";"";"";"yes"
"11637284127";"5.3548987";"100.4177256";"charging_station";"";"Malaysia";"Penang";"N/A";"N/A";"";"";"";"";"chargEV";"";"";"";"";"";"";"";"";"";"";"";"chargEV";"";"24/7";"yes"
"11637284128";"5.3543662";"100.4161411";"charging_station";"";"Malaysia";"Penang";"N/A";"N/A";"";"";"";"";"Gentari";"";"";"";"";"";"";"";"";"";"";"";"Gentari";"";"";"yes"
"11637290224";"5.3547452";"100.4196649";"charging_station";"";"Malaysia";"Penang";"N/A";"N/A";"";"";"";"";"Gentari";"";"";"";"";"";"";"";"";"";"";"";"Gentari";"";"";"yes"
"11637290225";"5.3545322";"100.4190837";"charging_station";"";"Malaysia";"Penang";"N/A";"N/A";"";"";"";"";"JomCharge";"";"";"";"";"";"";"";"";"";"";"";"JomCharge";"";"24/7";"yes"
"11637290226";"5.3548696";"100.4179769";"charging_station";"";"Malaysia";"Penang";"N/A";"N/A";"";"";"";"";"JomCharge";"";"";"";"";"";"";"";"";"";"";"";"JomCharge";"";"";"yes"
"11645277239";"5.3547461";"100.4185542";"charging_station";"";"Malaysia";"Penang";"N/A";"N/A";"";"";"";"";"TNB Electron";"";"";"";"";"";"";"";"";"";"";"";"TNB Electron";"";"24/7";"yes"
"11652066341";"5.3430476";"100.4336859";"charging_station";"";"Malaysia";"Penang";"N/A";"N/A";"";"";"";"";"EVlution";"";"";"";"";"";"";"";"";"";"";"";"EVlution";"";"";"yes"
"11652108649";"5.3457183";"100.434473";"charging_station";"";"Malaysia";"Penang";"N/A";"N/A";"";"";"";"";"chargEV";"";"";"";"";"";"";"";"";"";"";"";"chargEV";"";"";"yes"
"11665352902";"5.2241217";"100.426155";"charging_station";"";"Malaysia";"Penang";"N/A";"N/A";"";"";"";"";"";"";"";"";"";"";"";"";"";"";"";"";"Tesla, Inc.";"";"";"no"
"11665362189";"5.3963354";"100.2904721";"charging_station";"";"Malaysia";"Penang";"N/A";"N/A";"";"";"";"";"";"";"";"";"";"";"";"";"";"";"";"";"Tesla, Inc.";"";"";"no"
"11665397641";"5.2365664";"100.4439911";"charging_station";"";"Malaysia";"Penang";"N/A";"N/A";"";"";"";"";"chargEV";"";"";"";"";"";"";"";"";"";"";"";"chargEV";"";"";"yes"
"11665406425";"5.2390154";"100.4445692";"charging_station";"";"Malaysia";"Penang";"N/A";"N/A";"";"";"";"";"JomCharge";"";"";"";"";"";"";"";"";"";"";"";"JomCharge";"";"";"yes"
"11665406426";"5.2394057";"100.4517032";"charging_station";"";"Malaysia";"Penang";"N/A";"N/A";"";"";"";"";"JomCharge";"";"";"";"";"";"";"";"";"";"";"";"JomCharge";"";"";"yes"
"12019793139";"5.3761078";"100.4057289";"charging_station";"";"Malaysia";"Penang";"N/A";"N/A";"";"";"";"";"EVlution";"";"";"";"";"";"";"";"";"";"";"";"EVlution";"";"";"yes"
"11500050760";"5.3299696";"100.4997593";"charging_station";"";"Malaysia";"Penang";"N/A";"N/A";"";"";"";"";"";"";"";"";"";"";"";"";"";"";"";"";"Autel";"";"";"yes"
"8370035577";"5.3332752";"103.1483691";"charging_station";"";"Malaysia";"Terengganu";"N/A";"N/A";"";"";"";"yes";"Hotel Tanjong Vista";"";"";"";"";"1";"32";"400";"BMW I Wallbox";"";"";"";"BMW i Wallbox";"Guests and facilities customers.";"";"yes"
