"id";"lat";"lon";"amenity";"city";"state";"country";"scraped_country_code";"scraped_country_name";"authentication:nfc";"capacity";"capacity:car";"motorcar";"operator";"operator:wikidata";"socket:schuko";"socket:schuko:current";"socket:schuko:voltage";"socket:type2";"socket:type2:current";"socket:type2:voltage";"ref";"addr:housenumber";"addr:street";"addr:postcode";"brand";"charge";"opening_hours";"fee"
"8250140528";"42.0970003";"19.0890559";"charging_station";"";"Montenegro";"Bar";"N/A";"N/A";"";"2";"";"";"";"";"";"";"";"";"";"";"";"";"";"";"";"";"";""
"8250143273";"42.0043953";"19.1512592";"charging_station";"";"Montenegro";"";"N/A";"N/A";"";"2";"";"";"Utjeha.me";"";"";"";"";"";"";"";"";"";"";"";"";"7 EUR, free for guests";"";"yes"
"12282711206";"42.2825709";"18.8579544";"charging_station";"";"Montenegro";"Budva";"N/A";"N/A";"";"2";"";"";"";"";"";"";"";"";"";"";"";"";"";"";"";"";"";""
"12282711207";"42.2801977";"18.8595292";"charging_station";"";"Montenegro";"Budva";"N/A";"N/A";"";"3";"";"";"";"";"";"";"";"";"";"";"";"";"";"";"";"";"";""
"12374469641";"42.2783169";"18.8816347";"charging_station";"";"Montenegro";"Budva";"N/A";"N/A";"";"";"";"";"";"";"";"";"";"";"";"";"";"";"";"";"";"";"";""
"12272913013";"42.0637322";"19.5098579";"charging_station";"Rrethi i Shkodres";"Albania";"Shkoder";"N/A";"N/A";"";"";"";"";"";"";"";"";"";"";"";"";"";"";"";"";"";"";"";""
"12272926990";"42.0645996";"19.5102796";"charging_station";"Rrethi i Shkodres";"Albania";"Shkoder";"N/A";"N/A";"";"";"";"";"";"";"";"";"";"";"";"";"";"";"";"";"";"";"";""
"12272927142";"42.0665865";"19.5141276";"charging_station";"Rrethi i Shkodres";"Albania";"Shkoder";"N/A";"N/A";"";"";"";"";"";"";"";"";"";"";"";"";"";"";"";"";"";"";"";""
"12272934882";"42.0163504";"19.5170059";"charging_station";"Rrethi i Malesia e Madhe";"Albania";"Shkoder";"N/A";"N/A";"";"";"";"";"";"";"";"";"";"";"";"";"";"";"";"";"";"";"";""
"12272953901";"41.8647865";"19.4240765";"charging_station";"Rrethi i Shkodres";"Albania";"Shkoder";"N/A";"N/A";"";"";"";"";"";"";"";"";"";"";"";"";"";"";"";"";"";"";"";""
"10170060218";"42.210415";"20.7355139";"charging_station";"N/A";"N/A";"N/A";"N/A";"N/A";"";"6";"";"";"Green Prizen";"";"";"";"";"";"";"";"";"";"";"";"";"";"";""
"11005789356";"42.2199272";"20.7520956";"charging_station";"N/A";"N/A";"N/A";"N/A";"N/A";"";"2";"";"";"Elen";"";"";"";"";"";"";"";"";"";"";"";"GoGreen";"";"";""
"6672688885";"42.146138";"21.2344233";"charging_station";"N/A";"N/A";"N/A";"N/A";"N/A";"";"";"";"";"Kaloshi";"";"";"";"";"";"";"";"";"";"";"";"";"";"";""
"6083076481";"41.99213";"21.4275923";"charging_station";"";"North Macedonia";"Karpos";"N/A";"N/A";"yes";"";"";"";"EVN";"";"";"";"";"1";"";"";"";"";"";"";"";"";"24/7";"no"
"6083093014";"41.9867146";"21.465178";"charging_station";"";"North Macedonia";"Kisela Voda";"N/A";"N/A";"yes";"2";"";"";"EVN";"Q48784884";"";"";"";"1";"";"";"";"";"";"";"";"";"24/7";"no"
"6083095650";"41.9948629";"21.4322161";"charging_station";"";"North Macedonia";"Karpos";"N/A";"N/A";"yes";"";"";"";"EVN";"";"";"";"";"1";"";"";"";"";"";"";"";"";"24/7";"no"
"6083122260";"42.005371";"21.4180965";"charging_station";"";"North Macedonia";"Karpos";"N/A";"N/A";"yes";"1";"";"";"EVN";"";"";"";"";"1";"";"";"";"";"";"";"";"";"24/7";"no"
"6083138846";"42.0136336";"21.4035307";"charging_station";"";"North Macedonia";"Karpos";"N/A";"N/A";"yes";"";"";"";"EVN";"";"";"";"";"2";"";"";"";"";"";"";"";"";"24/7";"no"
"6083264835";"42.0062553";"21.4269232";"charging_station";"";"North Macedonia";"Karpos";"N/A";"N/A";"";"";"";"";"EVN";"Q48784884";"";"";"";"2";"";"";"";"";"";"";"";"";"24/7";"no"
"6089900439";"42.0091302";"21.3632349";"charging_station";"";"North Macedonia";"";"N/A";"N/A";"yes";"";"";"";"EVN";"";"";"";"";"2";"";"";"";"";"";"";"";"";"24/7";"no"
"6089906066";"42.0067912";"21.3724961";"charging_station";"";"North Macedonia";"";"N/A";"N/A";"yes";"";"";"";"EVN";"";"";"";"";"2";"";"";"";"";"";"";"";"";"24/7";"no"
"6089907922";"41.9947319";"21.41197";"charging_station";"";"North Macedonia";"Karpos";"N/A";"N/A";"yes";"";"";"";"EVN";"";"";"";"";"2";"";"";"";"";"";"";"";"";"24/7";"no"
"6089911198";"42.0048498";"21.4192868";"charging_station";"";"North Macedonia";"Karpos";"N/A";"N/A";"yes";"1";"";"";"EVN";"Q48784884";"";"";"";"1";"";"";"";"";"";"";"";"";"24/7";"no"
"6089917927";"41.9887319";"21.4775368";"charging_station";"";"North Macedonia";"Kisela Voda";"N/A";"N/A";"yes";"1";"";"";"EVN";"Q48784884";"";"";"";"2";"";"";"";"";"";"";"";"";"24/7";"no"
"6089919955";"42.0070408";"21.4870891";"charging_station";"";"North Macedonia";"Cair";"N/A";"N/A";"yes";"";"";"";"EVN";"";"";"";"";"2";"";"";"";"";"";"";"";"";"24/7";"no"
"8120482371";"42.0048073";"21.3921738";"charging_station";"";"North Macedonia";"Karpos";"N/A";"N/A";"";"2";"";"";"EVN";"Q872140";"";"";"";"";"";"";"";"";"";"";"";"";"";"no"
"8494151124";"41.9976102";"21.405529";"charging_station";"";"North Macedonia";"Karpos";"N/A";"N/A";"";"1";"";"";"";"";"";"";"";"";"";"";"";"";"";"";"";"";"24/7";""
"12377356428";"41.9604916";"21.6299361";"charging_station";"";"North Macedonia";"";"N/A";"N/A";"";"";"";"";"EVN";"Q48784884";"";"";"";"2";"";"";"";"";"";"";"";"";"";""
"12488385582";"42.1329324";"21.7029919";"charging_station";"";"North Macedonia";"Kumanovo";"N/A";"N/A";"";"";"";"";"EVN";"Q48784884";"";"";"";"";"";"";"";"";"";"";"";"";"";""
"12741660965";"42.0074907";"21.3927028";"charging_station";"";"North Macedonia";"Karpos";"N/A";"N/A";"";"";"";"";"";"";"";"";"";"";"";"";"";"";"";"";"";"";"";""
"6520884767";"42.2077899";"22.3383249";"charging_station";"";"North Macedonia";"Kriva Palanka";"N/A";"N/A";"";"";"";"";"";"";"";"";"";"";"";"";"";"";"";"";"";"";"";"no"
"7945504210";"41.9169048";"22.4114882";"charging_station";"";"North Macedonia";"Kocani";"N/A";"N/A";"";"";"";"";"";"";"";"";"";"";"";"";"";"";"";"";"";"";"";""
"10151492504";"41.9169243";"22.411438";"charging_station";"";"North Macedonia";"Kocani";"N/A";"N/A";"";"";"";"";"";"";"";"";"";"";"";"";"";"";"";"";"EVN";"";"";""
"12179777716";"42.2746152";"22.6809499";"charging_station";"Obshtina Kyustendil";"Bulgaria";"Kyustendil";"N/A";"N/A";"";"2";"";"yes";"Финес Енерджи ООД";"Q128904354";"";"";"";"";"";"";"";"";"";"";"";"";"24/7";"yes"
"6800238025";"42.4412285";"19.2616515";"charging_station";"";"Montenegro";"Podgorica";"N/A";"N/A";"";"2";"";"";"";"";"";"";"";"";"";"";"";"";"";"";"";"";"";""
"7840606447";"42.4390977";"19.265384";"charging_station";"";"Montenegro";"Podgorica";"N/A";"N/A";"";"";"";"";"";"";"";"";"";"";"";"";"";"";"";"";"";"";"";""
"6240016905";"42.5800494";"20.7106279";"charging_station";"N/A";"N/A";"N/A";"N/A";"N/A";"";"";"";"";"BUZHALA";"";"";"";"";"";"";"";"";"";"";"";"";"";"";""
"8944810164";"42.660659";"21.1547549";"charging_station";"N/A";"N/A";"N/A";"N/A";"N/A";"";"";"";"";"";"";"";"";"";"";"";"";"";"";"";"";"";"";"";""
"1338970642";"";"";"charging_station";"N/A";"N/A";"N/A";"N/A";"N/A";"";"";"";"";"";"";"";"";"";"";"";"";"";"";"";"";"";"";"";""
"1338970643";"";"";"charging_station";"N/A";"N/A";"N/A";"N/A";"N/A";"";"";"";"";"";"";"";"";"";"";"";"";"";"";"";"";"";"";"";""
"12385513624";"42.5661115";"21.1414373";"";"N/A";"N/A";"N/A";"N/A";"N/A";"";"";"";"";"";"";"";"";"";"";"";"";"";"";"";"";"";"";"";""
"12385513625";"42.5661194";"21.1415043";"";"N/A";"N/A";"N/A";"N/A";"N/A";"";"";"";"";"";"";"";"";"";"";"";"";"";"";"";"";"";"";"";""
"12385513626";"42.5659752";"21.1415472";"";"N/A";"N/A";"N/A";"N/A";"N/A";"";"";"";"";"";"";"";"";"";"";"";"";"";"";"";"";"";"";"";""
"12385513627";"42.5659673";"21.1414802";"";"N/A";"N/A";"N/A";"N/A";"N/A";"";"";"";"";"";"";"";"";"";"";"";"";"";"";"";"";"";"";"";""
"12385513628";"42.5660641";"21.1393505";"";"N/A";"N/A";"N/A";"N/A";"N/A";"";"";"";"";"";"";"";"";"";"";"";"";"";"";"";"";"";"";"";""
"12385513629";"42.5657243";"21.1394471";"";"N/A";"N/A";"N/A";"N/A";"N/A";"";"";"";"";"";"";"";"";"";"";"";"";"";"";"";"";"";"";"";""
"12385513630";"42.5657144";"21.13938";"";"N/A";"N/A";"N/A";"N/A";"N/A";"";"";"";"";"";"";"";"";"";"";"";"";"";"";"";"";"";"";"";""
"12385513631";"42.5660542";"21.1392888";"";"N/A";"N/A";"N/A";"N/A";"N/A";"";"";"";"";"";"";"";"";"";"";"";"";"";"";"";"";"";"";"";""
"6077045372";"43.313004";"21.7961751";"charging_station";"Nisavski Okrug";"Serbia";"Central Serbia";"N/A";"N/A";"";"";"";"";"";"";"2";"";"";"2";"";"";"";"";"";"";"";"";"24/7";"no"
"9720396261";"43.3245684";"21.9097468";"charging_station";"Nisavski Okrug";"Serbia";"Central Serbia";"N/A";"N/A";"";"";"";"";"";"";"";"";"";"2";"";"";"";"";"";"";"";"";"";"no"
"9720423282";"43.3245566";"21.9094703";"charging_station";"Nisavski Okrug";"Serbia";"Central Serbia";"N/A";"N/A";"";"";"";"";"";"";"";"";"";"2";"";"";"";"";"";"";"";"";"";"no"
"9720436756";"43.3245618";"21.9095928";"charging_station";"Nisavski Okrug";"Serbia";"Central Serbia";"N/A";"N/A";"";"";"";"";"";"";"";"";"";"2";"";"";"";"";"";"";"";"";"";"no"
"9720452170";"43.3245749";"21.9099022";"charging_station";"Nisavski Okrug";"Serbia";"Central Serbia";"N/A";"N/A";"";"";"";"";"";"";"";"";"";"2";"";"";"";"";"";"";"";"";"";"no"
"9982302929";"43.3392018";"21.9234759";"charging_station";"Nisavski Okrug";"Serbia";"Central Serbia";"N/A";"N/A";"";"";"";"";"";"";"";"";"";"2";"";"";"";"";"";"";"";"";"";"no"
"9991658957";"43.323886";"21.9303634";"charging_station";"Nisavski Okrug";"Serbia";"Central Serbia";"N/A";"N/A";"";"";"";"";"";"";"";"";"";"2";"";"";"";"";"";"";"";"";"";"no"
"10156814144";"43.3228606";"21.907116";"charging_station";"Nisavski Okrug";"Serbia";"Central Serbia";"N/A";"N/A";"";"";"";"";"";"";"";"";"";"";"";"";"";"";"";"";"";"";"";""
"11640250197";"43.3110647";"21.9371758";"charging_station";"Nisavski Okrug";"Serbia";"Central Serbia";"N/A";"N/A";"";"2";"";"";"";"";"";"";"";"";"";"";"97;98";"";"";"";"";"";"05:00-01:00";""
"5793659152";"43.0222704";"22.7350881";"charging_station";"Pirotski Okrug";"Serbia";"Central Serbia";"N/A";"N/A";"";"1";"";"";"putevi srbije";"";"";"";"";"1";"";"";"";"";"";"";"";"";"24/7";"no"
"9249259411";"43.1336632";"22.6073169";"charging_station";"Pirotski Okrug";"Serbia";"Central Serbia";"N/A";"N/A";"";"";"";"";"";"";"";"";"";"1";"";"";"";"";"";"";"";"";"";"no"
"9683482215";"43.0124085";"22.7771234";"charging_station";"Pirotski Okrug";"Serbia";"Central Serbia";"N/A";"N/A";"";"";"";"";"";"";"";"";"";"1";"";"";"";"";"";"";"";"";"";"no"
"12744335444";"43.1579564";"22.5809632";"charging_station";"Pirotski Okrug";"Serbia";"Central Serbia";"N/A";"N/A";"";"";"";"";"";"";"";"";"";"1";"";"";"";"";"";"";"";"";"";"no"
"6351687108";"43.7833596";"19.2874031";"charging_station";"";"Bosnia and Herzegovina";"Republika Srpska";"N/A";"N/A";"";"";"";"";"";"";"";"";"";"";"";"";"";"";"";"";"";"";"";""
"8894423722";"43.6694946";"18.9729958";"charging_station";"";"Bosnia and Herzegovina";"Federation of Bosnia and Herzegovina";"N/A";"N/A";"";"";"";"";"";"";"";"";"";"";"";"";"";"";"";"";"";"";"";""
"8278064838";"43.723681";"19.7030385";"charging_station";"";"Serbia";"";"N/A";"N/A";"";"2";"";"";"Porsche";"Q40993";"";"";"";"";"";"";"";"";"";"";"Porsche";"";"";""
"9630355880";"43.6176299";"20.8857314";"charging_station";"Raski Okrug";"Serbia";"Central Serbia";"N/A";"N/A";"";"1";"";"yes";"";"";"";"";"";"1";"";"";"";"";"";"";"Etrel";"";"24/7";""
"10869327403";"43.7857738";"21.1452706";"charging_station";"Pomoravski Okrug";"Serbia";"Central Serbia";"N/A";"N/A";"";"2";"";"yes";"";"";"";"";"";"2";"";"";"";"";"";"";"Tesla";"";"24/7";""
"11283269584";"43.6227963";"20.8936739";"charging_station";"Raski Okrug";"Serbia";"Central Serbia";"N/A";"N/A";"";"";"";"";"";"";"";"";"";"";"";"";"";"";"";"";"";"";"";""
"11285994388";"43.6123101";"20.8848807";"charging_station";"Raski Okrug";"Serbia";"Central Serbia";"N/A";"N/A";"";"";"";"";"";"";"";"";"";"";"";"";"";"";"";"";"";"";"";""
"8862662345";"43.5288649";"21.709347";"charging_station";"Nisavski Okrug";"Serbia";"Central Serbia";"N/A";"N/A";"";"4";"";"";"Tesla";"Q478214";"";"";"";"";"";"";"";"";"";"";"Tesla Supercharger";"";"24/7";"yes"
"9676497940";"43.3902583";"21.8016574";"charging_station";"Nisavski Okrug";"Serbia";"Central Serbia";"N/A";"N/A";"";"1";"";"";"";"";"";"";"";"";"";"";"";"";"";"";"";"";"";"no"
"9676497954";"43.3904347";"21.8022139";"charging_station";"Nisavski Okrug";"Serbia";"Central Serbia";"N/A";"N/A";"";"2";"";"";"";"";"";"";"";"";"";"";"";"";"";"";"";"";"";"no"
"10864765534";"43.643927";"21.8825679";"charging_station";"Zajecarski Okrug";"Serbia";"Central Serbia";"N/A";"N/A";"";"";"";"";"";"";"";"";"";"";"";"";"";"";"";"";"";"";"";"no"
"11159497626";"43.9031428";"22.2683158";"charging_station";"Zajecarski Okrug";"Serbia";"Central Serbia";"N/A";"N/A";"";"2";"";"";"Charge&Go";"";"";"";"";"";"";"";"";"";"";"";"Charge&Go";"";"";""
"11438147240";"43.9942799";"22.9477863";"charging_station";"Municipiul Calafat";"Romania";"Dolj";"N/A";"N/A";"";"";"";"";"";"";"";"";"";"";"";"";"";"";"";"";"";"";"";"yes"
"12172074772";"44.0204176";"22.9393592";"charging_station";"Municipiul Calafat";"Romania";"Dolj";"N/A";"N/A";"";"2";"";"yes";"";"Q128904354";"";"";"";"";"";"";"";"";"";"";"";"";"24/7";"yes"
"1393014271";"";"";"charging_station";"N/A";"N/A";"N/A";"N/A";"N/A";"";"";"";"";"";"";"";"";"";"";"";"";"";"";"";"";"";"";"";""
"12862145939";"44.8146118";"20.2518894";"";"";"Serbia";"";"N/A";"N/A";"";"";"";"";"";"";"";"";"";"";"";"";"";"";"";"";"";"";"";""
"12894845247";"44.8146212";"20.2519658";"";"";"Serbia";"";"N/A";"N/A";"";"";"";"";"";"";"";"";"";"";"";"";"";"";"";"";"";"";"";""
"12894845249";"44.8145876";"20.2518931";"";"";"Serbia";"";"N/A";"N/A";"";"";"";"";"";"";"";"";"";"";"";"";"";"";"";"";"";"";"";""
"12894845250";"44.8145675";"20.2519088";"";"";"Serbia";"";"N/A";"N/A";"";"";"";"";"";"";"";"";"";"";"";"";"";"";"";"";"";"";"";""
"12894845251";"44.8145954";"20.2519685";"";"";"Serbia";"";"N/A";"N/A";"";"";"";"";"";"";"";"";"";"";"";"";"";"";"";"";"";"";"";""
"12894845254";"44.8146478";"20.2519629";"";"";"Serbia";"";"N/A";"N/A";"";"";"";"";"";"";"";"";"";"";"";"";"";"";"";"";"";"";"";""
"3414262314";"45.3521155";"18.9984287";"charging_station";"";"Croatia";"Vukovarsko-Srijemska";"N/A";"N/A";"";"";"";"";"";"";"";"";"";"";"";"";"";"";"";"";"";"";"";""
"5793648253";"45.0481367";"19.1932128";"charging_station";"Sremski Okrug";"Serbia";"Autonomna Pokrajina Vojvodina";"N/A";"N/A";"";"1";"";"";"putevi srbije";"";"";"";"";"1";"";"";"";"";"";"";"";"";"24/7";"no"
"11850150472";"45.3396957";"19.0226055";"charging_station";"";"Croatia";"Vukovarsko-Srijemska";"N/A";"N/A";"";"4";"";"";"Qelo";"";"";"";"";"";"";"";"";"";"";"";"Qelo";"";"";"no"
"12806449044";"45.3335536";"18.8538295";"charging_station";"";"Croatia";"Vukovarsko-Srijemska";"N/A";"N/A";"";"";"";"";"";"";"";"";"";"2";"";"";"";"";"";"";"";"";"";"no"
"10044992320";"45.6075921";"22.9571918";"charging_station";"Oras Hateg";"Romania";"Hunedoara";"N/A";"N/A";"";"";"";"";"";"";"";"";"";"";"";"";"";"";"";"";"";"";"";""
"12201790663";"45.7609128";"22.9108551";"charging_station";"";"Romania";"Hunedoara";"N/A";"N/A";"";"2";"";"";"";"";"";"";"";"";"";"";"";"";"";"";"be.ENERGISED Charging Station";"";"";""
"12205658360";"45.7624723";"22.9019556";"charging_station";"";"Romania";"Hunedoara";"N/A";"N/A";"";"";"";"";"";"";"";"";"";"";"";"";"";"";"";"";"";"";"";""
"7704911569";"46.1773696";"18.9464177";"charging_station";"";"Hungary";"Bacs-Kiskun";"N/A";"N/A";"";"2";"";"yes";"NKM Mobilitás Kft.";"";"";"";"";"";"";"";"";"";"Petőfi-sziget. Május 1. sétány";"6500";"";"";"24/7";"yes"
"7972588433";"46.1813557";"18.9741698";"charging_station";"";"Hungary";"Bacs-Kiskun";"N/A";"N/A";"";"2";"";"";"NKM Mobilitás Kft.";"";"";"";"";"";"";"";"";"20";"Paprika utca";"6500";"";"";"24/7";"yes"
"8004506730";"46.1842696";"18.973297";"charging_station";"";"Hungary";"Bacs-Kiskun";"N/A";"N/A";"";"2";"";"";"NKM Mobilitás Kft.";"";"";"";"";"";"";"";"";"105";"Szegedi út";"6500";"";"";"24/7";"yes"
"8004506731";"46.1742976";"18.9593751";"charging_station";"";"Hungary";"Bacs-Kiskun";"N/A";"N/A";"";"2";"";"";"NKM Mobilitás Kft.";"";"";"";"";"";"";"";"";"";"Rókus utca";"6500";"";"";"24/7";"yes"
"8649897385";"46.1849309";"18.9358499";"charging_station";"";"Hungary";"Bacs-Kiskun";"N/A";"N/A";"";"";"";"";"";"";"";"";"";"";"";"";"";"";"";"";"";"";"";""
"6317084325";"46.0204465";"19.733293";"charging_station";"Severnobacki Okrug";"Serbia";"Autonomna Pokrajina Vojvodina";"N/A";"N/A";"";"3";"";"";"";"";"";"";"";"";"";"";"";"";"";"";"Orion";"";"24/7";"yes"
"12531705082";"46.1250625";"19.8325603";"charging_station";"";"Hungary";"Csongrad";"N/A";"N/A";"";"2";"";"";"Газпром";"";"";"";"";"";"";"";"";"";"";"";"Orion";"";"24/7";"yes"
"10577954741";"46.1730385";"19.9105507";"charging_station";"";"Hungary";"Csongrad";"N/A";"N/A";"";"";"";"";"";"";"";"";"";"";"";"";"";"";"";"";"";"";"";""
"12087460269";"46.0747145";"20.6234919";"charging_station";"Oras Sannicolau Mare";"Romania";"Timis";"N/A";"N/A";"";"";"";"";"Lidl";"";"";"";"";"";"";"";"";"18";"Calea lui Traian";"305600";"";"";"";""
"4235392977";"46.1416582";"21.331265";"charging_station";"";"Romania";"Arad";"N/A";"N/A";"";"";"";"";"";"";"";"";"";"";"";"";"";"";"";"";"";"";"24/7";""
"4331301590";"46.1721766";"21.2923178";"charging_station";"";"Romania";"Arad";"N/A";"N/A";"";"";"";"";"ReadyMix";"";"";"";"";"";"";"";"";"";"";"";"";"";"";""
"7192802353";"46.1815026";"21.119059";"charging_station";"Comuna Pecica";"Romania";"Arad";"N/A";"N/A";"";"3";"";"";"Autohof";"";"";"";"";"";"";"";"";"";"";"";"";"1.45 RON for DC charging and 1.39 RON for AC charging for subscribers";"";"yes"
"7470184906";"46.1783095";"21.3521848";"charging_station";"";"Romania";"Arad";"N/A";"N/A";"";"2";"";"";"Rompetrol";"";"";"";"";"";"";"";"";"";"";"";"";"";"";""
"10160306775";"46.1730054";"21.3718268";"charging_station";"Comuna Vladimirescu";"Romania";"Arad";"N/A";"N/A";"";"2";"";"";"";"";"";"";"";"";"";"";"";"";"";"";"";"";"";""
"12615984129";"46.1746725";"21.3731758";"charging_station";"Comuna Vladimirescu";"Romania";"Arad";"N/A";"N/A";"";"";"";"";"";"";"";"";"";"";"";"";"";"";"";"";"";"";"";""
"12852831301";"45.8644922";"21.5728772";"charging_station";"Oras Recas";"Romania";"Timis";"N/A";"N/A";"";"";"";"";"";"";"";"";"";"";"";"";"";"18";"Gogenova de Sus";"307347";"";"";"24/7";""
"10588825230";"45.8567605";"22.2481156";"charging_station";"Comuna Margina";"Romania";"Timis";"N/A";"N/A";"";"4";"";"";"";"";"";"";"";"";"";"";"";"";"";"";"";"";"";""
"9937520923";"45.9475681";"22.6518928";"charging_station";"Comuna Ilia";"Romania";"Hunedoara";"N/A";"N/A";"";"";"";"";"";"";"";"";"";"";"";"";"";"";"";"";"";"";"";""
"9937520929";"45.9482488";"22.6541707";"charging_station";"Comuna Ilia";"Romania";"Hunedoara";"N/A";"N/A";"";"";"";"";"";"";"";"";"";"";"";"";"";"";"";"";"";"";"";""
"8813850644";"43.9373855";"20.4001931";"charging_station";"";"Serbia";"";"N/A";"N/A";"";"2";"";"";"Газпром";"";"";"";"";"";"";"";"51,52,53";"";"";"";"charge&GO";"";"24/7";"yes"
"10961952025";"44.3087026";"20.5492871";"charging_station";"Sumadijski Okrug";"Serbia";"Central Serbia";"N/A";"N/A";"";"";"";"";"";"";"";"";"";"";"";"";"";"";"";"";"";"500rsd";"";"yes"
"12144831292";"43.9350145";"20.4017119";"charging_station";"";"Serbia";"";"N/A";"N/A";"";"";"";"";"";"";"";"";"";"";"";"";"";"";"";"";"";"";"";""
"12144831293";"43.9351062";"20.4016985";"charging_station";"";"Serbia";"";"N/A";"N/A";"";"";"";"";"";"";"";"";"";"";"";"";"";"";"";"";"";"";"";""
"12787662268";"44.2533532";"20.6763944";"charging_station";"Sumadijski Okrug";"Serbia";"Central Serbia";"N/A";"N/A";"";"";"";"";"";"";"";"";"";"";"";"";"";"";"";"";"";"";"";"no"
"6797205413";"44.0023505";"20.8910355";"charging_station";"Sumadijski Okrug";"Serbia";"Central Serbia";"N/A";"N/A";"";"1";"";"";"";"";"";"";"";"";"";"";"";"";"";"";"";"";"";""
"8185526053";"44.012879";"20.9132561";"charging_station";"Sumadijski Okrug";"Serbia";"Central Serbia";"N/A";"N/A";"";"3";"";"";"";"";"";"";"";"";"";"";"";"";"";"";"";"";"";""
"8821114619";"44.3453248";"21.0783528";"charging_station";"Podunavski Okrug";"Serbia";"Central Serbia";"N/A";"N/A";"";"2";"";"";"Газпром";"";"";"";"";"";"";"";"60;61;62";"";"";"";"charge&GO";"";"24/7";"yes"
"8821129797";"44.0089403";"20.8961752";"charging_station";"Sumadijski Okrug";"Serbia";"Central Serbia";"N/A";"N/A";"";"5";"";"";"";"";"";"";"";"5";"";"";"73;74;75;76;77";"";"";"";"charge&GO";"";"24/7";"yes"
"10961924286";"44.0040774";"20.9128151";"charging_station";"Sumadijski Okrug";"Serbia";"Central Serbia";"N/A";"N/A";"";"";"";"";"";"";"";"";"";"";"";"";"";"";"";"";"";"";"24/7";"no"
"10078413138";"43.8634667";"21.421247";"charging_station";"Pomoravski Okrug";"Serbia";"Central Serbia";"N/A";"N/A";"";"1";"";"yes";"";"";"";"";"";"";"";"";"";"";"";"";"Tesla, Inc.";"1000 RSD / 30 min";"24/7";"yes"
"10961948836";"43.862896";"21.4113654";"charging_station";"Pomoravski Okrug";"Serbia";"Central Serbia";"N/A";"N/A";"";"";"";"";"";"";"1";"";"";"1";"";"";"";"";"";"";"";"";"";"no"
"11161539392";"43.8670655";"21.4076598";"charging_station";"Pomoravski Okrug";"Serbia";"Central Serbia";"N/A";"N/A";"";"1";"";"yes";"";"";"";"";"";"1";"";"";"";"";"";"";"Tesla, Inc.";"";"24/7";""
"11688511922";"43.8645825";"21.6256113";"charging_station";"Nisavski Okrug";"Serbia";"Central Serbia";"N/A";"N/A";"";"2";"";"yes";"";"";"";"";"";"";"";"";"";"";"";"";"Tesla";"";"";""
"12141883774";"43.985713";"22.8292747";"charging_station";"Obshtina Vidin";"Bulgaria";"Vidin";"N/A";"N/A";"";"4";"";"yes";"Финес Енерджи ООД";"Q128904354";"";"";"";"";"";"";"";"";"";"3725";"Sungrow";"";"24/7";"yes"
"11970027275";"44.5346503";"18.8575163";"charging_station";"";"Bosnia and Herzegovina";"Federation of Bosnia and Herzegovina";"N/A";"N/A";"";"";"";"";"";"";"";"";"";"";"";"";"";"";"";"";"";"";"";"yes"
"5102115442";"44.8158323";"20.457676";"charging_station";"Belgrade";"Serbia";"Central Serbia";"N/A";"N/A";"";"6";"";"";"";"";"";"";"";"";"";"";"";"";"";"";"";"";"";""
"5345818447";"44.8044588";"20.466539";"charging_station";"";"Serbia";"Central Serbia";"N/A";"N/A";"";"4";"";"yes";"";"";"";"";"";"";"";"";"";"";"";"";"";"";"";""
"6077073468";"44.8146208";"20.4267797";"charging_station";"Belgrade";"Serbia";"Central Serbia";"N/A";"N/A";"yes";"1";"";"";"Societe Generale";"";"";"";"";"2";"";"";"";"";"";"";"";"";"";"no"
"6797205414";"44.7104847";"20.561859";"charging_station";"Belgrade";"Serbia";"Central Serbia";"N/A";"N/A";"";"2";"";"";"Електропуњачи";"";"";"";"";"";"";"";"";"";"";"";"";"";"";"no"
"8405248202";"44.7100399";"20.5610585";"charging_station";"Belgrade";"Serbia";"Central Serbia";"N/A";"N/A";"";"4";"";"";"Tesla";"Q478214";"";"";"";"";"";"";"";"";"";"";"Tesla Supercharger";"";"24/7";""
"8804816304";"44.8212539";"20.4541766";"charging_station";"Belgrade";"Serbia";"Central Serbia";"N/A";"N/A";"yes";"5";"";"";"";"";"";"";"";"";"";"";"";"";"";"";"";"";"";"no"
"8936385452";"44.7864804";"20.4190857";"charging_station";"Belgrade";"Serbia";"Central Serbia";"N/A";"N/A";"";"8";"";"";"";"";"";"";"";"";"";"";"";"";"";"";"";"";"";""
"9270518764";"44.8121606";"20.4652872";"charging_station";"Belgrade";"Serbia";"Central Serbia";"N/A";"N/A";"";"2";"";"yes";"";"";"";"";"";"";"";"";"";"";"";"";"";"";"";""
"10008908002";"44.8173912";"20.4769975";"charging_station";"Belgrade";"Serbia";"Central Serbia";"N/A";"N/A";"";"2";"";"";"Lidl";"Q151954";"";"";"";"";"";"";"";"";"";"";"";"";"";""
"10713611582";"44.4469995";"20.690142";"charging_station";"Belgrade";"Serbia";"Central Serbia";"N/A";"N/A";"";"22kW";"";"";"";"";"";"";"";"";"";"";"";"";"";"";"";"30c/kWh";"";"yes"
"10713642850";"44.6654215";"20.6122513";"charging_station";"Belgrade";"Serbia";"Central Serbia";"N/A";"N/A";"";"50";"";"";"Putevi Srbije";"";"";"";"";"";"";"";"";"";"";"";"";"";"";"no"
"10961947490";"44.8031048";"20.447856";"charging_station";"";"Serbia";"Central Serbia";"N/A";"N/A";"";"";"";"";"";"";"";"";"";"";"";"";"";"";"";"";"";"";"";"no"
"10961950559";"44.8154106";"20.4363148";"charging_station";"Belgrade";"Serbia";"Central Serbia";"N/A";"N/A";"";"";"";"";"";"";"";"";"";"2";"";"";"";"";"";"";"";"";"";"no"
"12281405040";"44.8109743";"20.4705331";"charging_station";"";"Serbia";"Central Serbia";"N/A";"N/A";"";"";"";"";"";"";"";"";"";"";"";"";"";"";"";"";"";"";"";""
"12281409515";"44.8117677";"20.4697068";"charging_station";"";"Serbia";"Central Serbia";"N/A";"N/A";"";"";"";"";"";"";"";"";"";"";"";"";"";"";"";"";"";"";"";""
"12633260621";"44.712602";"20.5601839";"charging_station";"Belgrade";"Serbia";"Central Serbia";"N/A";"N/A";"";"8";"";"yes";"Tesla, Inc.";"Q478214";"";"";"";"";"";"";"";"23";"Astrid Lindgren";"11231";"Tesla, Inc.";"";"24/7";"yes"
"12787665011";"44.5600906";"20.6693152";"charging_station";"Belgrade";"Serbia";"Central Serbia";"N/A";"N/A";"";"";"";"";"";"";"";"";"";"1";"";"";"";"";"";"";"";"";"24/7";"no"
"431468548";"";"";"charging_station";"N/A";"N/A";"N/A";"N/A";"N/A";"";"";"";"";"";"";"";"";"";"";"";"";"";"";"";"";"";"";"";""
"4306687927";"44.7843173";"20.4131114";"";"Belgrade";"Serbia";"Central Serbia";"N/A";"N/A";"";"";"";"";"";"";"";"";"";"";"";"";"";"";"";"";"";"";"";""
"4306687928";"44.7842731";"20.4130506";"";"Belgrade";"Serbia";"Central Serbia";"N/A";"N/A";"";"";"";"";"";"";"";"";"";"";"";"";"";"";"";"";"";"";"";""
"4306687929";"44.7842401";"20.4130828";"";"Belgrade";"Serbia";"Central Serbia";"N/A";"N/A";"";"";"";"";"";"";"";"";"";"";"";"";"";"";"";"";"";"";"";""
"4306687930";"44.7842813";"20.4131505";"";"Belgrade";"Serbia";"Central Serbia";"N/A";"N/A";"";"";"";"";"";"";"";"";"";"";"";"";"";"";"";"";"";"";"";""
"7470184908";"44.6234119";"22.653006";"charging_station";"Municipiul Drobeta-Turnu Severin";"Romania";"Mehedinti";"N/A";"N/A";"";"";"";"";"";"";"";"";"";"";"";"";"";"";"";"";"";"";"";""
"11353601357";"44.6385049";"22.6338276";"charging_station";"Municipiul Drobeta-Turnu Severin";"Romania";"Mehedinti";"N/A";"N/A";"";"2";"";"";"Enel X";"Q5376815";"";"";"";"";"";"";"";"";"";"";"Enel X";"";"";""
"11353601358";"44.6385526";"22.6340756";"charging_station";"Municipiul Drobeta-Turnu Severin";"Romania";"Mehedinti";"N/A";"N/A";"";"4";"";"";"";"";"";"";"";"";"";"";"";"";"";"";"";"";"";""
"5304717494";"45.2447523";"19.8456648";"charging_station";"Juznobacki Okrug";"Serbia";"Autonomna Pokrajina Vojvodina";"N/A";"N/A";"";"";"";"yes";"ProCredit";"";"";"";"";"2";"";"";"";"";"";"";"";"";"";"no"
"8228565597";"45.2430753";"19.8410085";"charging_station";"Juznobacki Okrug";"Serbia";"Autonomna Pokrajina Vojvodina";"N/A";"N/A";"";"";"";"";"";"";"";"";"";"";"";"";"";"";"";"";"";"";"";""
"8821069016";"45.2457124";"19.8430161";"charging_station";"Juznobacki Okrug";"Serbia";"Autonomna Pokrajina Vojvodina";"N/A";"N/A";"";"5";"";"";"";"";"";"";"";"5";"";"";"41;42;43;44;45";"";"";"";"charge&GO";"";"24/7";"yes"
"10094584889";"44.9772862";"19.5917501";"charging_station";"";"Serbia";"";"N/A";"N/A";"";"1";"";"";"";"";"";"";"";"";"";"";"";"";"";"";"";"";"";"yes"
"10961949709";"45.2366018";"19.8264216";"charging_station";"Juznobacki Okrug";"Serbia";"Autonomna Pokrajina Vojvodina";"N/A";"N/A";"";"2";"";"";"Lidl";"Q151954";"";"";"";"1";"";"";"";"";"";"";"";"";"Mo-Su 08:00-22:00";"no"
"11608859730";"45.1572252";"19.7797827";"charging_station";"";"Serbia";"";"N/A";"N/A";"";"3";"";"no";"";"";"";"";"";"";"";"";"";"";"";"";"";"";"24/7";"no"
"12142021235";"45.2649367";"19.8301785";"charging_station";"Juznobacki Okrug";"Serbia";"Autonomna Pokrajina Vojvodina";"N/A";"N/A";"";"";"";"";"";"";"";"";"";"";"";"";"";"";"";"";"";"";"";""
"12206033248";"45.1356308";"19.6778749";"charging_station";"Juznobacki Okrug";"Serbia";"Autonomna Pokrajina Vojvodina";"N/A";"N/A";"";"3";"";"no";"";"";"";"";"";"";"";"";"";"";"";"";"";"";"24/7";"no"
"12206033249";"45.1564696";"19.7495972";"charging_station";"";"Serbia";"";"N/A";"N/A";"";"3";"";"no";"";"";"";"";"";"";"";"";"";"";"";"";"";"";"24/7";"no"
"12760859109";"45.1517848";"19.839543";"charging_station";"Sremski Okrug";"Serbia";"Autonomna Pokrajina Vojvodina";"N/A";"N/A";"";"3";"";"no";"";"";"";"";"";"";"";"";"";"";"";"";"";"";"24/7";"no"
"12769389499";"44.9689254";"19.8092642";"charging_station";"Sremski Okrug";"Serbia";"Autonomna Pokrajina Vojvodina";"N/A";"N/A";"";"";"";"yes";"";"";"";"";"";"";"";"";"";"";"";"";"";"";"";"yes"
"12787761148";"45.0006229";"19.8202495";"charging_station";"Sremski Okrug";"Serbia";"Autonomna Pokrajina Vojvodina";"N/A";"N/A";"";"";"";"";"";"";"";"";"";"";"";"";"";"";"";"";"";"";"08:00-23:00";"no"
"12806234883";"45.0131775";"19.442199";"charging_station";"";"Serbia";"";"N/A";"N/A";"";"";"";"";"orion mobility";"";"";"";"";"2";"";"";"";"";"";"";"";"";"";""
"8598316554";"44.9712258";"20.2335113";"charging_station";"";"Serbia";"Autonomna Pokrajina Vojvodina";"N/A";"N/A";"";"2";"";"";"Газпром";"";"";"";"";"";"";"";"54;55;56";"";"";"";"charge&GO";"";"24/7";"yes"
"8813926899";"45.275753";"19.9221393";"charging_station";"Juznobacki Okrug";"Serbia";"Autonomna Pokrajina Vojvodina";"N/A";"N/A";"";"2";"";"";"Газпром";"";"";"";"";"";"";"";"57;58;59";"";"";"";"charge&GO";"";"24/7";"yes"
"956048412";"";"";"charging_station";"N/A";"N/A";"N/A";"N/A";"N/A";"";"";"";"";"";"";"";"";"";"";"";"";"";"";"";"";"";"";"";""
"8848323037";"44.9627553";"20.239789";"";"";"Serbia";"Autonomna Pokrajina Vojvodina";"N/A";"N/A";"";"";"";"";"";"";"";"";"";"";"";"";"";"";"";"";"";"";"";""
"8848323038";"44.9626328";"20.239708";"";"";"Serbia";"Autonomna Pokrajina Vojvodina";"N/A";"N/A";"";"";"";"";"";"";"";"";"";"";"";"";"";"";"";"";"";"";"";""
"8848323039";"44.9625953";"20.2398213";"";"";"Serbia";"Autonomna Pokrajina Vojvodina";"N/A";"N/A";"";"";"";"";"";"";"";"";"";"";"";"";"";"";"";"";"";"";"";""
"8848323040";"44.9627178";"20.2399023";"";"";"Serbia";"Autonomna Pokrajina Vojvodina";"N/A";"N/A";"";"";"";"";"";"";"";"";"";"";"";"";"";"";"";"";"";"";"";""
"12351817790";"45.0396037";"21.6807489";"charging_station";"Oras Oravita";"Romania";"Caras-Severin";"N/A";"N/A";"";"";"";"";"";"";"";"";"";"";"";"";"";"";"";"";"Petrom";"";"";"yes"
"12146078964";"44.9748063";"22.7621673";"charging_station";"Comuna Ponoarele";"Romania";"Mehedinti";"N/A";"N/A";"";"";"";"";"Primăria Ponoarele";"";"";"";"";"";"";"";"";"";"";"";"";"";"";""
"4235395793";"45.7686926";"21.2208617";"charging_station";"";"Romania";"Timis";"N/A";"N/A";"";"2";"";"";"";"";"";"";"";"";"";"";"";"";"";"";"";"";"8:00-19:00";""
"4235396553";"45.7536873";"21.2266587";"charging_station";"";"Romania";"Timis";"N/A";"N/A";"";"1";"";"";"Primăria Municipiului Timișoara";"";"";"";"";"";"";"";"";"";"";"";"";"";"";"no"
"4235399499";"45.7242574";"21.2005676";"charging_station";"Comuna Giroc";"Romania";"Timis";"N/A";"N/A";"";"2";"";"";"Citylimo";"";"";"";"";"";"";"";"";"";"";"";"evconnect.ro";"";"";""
"5181107750";"45.7917524";"21.2386468";"charging_station";"Comuna Dumbravita";"Romania";"Timis";"N/A";"N/A";"";"3";"";"";"Lidl";"Q151954";"";"";"";"";"";"";"";"";"";"";"";"";"";""
"5208158210";"45.7726096";"21.2874572";"charging_station";"Comuna Ghiroda";"Romania";"Timis";"N/A";"N/A";"";"1";"";"";"";"";"";"";"";"";"";"";"";"";"";"";"";"";"";""
"5234481611";"45.7577766";"21.2242043";"charging_station";"";"Romania";"Timis";"N/A";"N/A";"";"6";"";"";"hub700";"";"";"";"";"";"";"";"";"";"";"";"lek3.co";"3 RON/h";"";"yes"
"5234481612";"45.7392425";"21.2119842";"charging_station";"";"Romania";"Timis";"N/A";"N/A";"";"3";"";"";"Kaufland";"";"";"";"";"";"";"";"";"";"";"";"Renovatio/Efacec";"1 free charge/24h;1.45 RON/kWh for AC charging, or 1.95 RON/kWh for DC charging (with 30 RON minimum in e-charge.ro wallet)";"";"yes"
"5234481613";"45.734579";"21.2667137";"charging_station";"Comuna Ghiroda";"Romania";"Timis";"N/A";"N/A";"";"6";"";"";"Continental Automotive România";"";"";"";"";"";"";"";"";"";"";"";"EVLink";"";"";"no"
"5234481615";"45.8099389";"21.3197146";"charging_station";"Comuna Ghiroda";"Romania";"Timis";"N/A";"N/A";"";"3";"";"";"Enel";"";"";"";"";"";"";"";"";"";"";"";"Schneider Electric";"";"";""
"5238114038";"45.7630644";"21.2523035";"charging_station";"";"Romania";"Timis";"N/A";"N/A";"";"3";"";"";"Lidl";"Q151954";"";"";"";"";"";"";"";"";"";"";"ABB";"Usable after 50 RON spent in Lidl";"";"yes"
"6665550730";"45.7484167";"21.2395558";"charging_station";"";"Romania";"Timis";"N/A";"N/A";"";"";"";"";"STPT";"";"";"";"";"";"";"";"";"";"";"";"";"";"";"no"
"6665550731";"45.7475841";"21.2266851";"charging_station";"";"Romania";"Timis";"N/A";"N/A";"";"";"";"";"STPT";"";"";"";"";"";"";"";"";"";"";"";"";"";"";"no"
"6888920870";"45.7512397";"21.2262528";"charging_station";"";"Romania";"Timis";"N/A";"N/A";"";"1";"";"";"Enel";"";"";"";"";"";"";"";"";"";"";"";"Enel";"";"";"no"
"6889027514";"45.7530898";"21.2168691";"charging_station";"";"Romania";"Timis";"N/A";"N/A";"";"2";"";"";"Incuboxx";"";"";"";"";"";"";"";"";"";"";"";"";"";"";"no"
"6889044000";"45.7493377";"21.2128029";"charging_station";"";"Romania";"Timis";"N/A";"N/A";"";"3";"";"";"Nokia";"";"";"";"";"";"";"";"";"";"";"";"Scame";"";"";""
"6889115220";"45.7671617";"21.2264256";"charging_station";"";"Romania";"Timis";"N/A";"N/A";"";"2";"";"";"Iulius Town";"";"";"";"";"";"";"";"";"";"";"";"evconnect.ro";"";"";""
"6889206963";"45.7649622";"21.2456204";"charging_station";"";"Romania";"Timis";"N/A";"N/A";"";"4";"";"";"Renovatio e-charge";"Q115409077";"";"";"";"";"";"";"";"";"";"";"Renovatio";"";"";"no"
"6889247509";"45.7689401";"21.235194";"charging_station";"";"Romania";"Timis";"N/A";"N/A";"";"1";"";"";"";"";"";"";"";"";"";"";"";"";"";"";"";"";"";""
"6889273913";"45.7131313";"21.1916709";"charging_station";"Comuna Giroc";"Romania";"Timis";"N/A";"N/A";"";"1";"";"";"Auto Europa";"";"";"";"";"";"";"";"";"";"";"";"Schneider Electric";"";"";""
"6889328179";"45.6957897";"21.1774341";"charging_station";"Comuna Giroc";"Romania";"Timis";"N/A";"N/A";"";"1";"";"";"Paul Trans Service";"";"";"";"";"";"";"";"";"";"";"";"";"40 RON";"";"yes"
"6889460325";"45.7875169";"21.3226686";"charging_station";"Comuna Ghiroda";"Romania";"Timis";"N/A";"N/A";"";"2";"";"";"FanCourier";"";"";"";"";"";"";"";"";"";"";"";"";"";"";""
"7056387968";"45.7513494";"21.2233293";"charging_station";"";"Romania";"Timis";"N/A";"N/A";"";"";"";"";"STPT";"";"";"";"";"";"";"";"";"";"";"";"";"";"";"no"
"7056387969";"45.7587267";"21.2259826";"charging_station";"";"Romania";"Timis";"N/A";"N/A";"";"";"";"no";"STPT";"Q929687";"";"";"";"";"";"";"";"";"";"";"";"";"";"no"
"7056387971";"45.7594818";"21.2296505";"charging_station";"";"Romania";"Timis";"N/A";"N/A";"";"";"";"no";"STPT";"Q929687";"";"";"";"";"";"";"";"";"";"";"";"";"";"no"
"7057849175";"45.7474236";"21.231597";"charging_station";"";"Romania";"Timis";"N/A";"N/A";"";"";"";"";"STPT";"";"";"";"";"";"";"";"";"";"";"";"";"";"";"no"
"7108831725";"45.7565105";"21.2371962";"charging_station";"";"Romania";"Timis";"N/A";"N/A";"";"";"";"no";"STPT";"Q929687";"";"";"";"";"";"";"";"";"";"";"";"";"";"no"
"7108831726";"45.7516439";"21.2164348";"charging_station";"";"Romania";"Timis";"N/A";"N/A";"";"";"";"no";"STPT";"Q929687";"";"";"";"";"";"";"";"";"";"";"";"";"";"no"
"7144901566";"45.7376402";"21.2412283";"charging_station";"";"Romania";"Timis";"N/A";"N/A";"";"";"";"";"STPT";"";"";"";"";"";"";"";"";"";"";"";"";"";"";"no"
"7235057682";"45.7490599";"21.2132079";"charging_station";"";"Romania";"Timis";"N/A";"N/A";"";"";"";"";"Flow";"";"";"";"";"";"";"";"";"";"";"";"";"";"";"yes"
"7235057684";"45.7751494";"21.2133707";"charging_station";"";"Romania";"Timis";"N/A";"N/A";"";"";"";"no";"Flow";"";"";"";"";"";"";"";"";"";"";"";"";"";"";"yes"
"7263032710";"45.762697";"21.211332";"charging_station";"";"Romania";"Timis";"N/A";"N/A";"";"";"";"";"STPT";"";"";"";"";"";"";"";"";"";"";"";"";"";"";"no"
"7291307209";"45.7835715";"21.2187441";"charging_station";"Comuna Dumbravita";"Romania";"Timis";"N/A";"N/A";"";"";"";"";"STPT";"";"";"";"";"";"";"";"";"";"";"";"";"";"";"no"
"7525762020";"45.7226675";"21.299311";"charging_station";"Comuna Mosnita Noua";"Romania";"Timis";"N/A";"N/A";"";"";"";"";"";"";"";"";"";"";"";"";"";"";"";"";"";"";"";""
"7622357576";"45.7545721";"21.2165705";"charging_station";"";"Romania";"Timis";"N/A";"N/A";"";"2";"";"";"";"";"";"";"";"";"";"";"";"";"";"";"";"";"";""
"7817112380";"45.7191798";"21.315672";"charging_station";"Comuna Mosnita Noua";"Romania";"Timis";"N/A";"N/A";"";"";"";"";"e.on";"";"";"";"";"";"";"";"";"";"";"";"";"";"";""
"8425173949";"45.7383524";"21.2100978";"charging_station";"";"Romania";"Timis";"N/A";"N/A";"";"";"";"";"Enel";"";"";"";"";"";"";"";"";"";"";"";"";"";"";""
"8588108986";"45.7551455";"21.2331227";"charging_station";"";"Romania";"Timis";"N/A";"N/A";"";"6";"";"";"Tesla, Inc.";"Q478214";"";"";"";"";"";"";"";"";"";"";"Tesla Supercharger";"";"24/7";"yes"
"8660324052";"45.7306018";"21.1880216";"charging_station";"Comuna Giroc";"Romania";"Timis";"N/A";"N/A";"";"";"";"";"";"";"";"";"";"";"";"";"";"";"";"";"";"";"";""
"9376420008";"45.7278929";"21.2356826";"charging_station";"";"Romania";"Timis";"N/A";"N/A";"";"";"";"";"";"";"";"";"";"";"";"";"";"";"";"";"";"";"";""
"9672267274";"45.7586196";"21.225945";"charging_station";"";"Romania";"Timis";"N/A";"N/A";"";"2";"";"";"Primăria Timișoara";"";"";"";"";"";"";"";"";"";"";"";"";"";"";""
"9672267275";"45.7536368";"21.2238764";"charging_station";"";"Romania";"Timis";"N/A";"N/A";"";"2";"";"";"ev +go";"";"";"";"";"";"";"";"";"";"";"";"";"";"";""
"9672267277";"45.7492907";"21.2141078";"charging_station";"";"Romania";"Timis";"N/A";"N/A";"";"";"";"";"";"";"";"";"";"";"";"";"";"";"";"";"";"";"";""
"9672267278";"45.7470862";"21.2254852";"charging_station";"";"Romania";"Timis";"N/A";"N/A";"";"";"";"";"";"";"";"";"";"";"";"";"";"";"";"";"";"";"";""
"9672267279";"45.7469021";"21.2330309";"charging_station";"";"Romania";"Timis";"N/A";"N/A";"";"";"";"";"";"";"";"";"";"";"";"";"";"";"";"";"";"";"";""
"9672267280";"45.7512441";"21.2335254";"charging_station";"";"Romania";"Timis";"N/A";"N/A";"";"";"";"";"";"";"";"";"";"";"";"";"";"";"";"";"";"";"";""
"9672267281";"45.753092";"21.2311446";"charging_station";"";"Romania";"Timis";"N/A";"N/A";"";"2";"";"";"";"";"";"";"";"";"";"";"";"";"";"";"";"";"";""
"9672267282";"45.757365";"21.2228285";"charging_station";"";"Romania";"Timis";"N/A";"N/A";"";"3";"";"";"Primăria Timișoara";"";"";"";"";"";"";"";"";"";"";"";"";"";"";""
"9672267283";"45.7571632";"21.232293";"charging_station";"";"Romania";"Timis";"N/A";"N/A";"";"2";"";"";"Municipiul Timișoara";"";"";"";"";"";"";"";"";"";"";"";"";"";"";""
"9672267284";"45.7557418";"21.2374012";"charging_station";"";"Romania";"Timis";"N/A";"N/A";"";"";"";"";"";"";"";"";"";"";"";"";"";"";"";"";"";"";"";""
"9672267285";"45.7600574";"21.2400204";"charging_station";"";"Romania";"Timis";"N/A";"N/A";"";"";"";"";"";"";"";"";"";"";"";"";"";"";"";"";"";"";"";""
"9672267286";"45.7770356";"21.2205679";"charging_station";"";"Romania";"Timis";"N/A";"N/A";"";"";"";"";"";"";"";"";"";"";"";"";"";"";"";"";"";"";"";""
"9672267287";"45.7367908";"21.209619";"charging_station";"";"Romania";"Timis";"N/A";"N/A";"";"";"";"";"";"";"";"";"";"";"";"";"";"";"";"";"";"";"";""
"9672323088";"45.7131156";"21.212279";"charging_station";"Comuna Giroc";"Romania";"Timis";"N/A";"N/A";"";"";"";"";"Lidl";"Q151954";"";"";"";"";"";"";"";"";"";"";"";"";"";""
"9727096959";"45.7398886";"21.2583009";"charging_station";"";"Romania";"Timis";"N/A";"N/A";"";"";"";"";"";"";"";"";"";"";"";"";"";"";"";"";"";"";"";""
"11235694791";"45.793367";"21.2106395";"charging_station";"Comuna Dumbravita";"Romania";"Timis";"N/A";"N/A";"";"11";"";"";"IKEA";"Q54078";"";"";"";"";"";"";"";"";"";"";"";"";"";""
"12776392513";"45.763267";"21.1866478";"charging_station";"";"Romania";"Timis";"N/A";"N/A";"";"2";"";"";"";"";"";"";"";"";"";"";"";"";"";"";"Lidl Charging Station";"";"";""
"7192879405";"45.8540167";"22.1778415";"charging_station";"Comuna Faget";"Romania";"Timis";"N/A";"N/A";"";"3";"";"";"Penny";"";"";"";"";"";"";"";"";"";"";"";"";"Free charging until 01.03.2020;after, 1.45RON/kWh AC, 1.95RON/kWh DC";"";"yes"
