"id";"lat";"lon";"amenity";"city";"state";"country";"scraped_country_code";"scraped_country_name";"authentication:nfc";"capacity";"capacity:car";"motorcar";"operator";"operator:wikidata";"socket:schuko";"socket:schuko:current";"socket:schuko:voltage";"socket:type2";"socket:type2:current";"socket:type2:voltage";"ref";"addr:housenumber";"addr:street";"addr:postcode";"brand";"charge";"opening_hours";"fee"
"11791154910";"24.5611888";"-81.76384";"charging_station";"Monroe County";"United States";"Florida";"N/A";"N/A";"";"4";"";"";"";"";"";"";"";"";"";"";"";"";"";"";"Electrify America";"";"24/7";"yes"
"12923488242";"24.67343";"-81.35638";"charging_station";"Monroe County";"United States";"Florida";"N/A";"N/A";"";"8";"";"designated";"Tesla, Inc.";"Q478214";"";"";"";"";"";"";"";"251";"Key Deer Boulevard";"33043";"Tesla Supercharger";"";"24/7";"yes"
"3724206498";"24.72594";"-81.04825";"charging_station";"Monroe County";"United States";"Florida";"N/A";"N/A";"";"12";"";"designated";"Tesla, Inc.";"Q478214";"";"";"";"";"";"";"";"9400";"Overseas Highway";"33050";"Tesla Supercharger";"";"24/7";"yes"
"11443435732";"24.4712325";"39.5828712";"charging_station";"";"Saudi Arabia";"Al Madinah al Munawwarah";"N/A";"N/A";"";"";"";"";"Electromin";"";"";"";"";"";"";"";"";"";"";"";"";"";"Fr 17:00-21:00; Mo-Th,Sa-Su 09:00-22:00";""
"11443450179";"24.48523";"39.6818608";"charging_station";"";"Saudi Arabia";"Al Madinah al Munawwarah";"N/A";"N/A";"";"";"";"";"Electromin";"";"";"";"";"";"";"";"";"";"";"";"";"";"Fr 17:00-21:00; Mo-Th,Sa-Su 09:00-22:00";""
"11443450176";"24.8647552";"40.4976708";"charging_station";"";"Saudi Arabia";"Al Madinah al Munawwarah";"N/A";"N/A";"";"";"";"";"Electromin";"";"";"";"";"";"";"";"";"";"";"";"";"";"Fr 17:00-21:00; Mo-Th,Sa-Su 09:00-22:00";""
"11443435746";"24.4928554";"44.3692893";"charging_station";"";"Saudi Arabia";"Ar Riyad";"N/A";"N/A";"";"";"";"";"Electromin";"";"";"";"";"";"";"";"";"";"";"";"";"";"Fr 17:00-21:00; Mo-Th,Sa-Su 09:00-22:00";""
"11443450217";"24.5238405";"44.4205248";"charging_station";"";"Saudi Arabia";"Ar Riyad";"N/A";"N/A";"";"";"";"";"Electromin";"";"";"";"";"";"";"";"";"";"";"";"";"";"Mo-Th,Sa-Su 09:00-21:00";""
"4715381389";"24.6522236";"46.8089551";"charging_station";"";"Saudi Arabia";"Ar Riyad";"N/A";"N/A";"";"";"";"";"";"";"";"";"";"";"";"";"";"";"";"";"";"";"";""
"5287776123";"24.650215";"46.740835";"charging_station";"";"Saudi Arabia";"Ar Riyad";"N/A";"N/A";"";"";"";"";"";"";"";"";"";"";"";"";"";"";"";"";"";"";"";""
"7272376161";"24.8286";"46.8159";"charging_station";"";"Saudi Arabia";"Ar Riyad";"N/A";"N/A";"";"";"";"";"";"";"";"";"";"";"";"";"";"";"";"";"";"";"";""
"7273175068";"24.8298";"46.8146";"charging_station";"";"Saudi Arabia";"Ar Riyad";"N/A";"N/A";"";"";"";"";"";"";"";"";"";"";"";"";"";"";"";"";"";"";"";""
"11443435737";"24.8638402";"46.6435558";"charging_station";"";"Saudi Arabia";"Ar Riyad";"N/A";"N/A";"";"";"";"";"Electromin";"";"";"";"";"";"";"";"";"";"";"";"";"";"Fr 17:00-21:00; Mo-Th,Sa-Su 09:00-22:00";""
"11443435740";"24.8035697";"46.7505008";"charging_station";"";"Saudi Arabia";"Ar Riyad";"N/A";"N/A";"";"";"";"";"Electromin";"";"";"";"";"";"";"";"";"";"";"";"";"";"Fr 17:00-21:00; Mo-Th,Sa-Su 09:00-22:00";""
"11443435741";"24.6328037";"46.5639639";"charging_station";"";"Saudi Arabia";"Ar Riyad";"N/A";"N/A";"";"";"";"";"Electromin";"";"";"";"";"";"";"";"";"";"";"";"";"";"Fr 17:00-21:00; Mo-Th,Sa-Su 09:00-22:00";""
"11443435742";"24.6659529";"46.6990882";"charging_station";"";"Saudi Arabia";"Ar Riyad";"N/A";"N/A";"";"";"";"";"Electromin";"";"";"";"";"";"";"";"";"";"";"";"";"";"Fr 17:00-21:00; Mo-Th,Sa-Su 09:00-22:00";""
"11443435743";"24.6898232";"46.5942192";"charging_station";"";"Saudi Arabia";"Ar Riyad";"N/A";"N/A";"";"";"";"";"Electromin";"";"";"";"";"";"";"";"";"";"";"";"";"";"Fr 17:00-21:00; Mo-Th,Sa-Su 09:00-22:00";""
"11443435750";"24.5297946";"46.6536141";"charging_station";"";"Saudi Arabia";"Ar Riyad";"N/A";"N/A";"";"";"";"";"Electromin";"";"";"";"";"";"";"";"";"";"";"";"";"";"Fr 17:00-21:00; Mo-Th,Sa-Su 09:00-22:00";""
"11443435754";"24.6980942";"46.7730582";"charging_station";"";"Saudi Arabia";"Ar Riyad";"N/A";"N/A";"";"";"";"";"Electromin";"";"";"";"";"";"";"";"";"";"";"";"";"";"Fr 17:00-21:00; Mo-Th,Sa-Su 09:00-22:00";""
"11443435758";"24.7010476";"46.7700755";"charging_station";"";"Saudi Arabia";"Ar Riyad";"N/A";"N/A";"";"";"";"";"Electromin";"";"";"";"";"";"";"";"";"";"";"";"";"";"Fr 17:00-21:00; Mo-Th,Sa-Su 09:00-22:00";""
"11443450193";"24.7373553";"46.707269";"charging_station";"";"Saudi Arabia";"Ar Riyad";"N/A";"N/A";"";"";"";"";"Electromin";"";"";"";"";"";"";"";"";"";"";"";"";"";"Fr 17:00-21:00; Mo-Th,Sa-Su 09:00-22:00";""
"11443450210";"24.8080899";"46.6635292";"charging_station";"";"Saudi Arabia";"Ar Riyad";"N/A";"N/A";"";"";"";"";"Electromin";"";"";"";"";"";"";"";"";"";"";"";"";"";"Fr 17:00-21:00; Mo-Th,Sa-Su 09:00-22:00";""
"11443450227";"24.6909784";"46.7323154";"charging_station";"";"Saudi Arabia";"Ar Riyad";"N/A";"N/A";"";"";"";"";"Electromin";"";"";"";"";"";"";"";"";"";"";"";"";"";"Mo-Su 09:00-22:00";""
"1301758311";"";"";"charging_station";"N/A";"N/A";"N/A";"N/A";"N/A";"";"";"";"";"";"";"";"";"";"";"";"";"";"";"";"";"";"";"";""
"12057274811";"24.8079958";"46.6632759";"";"";"Saudi Arabia";"Ar Riyad";"N/A";"N/A";"";"";"";"";"";"";"";"";"";"";"";"";"";"";"";"";"";"";"";""
"12057274812";"24.8080287";"46.6633666";"";"";"Saudi Arabia";"Ar Riyad";"N/A";"N/A";"";"";"";"";"";"";"";"";"";"";"";"";"";"";"";"";"";"";"";""
"12057274813";"24.8082074";"46.6632811";"";"";"Saudi Arabia";"Ar Riyad";"N/A";"N/A";"";"";"";"";"";"";"";"";"";"";"";"";"";"";"";"";"";"";"";""
"12057274814";"24.8083485";"46.663579";"";"";"Saudi Arabia";"Ar Riyad";"N/A";"N/A";"";"";"";"";"";"";"";"";"";"";"";"";"";"";"";"";"";"";"";""
"12057274815";"24.8081886";"46.663662";"";"";"Saudi Arabia";"Ar Riyad";"N/A";"N/A";"";"";"";"";"";"";"";"";"";"";"";"";"";"";"";"";"";"";"";""
"12057274816";"24.8082356";"46.6637475";"";"";"Saudi Arabia";"Ar Riyad";"N/A";"N/A";"";"";"";"";"";"";"";"";"";"";"";"";"";"";"";"";"";"";"";""
"12057274817";"24.8085061";"46.6636101";"";"";"Saudi Arabia";"Ar Riyad";"N/A";"N/A";"";"";"";"";"";"";"";"";"";"";"";"";"";"";"";"";"";"";"";""
"12057274818";"24.8082968";"46.6631308";"";"";"Saudi Arabia";"Ar Riyad";"N/A";"N/A";"";"";"";"";"";"";"";"";"";"";"";"";"";"";"";"";"";"";"";""
"4375537390";"24.6505045";"46.8391131";"charging_station";"";"Saudi Arabia";"Ar Riyad";"N/A";"N/A";"";"";"";"";"";"";"";"";"";"";"";"";"";"";"";"";"";"";"";""
"9631310148";"24.456777";"54.3128866";"charging_station";"";"United Arab Emirates";"Abu Dhabi";"N/A";"N/A";"";"";"";"";"";"";"";"";"";"";"";"";"";"";"";"";"Tesla, Inc.";"";"";""
"11811918173";"24.4883683";"54.3518346";"charging_station";"";"United Arab Emirates";"Abu Dhabi";"N/A";"N/A";"";"";"";"";"";"";"";"";"";"";"";"";"";"";"";"";"";"";"";""
"12486691101";"24.4842573";"54.3493388";"charging_station";"";"United Arab Emirates";"Abu Dhabi";"N/A";"N/A";"";"";"";"";"";"";"";"";"";"";"";"";"";"";"";"";"";"";"";""
"2019391322";"24.8690374";"55.0264481";"charging_station";"";"United Arab Emirates";"Dubai";"N/A";"N/A";"no";"";"";"";"DEWA";"";"";"";"";"";"";"";"";"";"";"";"";"";"";""
"12486057398";"24.8495471";"55.3453907";"charging_station";"";"United Arab Emirates";"Dubai";"N/A";"N/A";"";"2";"";"";"EV Green";"";"";"";"";"";"";"";"";"";"";"";"EV Green";"";"";"yes"
"6208272475";"24.8169256";"56.1321779";"charging_station";"";"Oman";"Al Batinah";"N/A";"N/A";"";"";"";"yes";"";"";"";"";"";"";"";"";"";"";"";"";"";"";"24/7";""
"6208272476";"24.8169518";"56.132196";"charging_station";"";"Oman";"Al Batinah";"N/A";"N/A";"";"";"";"yes";"";"";"";"";"";"";"";"";"";"";"";"";"";"";"24/7";""
"6219005011";"24.8194764";"56.1344424";"charging_station";"";"Oman";"Al Batinah";"N/A";"N/A";"";"";"";"yes";"";"";"";"";"";"";"";"";"";"";"";"";"";"";"";""
"6219005012";"24.8194948";"56.1344129";"charging_station";"";"Oman";"Al Batinah";"N/A";"N/A";"";"";"";"yes";"";"";"";"";"";"";"";"";"";"";"";"";"";"";"";""
"6219005013";"24.8195133";"56.1343834";"charging_station";"";"Oman";"Al Batinah";"N/A";"N/A";"";"";"";"yes";"";"";"";"";"";"";"";"";"";"";"";"";"";"";"";""
"6219005014";"24.8195317";"56.1343539";"charging_station";"";"Oman";"Al Batinah";"N/A";"N/A";"";"";"";"yes";"";"";"";"";"";"";"";"";"";"";"";"";"";"";"";""
"4737212387";"24.8689756";"67.0869656";"charging_station";"Karachi District";"Pakistan";"Sindh";"N/A";"N/A";"";"";"";"";"";"";"";"";"";"";"";"";"";"";"Shahrah e Faisal";"";"BMW";"";"";""
"12164902850";"24.868556";"67.0275961";"charging_station";"Karachi District";"Pakistan";"Sindh";"N/A";"N/A";"";"";"";"";"Shell";"Q110716465";"";"";"";"";"";"";"";"";"";"";"";"";"";""
"2303633832";"24.930236";"89.94832";"charging_station";"";"Bangladesh";"Dhaka";"N/A";"N/A";"";"";"";"";"";"";"";"";"";"";"";"";"";"";"";"";"";"";"";""
"11941160454";"24.5137944";"102.5547998";"charging_station";"";"China";"Yunnan";"N/A";"N/A";"";"";"";"";"";"";"";"";"";"";"";"";"";"";"";"";"";"";"";""
"11941160457";"24.5135162";"102.5538493";"charging_station";"";"China";"Yunnan";"N/A";"N/A";"";"";"";"";"";"";"";"";"";"";"";"";"";"";"";"";"";"";"";""
"1257768303";"";"";"charging_station";"N/A";"N/A";"N/A";"N/A";"N/A";"";"";"";"yes";"";"";"";"";"";"";"";"";"";"";"";"";"";"";"";"yes"
"1263973497";"";"";"charging_station";"N/A";"N/A";"N/A";"N/A";"N/A";"";"";"";"";"";"";"";"";"";"";"";"";"";"";"";"";"";"";"";""
"6520119312";"24.8888818";"102.8122151";"";"";"China";"Yunnan";"N/A";"N/A";"";"";"";"";"";"";"";"";"";"";"";"";"";"";"";"";"";"";"";""
"11743240365";"24.8890444";"102.8120077";"";"";"China";"Yunnan";"N/A";"N/A";"";"";"";"";"";"";"";"";"";"";"";"";"";"";"";"";"";"";"";""
"11743240366";"24.8889227";"102.812241";"";"";"China";"Yunnan";"N/A";"N/A";"";"";"";"";"";"";"";"";"";"";"";"";"";"";"";"";"";"";"";""
"11743240367";"24.8890034";"102.8119817";"";"";"China";"Yunnan";"N/A";"N/A";"";"";"";"";"";"";"";"";"";"";"";"";"";"";"";"";"";"";"";""
"11693585178";"24.9114275";"102.7906177";"";"";"China";"Yunnan";"N/A";"N/A";"";"";"";"";"";"";"";"";"";"";"";"";"";"";"";"";"";"";"";""
"11693585179";"24.9112971";"102.7908392";"";"";"China";"Yunnan";"N/A";"N/A";"";"";"";"";"";"";"";"";"";"";"";"";"";"";"";"";"";"";"";""
"11693585180";"24.9111439";"102.7908728";"";"";"China";"Yunnan";"N/A";"N/A";"";"";"";"";"";"";"";"";"";"";"";"";"";"";"";"";"";"";"";""
"11693585181";"24.9113348";"102.7905509";"";"";"China";"Yunnan";"N/A";"N/A";"";"";"";"";"";"";"";"";"";"";"";"";"";"";"";"";"";"";"";""
"5930381422";"24.7771404";"110.4846363";"charging_station";"";"China";"Guangxi Zhuangzu Zizhiqu";"N/A";"N/A";"";"";"";"";"";"";"";"";"";"";"";"";"";"";"";"";"";"";"";""
"12675400785";"24.7877008";"112.8167226";"charging_station";"";"China";"Guangdong";"N/A";"N/A";"";"";"";"";"";"";"";"";"";"";"";"";"";"";"";"";"";"";"";""
"12376691641";"24.6881435";"113.5852805";"charging_station";"";"China";"Guangdong";"N/A";"N/A";"";"";"";"";"";"";"";"";"";"";"";"";"";"";"";"";"";"";"";""
"12376691642";"24.6881581";"113.5852179";"charging_station";"";"China";"Guangdong";"N/A";"N/A";"";"";"";"";"";"";"";"";"";"";"";"";"";"";"";"";"";"";"";""
"11107193653";"24.8542872";"114.7295273";"charging_station";"";"China";"Jiangxi Sheng";"N/A";"N/A";"";"";"";"";"";"";"";"";"";"";"";"";"";"";"";"";"NIO Power";"";"";""
"11107193654";"24.8544635";"114.7301951";"charging_station";"";"China";"Jiangxi Sheng";"N/A";"N/A";"";"";"";"";"国家电网有限公司";"Q209078";"";"";"";"";"";"";"";"";"";"";"国家电网";"";"";""
"11107193655";"24.8582066";"114.7293998";"charging_station";"";"China";"Jiangxi Sheng";"N/A";"N/A";"";"";"";"";"国家电网有限公司";"Q209078";"";"";"";"";"";"";"";"";"";"";"国家电网";"";"";""
"11878551548";"24.4715532";"116.653707";"charging_station";"";"China";"Guangdong";"N/A";"N/A";"";"";"";"";"";"";"";"";"";"";"";"";"";"";"";"";"";"";"";""
"11878551549";"24.4707289";"116.6548381";"charging_station";"";"China";"Guangdong";"N/A";"N/A";"";"";"";"";"";"";"";"";"";"";"";"";"";"";"";"";"";"";"";""
"8424402427";"24.5377761";"118.1137586";"charging_station";"";"China";"Fujian";"N/A";"N/A";"";"";"";"";"";"";"";"";"";"";"";"";"";"";"";"";"";"";"";""
"8477797030";"24.4695824";"118.0740293";"charging_station";"";"China";"Fujian";"N/A";"N/A";"";"";"";"";"";"";"";"";"";"";"";"";"";"";"";"";"";"";"";""
"11009447258";"24.740109";"118.1557036";"charging_station";"";"China";"Fujian";"N/A";"N/A";"";"";"";"";"";"";"";"";"";"";"";"";"";"";"";"";"蔚来换电站";"";"";""
"11568548096";"24.4510598";"118.0586862";"charging_station";"";"China";"Fujian";"N/A";"N/A";"";"";"";"";"";"";"";"";"";"";"";"";"";"";"";"";"";"";"";""
"11568548108";"24.4510403";"118.0587774";"charging_station";"";"China";"Fujian";"N/A";"N/A";"";"";"";"";"";"";"";"";"";"";"";"";"";"";"";"";"";"";"";""
"11568548144";"24.4518207";"118.0610972";"charging_station";"";"China";"Fujian";"N/A";"N/A";"";"";"";"";"";"";"";"";"";"";"";"";"";"";"";"";"";"";"";""
"1089696759";"";"";"charging_station";"N/A";"N/A";"N/A";"N/A";"N/A";"";"";"";"";"";"";"";"";"";"";"";"";"";"";"";"";"";"";"";""
"1157307918";"";"";"charging_station";"N/A";"N/A";"N/A";"N/A";"N/A";"";"";"";"";"";"";"";"";"";"";"";"";"";"";"";"";"";"";"";""
"1157307919";"";"";"charging_station";"N/A";"N/A";"N/A";"N/A";"N/A";"";"";"";"";"";"";"";"";"";"";"";"";"";"";"";"";"";"";"";""
"10762365306";"24.492722";"118.036178";"";"";"China";"Fujian";"N/A";"N/A";"";"";"";"";"";"";"";"";"";"";"";"";"";"";"";"";"";"";"";""
"10762365307";"24.4927708";"118.0367546";"";"";"China";"Fujian";"N/A";"N/A";"";"";"";"";"";"";"";"";"";"";"";"";"";"";"";"";"";"";"";""
"10762365313";"24.4919165";"118.0367573";"";"";"China";"Fujian";"N/A";"N/A";"";"";"";"";"";"";"";"";"";"";"";"";"";"";"";"";"";"";"";""
"10762365314";"24.4915528";"118.0367922";"";"";"China";"Fujian";"N/A";"N/A";"";"";"";"";"";"";"";"";"";"";"";"";"";"";"";"";"";"";"";""
"10762365315";"24.4914869";"118.0363014";"";"";"China";"Fujian";"N/A";"N/A";"";"";"";"";"";"";"";"";"";"";"";"";"";"";"";"";"";"";"";""
"10762365316";"24.4927483";"118.0361077";"";"";"China";"Fujian";"N/A";"N/A";"";"";"";"";"";"";"";"";"";"";"";"";"";"";"";"";"";"";"";""
"10762365317";"24.4914906";"118.0362417";"";"";"China";"Fujian";"N/A";"N/A";"";"";"";"";"";"";"";"";"";"";"";"";"";"";"";"";"";"";"";""
"10762365318";"24.491257";"118.0360675";"";"";"China";"Fujian";"N/A";"N/A";"";"";"";"";"";"";"";"";"";"";"";"";"";"";"";"";"";"";"";""
"10762365319";"24.4912105";"118.0355874";"";"";"China";"Fujian";"N/A";"N/A";"";"";"";"";"";"";"";"";"";"";"";"";"";"";"";"";"";"";"";""
"10762365320";"24.4927507";"118.0354426";"";"";"China";"Fujian";"N/A";"N/A";"";"";"";"";"";"";"";"";"";"";"";"";"";"";"";"";"";"";"";""
"10762365321";"24.4927483";"118.0353084";"";"";"China";"Fujian";"N/A";"N/A";"";"";"";"";"";"";"";"";"";"";"";"";"";"";"";"";"";"";"";""
"10762365322";"24.4935049";"118.0352226";"";"";"China";"Fujian";"N/A";"N/A";"";"";"";"";"";"";"";"";"";"";"";"";"";"";"";"";"";"";"";""
"10762365323";"24.4936465";"118.0353245";"";"";"China";"Fujian";"N/A";"N/A";"";"";"";"";"";"";"";"";"";"";"";"";"";"";"";"";"";"";"";""
"10762365324";"24.4928972";"118.0365101";"";"";"China";"Fujian";"N/A";"N/A";"";"";"";"";"";"";"";"";"";"";"";"";"";"";"";"";"";"";"";""
"10762365325";"24.4927849";"118.0364779";"";"";"China";"Fujian";"N/A";"N/A";"";"";"";"";"";"";"";"";"";"";"";"";"";"";"";"";"";"";"";""
"10762365311";"24.4922436";"118.037621";"";"";"China";"Fujian";"N/A";"N/A";"";"";"";"";"";"";"";"";"";"";"";"";"";"";"";"";"";"";"";""
"10762365312";"24.49198";"118.0376505";"";"";"China";"Fujian";"N/A";"N/A";"";"";"";"";"";"";"";"";"";"";"";"";"";"";"";"";"";"";"";""
"9981781964";"24.6189221";"118.3050682";"";"";"China";"Fujian";"N/A";"N/A";"";"";"";"";"";"";"";"";"";"";"";"";"";"";"";"";"";"";"";""
"9981781965";"24.6192891";"118.3053932";"";"";"China";"Fujian";"N/A";"N/A";"";"";"";"";"";"";"";"";"";"";"";"";"";"";"";"";"";"";"";""
"9981781966";"24.6192219";"118.3054849";"";"";"China";"Fujian";"N/A";"N/A";"";"";"";"";"";"";"";"";"";"";"";"";"";"";"";"";"";"";"";""
"9981781967";"24.618855";"118.3051599";"";"";"China";"Fujian";"N/A";"N/A";"";"";"";"";"";"";"";"";"";"";"";"";"";"";"";"";"";"";"";""
"4685199163";"24.5026469";"118.4302005";"charging_station";"";"China";"Fujian";"N/A";"N/A";"";"";"";"";"";"";"";"";"";"";"";"";"";"";"";"";"";"";"";""
"4688872002";"24.4886406";"118.4140062";"charging_station";"";"China";"Fujian";"N/A";"N/A";"";"";"";"";"";"";"";"";"";"";"";"";"";"";"";"";"";"";"";""
"11066304690";"24.7475475";"118.4309596";"charging_station";"";"China";"Fujian";"N/A";"N/A";"";"";"";"";"";"";"";"";"";"";"";"";"";"";"";"";"NIO Power";"";"";""
"11066304691";"24.7464513";"118.4326547";"charging_station";"";"China";"Fujian";"N/A";"N/A";"";"";"";"";"";"";"";"";"";"";"";"";"";"";"";"";"NIO Power";"";"";""
"5738887015";"24.4621653";"120.7600075";"charging_station";"Miaoli";"Taiwan";"Taiwan";"N/A";"N/A";"";"";"";"";"Tesla Motors";"";"";"";"";"";"";"";"";"6";"銅科六路";"";"";"";"";""
"3417526786";"24.8003452";"121.1923304";"charging_station";"";"Taiwan";"Taiwan";"N/A";"N/A";"";"";"";"";"";"";"";"";"";"";"";"";"";"";"";"";"";"";"";""
"4367116593";"24.9050546";"121.1432297";"charging_station";"";"Taiwan";"Taiwan";"N/A";"N/A";"";"";"";"";"";"";"";"";"";"";"";"";"";"";"";"";"";"";"";""
"9910168695";"24.9378262";"121.2567532";"charging_station";"";"Taiwan";"Taiwan";"N/A";"N/A";"";"40";"";"";"Gogoro 電池交換站";"Q19880591";"";"";"";"";"";"";"";"";"";"";"Gogoro 電池交換站";"";"";""
"9983024848";"24.910349";"121.2878512";"charging_station";"";"Taiwan";"Taiwan";"N/A";"N/A";"";"";"";"";"Gogoro 電池交換站";"Q19880591";"";"";"";"";"";"";"";"";"";"";"Gogoro 電池交換站";"";"";""
"9988542366";"24.7838559";"120.9941765";"charging_station";"Hsinchu";"Taiwan";"Taiwan";"N/A";"N/A";"";"60";"";"";"Gogoro 電池交換站";"Q19880591";"";"";"";"";"";"";"";"";"";"";"Gogoro 電池交換站";"";"";""
"9993983348";"24.8984653";"121.2836673";"charging_station";"";"Taiwan";"Taiwan";"N/A";"N/A";"";"";"";"";"Gogoro 電池交換站";"Q19880591";"";"";"";"";"";"";"";"";"";"";"Gogoro 電池交換站";"";"";""
"10076271921";"24.781198";"120.9921606";"charging_station";"Hsinchu";"Taiwan";"Taiwan";"N/A";"N/A";"";"";"";"";"";"";"";"";"";"";"";"";"";"";"";"";"";"";"";""
"10713473019";"24.9494991";"121.2241593";"charging_station";"";"Taiwan";"Taiwan";"N/A";"N/A";"";"";"";"";"Gogoro 電池交換站";"Q19880591";"";"";"";"";"";"";"";"";"";"";"Gogoro 電池交換站";"";"";""
"12254182874";"24.8195148";"120.9707782";"charging_station";"Hsinchu";"Taiwan";"Taiwan";"N/A";"N/A";"";"";"";"";"Tesla, Inc.";"Q478214";"";"";"";"";"";"";"";"";"";"";"Tesla Supercharger";"";"";""
"872196683";"";"";"charging_station";"N/A";"N/A";"N/A";"N/A";"N/A";"";"";"";"";"Tesla, Inc.";"Q478214";"";"";"";"";"";"";"";"";"";"";"Tesla Supercharger";"";"";""
"1244816052";"";"";"charging_station";"N/A";"N/A";"N/A";"N/A";"N/A";"";"";"";"";"";"";"";"";"";"";"";"";"";"";"";"";"U-POWER 充電站";"";"";"yes"
"1244816053";"";"";"charging_station";"N/A";"N/A";"N/A";"N/A";"N/A";"";"";"";"";"";"";"";"";"";"";"";"";"";"";"";"";"U-POWER 充電站";"";"";"yes"
"1324002463";"";"";"charging_station";"N/A";"N/A";"N/A";"N/A";"N/A";"";"";"";"";"Tesla, Inc.";"Q478214";"";"";"";"";"";"";"";"";"";"";"Tesla Supercharger";"";"";""
"12251784649";"24.6896228";"120.8634073";"";"Miaoli";"Taiwan";"Taiwan";"N/A";"N/A";"";"";"";"";"";"";"";"";"";"";"";"";"";"";"";"";"";"";"";""
"12251784650";"24.6895533";"120.863665";"";"Miaoli";"Taiwan";"Taiwan";"N/A";"N/A";"";"";"";"";"";"";"";"";"";"";"";"";"";"";"";"";"";"";"";""
"12251784651";"24.6894581";"120.8636338";"";"Miaoli";"Taiwan";"Taiwan";"N/A";"N/A";"";"";"";"";"";"";"";"";"";"";"";"";"";"";"";"";"";"";"";""
"12251784652";"24.6895379";"120.8633705";"";"Miaoli";"Taiwan";"Taiwan";"N/A";"N/A";"";"";"";"";"";"";"";"";"";"";"";"";"";"";"";"";"";"";"";""
"8123621590";"24.7797543";"121.0052076";"";"Hsinchu";"Taiwan";"Taiwan";"N/A";"N/A";"";"";"";"";"";"";"";"";"";"";"";"";"";"";"";"";"";"";"";""
"8123621591";"24.7797421";"121.0053296";"";"Hsinchu";"Taiwan";"Taiwan";"N/A";"N/A";"";"";"";"";"";"";"";"";"";"";"";"";"";"";"";"";"";"";"";""
"8123621592";"24.7795412";"121.0053075";"";"Hsinchu";"Taiwan";"Taiwan";"N/A";"N/A";"";"";"";"";"";"";"";"";"";"";"";"";"";"";"";"";"";"";"";""
"8123621593";"24.7795521";"121.0051848";"";"Hsinchu";"Taiwan";"Taiwan";"N/A";"N/A";"";"";"";"";"";"";"";"";"";"";"";"";"";"";"";"";"";"";"";""
"11572002290";"24.7941286";"121.0086745";"";"Hsinchu";"Taiwan";"Taiwan";"N/A";"N/A";"";"";"";"";"";"";"";"";"";"";"";"";"";"";"";"";"";"";"";""
"11572002291";"24.7940482";"121.0086232";"";"Hsinchu";"Taiwan";"Taiwan";"N/A";"N/A";"";"";"";"";"";"";"";"";"";"";"";"";"";"";"";"";"";"";"";""
"11572002292";"24.7938731";"121.0089523";"";"Hsinchu";"Taiwan";"Taiwan";"N/A";"N/A";"";"";"";"";"";"";"";"";"";"";"";"";"";"";"";"";"";"";"";""
"11572002293";"24.7939454";"121.0090019";"";"Hsinchu";"Taiwan";"Taiwan";"N/A";"N/A";"";"";"";"";"";"";"";"";"";"";"";"";"";"";"";"";"";"";"";""
"11572002294";"24.8313119";"121.035345";"";"Hsinchu";"Taiwan";"Taiwan";"N/A";"N/A";"";"";"";"";"";"";"";"";"";"";"";"";"";"";"";"";"";"";"";""
"11572002295";"24.8310222";"121.0352941";"";"Hsinchu";"Taiwan";"Taiwan";"N/A";"N/A";"";"";"";"";"";"";"";"";"";"";"";"";"";"";"";"";"";"";"";""
"11572002296";"24.8309541";"121.0357447";"";"Hsinchu";"Taiwan";"Taiwan";"N/A";"N/A";"";"";"";"";"";"";"";"";"";"";"";"";"";"";"";"";"";"";"";""
"11572002297";"24.8312462";"121.0357849";"";"Hsinchu";"Taiwan";"Taiwan";"N/A";"N/A";"";"";"";"";"";"";"";"";"";"";"";"";"";"";"";"";"";"";"";""
"12848740378";"24.5688698";"121.8448101";"charging_station";"Yilan";"Taiwan";"Taiwan";"N/A";"N/A";"";"";"";"";"";"";"";"";"";"";"";"";"";"";"";"";"";"";"";""
"9724612175";"24.4628082";"124.142747";"charging_station";"";"Japan";"Okinawa";"N/A";"N/A";"";"";"";"";"GO SHARE";"";"";"";"";"";"";"";"";"";"";"";"";"";"24/7";"no"
"9736265736";"24.506909";"124.2796021";"charging_station";"";"Japan";"Okinawa";"N/A";"N/A";"";"";"";"";"";"";"";"";"";"";"";"";"";"";"";"";"";"";"";""
"10553280935";"25.1430048";"-80.9233048";"charging_station";"Monroe County";"United States";"Florida";"N/A";"N/A";"";"";"";"yes";"";"";"";"";"";"";"";"";"";"";"";"";"";"";"";""
"10573925274";"25.3953743";"-80.5841007";"charging_station";"Miami-Dade County";"United States";"Florida";"N/A";"N/A";"";"2";"";"";"";"";"";"";"";"";"";"";"";"";"";"";"";"";"";""
"11781616713";"25.1133049";"-80.4219059";"charging_station";"Monroe County";"United States";"Florida";"N/A";"N/A";"";"";"";"";"";"";"";"";"";"";"";"";"";"";"";"";"Electrify America";"";"24/7";"yes"
"11443435752";"25.2451326";"45.2594233";"charging_station";"";"Saudi Arabia";"Ar Riyad";"N/A";"N/A";"";"";"";"";"Electromin";"";"";"";"";"";"";"";"";"";"";"";"";"";"Fr 17:00-21:00; Mo-Th,Sa-Su 09:00-22:00";""
"11443435755";"25.3550986";"49.5411462";"charging_station";"";"Saudi Arabia";"Eastern Province";"N/A";"N/A";"";"";"";"";"Electromin";"";"";"";"";"";"";"";"";"";"";"";"";"";"Fr 17:00-21:00; Mo-Th,Sa-Su 09:00-22:00";""
"4145258089";"25.1630181";"51.4509523";"charging_station";"";"Qatar";"Al Wakrah";"N/A";"N/A";"";"";"";"";"";"";"";"";"";"";"";"";"";"";"";"";"";"";"";""
"4269349089";"25.2599713";"51.4935243";"charging_station";"";"Qatar";"Baladiyat ad Dawhah";"N/A";"N/A";"";"";"";"";"Quality Speciality Gases";"";"";"";"";"";"";"";"";"";"";"";"";"";"";""
"4584076889";"25.1167725";"51.513937";"charging_station";"";"Qatar";"Al Wakrah";"N/A";"N/A";"";"";"";"";"Bul Hemmaid Super Substation";"";"";"";"";"";"";"";"";"";"";"";"";"";"";""
"7206528883";"25.375388";"51.5508283";"charging_station";"";"Qatar";"Baladiyat ad Dawhah";"N/A";"N/A";"";"";"";"";"";"";"";"";"";"";"";"";"";"";"";"";"";"";"";""
"4963690238";"25.1490116";"55.1955324";"charging_station";"";"United Arab Emirates";"Dubai";"N/A";"N/A";"";"";"";"";"Wifi UAE";"";"";"";"";"";"";"";"";"";"";"";"";"";"";"no"
"4963713202";"25.1568318";"55.2023131";"charging_station";"";"United Arab Emirates";"Dubai";"N/A";"N/A";"";"";"";"";"Wifi UAE";"";"";"";"";"";"";"";"";"";"";"";"";"";"";"no"
"8094027052";"25.0256264";"55.1113111";"charging_station";"";"United Arab Emirates";"Dubai";"N/A";"N/A";"";"2";"";"";"DEWA";"";"";"";"";"";"";"";"";"";"";"";"";"";"24/7";"yes"
"8417967649";"25.2234469";"55.2855116";"charging_station";"";"United Arab Emirates";"Ash Shariqah";"N/A";"N/A";"";"3";"";"";"Dubai Electricity and Water Authority";"Q1262868";"";"";"";"";"";"";"";"";"";"";"";"";"";""
"8670860371";"25.1327043";"55.1891293";"charging_station";"";"United Arab Emirates";"Dubai";"N/A";"N/A";"";"";"";"";"";"";"";"";"";"";"";"";"";"";"";"";"";"";"";""
"8670939236";"25.0970286";"55.1650399";"charging_station";"";"United Arab Emirates";"Dubai";"N/A";"N/A";"";"";"";"";"";"";"";"";"";"";"";"";"";"";"";"";"";"";"24/7";""
"8670939237";"25.169541";"55.21513";"charging_station";"";"United Arab Emirates";"Dubai";"N/A";"N/A";"";"";"";"";"";"";"";"";"";"";"";"";"";"";"";"";"";"";"";""
"8670972388";"25.1420138";"55.1918482";"charging_station";"";"United Arab Emirates";"Dubai";"N/A";"N/A";"";"";"";"";"";"";"";"";"";"";"";"";"";"";"";"";"";"";"";""
"8670972389";"25.0853266";"55.1589669";"charging_station";"";"United Arab Emirates";"Dubai";"N/A";"N/A";"";"";"";"";"";"";"";"";"";"";"";"";"";"";"";"";"";"";"";""
"8670972390";"25.0644104";"55.1465009";"charging_station";"";"United Arab Emirates";"Dubai";"N/A";"N/A";"";"";"";"";"";"";"";"";"";"";"";"";"";"";"";"";"";"";"";""
"8670990259";"25.0164836";"55.1461083";"charging_station";"";"United Arab Emirates";"Dubai";"N/A";"N/A";"";"";"";"";"";"";"";"";"";"";"";"";"";"";"";"";"";"";"";""
"8670990260";"25.0006973";"55.1501346";"charging_station";"";"United Arab Emirates";"Dubai";"N/A";"N/A";"";"";"";"";"";"";"";"";"";"";"";"";"";"";"";"";"";"";"";""
"8670995816";"24.9610396";"55.1587999";"charging_station";"";"United Arab Emirates";"Dubai";"N/A";"N/A";"";"2";"";"";"DEWA";"";"";"";"";"";"";"";"";"";"";"";"";"";"";""
"9507308914";"24.9864866";"55.0228437";"charging_station";"";"United Arab Emirates";"Dubai";"N/A";"N/A";"";"5";"";"";"VU";"";"";"";"";"";"";"";"";"";"";"";"";"";"";""
"10976365228";"25.157477";"55.2281677";"charging_station";"";"United Arab Emirates";"Dubai";"N/A";"N/A";"";"3";"";"";"DEWA";"";"";"";"";"";"";"";"";"";"";"";"DEWA";"";"";"no"
"11057698506";"25.0898126";"55.152223";"charging_station";"";"United Arab Emirates";"Dubai";"N/A";"N/A";"";"";"";"";"";"";"";"";"";"";"";"";"";"";"";"";"";"";"";""
"11775699769";"25.024558";"55.1530097";"charging_station";"";"United Arab Emirates";"Dubai";"N/A";"N/A";"";"2";"";"";"";"";"";"";"";"";"";"";"";"";"";"";"";"";"";""
"3509535358";"25.2977719";"55.3852035";"charging_station";"";"United Arab Emirates";"Ash Shariqah";"N/A";"N/A";"";"";"";"";"RTA";"";"";"";"";"";"";"";"";"";"";"";"";"";"";""
"4558013490";"25.282302";"55.3855579";"charging_station";"";"United Arab Emirates";"Ash Shariqah";"N/A";"N/A";"";"";"";"";"";"";"";"";"";"";"";"";"";"";"";"";"";"";"";""
"5207060322";"25.1143807";"55.3717438";"charging_station";"";"United Arab Emirates";"Dubai";"N/A";"N/A";"";"2";"";"";"DEWA";"";"";"";"";"";"";"";"";"";"";"";"";"";"";""
"7304595785";"25.433592";"55.5863461";"charging_station";"";"United Arab Emirates";"Umm al Qaywayn";"N/A";"N/A";"";"";"";"";"DiaSurge Medical FZE";"";"";"";"";"";"";"";"";"";"";"";"";"";"";""
"10567615819";"25.0795209";"55.3664589";"charging_station";"";"United Arab Emirates";"Dubai";"N/A";"N/A";"";"8";"";"";"Tesla, Inc.";"Q478214";"";"";"";"";"";"";"";"";"Wadi Ai Safa 5, Emirates Road 611";"";"Tesla Supercharger";"";"24/7";"yes"
"10836351205";"25.1240253";"55.3810398";"charging_station";"";"United Arab Emirates";"Ash Shariqah";"N/A";"N/A";"";"2";"";"";"DEWA";"";"";"";"";"";"";"";"";"";"";"";"";"";"24/7";""
"10836381279";"25.1206047";"55.380605";"charging_station";"";"United Arab Emirates";"Dubai";"N/A";"N/A";"";"2";"";"";"DEWA";"";"";"";"";"";"";"";"";"";"";"";"";"";"";""
"10836761505";"25.1277922";"55.3965067";"charging_station";"";"United Arab Emirates";"Ash Shariqah";"N/A";"N/A";"";"2";"";"";"DEWA";"";"";"";"";"";"";"";"";"";"";"";"";"";"";""
"11488442524";"25.1846202";"55.492781";"charging_station";"";"United Arab Emirates";"Ash Shariqah";"N/A";"N/A";"";"";"";"";"";"";"";"";"";"";"";"";"";"";"";"";"";"";"";""
"11801402546";"25.4292156";"55.4657783";"charging_station";"";"United Arab Emirates";"Ajman";"N/A";"N/A";"";"2";"";"";"DEWA";"";"";"";"";"";"";"";"";"";"";"";"";"";"";""
"12398609801";"25.2799866";"55.3815414";"charging_station";"";"United Arab Emirates";"Ash Shariqah";"N/A";"N/A";"";"";"";"";"McDonald's";"Q38076";"";"";"";"";"";"";"";"";"";"";"";"";"";""
"12799712737";"25.2881376";"55.4130718";"charging_station";"";"United Arab Emirates";"Ash Shariqah";"N/A";"N/A";"";"";"";"";"";"";"";"";"";"";"";"";"";"";"";"";"";"";"";""
"12799712738";"25.2881524";"55.4130819";"charging_station";"";"United Arab Emirates";"Ash Shariqah";"N/A";"N/A";"";"";"";"";"";"";"";"";"";"";"";"";"";"";"";"";"";"";"";""
"12799712739";"25.2881212";"55.4130607";"charging_station";"";"United Arab Emirates";"Ash Shariqah";"N/A";"N/A";"";"";"";"";"";"";"";"";"";"";"";"";"";"";"";"";"";"";"";""
"6230993808";"25.1261515";"55.8593443";"charging_station";"";"United Arab Emirates";"Ash Shariqah";"N/A";"N/A";"";"";"";"";"";"";"";"";"";"";"";"";"";"";"";"";"";"";"";""
"6230993809";"25.1261381";"55.8594087";"charging_station";"";"United Arab Emirates";"Ash Shariqah";"N/A";"N/A";"";"";"";"";"";"";"";"";"";"";"";"";"";"";"";"";"";"";"";""
"10108001286";"25.1573679";"56.3500457";"charging_station";"";"United Arab Emirates";"Al Fujayrah";"N/A";"N/A";"";"8";"";"";"century mall";"";"";"";"";"";"";"";"";"";"";"";"Tesla, Inc.";"";"";"no"
"1097173824";"";"";"charging_station";"N/A";"N/A";"N/A";"N/A";"N/A";"";"";"";"";"";"";"";"";"";"";"";"";"";"";"";"";"";"";"";""
"10046470416";"25.4162258";"81.8621916";"";"Allahabad";"India";"Uttar Pradesh";"N/A";"N/A";"";"";"";"";"";"";"";"";"";"";"";"";"";"";"";"";"";"";"";""
"10046488217";"25.4161233";"81.8621856";"";"Allahabad";"India";"Uttar Pradesh";"N/A";"N/A";"";"";"";"";"";"";"";"";"";"";"";"";"";"";"";"";"";"";"";""
"10046488218";"25.4160829";"81.8628424";"";"Allahabad";"India";"Uttar Pradesh";"N/A";"N/A";"";"";"";"";"";"";"";"";"";"";"";"";"";"";"";"";"";"";"";""
"10046488219";"25.4161934";"81.8628424";"";"Allahabad";"India";"Uttar Pradesh";"N/A";"N/A";"";"";"";"";"";"";"";"";"";"";"";"";"";"";"";"";"";"";"";""
"12596454002";"25.2815281";"83.0032971";"charging_station";"Varanasi";"India";"Uttar Pradesh";"N/A";"N/A";"";"";"";"";"";"";"";"";"";"";"";"";"";"";"";"";"ather grid";"";"";""
"11464713647";"25.2286903";"100.2786742";"charging_station";"";"China";"Yunnan";"N/A";"N/A";"";"";"";"";"";"";"";"";"";"";"";"";"";"";"";"";"";"";"";""
"11464713648";"25.2294255";"100.275135";"charging_station";"";"China";"Yunnan";"N/A";"N/A";"";"";"";"";"";"";"";"";"";"";"";"";"";"";"";"";"";"";"";""
"12278729853";"25.2374774";"101.1573414";"charging_station";"";"China";"Yunnan";"N/A";"N/A";"";"";"";"";"";"";"";"";"";"";"";"";"";"";"";"";"";"";"";""
"1262462563";"";"";"charging_station";"N/A";"N/A";"N/A";"N/A";"N/A";"";"";"";"yes";"";"";"";"";"";"";"";"";"";"";"";"";"";"";"";"yes"
"11730071325";"25.0678636";"101.5905289";"";"";"China";"Yunnan";"N/A";"N/A";"";"";"";"";"";"";"";"";"";"";"";"";"";"";"";"";"";"";"";""
"11730071326";"25.0678101";"101.5905893";"";"";"China";"Yunnan";"N/A";"N/A";"";"";"";"";"";"";"";"";"";"";"";"";"";"";"";"";"";"";"";""
"11730071327";"25.0679394";"101.5907288";"";"";"China";"Yunnan";"N/A";"N/A";"";"";"";"";"";"";"";"";"";"";"";"";"";"";"";"";"";"";"";""
"11730071328";"25.0679929";"101.5906684";"";"";"China";"Yunnan";"N/A";"N/A";"";"";"";"";"";"";"";"";"";"";"";"";"";"";"";"";"";"";"";""
"11730071330";"25.0678713";"101.5906554";"";"";"China";"Yunnan";"N/A";"N/A";"";"";"";"";"";"";"";"";"";"";"";"";"";"";"";"";"";"";"";""
"9619785817";"25.0495342";"102.6879853";"charging_station";"";"China";"Yunnan";"N/A";"N/A";"";"";"";"yes";"";"";"";"";"";"";"";"";"";"";"";"";"";"";"";"yes"
"9734391987";"25.0192003";"102.7351539";"charging_station";"";"China";"Yunnan";"N/A";"N/A";"";"";"";"";"";"";"";"";"";"";"";"";"";"";"";"";"";"";"";""
"9763658837";"25.0678777";"102.6843783";"charging_station";"";"China";"Yunnan";"N/A";"N/A";"";"";"";"yes";"";"";"";"";"";"";"";"";"";"";"";"";"";"";"";""
"11061670788";"25.1001441";"102.7747634";"charging_station";"";"China";"Yunnan";"N/A";"N/A";"";"";"";"";"";"";"";"";"";"";"";"";"";"";"";"";"";"";"";"yes"
"12137310099";"25.0667954";"102.6748055";"charging_station";"";"China";"Yunnan";"N/A";"N/A";"";"6";"";"yes";"";"";"";"";"";"";"";"";"";"";"";"";"";"";"";"yes"
"1141584780";"";"";"charging_station";"N/A";"N/A";"N/A";"N/A";"N/A";"";"";"";"";"";"";"";"";"";"";"";"";"";"";"";"";"";"";"";""
"1191546913";"";"";"charging_station";"N/A";"N/A";"N/A";"N/A";"N/A";"";"";"";"";"";"";"";"";"";"";"";"";"";"";"";"";"";"";"";""
"1298737207";"";"";"charging_station";"N/A";"N/A";"N/A";"N/A";"N/A";"";"";"";"yes";"";"";"";"";"";"";"";"";"";"";"";"";"";"";"";"yes"
"1311207765";"";"";"charging_station";"N/A";"N/A";"N/A";"N/A";"N/A";"";"";"";"yes";"";"";"";"";"";"";"";"";"";"";"";"";"";"";"";"yes"
"1311207880";"";"";"charging_station";"N/A";"N/A";"N/A";"N/A";"N/A";"";"";"";"";"";"";"";"";"";"";"";"";"";"";"";"";"";"";"";""
"1389209474";"";"";"charging_station";"N/A";"N/A";"N/A";"N/A";"N/A";"";"";"";"";"";"";"";"";"";"";"";"";"";"";"";"";"";"";"";""
"10633869814";"25.0155758";"102.7164907";"";"";"China";"Yunnan";"N/A";"N/A";"";"";"";"";"";"";"";"";"";"";"";"";"";"";"";"";"";"";"";""
"10633869815";"25.0148256";"102.7167677";"";"";"China";"Yunnan";"N/A";"N/A";"";"";"";"";"";"";"";"";"";"";"";"";"";"";"";"";"";"";"";""
"10633869816";"25.0146779";"102.716768";"";"";"China";"Yunnan";"N/A";"N/A";"";"";"";"";"";"";"";"";"";"";"";"";"";"";"";"";"";"";"";""
"10633869817";"25.0146764";"102.7168531";"";"";"China";"Yunnan";"N/A";"N/A";"";"";"";"";"";"";"";"";"";"";"";"";"";"";"";"";"";"";"";""
"10633869818";"25.0148607";"102.7168513";"";"";"China";"Yunnan";"N/A";"N/A";"";"";"";"";"";"";"";"";"";"";"";"";"";"";"";"";"";"";"";""
"10633869819";"25.015602";"102.7165738";"";"";"China";"Yunnan";"N/A";"N/A";"";"";"";"";"";"";"";"";"";"";"";"";"";"";"";"";"";"";"";""
"12030824520";"25.0332906";"102.6770037";"";"";"China";"Yunnan";"N/A";"N/A";"";"";"";"";"";"";"";"";"";"";"";"";"";"";"";"";"";"";"";""
"12030824522";"25.033382";"102.677082";"";"";"China";"Yunnan";"N/A";"N/A";"";"";"";"";"";"";"";"";"";"";"";"";"";"";"";"";"";"";"";""
"12030824525";"25.0333832";"102.6766026";"";"";"China";"Yunnan";"N/A";"N/A";"";"";"";"";"";"";"";"";"";"";"";"";"";"";"";"";"";"";"";""
"12030824526";"25.0335965";"102.6767851";"";"";"China";"Yunnan";"N/A";"N/A";"";"";"";"";"";"";"";"";"";"";"";"";"";"";"";"";"";"";"";""
"12030824528";"25.033461";"102.6769779";"";"";"China";"Yunnan";"N/A";"N/A";"";"";"";"";"";"";"";"";"";"";"";"";"";"";"";"";"";"";"";""
"12030824533";"25.0331622";"102.6768939";"";"";"China";"Yunnan";"N/A";"N/A";"";"";"";"";"";"";"";"";"";"";"";"";"";"";"";"";"";"";"";""
"12137309890";"25.0707078";"102.6813332";"";"";"China";"Yunnan";"N/A";"N/A";"";"";"";"";"";"";"";"";"";"";"";"";"";"";"";"";"";"";"";""
"12137309891";"25.0706104";"102.6815266";"";"";"China";"Yunnan";"N/A";"N/A";"";"";"";"";"";"";"";"";"";"";"";"";"";"";"";"";"";"";"";""
"12137309892";"25.0705698";"102.6815017";"";"";"China";"Yunnan";"N/A";"N/A";"";"";"";"";"";"";"";"";"";"";"";"";"";"";"";"";"";"";"";""
"12137309893";"25.0706672";"102.6813082";"";"";"China";"Yunnan";"N/A";"N/A";"";"";"";"";"";"";"";"";"";"";"";"";"";"";"";"";"";"";"";""
"12137310617";"25.0795904";"102.6813616";"";"";"China";"Yunnan";"N/A";"N/A";"";"";"";"";"";"";"";"";"";"";"";"";"";"";"";"";"";"";"";""
"12137310618";"25.0797058";"102.6816982";"";"";"China";"Yunnan";"N/A";"N/A";"";"";"";"";"";"";"";"";"";"";"";"";"";"";"";"";"";"";"";""
"12137310619";"25.0797724";"102.6816704";"";"";"China";"Yunnan";"N/A";"N/A";"";"";"";"";"";"";"";"";"";"";"";"";"";"";"";"";"";"";"";""
"12137310620";"25.079657";"102.6813338";"";"";"China";"Yunnan";"N/A";"N/A";"";"";"";"";"";"";"";"";"";"";"";"";"";"";"";"";"";"";"";""
"11062860450";"25.0949619";"102.6698086";"";"";"China";"Yunnan";"N/A";"N/A";"";"";"";"";"";"";"";"";"";"";"";"";"";"";"";"";"";"";"";""
"11062860451";"25.0946242";"102.6697899";"";"";"China";"Yunnan";"N/A";"N/A";"";"";"";"";"";"";"";"";"";"";"";"";"";"";"";"";"";"";"";""
"11062860452";"25.0946352";"102.6695484";"";"";"China";"Yunnan";"N/A";"N/A";"";"";"";"";"";"";"";"";"";"";"";"";"";"";"";"";"";"";"";""
"11062860453";"25.0949729";"102.6695672";"";"";"China";"Yunnan";"N/A";"N/A";"";"";"";"";"";"";"";"";"";"";"";"";"";"";"";"";"";"";"";""
"12859848185";"24.9634534";"102.7820531";"";"";"China";"Yunnan";"N/A";"N/A";"";"";"";"";"";"";"";"";"";"";"";"";"";"";"";"";"";"";"";""
"12859848188";"24.9630755";"102.7827712";"";"";"China";"Yunnan";"N/A";"N/A";"";"";"";"";"";"";"";"";"";"";"";"";"";"";"";"";"";"";"";""
"12859848193";"24.9636405";"102.7823951";"";"";"China";"Yunnan";"N/A";"N/A";"";"";"";"";"";"";"";"";"";"";"";"";"";"";"";"";"";"";"";""
"12859848197";"24.9628884";"102.7824293";"";"";"China";"Yunnan";"N/A";"N/A";"";"";"";"";"";"";"";"";"";"";"";"";"";"";"";"";"";"";"";""
"12381395083";"25.419215";"103.5447385";"charging_station";"";"China";"Yunnan";"N/A";"N/A";"";"";"";"";"";"";"";"";"";"";"";"";"";"";"";"";"NIO Power";"";"";""
"12381395084";"25.4211876";"103.5435583";"charging_station";"";"China";"Yunnan";"N/A";"N/A";"";"";"";"";"";"";"";"";"";"";"";"";"";"";"";"";"NIO Power";"";"";""
"11083529581";"25.1640591";"104.7873794";"charging_station";"";"China";"Yunnan";"N/A";"N/A";"";"";"";"";"";"";"";"";"";"";"";"";"";"";"";"";"";"";"";""
"11083533041";"25.1407826";"104.7919265";"charging_station";"";"China";"Yunnan";"N/A";"N/A";"";"";"";"";"";"";"";"";"";"";"";"";"";"";"";"";"";"";"";""
"11080712002";"25.1154454";"104.9224067";"charging_station";"";"China";"Guangxi Zhuangzu Zizhiqu";"N/A";"N/A";"";"";"";"";"";"";"";"";"";"";"";"";"";"";"";"";"";"";"";""
"11087508673";"25.1331914";"104.9514499";"charging_station";"";"China";"Guangxi Zhuangzu Zizhiqu";"N/A";"N/A";"";"";"";"";"";"";"";"";"";"";"";"";"";"";"";"";"";"";"";""
"1136234218";"";"";"charging_station";"N/A";"N/A";"N/A";"N/A";"N/A";"";"3";"";"";"";"";"";"";"";"";"";"";"";"";"";"";"";"";"";""
"10592082214";"25.2745226";"111.3236423";"";"";"China";"Hunan";"N/A";"N/A";"";"";"";"";"";"";"";"";"";"";"";"";"";"";"";"";"";"";"";""
"10592082221";"25.2745262";"111.3236911";"";"";"China";"Hunan";"N/A";"N/A";"";"";"";"";"";"";"";"";"";"";"";"";"";"";"";"";"";"";"";""
"10592082224";"25.2747394";"111.3236895";"";"";"China";"Hunan";"N/A";"N/A";"";"";"";"";"";"";"";"";"";"";"";"";"";"";"";"";"";"";"";""
"10592082225";"25.2747336";"111.3235071";"";"";"China";"Hunan";"N/A";"N/A";"";"";"";"";"";"";"";"";"";"";"";"";"";"";"";"";"";"";"";""
"10592082226";"25.2744947";"111.3235427";"";"";"China";"Hunan";"N/A";"N/A";"";"";"";"";"";"";"";"";"";"";"";"";"";"";"";"";"";"";"";""
"1093621840";"";"";"charging_station";"N/A";"N/A";"N/A";"N/A";"N/A";"";"";"";"";"";"";"";"";"";"";"";"";"";"";"";"";"";"";"";""
"10016421004";"25.2582267";"111.3596099";"";"";"China";"Hunan";"N/A";"N/A";"";"";"";"";"";"";"";"";"";"";"";"";"";"";"";"";"";"";"";""
"10016421005";"25.2581944";"111.3596017";"";"";"China";"Hunan";"N/A";"N/A";"";"";"";"";"";"";"";"";"";"";"";"";"";"";"";"";"";"";"";""
"10016421006";"25.2581773";"111.359684";"";"";"China";"Hunan";"N/A";"N/A";"";"";"";"";"";"";"";"";"";"";"";"";"";"";"";"";"";"";"";""
"10016421007";"25.2582097";"111.3596922";"";"";"China";"Hunan";"N/A";"N/A";"";"";"";"";"";"";"";"";"";"";"";"";"";"";"";"";"";"";"";""
"12895142649";"25.2916681";"113.0518662";"charging_station";"";"China";"Guangdong";"N/A";"N/A";"";"";"";"";"";"";"";"";"";"";"";"";"";"";"";"";"";"";"";""
"10918222719";"25.1593688";"114.3051723";"charging_station";"";"China";"Guangdong";"N/A";"N/A";"";"";"";"";"";"";"";"";"";"";"";"";"";"";"";"";"NIO Power";"";"";""
"10918222720";"25.1565647";"114.3041664";"charging_station";"";"China";"Guangdong";"N/A";"N/A";"";"";"";"";"";"";"";"";"";"";"";"";"";"";"";"";"NIO Power";"";"";""
"12521890734";"24.9843915";"113.9066336";"charging_station";"";"China";"Guangdong";"N/A";"N/A";"";"";"";"";"";"";"";"";"";"";"";"";"";"";"";"";"";"";"";""
"12521896511";"24.9865569";"113.908585";"charging_station";"";"China";"Guangdong";"N/A";"N/A";"";"";"";"";"";"";"";"";"";"";"";"";"";"";"";"";"";"";"";""
"12381379128";"24.9568947";"117.1104176";"charging_station";"";"China";"Fujian";"N/A";"N/A";"";"";"";"";"国家电网有限公司";"Q209078";"";"";"";"";"";"";"";"";"";"";"国家电网";"";"";""
"12381379129";"24.9566414";"117.1104055";"charging_station";"";"China";"Fujian";"N/A";"N/A";"";"";"";"";"";"";"";"";"";"";"";"";"";"";"";"";"NIO Power";"";"";""
"10902419232";"25.1397532";"118.8233547";"charging_station";"";"China";"Fujian";"N/A";"N/A";"";"";"";"";"国家电网有限公司";"Q209078";"";"";"";"";"";"";"";"";"";"";"国家电网";"";"";""
"10902419236";"25.13766";"118.8209401";"charging_station";"";"China";"Fujian";"N/A";"N/A";"";"";"";"";"国家电网有限公司";"Q209078";"";"";"";"";"";"";"";"";"";"";"国家电网";"";"";""
"12184021581";"25.4119638";"119.7594072";"charging_station";"";"China";"Fujian";"N/A";"N/A";"";"";"";"";"";"";"";"";"";"";"";"";"";"";"";"";"";"";"";""
"4607705190";"25.0816019";"121.2381834";"charging_station";"";"Taiwan";"Taiwan";"N/A";"N/A";"";"";"";"";"";"";"";"";"";"";"";"";"";"";"";"";"";"";"";""
"4607705692";"25.0824714";"121.2373607";"charging_station";"";"Taiwan";"Taiwan";"N/A";"N/A";"";"";"";"";"";"";"";"";"";"";"";"";"";"";"";"";"";"";"";""
"4607705890";"25.0813467";"121.2384141";"charging_station";"";"Taiwan";"Taiwan";"N/A";"N/A";"";"";"";"";"";"";"";"";"";"";"";"";"";"";"";"";"";"";"";""
"5269306911";"24.9928795";"121.3003119";"charging_station";"";"Taiwan";"Taiwan";"N/A";"N/A";"";"";"";"";"";"";"";"";"";"";"";"";"";"";"";"";"";"";"";""
"9314796079";"25.0143029";"121.3051184";"charging_station";"";"Taiwan";"Taiwan";"N/A";"N/A";"";"";"";"";"Gogoro 電池交換站";"Q19880591";"";"";"";"";"";"";"";"";"";"";"Gogoro 電池交換站";"";"";""
"9657440581";"24.9557994";"121.2941035";"charging_station";"";"Taiwan";"Taiwan";"N/A";"N/A";"";"";"";"";"Gogoro 電池交換站";"Q19880591";"";"";"";"";"";"";"";"";"";"";"Gogoro 電池交換站";"";"";""
"9676252710";"24.9610848";"121.2948077";"charging_station";"";"Taiwan";"Taiwan";"N/A";"N/A";"";"";"";"";"Gogoro 電池交換站";"Q19880591";"";"";"";"";"";"";"";"";"";"";"Gogoro 電池交換站";"";"";""
"9976713174";"24.9662097";"121.300697";"charging_station";"";"Taiwan";"Taiwan";"N/A";"N/A";"";"";"";"";"Gogoro 電池交換站";"Q19880591";"";"";"";"";"";"";"";"";"";"";"Gogoro 電池交換站";"";"";""
"10008258965";"24.965533";"121.3055724";"charging_station";"Taoyuan";"Taiwan";"Taiwan";"N/A";"N/A";"";"";"";"";"Gogoro 電池交換站";"Q19880591";"";"";"";"";"";"";"";"";"";"";"Gogoro 電池交換站";"";"";""
"10086503092";"25.0275034";"121.2302425";"charging_station";"";"Taiwan";"Taiwan";"N/A";"N/A";"";"";"";"";"Gogoro 電池交換站";"Q19880591";"";"";"";"";"";"";"";"";"";"";"Gogoro 電池交換站";"";"";""
"10249201215";"24.9654933";"121.2945864";"charging_station";"";"Taiwan";"Taiwan";"N/A";"N/A";"";"";"";"";"";"";"";"";"";"";"";"";"";"";"";"";"";"";"";""
"12096644054";"25.081652";"121.240664";"charging_station";"";"Taiwan";"Taiwan";"N/A";"N/A";"";"";"";"";"";"";"";"";"";"";"";"";"";"";"";"";"";"";"";"no"
"12291865715";"25.007321";"121.3161751";"charging_station";"Taoyuan";"Taiwan";"Taiwan";"N/A";"N/A";"";"3";"";"";"Gogoro 電池交換站";"Q19880591";"";"";"";"";"";"";"";"";"";"";"Gogoro 電池交換站";"";"";""
"12435788167";"24.9957029";"121.3223102";"charging_station";"Taoyuan";"Taiwan";"Taiwan";"N/A";"N/A";"";"1";"";"";"Gogoro 電池交換站";"Q19880591";"";"";"";"";"";"";"";"";"";"";"Gogoro 電池交換站";"";"";""
"12491808421";"25.0097973";"121.3198435";"charging_station";"Taoyuan";"Taiwan";"Taiwan";"N/A";"N/A";"";"2";"";"";"Gogoro 電池交換站";"Q19880591";"";"";"";"";"";"";"";"";"";"";"Gogoro 電池交換站";"";"";""
"12589937763";"25.0162591";"121.3164868";"charging_station";"Taoyuan";"Taiwan";"Taiwan";"N/A";"N/A";"";"2";"";"";"Gogoro 電池交換站";"Q19880591";"";"";"";"";"";"";"";"";"";"";"Gogoro 電池交換站";"";"";""
"2592662803";"25.0642445";"121.4479064";"charging_station";"Taipei";"Taiwan";"Taipei";"N/A";"N/A";"";"";"";"";"";"";"";"";"";"";"";"";"";"";"";"";"";"";"";""
"3146812690";"25.0445786";"121.4529721";"charging_station";"Taipei";"Taiwan";"Taipei";"N/A";"N/A";"";"";"";"";"";"";"";"";"";"";"";"";"";"";"";"";"";"";"";""
"3295987812";"24.960521";"121.5370166";"charging_station";"";"Taiwan";"Taipei";"N/A";"N/A";"";"";"";"";"";"";"";"";"";"";"";"";"";"";"";"";"";"";"";""
"3409809190";"25.0167771";"121.4653747";"charging_station";"Taipei";"Taiwan";"Taipei";"N/A";"N/A";"";"";"";"";"台灣城市動力";"";"";"";"";"";"";"";"";"";"";"";"";"";"";""
"3419805456";"25.0073178";"121.4586405";"charging_station";"Taipei";"Taiwan";"Taipei";"N/A";"N/A";"";"";"";"";"台灣城市動力股份有限公司";"";"";"";"";"";"";"";"";"";"";"";"";"";"";""
"3450814554";"24.9811464";"121.4203508";"charging_station";"Taipei";"Taiwan";"Taipei";"N/A";"N/A";"";"";"";"";"台灣城市動力股份有限公司";"";"";"";"";"";"";"";"17";"";"";"";"";"";"";""
"3525709682";"25.0130345";"121.4563526";"charging_station";"Taipei";"Taiwan";"Taipei";"N/A";"N/A";"";"";"";"";"台灣城市動力股份有限公司";"";"";"";"";"";"";"";"";"";"";"";"";"";"";""
"3525709684";"24.9975666";"121.4643381";"charging_station";"Taipei";"Taiwan";"Taipei";"N/A";"N/A";"";"";"";"";"台灣城市動力股份有限公司";"";"";"";"";"";"";"";"";"";"";"";"";"";"";""
"3601660373";"24.9819775";"121.4202873";"charging_station";"Taipei";"Taiwan";"Taipei";"N/A";"N/A";"";"";"";"";"睿能創意股份有限公司";"";"";"";"";"";"";"";"";"";"";"";"";"";"";""
"3667065436";"25.2093658";"121.6498532";"charging_station";"Keelung";"Taiwan";"Taiwan";"N/A";"N/A";"";"";"";"";"Gogoro Inc.";"";"";"";"";"";"";"";"";"";"";"";"";"";"";""
"3667065443";"25.2912061";"121.5614161";"charging_station";"Keelung";"Taiwan";"Taiwan";"N/A";"N/A";"";"";"";"";"Gogoro Inc.";"";"";"";"";"";"";"";"";"";"";"";"";"";"";""
"3667065451";"25.2598491";"121.4777053";"charging_station";"";"Taiwan";"Taipei";"N/A";"N/A";"";"";"";"";"Gogoro Inc.";"";"";"";"";"";"";"";"";"";"";"";"";"";"";""
"3667065459";"25.1918801";"121.446183";"charging_station";"";"Taiwan";"Taipei";"N/A";"N/A";"";"";"";"";"Gogoro Inc.";"";"";"";"";"";"";"";"";"";"";"";"";"";"";""
"3667065470";"25.116414";"121.5039192";"charging_station";"";"Taiwan";"Taipei";"N/A";"N/A";"";"";"";"";"Gogoro Inc.";"";"";"";"";"";"";"";"";"";"";"";"";"";"";""
"3667065475";"25.1353594";"121.5457734";"charging_station";"";"Taiwan";"Taipei";"N/A";"N/A";"";"";"";"";"Gogoro Inc.";"";"";"";"";"";"";"";"";"";"";"";"";"";"";""
"3667181092";"25.0924569";"121.5271774";"charging_station";"";"Taiwan";"Taipei";"N/A";"N/A";"";"";"";"";"Gogoro Inc.";"";"";"";"";"";"";"";"";"";"";"";"";"";"";""
"3667181096";"25.0884212";"121.5222022";"charging_station";"";"Taiwan";"Taipei";"N/A";"N/A";"";"";"";"";"Gogoro Inc.";"";"";"";"";"";"";"";"";"";"";"";"";"";"";""
"3667181098";"25.0873241";"121.5257407";"charging_station";"";"Taiwan";"Taipei";"N/A";"N/A";"";"";"";"";"Gogoro Inc.";"";"";"";"";"";"";"";"";"";"";"";"";"";"";""
"3667181100";"25.0856256";"121.5108481";"charging_station";"";"Taiwan";"Taipei";"N/A";"N/A";"";"";"";"";"Gogoro Inc.";"";"";"";"";"";"";"";"";"";"";"";"";"";"";""
"3714501875";"24.9717966";"121.4156235";"charging_station";"Taipei";"Taiwan";"Taipei";"N/A";"N/A";"";"";"";"";"睿能創意股份有限公司";"";"";"";"";"";"";"";"";"";"";"";"";"";"";""
"3823837084";"25.0308252";"121.5042186";"charging_station";"";"Taiwan";"Taipei";"N/A";"N/A";"";"";"";"";"";"";"";"";"";"";"";"";"";"165";"中華路二段";"100";"";"";"";""
"4157447203";"25.01457";"121.3952173";"charging_station";"Taipei";"Taiwan";"Taipei";"N/A";"N/A";"";"";"";"";"gogoro";"";"";"";"";"";"";"";"";"50";"三興路";"238";"";"";"";""
"4169792193";"25.1303539";"121.7436973";"charging_station";"Keelung";"Taiwan";"Taiwan";"N/A";"N/A";"";"";"";"";"Gogoro 電池交換站";"Q19880591";"";"";"";"";"";"";"";"";"";"";"Gogoro 電池交換站";"";"";""
"4169801695";"25.1292681";"121.7511718";"charging_station";"Keelung";"Taiwan";"Taiwan";"N/A";"N/A";"";"";"";"";"Gogoro 電池交換站";"Q19880591";"";"";"";"";"";"";"";"";"";"";"Gogoro 電池交換站";"";"";""
"4169816113";"25.1210417";"121.8235874";"charging_station";"Keelung";"Taiwan";"Taiwan";"N/A";"N/A";"";"";"";"";"Gogoro 電池交換站";"Q19880591";"";"";"";"";"";"";"";"";"";"";"Gogoro 電池交換站";"";"";""
"4169818175";"25.0401632";"121.7760971";"charging_station";"Keelung";"Taiwan";"Taiwan";"N/A";"N/A";"";"";"";"";"Gogoro 電池交換站";"Q19880591";"";"";"";"";"";"";"";"";"";"";"Gogoro 電池交換站";"";"";""
"4169823472";"25.1268794";"121.7379883";"charging_station";"Keelung";"Taiwan";"Taiwan";"N/A";"N/A";"";"";"";"";"Gogoro 電池交換站";"Q19880591";"";"";"";"";"";"";"";"";"";"";"Gogoro 電池交換站";"";"";""
"4189488080";"25.1266343";"121.7188453";"charging_station";"Keelung";"Taiwan";"Taiwan";"N/A";"N/A";"";"";"";"";"Gogoro 電池交換站";"Q19880591";"";"";"";"";"";"";"";"";"";"";"Gogoro 電池交換站";"";"";""
"4200084300";"24.9949974";"121.5387466";"charging_station";"";"Taiwan";"Taipei";"N/A";"N/A";"";"";"";"";"";"";"";"";"";"";"";"";"";"";"";"";"";"";"";""
"4531146213";"24.9960604";"121.421369";"charging_station";"Taipei";"Taiwan";"Taipei";"N/A";"N/A";"";"";"";"no";"gogoro";"";"";"";"";"";"";"";"";"";"";"";"";"";"";"yes"
"4584797111";"25.0839877";"121.6022681";"charging_station";"";"Taiwan";"Taipei";"N/A";"N/A";"";"";"";"";"Gogoro 電池交換站";"Q19880591";"";"";"";"";"";"";"";"";"";"";"Gogoro 電池交換站";"";"";""
"4594252308";"25.032488";"121.4365166";"charging_station";"Taipei";"Taiwan";"Taipei";"N/A";"N/A";"";"24";"";"no";"gogoro";"";"";"";"";"";"";"";"";"";"";"";"";"";"";"yes"
"4594252309";"25.0331";"121.4364347";"charging_station";"Taipei";"Taiwan";"Taipei";"N/A";"N/A";"";"";"";"no";"gogoro";"";"";"";"";"";"";"";"";"";"";"";"";"";"";"yes"
"4640527292";"25.0687213";"121.5215098";"charging_station";"";"Taiwan";"Taipei";"N/A";"N/A";"";"6";"";"yes";"Tesla, Inc.";"Q478214";"";"";"";"";"";"";"";"";"";"";"Tesla, Inc.";"";"24/7";""
"4837986425";"25.0219871";"121.5491";"charging_station";"";"Taiwan";"Taipei";"N/A";"N/A";"";"";"";"";"BMW";"Q26678";"";"";"";"";"";"";"";"";"";"";"";"";"";""
"5021873864";"25.0485745";"121.5145122";"charging_station";"";"Taiwan";"Taipei";"N/A";"N/A";"";"";"";"";"";"";"";"";"";"";"";"";"";"";"";"";"";"";"";""
"5024569021";"24.9937322";"121.4675471";"charging_station";"Taipei";"Taiwan";"Taipei";"N/A";"N/A";"";"";"";"";"";"";"";"";"";"";"";"";"";"";"";"";"";"";"";""
"5905442794";"25.0772985";"121.3868732";"charging_station";"Taipei";"Taiwan";"Taipei";"N/A";"N/A";"";"";"";"";"";"";"";"";"";"";"";"";"";"";"";"";"";"";"";""
"5917357454";"25.0238655";"121.4241777";"charging_station";"Taipei";"Taiwan";"Taipei";"N/A";"N/A";"";"24";"";"";"Gogoro 電池交換站";"Q19880591";"";"";"";"";"";"";"";"";"";"";"Gogoro 電池交換站";"";"";""
"6795607649";"25.0316627";"121.5736946";"charging_station";"";"Taiwan";"Taipei";"N/A";"N/A";"";"";"";"";"Gogoro 電池交換站";"Q19880591";"";"";"";"";"";"";"";"";"";"";"Gogoro 電池交換站";"";"";""
"6816629585";"25.0658605";"121.5099101";"charging_station";"";"Taiwan";"Taipei";"N/A";"N/A";"";"";"";"";"Gogoro";"";"";"";"";"";"";"";"";"";"";"";"";"";"";""
"7676258357";"25.0045327";"121.5392067";"charging_station";"";"Taiwan";"Taipei";"N/A";"N/A";"";"";"";"";"Gogoro";"";"";"";"";"";"";"";"";"";"";"";"";"";"24/7";"yes"
"8280265983";"25.053603";"121.5426019";"charging_station";"";"Taiwan";"Taipei";"N/A";"N/A";"";"";"";"";"Gogoro";"";"";"";"";"";"";"";"";"";"";"";"";"";"";"yes"
"8736523149";"25.0319072";"121.4316672";"charging_station";"Taipei";"Taiwan";"Taipei";"N/A";"N/A";"";"2";"";"";"BMW";"Q26678";"";"";"";"";"";"";"";"";"";"";"";"";"";""
"8773086261";"25.0343321";"121.4309832";"charging_station";"Taipei";"Taiwan";"Taipei";"N/A";"N/A";"";"";"";"";"Tesla, Inc.";"Q478214";"";"";"";"";"";"";"";"";"";"";"Tesla Supercharger";"";"";""
"8811187385";"25.0040183";"121.5384409";"charging_station";"";"Taiwan";"Taipei";"N/A";"N/A";"";"";"";"";"光陽機車";"";"";"";"";"";"";"";"";"";"";"";"";"";"24/7";"yes"
"9405604537";"25.078967";"121.4959855";"charging_station";"";"Taiwan";"Taipei";"N/A";"N/A";"";"";"";"";"Gogoro Taiwan";"";"";"";"";"";"";"";"";"";"";"";"";"";"";""
"9510864542";"25.07215";"121.4910825";"charging_station";"";"Taiwan";"Taipei";"N/A";"N/A";"";"";"";"";"Gogoro 電池交換站";"Q19880591";"";"";"";"";"";"";"";"";"";"";"Gogoro 電池交換站";"";"";""
"9742922392";"25.0845401";"121.5940535";"charging_station";"";"Taiwan";"Taipei";"N/A";"N/A";"";"";"";"";"";"";"";"";"";"";"";"";"";"";"";"";"";"";"";""
"9954062283";"25.2258639";"121.4516445";"charging_station";"";"Taiwan";"Taipei";"N/A";"N/A";"";"";"";"";"Gogoro 電池交換站";"Q19880591";"";"";"";"";"";"";"";"";"";"";"Gogoro 電池交換站";"";"";""
"9956966096";"25.22751";"121.4515377";"charging_station";"";"Taiwan";"Taipei";"N/A";"N/A";"";"2";"";"";"裕隆電能源股份有限公司";"";"";"";"";"";"";"";"";"";"";"";"";"";"";""
"9970474437";"25.1668261";"121.4470085";"charging_station";"";"Taiwan";"Taipei";"N/A";"N/A";"";"";"";"";"Gogoro 電池交換站";"Q19880591";"";"";"";"";"";"";"";"";"";"";"Gogoro 電池交換站";"";"";"yes"
"10273307282";"25.0129394";"121.4127389";"charging_station";"Taipei";"Taiwan";"Taipei";"N/A";"N/A";"";"";"";"";"Gogoro 電池交換站";"Q19880591";"";"";"";"";"";"";"";"";"";"";"Gogoro 電池交換站";"";"";""
"10648160168";"25.0767122";"121.3804378";"charging_station";"Taoyuan";"Taiwan";"Taiwan";"N/A";"N/A";"";"360kw";"";"";"";"";"";"";"";"";"";"";"";"";"";"";"U-Power 新北林口站";"";"";""
"10649110861";"25.0711405";"121.3651784";"charging_station";"Taoyuan";"Taiwan";"Taiwan";"N/A";"N/A";"";"7kw";"";"";"EValue";"";"";"";"";"";"";"";"";"";"";"";"EValue";"";"";"yes"
"10649123371";"25.0669552";"121.3569967";"charging_station";"Taoyuan";"Taiwan";"Taiwan";"N/A";"N/A";"";"";"";"";"BEGIN";"";"";"";"";"";"";"";"";"";"";"";"BEGIN";"";"";"yes"
"10651564205";"25.0236791";"121.5530933";"charging_station";"";"Taiwan";"Taipei";"N/A";"N/A";"";"";"";"";"Gogoro 電池交換站";"Q19880591";"";"";"";"";"";"";"";"";"";"";"Gogoro 電池交換站";"";"";""
"10895824597";"25.0446486";"121.7793362";"charging_station";"Keelung";"Taiwan";"Taiwan";"N/A";"N/A";"";"";"";"";"Gogoro 電池交換站";"Q19880591";"";"";"";"";"";"";"";"";"";"";"Gogoro 電池交換站";"";"";""
"11061673361";"25.0071263";"121.4603165";"charging_station";"Taipei";"Taiwan";"Taipei";"N/A";"N/A";"";"";"";"";"Gogoro 電池交換站";"Q19880591";"";"";"";"";"";"";"";"";"";"";"Gogoro 電池交換站";"";"24/7";""
"11127163088";"25.0054687";"121.4767022";"charging_station";"Taipei";"Taiwan";"Taipei";"N/A";"N/A";"";"";"";"";"Gogoro 電池交換站";"Q19880591";"";"";"";"";"";"";"";"";"";"";"Gogoro 電池交換站";"";"";""
"11127163089";"25.0034986";"121.4758782";"charging_station";"Taipei";"Taiwan";"Taipei";"N/A";"N/A";"";"";"";"";"Gogoro 電池交換站";"Q19880591";"";"";"";"";"";"";"";"";"";"";"Gogoro 電池交換站";"";"";""
"11250932794";"25.0353103";"121.5038335";"charging_station";"";"Taiwan";"Taipei";"N/A";"N/A";"";"";"";"";"Gogoro 電池交換站";"Q19880591";"";"";"";"";"";"";"";"";"";"";"Gogoro 電池交換站";"";"";""
"11594150361";"24.9887013";"121.4651156";"charging_station";"Taipei";"Taiwan";"Taipei";"N/A";"N/A";"";"";"";"";"Gogoro 電池交換站";"Q19880591";"";"";"";"";"";"";"";"";"";"";"Gogoro 電池交換站";"";"";""
"11919024904";"25.0450153";"121.3596322";"charging_station";"Taoyuan";"Taiwan";"Taiwan";"N/A";"N/A";"";"";"";"";"Gogoro Network";"";"";"";"";"";"";"";"";"";"";"";"Gogoro Network 換電站";"";"";""
"11956214235";"25.2856274";"121.521982";"charging_station";"";"Taiwan";"Taipei";"N/A";"N/A";"";"";"";"";"Gogoro 電池交換站";"Q19880591";"";"";"";"";"";"";"";"";"";"";"Gogoro 電池交換站";"";"";""
"11964900811";"25.0033699";"121.6022178";"charging_station";"";"Taiwan";"Taipei";"N/A";"N/A";"";"";"";"";"Gogoro 電池交換站";"Q19880591";"";"";"";"";"";"";"";"";"";"";"Gogoro 電池交換站";"";"";""
"12610397394";"24.9900077";"121.5629831";"charging_station";"";"Taiwan";"Taipei";"N/A";"N/A";"";"";"";"";"Gogoro 電池交換站";"Q19880591";"";"";"";"";"";"";"";"";"";"";"Gogoro 電池交換站";"";"";""
"12797071339";"25.0263089";"121.5182913";"charging_station";"";"Taiwan";"Taipei";"N/A";"N/A";"";"";"";"";"";"";"";"";"";"";"";"";"";"90";"和平西路一段";"";"";"";"";""
"12826104618";"25.0377852";"121.5589232";"charging_station";"";"Taiwan";"Taipei";"N/A";"N/A";"";"";"";"";"Gogoro 電池交換站";"Q19880591";"";"";"";"";"";"";"";"";"";"";"Gogoro 電池交換站";"";"";""
"12829743758";"25.0442643";"121.566582";"charging_station";"";"Taiwan";"Taipei";"N/A";"N/A";"";"";"";"";"Gogoro 電池交換站";"Q19880591";"";"";"";"";"";"";"";"";"";"";"Gogoro 電池交換站";"";"";""
"12840160575";"25.0490232";"121.546046";"charging_station";"";"Taiwan";"Taipei";"N/A";"N/A";"";"";"";"";"Gogoro 電池交換站";"Q19880591";"";"";"";"";"";"";"";"";"";"";"Gogoro 電池交換站";"";"";""
"1185424104";"";"";"charging_station";"N/A";"N/A";"N/A";"N/A";"N/A";"";"2";"";"";"峻侖股份有限公司";"";"";"";"";"";"";"";"";"123";"安美街";"";"Mr.Charger恰吉先生";"";"24/7";"yes"
"1369003624";"";"";"charging_station";"N/A";"N/A";"N/A";"N/A";"N/A";"";"4";"";"";"Porsche";"";"";"";"";"";"";"";"";"";"";"";"Porsche";"NTD $14";"";"yes"
"12679490396";"25.0627581";"121.5877791";"";"";"Taiwan";"Taipei";"N/A";"N/A";"";"";"";"";"";"";"";"";"";"";"";"";"";"";"";"";"";"";"";""
"12679490397";"25.062673";"121.5878053";"";"";"Taiwan";"Taipei";"N/A";"N/A";"";"";"";"";"";"";"";"";"";"";"";"";"";"";"";"";"";"";"";""
"12679490398";"25.0627568";"121.5881204";"";"";"Taiwan";"Taipei";"N/A";"N/A";"";"";"";"";"";"";"";"";"";"";"";"";"";"";"";"";"";"";"";""
"12679490399";"25.0628489";"121.5880834";"";"";"Taiwan";"Taipei";"N/A";"N/A";"";"";"";"";"";"";"";"";"";"";"";"";"";"";"";"";"";"";"";""
"11011482504";"25.0600645";"121.5987365";"";"";"Taiwan";"Taipei";"N/A";"N/A";"";"";"";"";"";"";"";"";"";"";"";"";"";"";"";"";"";"";"";""
"11011485305";"25.0599867";"121.5987472";"";"";"Taiwan";"Taipei";"N/A";"N/A";"";"";"";"";"";"";"";"";"";"";"";"";"";"";"";"";"";"";"";""
"11011485306";"25.0599837";"121.5987989";"";"";"Taiwan";"Taipei";"N/A";"N/A";"";"";"";"";"";"";"";"";"";"";"";"";"";"";"";"";"";"";"";""
"11011485307";"25.0600663";"121.5987881";"";"";"Taiwan";"Taipei";"N/A";"N/A";"";"";"";"";"";"";"";"";"";"";"";"";"";"";"";"";"";"";"";""
"11011485308";"25.0600651";"121.5987606";"";"";"Taiwan";"Taipei";"N/A";"N/A";"";"";"";"";"";"";"";"";"";"";"";"";"";"";"";"";"";"";"";""
"10895824598";"25.0204941";"121.907564";"charging_station";"Keelung";"Taiwan";"Taiwan";"N/A";"N/A";"";"";"";"";"Gogoro 電池交換站";"Q19880591";"";"";"";"";"";"";"";"";"";"";"Gogoro 電池交換站";"";"";""
"4555836793";"25.5257393";"-103.3210809";"charging_station";"Torreon";"Mexico";"Coahuila";"N/A";"N/A";"";"";"";"";"Combugas";"";"";"";"";"";"";"";"";"";"";"";"";"";"";""
"11184582325";"25.6134361";"-100.846731";"charging_station";"Ramos Arizpe";"Mexico";"Coahuila";"N/A";"N/A";"";"";"";"";"Tesla, Inc.";"Q478214";"";"";"";"";"";"";"";"";"";"";"Tesla Supercharger";"";"";""
"4371726090";"25.7791174";"-100.4545161";"charging_station";"Garcia";"Mexico";"Nuevo Leon";"N/A";"N/A";"";"";"";"";"";"";"";"";"";"";"";"";"";"";"";"";"";"";"";""
"4390066589";"25.8269888";"-100.2879695";"charging_station";"Salinas Victoria";"Mexico";"Nuevo Leon";"N/A";"N/A";"";"";"";"";"";"";"";"";"";"";"";"";"";"";"";"";"";"";"";""
"7141298419";"25.9357576";"-100.2136414";"charging_station";"Cienega de Flores";"Mexico";"Nuevo Leon";"N/A";"N/A";"";"";"";"";"GANAMEX";"";"";"";"";"";"";"";"";"";"";"";"";"";"";""
"10585173605";"25.6483856";"-100.355632";"charging_station";"";"Mexico";"Nuevo Leon";"N/A";"N/A";"";"";"";"";"";"";"";"";"";"";"";"";"";"";"";"";"";"";"";""
"10585173606";"25.6483772";"-100.3557489";"charging_station";"";"Mexico";"Nuevo Leon";"N/A";"N/A";"";"";"";"";"";"";"";"";"";"";"";"";"";"";"";"";"";"";"";""
"379814943";"";"";"charging_station";"N/A";"N/A";"N/A";"N/A";"N/A";"";"";"";"";"";"";"";"";"";"";"";"";"";"";"";"";"";"";"";""
"3831609923";"25.748007";"-100.2391042";"";"San Nicolas de los Garza";"Mexico";"Nuevo Leon";"N/A";"N/A";"";"";"";"";"";"";"";"";"";"";"";"";"";"";"";"";"";"";"";""
"3831609924";"25.7472456";"-100.2386687";"";"San Nicolas de los Garza";"Mexico";"Nuevo Leon";"N/A";"N/A";"";"";"";"";"";"";"";"";"";"";"";"";"";"";"";"";"";"";"";""
"3831609925";"25.747365";"-100.2383853";"";"San Nicolas de los Garza";"Mexico";"Nuevo Leon";"N/A";"N/A";"";"";"";"";"";"";"";"";"";"";"";"";"";"";"";"";"";"";"";""
"3831609926";"25.7474262";"-100.238426";"";"San Nicolas de los Garza";"Mexico";"Nuevo Leon";"N/A";"N/A";"";"";"";"";"";"";"";"";"";"";"";"";"";"";"";"";"";"";"";""
"3831609927";"25.7476615";"-100.2379318";"";"San Nicolas de los Garza";"Mexico";"Nuevo Leon";"N/A";"N/A";"";"";"";"";"";"";"";"";"";"";"";"";"";"";"";"";"";"";"";""
"3831609928";"25.7480819";"-100.2380423";"";"San Nicolas de los Garza";"Mexico";"Nuevo Leon";"N/A";"N/A";"";"";"";"";"";"";"";"";"";"";"";"";"";"";"";"";"";"";"";""
"7650404618";"25.7474763";"-100.2382627";"";"San Nicolas de los Garza";"Mexico";"Nuevo Leon";"N/A";"N/A";"";"";"";"";"";"";"";"";"";"";"";"";"";"";"";"";"";"";"";""
"7650404619";"25.7479884";"-100.2386624";"";"San Nicolas de los Garza";"Mexico";"Nuevo Leon";"N/A";"N/A";"";"";"";"";"";"";"";"";"";"";"";"";"";"";"";"";"";"";"";""
"4537329998";"25.8540532";"-97.4747255";"charging_station";"Matamoros";"Mexico";"Tamaulipas";"N/A";"N/A";"";"";"";"";"pemex";"";"";"";"";"";"";"";"";"";"";"";"";"";"";""
"12941775624";"25.94396";"-97.42929";"charging_station";"Cameron County";"United States";"Texas";"N/A";"N/A";"";"16";"";"designated";"Tesla, Inc.";"Q478214";"";"";"";"";"";"";"";"5850";"Ruben M Torres Boulevard";"78526";"Tesla Supercharger";"";"24/7";"yes"
"10544399627";"25.7568143";"-80.7662962";"charging_station";"Miami-Dade County";"United States";"Florida";"N/A";"N/A";"";"";"";"";"";"";"";"";"";"";"";"";"";"";"";"";"";"";"";""
"1186412984";"";"";"charging_station";"N/A";"N/A";"N/A";"N/A";"N/A";"";"2";"";"";"";"";"";"";"";"";"";"";"";"";"";"";"";"";"";""
"10543804692";"25.8573191";"-81.0330939";"";"Miami-Dade County";"United States";"Florida";"N/A";"N/A";"";"";"";"";"";"";"";"";"";"";"";"";"";"";"";"";"";"";"";""
"11019374504";"25.857394";"-81.0330892";"";"Miami-Dade County";"United States";"Florida";"N/A";"N/A";"";"";"";"";"";"";"";"";"";"";"";"";"";"";"";"";"";"";"";""
"11019376205";"25.8573898";"-81.0330065";"";"Miami-Dade County";"United States";"Florida";"N/A";"N/A";"";"";"";"";"";"";"";"";"";"";"";"";"";"";"";"";"";"";"";""
"11019376206";"25.8573149";"-81.0330112";"";"Miami-Dade County";"United States";"Florida";"N/A";"N/A";"";"";"";"";"";"";"";"";"";"";"";"";"";"";"";"";"";"";"";""
"5889637155";"25.7090999";"-80.2878981";"charging_station";"Miami-Dade County";"United States";"Florida";"N/A";"N/A";"";"";"";"";"ChargePoint";"Q5176149";"";"";"";"";"";"";"";"";"";"";"ChargePoint";"";"";""
"6182399402";"25.7599145";"-80.3711694";"charging_station";"Miami-Dade County";"United States";"Florida";"N/A";"N/A";"";"2";"";"yes";"";"";"";"";"";"";"";"";"";"";"";"";"";"";"";"yes"
"6182399403";"25.7550529";"-80.3723502";"charging_station";"Miami-Dade County";"United States";"Florida";"N/A";"N/A";"";"2";"";"yes";"";"";"";"";"";"";"";"";"";"";"";"";"";"";"";"yes"
"6210516972";"25.7540812";"-80.3723502";"charging_station";"Miami-Dade County";"United States";"Florida";"N/A";"N/A";"";"1";"";"yes";"";"";"";"";"";"";"";"";"";"";"";"";"";"";"";"yes"
"6311047823";"25.7941223";"-80.2063577";"charging_station";"Miami-Dade County";"United States";"Florida";"N/A";"N/A";"yes";"";"";"yes";"ChargePoint";"Q5176149";"";"";"";"";"";"";"";"";"";"";"ChargePoint";"";"";"yes"
"6577002914";"25.45682";"-80.47434";"charging_station";"Miami-Dade County";"United States";"Florida";"N/A";"N/A";"";"8";"";"designated";"Tesla, Inc.";"Q478214";"";"";"";"";"";"";"";"33505";"South Dixie Highway";"33034";"Tesla Supercharger";"";"24/7";"yes"
"6577180159";"25.81393";"-80.19455";"charging_station";"Miami-Dade County";"United States";"Florida";"N/A";"N/A";"";"14";"";"designated";"Tesla, Inc.";"Q478214";"";"";"";"";"";"";"";"90";"Northeast 41st Street";"33137";"Tesla Supercharger";"";"24/7";"yes"
"6624856009";"25.7600371";"-80.3731281";"charging_station";"Miami-Dade County";"United States";"Florida";"N/A";"N/A";"";"1";"";"yes";"";"";"";"";"";"";"";"";"";"";"";"";"";"";"";"yes"
"8880621276";"25.7485";"-80.30841";"charging_station";"Miami-Dade County";"United States";"Florida";"N/A";"N/A";"";"8";"";"designated";"Tesla, Inc.";"Q478214";"";"";"";"";"";"";"";"6971";"Southwest 24th Street";"33155";"Tesla Supercharger";"";"24/7";"yes"
"9163342690";"25.8466796";"-80.3822906";"charging_station";"Miami-Dade County";"United States";"Florida";"N/A";"N/A";"";"";"";"";"ChargePoint";"Q5176149";"";"";"";"";"";"";"";"";"";"";"ChargePoint";"";"";""
"9173724349";"25.6870987";"-80.3425101";"charging_station";"Miami-Dade County";"United States";"Florida";"N/A";"N/A";"";"";"";"";"ChargePoint";"Q5176149";"";"";"";"";"";"";"";"";"";"";"ChargePoint";"";"";""
"10909214770";"25.94286";"-80.34487";"charging_station";"Miami-Dade County";"United States";"Florida";"N/A";"N/A";"";"12";"";"designated";"Tesla, Inc.";"Q478214";"";"";"";"";"";"";"";"18600";"Northwest 87th Avenue";"33015";"Tesla Supercharger";"";"24/7";"yes"
"11111854478";"25.4536571";"-80.4736724";"charging_station";"Miami-Dade County";"United States";"Florida";"N/A";"N/A";"yes";"1";"";"yes";"EVgo";"Q61803820";"";"";"";"";"";"";"";"";"";"";"EVgo";"";"";"yes"
"11794987477";"25.4536938";"-80.4736723";"charging_station";"Miami-Dade County";"United States";"Florida";"N/A";"N/A";"";"1";"";"";"Blink";"Q62065645";"";"";"";"";"";"";"";"";"";"";"Blink";"";"";"yes"
"11795047902";"25.4562622";"-80.473489";"charging_station";"Miami-Dade County";"United States";"Florida";"N/A";"N/A";"";"4";"";"";"Electrify America";"Q59773555";"";"";"";"";"";"";"";"";"";"";"Electrify America";"";"24/7";"yes"
"12756084995";"25.7878208";"-80.3660736";"charging_station";"Miami-Dade County";"United States";"Florida";"N/A";"N/A";"";"";"";"";"";"";"";"";"";"";"";"";"";"";"";"";"";"";"";""
"12869311734";"25.7966";"-80.3694";"charging_station";"Miami-Dade County";"United States";"Florida";"N/A";"N/A";"";"";"";"designated";"";"";"";"";"";"";"";"";"";"10700";"Northwest 25, th Street";"33172";"Blink";"";"24/7";""
"12878074048";"25.7600021";"-80.3742439";"charging_station";"Miami-Dade County";"United States";"Florida";"N/A";"N/A";"";"";"";"yes";"";"";"";"";"";"";"";"";"";"";"";"";"";"";"";"yes"
"12878074049";"25.7584392";"-80.3798054";"charging_station";"Miami-Dade County";"United States";"Florida";"N/A";"N/A";"";"";"";"";"";"";"";"";"";"";"";"";"";"";"";"";"";"";"";""
"12923431482";"25.7814";"-80.28768";"charging_station";"Miami-Dade County";"United States";"Florida";"N/A";"N/A";"";"8";"";"designated";"Tesla";"Q478214";"";"";"";"";"";"";"";"5600";"Blue Lagoon Drive";"33126";"Tesla Supercharger";"";"24/7";"yes"
"12923488205";"25.6932";"-80.3049";"charging_station";"Miami-Dade County";"United States";"Florida";"N/A";"N/A";"";"12";"";"designated";"Tesla, Inc.";"Q478214";"";"";"";"";"";"";"";"8312";"Dixie Highway";"33143";"Tesla Supercharger";"";"24/7";"yes"
"12923488206";"25.76471";"-80.19463";"charging_station";"Miami-Dade County";"United States";"Florida";"N/A";"N/A";"";"4";"";"designated";"Tesla, Inc.";"Q478214";"";"";"";"";"";"";"";"71";"Southwest 10th Street";"33130";"Tesla Supercharger";"";"24/7";"yes"
"12923488208";"25.76688";"-80.19452";"charging_station";"Miami-Dade County";"United States";"Florida";"N/A";"N/A";"";"10";"";"designated";"Tesla, Inc.";"Q478214";"";"";"";"";"";"";"";"701";"South Miami Avenue";"33130";"Tesla Supercharger";"";"24/7";"yes"
"12923488209";"25.76768";"-80.19247";"charging_station";"Miami-Dade County";"United States";"Florida";"N/A";"N/A";"";"13";"";"designated";"Tesla, Inc.";"Q478214";"";"";"";"";"";"";"";"";"";"33130";"Tesla Supercharger";"";"24/7";"yes"
"12923488222";"25.93995";"-80.24627";"charging_station";"Miami-Dade County";"United States";"Florida";"N/A";"N/A";"";"8";"";"designated";"Tesla, Inc.";"Q478214";"";"";"";"";"";"";"";"2700";"Northwest 183rd Street";"33056";"Tesla Supercharger";"";"24/7";"yes"
"12923488223";"25.79644";"-80.35376";"charging_station";"Miami-Dade County";"United States";"Florida";"N/A";"N/A";"";"8";"";"designated";"Tesla, Inc.";"Q478214";"";"";"";"";"";"";"";"9700";"Northwest 25th Street";"33172";"Tesla Supercharger";"";"24/7";"yes"
"12923488225";"25.64639";"-80.33798";"charging_station";"Miami-Dade County";"United States";"Florida";"N/A";"N/A";"";"20";"";"designated";"Tesla, Inc.";"Q478214";"";"";"";"";"";"";"";"8888";"Southwest 136th Street";"33176";"Tesla Supercharger";"";"24/7";"yes"
"12923488230";"25.84617";"-80.18834";"charging_station";"Miami-Dade County";"United States";"Florida";"N/A";"N/A";"";"8";"";"designated";"Tesla, Inc.";"Q478214";"";"";"";"";"";"";"";"7580";"Northeast 4th Court";"33138";"Tesla Supercharger";"";"24/7";"yes"
"12923488244";"25.6891";"-80.39336";"charging_station";"Miami-Dade County";"United States";"Florida";"N/A";"N/A";"";"12";"";"designated";"Tesla, Inc.";"Q478214";"";"";"";"";"";"";"";"8521";"Southwest 124th Avenue";"33183";"Tesla Supercharger";"";"24/7";"yes"
"12923488252";"25.5983";"-80.37199";"charging_station";"Miami-Dade County";"United States";"Florida";"N/A";"N/A";"";"8";"";"designated";"Tesla, Inc.";"Q478214";"";"";"";"";"";"";"";"11101";"Southwest 184th Street";"33157";"Tesla Supercharger";"";"24/7";"yes"
"12923488257";"25.80622";"-80.33783";"charging_station";"Miami-Dade County";"United States";"Florida";"N/A";"N/A";"";"8";"";"designated";"Tesla, Inc.";"Q478214";"";"";"";"";"";"";"";"3300";"Northwest 87th Avenue";"33172";"Tesla Supercharger";"";"24/7";"yes"
"12923488267";"25.7323311";"-80.3061481";"charging_station";"Miami-Dade County";"United States";"Florida";"N/A";"N/A";"";"12";"";"designated";"Tesla";"Q478214";"";"";"";"";"";"";"";"6848";"Bird Road";"33155";"Tesla Supercharger";"";"24/7";"yes"
"12923488271";"25.76915";"-80.32418";"charging_station";"Miami-Dade County";"United States";"Florida";"N/A";"N/A";"";"8";"";"designated";"Tesla";"Q478214";"";"";"";"";"";"";"";"7870";"West Flagler Street";"33144";"Tesla Supercharger";"";"24/7";"yes"
"6035540081";"25.8145691";"-80.1281427";"charging_station";"Miami-Dade County";"United States";"Florida";"N/A";"N/A";"";"";"";"";"Blink";"Q62065645";"";"";"";"";"";"";"";"40";"West 42nd Street";"33140";"Blink";"";"";"yes"
"6106679044";"25.8877648";"-80.1653561";"charging_station";"Miami-Dade County";"United States";"Florida";"N/A";"N/A";"";"";"";"yes";"ChargePoint";"Q5176149";"";"";"";"";"";"";"";"";"";"";"ChargePoint";"";"";"no"
"6273022406";"25.9463526";"-80.122072";"charging_station";"Miami-Dade County";"United States";"Florida";"N/A";"N/A";"";"2";"";"yes";"";"";"";"";"";"";"";"";"";"";"";"";"";"";"";"no"
"12483493124";"25.8670539";"-80.1288655";"charging_station";"Miami-Dade County";"United States";"Florida";"N/A";"N/A";"";"";"";"";"Blink";"Q62065645";"";"";"";"";"";"";"";"8100";"Hawthorne Avenue";"33141";"Blink";"";"";"yes"
"12484529753";"25.8821081";"-80.1228452";"charging_station";"Miami-Dade County";"United States";"Florida";"N/A";"N/A";"";"";"";"";"Blink";"Q62065645";"";"";"";"";"";"";"";"9293";"Harding Avenue";"33154";"Blink";"";"";"yes"
"12484663277";"25.7842941";"-80.1306603";"charging_station";"Miami-Dade County";"United States";"Florida";"N/A";"N/A";"";"";"";"";"Blink";"Q62065645";"";"";"";"";"";"";"";"";"";"";"Blink";"";"";"yes"
"12484705043";"25.8859079";"-80.131923";"charging_station";"Miami-Dade County";"United States";"Florida";"N/A";"N/A";"";"";"";"";"Blink";"Q62065645";"";"";"";"";"";"";"";"1165";"95th Street";"33154";"Blink";"";"";"yes"
"12484706401";"25.8872007";"-80.1262113";"charging_station";"Miami-Dade County";"United States";"Florida";"N/A";"N/A";"";"";"";"";"Electrify America";"Q59773555";"";"";"";"";"";"";"";"501";"96th Street";"33154";"Electrify America";"";"";"yes"
"12484725502";"25.7927569";"-80.1358707";"charging_station";"Miami-Dade County";"United States";"Florida";"N/A";"N/A";"";"";"";"";"Blink";"Q62065645";"";"";"";"";"";"";"";"";"";"";"Blink";"";"";"yes"
"12484725503";"25.7917792";"-80.1348884";"charging_station";"Miami-Dade County";"United States";"Florida";"N/A";"N/A";"";"";"";"";"Blink";"Q62065645";"";"";"";"";"";"";"";"640";"17th Street";"33139";"Blink";"";"";"yes"
"12484725504";"25.79169";"-80.13401";"charging_station";"Miami-Dade County";"United States";"Florida";"N/A";"N/A";"";"10";"";"designated";"Tesla, Inc.";"Q478214";"";"";"";"";"";"";"";"1661";"Pennsylvania Avenue";"33139";"Tesla Supercharger";"";"24/7";"yes"
"12505426319";"25.78023";"-80.14179";"charging_station";"Miami-Dade County";"United States";"Florida";"N/A";"N/A";"";"18";"";"designated";"Tesla, Inc.";"Q478214";"";"";"";"";"";"";"";"959";"West Avenue";"33139";"Tesla Supercharger";"";"24/7";"yes"
"12549454805";"25.9380818";"-80.1223533";"charging_station";"Miami-Dade County";"United States";"Florida";"N/A";"N/A";"";"1";"";"";"ChargePoint";"Q5176149";"";"";"";"";"";"";"";"210";"Northeast 175th Terrace";"33160";"ChargePoint";"";"";"yes"
"12549471334";"25.9301238";"-80.1252284";"charging_station";"Miami-Dade County";"United States";"Florida";"N/A";"N/A";"";"";"";"";"ChargePoint";"Q5176149";"";"";"";"";"";"";"";"215";"Sunny Isles Boulevard";"33160";"ChargePoint";"";"";"yes"
"12923431496";"25.90661";"-80.15728";"charging_station";"Miami-Dade County";"United States";"Florida";"N/A";"N/A";"";"12";"";"designated";"Tesla, Inc.";"Q478214";"";"";"";"";"";"";"";"14075";"Biscayne Boulevard";"33181";"Tesla Supercharger";"";"24/7";"yes"
"11443435730";"25.6702543";"39.2976827";"charging_station";"";"Saudi Arabia";"Al Madinah al Munawwarah";"N/A";"N/A";"";"";"";"";"Electromin";"";"";"";"";"";"";"";"";"";"";"";"";"";"Fr 17:00-21:00; Mo-Th,Sa-Su 09:00-22:00";""
"11443450173";"25.8671352";"43.48261";"charging_station";"";"Saudi Arabia";"Al-Qassim";"N/A";"N/A";"";"";"";"";"Electromin";"";"";"";"";"";"";"";"";"";"";"";"";"";"Fr 17:00-21:00; Mo-Th,Sa-Su 09:00-22:00";""
"11443450180";"25.8636597";"44.2183077";"charging_station";"";"Saudi Arabia";"Al-Qassim";"N/A";"N/A";"";"";"";"";"Electromin";"";"";"";"";"";"";"";"";"";"";"";"";"";"Fr 17:00-21:00; Mo-Th,Sa-Su 09:00-22:00";""
"11443435753";"25.9198578";"49.6559019";"charging_station";"";"Saudi Arabia";"Eastern Province";"N/A";"N/A";"";"";"";"";"Electromin";"";"";"";"";"";"";"";"";"";"";"";"";"";"Fr 17:00-21:00; Mo-Th,Sa-Su 09:00-22:00";""
"4376878409";"25.8275913";"80.568888";"charging_station";"Fatehpur";"India";"Uttar Pradesh";"N/A";"N/A";"";"";"";"";"";"";"";"";"";"";"";"";"";"";"";"";"";"";"";""
"10285005409";"25.6536964";"87.3612525";"charging_station";"Purnia";"India";"Bihar";"N/A";"N/A";"";"";"";"";"";"";"";"";"";"";"";"";"";"";"Maghaili";"";"";"";"24/7";""
"12816263921";"25.825353";"98.8576426";"charging_station";"";"China";"Yunnan";"N/A";"N/A";"";"";"";"yes";"";"";"";"";"";"";"";"";"";"";"";"";"特来电";"";"";"yes"
"7334431902";"25.6801941";"100.1566909";"charging_station";"";"China";"Yunnan";"N/A";"N/A";"";"";"";"";"";"";"";"";"";"";"";"";"";"";"";"";"";"";"";"yes"
"10044053447";"25.5765669";"100.2257143";"charging_station";"";"China";"Yunnan";"N/A";"N/A";"";"";"";"";"";"";"";"";"";"";"";"";"";"";"";"";"";"";"";""
"12559255981";"25.6029804";"100.2339262";"charging_station";"";"China";"Yunnan";"N/A";"N/A";"";"";"";"";"Tesla, Inc.";"Q478214";"";"";"";"";"";"";"";"";"";"";"Tesla Supercharger";"";"";""
