"id";"lat";"lon";"amenity";"city";"state";"country";"scraped_country_code";"scraped_country_name";"authentication:nfc";"capacity";"capacity:car";"motorcar";"operator";"operator:wikidata";"socket:schuko";"socket:schuko:current";"socket:schuko:voltage";"socket:type2";"socket:type2:current";"socket:type2:voltage";"ref";"addr:housenumber";"addr:street";"addr:postcode";"brand";"charge";"opening_hours";"fee"
"10817075802";"-35.675634";"137.0674367";"charging_station";"Kangaroo Island";"Australia";"South Australia";"N/A";"N/A";"";"1";"";"";"";"";"";"";"";"";"";"";"";"";"";"";"Tesla, Inc.";"";"";""
"6110132412";"-35.7874472";"137.7714998";"charging_station";"Kangaroo Island";"Australia";"South Australia";"N/A";"N/A";"";"1";"";"";"";"";"";"";"";"";"";"";"";"";"";"";"";"";"";""
"8571361842";"-35.718308";"137.9385131";"charging_station";"Kangaroo Island";"Australia";"South Australia";"N/A";"N/A";"";"";"";"";"ChargePoint";"Q5176149";"";"";"";"";"";"";"";"";"";"";"ChargePoint";"";"";"yes"
"11962096698";"-35.6878893";"139.3377758";"charging_station";"The Coorong";"Australia";"South Australia";"N/A";"N/A";"";"";"";"";"Chargefox";"Q105775824";"";"";"";"1";"";"";"";"";"";"";"RAA";"";"";""
"11962104845";"-35.6949082";"139.856337";"charging_station";"The Coorong";"Australia";"South Australia";"N/A";"N/A";"";"2";"";"";"Chargefox";"Q105775824";"";"";"";"1";"";"";"";"";"";"";"RAA";"";"";""
"12712950309";"-35.885127";"140.0572067";"charging_station";"Tatiara";"Australia";"South Australia";"N/A";"N/A";"";"";"";"";"Chargefox";"Q105775824";"";"";"";"";"";"";"";"";"";"";"RAA";"";"";""
"5132854542";"-36.0990659";"140.3557562";"charging_station";"Tatiara";"Australia";"South Australia";"N/A";"N/A";"";"";"";"";"Tesla";"Q478214";"";"";"";"";"";"";"";"";"";"";"Tesla Supercharger";"";"";""
"7249211887";"-36.1050786";"140.3615633";"charging_station";"Tatiara";"Australia";"South Australia";"N/A";"N/A";"";"4";"";"";"Chargefox";"Q105775824";"";"";"";"";"";"";"";"";"";"";"";"";"";""
"11957604247";"-35.7270422";"142.3641076";"charging_station";"Mildura Shire";"Australia";"Victoria";"N/A";"N/A";"";"";"";"";"Evie Networks";"Q105795220";"";"";"";"";"";"";"";"";"";"";"";"";"";""
"9058271716";"-36.0790387";"143.2267286";"charging_station";"Swan Hill";"Australia";"Victoria";"N/A";"N/A";"";"2";"";"";"Central Victorian Greenhouse Alliance";"Q106320329";"";"";"";"";"";"";"";"";"";"";"Charging the Regions";"";"";""
"11885672552";"-36.0751569";"143.2253748";"charging_station";"Swan Hill";"Australia";"Victoria";"N/A";"N/A";"";"4";"";"";"";"";"";"";"";"";"";"";"";"";"";"";"";"";"";""
"8573119373";"-35.7344119";"143.9213354";"charging_station";"Swan Hill";"Australia";"Victoria";"N/A";"N/A";"";"1";"";"";"Central Victorian Greenhouse Alliance";"Q106320329";"";"";"";"";"";"";"";"";"";"";"Charging the Regions";"";"";""
"12040983170";"-35.7321837";"143.9200675";"charging_station";"Swan Hill";"Australia";"Victoria";"N/A";"N/A";"";"";"";"";"Tesla";"Q478214";"";"";"";"";"";"";"";"";"";"";"Tesla Supercharger";"";"";""
"8714688412";"-35.807933";"144.2207964";"charging_station";"Murray Shire";"Australia";"New South Wales";"N/A";"N/A";"";"";"";"";"Central Victorian Greenhouse Alliance";"Q106320329";"";"";"";"";"";"";"";"";"";"";"Charging the Regions";"";"";""
"10184645214";"-36.1135121";"144.757421";"charging_station";"Murray Shire";"Australia";"New South Wales";"N/A";"N/A";"";"";"";"";"";"";"";"";"";"";"";"";"";"";"";"";"";"";"";""
"10892673392";"-36.0098583";"146.0031298";"charging_station";"Moira";"Australia";"Victoria";"N/A";"N/A";"";"2";"";"";"Evie Networks";"Q105795220";"";"";"";"";"";"";"";"";"";"";"";"";"";""
"12583369258";"-35.9314467";"145.6619617";"charging_station";"Berrigan";"Australia";"New South Wales";"N/A";"N/A";"";"";"";"";"Chargefox";"Q105775824";"";"";"";"3";"";"";"";"";"";"";"";"";"";""
"4027663540";"-36.1237775";"146.8900517";"charging_station";"Wodonga";"Australia";"Victoria";"N/A";"N/A";"";"";"";"";"Tesla";"Q478214";"";"";"";"";"";"";"";"5-13";"Havelock Street";"3690";"Tesla Supercharger";"";"24/7";""
"6217636780";"-36.0739678";"146.7267687";"charging_station";"Corowa Shire";"Australia";"New South Wales";"N/A";"N/A";"";"8";"";"";"Chargefox";"Q105775824";"";"";"";"";"";"";"";"";"";"";"";"";"";""
"6758195608";"-36.0283814";"146.8959075";"charging_station";"Albury Municipality";"Australia";"New South Wales";"N/A";"N/A";"";"";"";"";"";"";"";"";"";"";"";"";"";"";"";"";"";"";"";""
"7244697466";"-36.0837898";"146.9148011";"charging_station";"Albury Municipality";"Australia";"New South Wales";"N/A";"N/A";"";"";"";"";"NRMA";"Q6955173";"";"";"";"";"";"";"";"";"";"";"";"";"";""
"11365333103";"-36.1216586";"146.8865974";"charging_station";"Wodonga";"Australia";"Victoria";"N/A";"N/A";"";"";"";"";"Evie Networks";"Q105795220";"";"";"";"";"";"";"";"";"";"";"";"";"";""
"11386697708";"-36.0790815";"146.9136376";"charging_station";"Albury Municipality";"Australia";"New South Wales";"N/A";"N/A";"";"16";"";"";"Tesla";"Q478214";"";"";"";"";"";"";"";"";"";"";"Tesla Supercharger";"";"";""
"6749392356";"-35.7175328";"147.317755";"charging_station";"Greater Hume Shire";"Australia";"New South Wales";"N/A";"N/A";"";"2";"";"";"NRMA";"Q6955173";"";"";"";"";"";"";"";"";"";"";"";"";"";""
"11290026319";"-35.7226725";"147.317546";"charging_station";"Greater Hume Shire";"Australia";"New South Wales";"N/A";"N/A";"";"9";"";"";"Tesla, Inc.";"Q478214";"";"";"";"";"";"";"";"";"";"";"Tesla Supercharger";"";"";""
"12885302055";"-35.7762654";"148.0113642";"charging_station";"Tumut Shire";"Australia";"New South Wales";"N/A";"N/A";"";"2";"";"";"Chargefox";"Q105775824";"";"";"";"2";"";"";"";"";"";"";"";"";"";""
"12885318910";"-35.7735198";"148.0094239";"charging_station";"Tumut Shire";"Australia";"New South Wales";"N/A";"N/A";"";"2";"";"";"Chargefox";"Q105775824";"";"";"";"";"";"";"";"";"";"";"";"";"";""
"12583454110";"-35.942222";"148.6273372";"charging_station";"Snowy River";"Australia";"New South Wales";"N/A";"N/A";"";"";"";"";"";"";"";"";"";"6";"";"";"";"";"";"";"";"";"";""
"11927615171";"-36.0862522";"150.0494289";"charging_station";"Eurobodalla";"Australia";"New South Wales";"N/A";"N/A";"";"";"";"";"Bodalla Cheese Factory";"";"";"";"";"";"";"";"";"";"";"";"Tesla";"";"";""
"6512442081";"-35.7084845";"150.1752344";"charging_station";"Eurobodalla";"Australia";"New South Wales";"N/A";"N/A";"";"1";"";"";"NRMA";"Q6955173";"";"";"";"";"";"";"";"";"";"";"";"";"";"no"
"7370327570";"-35.7099111";"150.1774214";"charging_station";"Eurobodalla";"Australia";"New South Wales";"N/A";"N/A";"";"1";"";"";"Evie Networks";"Q105795220";"";"";"";"";"";"";"";"";"";"";"";"";"";"no"
"10026076729";"-35.7096667";"150.173894";"charging_station";"Eurobodalla";"Australia";"New South Wales";"N/A";"N/A";"";"2";"";"";"NRMA";"Q6955173";"";"";"";"";"";"";"";"";"";"";"";"";"";""
"12854473381";"-35.7186596";"150.1900931";"charging_station";"Eurobodalla";"Australia";"New South Wales";"N/A";"N/A";"";"6";"";"";"Tesla";"Q478214";"";"";"";"";"";"";"";"";"";"";"Tesla Supercharger";"";"";""
"6815036332";"-35.725481";"174.318081";"charging_station";"Whangarei";"New Zealand";"Northland";"N/A";"N/A";"";"";"";"";"";"";"";"";"";"";"";"";"";"";"";"";"";"";"";""
"6815036333";"-35.7254628";"174.3180611";"charging_station";"Whangarei";"New Zealand";"Northland";"N/A";"N/A";"";"";"";"";"";"";"";"";"";"";"";"";"";"";"";"";"";"";"";""
"8294825426";"-35.7252804";"174.3186218";"charging_station";"Whangarei";"New Zealand";"Northland";"N/A";"N/A";"";"";"";"";"Tesla, Inc.";"Q478214";"";"";"";"";"";"";"";"";"";"";"Tesla Supercharger";"";"";""
"10985310463";"-35.6840133";"174.3217281";"charging_station";"Whangarei";"New Zealand";"Northland";"N/A";"N/A";"";"";"";"";"";"";"";"";"";"";"";"";"";"";"";"";"";"";"";""
"11954997544";"-35.7311433";"174.3307396";"charging_station";"Whangarei";"New Zealand";"Northland";"N/A";"N/A";"";"";"";"";"ChargeNet NZ";"Q105872959";"";"";"";"";"";"";"";"";"";"";"";"";"";"no"
"11954997545";"-35.7311372";"174.3307662";"charging_station";"Whangarei";"New Zealand";"Northland";"N/A";"N/A";"";"";"";"";"ChargeNet NZ";"Q105872959";"";"";"";"";"";"";"";"";"";"";"";"";"";"no"
"12374471005";"-36.1054812";"174.5825012";"charging_station";"Auckland";"New Zealand";"Auckland";"N/A";"N/A";"";"2";"";"";"";"";"";"";"";"";"";"";"";"";"";"";"";"";"";""
"12572488303";"-35.7248223";"174.3265004";"charging_station";"Whangarei";"New Zealand";"Northland";"N/A";"N/A";"";"10";"";"";"";"";"";"";"";"";"";"";"";"";"";"";"";"";"";""
"6800904486";"-35.6154004";"-71.7025913";"charging_station";"Provincia de Linares";"Chile";"Maule";"N/A";"N/A";"";"2";"";"";"Copec";"Q1130956";"";"";"";"";"";"";"";"";"";"";"";"";"";""
"6802715463";"-35.3202128";"-71.5388317";"charging_station";"Provincia de Talca";"Chile";"Maule";"N/A";"N/A";"";"2";"";"";"Copec";"";"";"";"";"";"";"";"";"";"";"";"";"";"24/7";""
"6802743434";"-35.53223";"-71.6879541";"charging_station";"Provincia de Linares";"Chile";"Maule";"N/A";"N/A";"";"2";"";"";"Copec";"Q1130956";"";"";"";"";"";"";"";"";"";"";"";"";"24/7";""
"12666111417";"-35.426943";"-71.6425569";"charging_station";"Provincia de Talca";"Chile";"Maule";"N/A";"N/A";"";"1";"";"";"Copec";"Q1130956";"";"";"";"";"";"";"";"";"";"";"";"";"";""
"12666111419";"-35.4275933";"-71.6446407";"charging_station";"Provincia de Talca";"Chile";"Maule";"N/A";"N/A";"";"";"";"";"BMW";"Q26678";"";"";"";"";"";"";"";"";"";"";"";"";"";""
"10852749275";"-35.529086";"-58.0116085";"charging_station";"Partido de Chascomus";"Argentina";"Buenos Aires";"N/A";"N/A";"";"";"";"";"Shell Recharge Solutions";"Q105883058";"";"";"";"";"";"";"";"";"";"";"";"";"";""
"11395357447";"-35.5109262";"-58.0242809";"charging_station";"Partido de Chascomus";"Argentina";"Buenos Aires";"N/A";"N/A";"";"";"";"";"Chargebox";"";"";"";"";"";"";"";"";"";"";"";"";"";"";""
"5249804024";"-35.4470219";"138.3188648";"charging_station";"Yankalilla";"Australia";"South Australia";"N/A";"N/A";"";"";"";"";"";"";"";"";"";"";"";"";"";"";"";"";"";"";"";""
"9377999297";"-35.3913107";"138.4630733";"charging_station";"Onkaparinga";"Australia";"South Australia";"N/A";"N/A";"";"1";"";"";"";"";"";"";"";"";"";"";"";"";"";"";"Tesla, Inc.";"";"";"no"
"9378018013";"-35.4570334";"138.3507389";"charging_station";"Yankalilla";"Australia";"South Australia";"N/A";"N/A";"";"";"";"";"";"";"";"";"";"";"";"";"";"";"";"";"";"";"";"no"
"11941288201";"-35.1419026";"138.4967906";"charging_station";"Onkaparinga";"Australia";"South Australia";"N/A";"N/A";"";"";"";"";"Chargefox";"Q105775824";"";"";"";"";"";"";"";"";"";"";"Engie";"";"";""
"6434871034";"-35.5030219";"138.7844823";"charging_station";"Alexandrina";"Australia";"South Australia";"N/A";"N/A";"";"1";"";"";"Tesla";"";"";"";"";"";"";"";"";"";"";"";"Tesla, Inc.";"";"";""
"8822845273";"-35.2941487";"139.0244883";"charging_station";"Alexandrina";"Australia";"South Australia";"N/A";"N/A";"";"2";"";"yes";"";"";"";"";"";"2";"";"";"";"";"";"";"Tesla, Inc.";"";"";"no"
"9377982881";"-35.5536727";"138.6219659";"charging_station";"Victor Harbor";"Australia";"South Australia";"N/A";"N/A";"";"";"";"";"";"";"";"";"";"";"";"";"";"";"";"";"";"";"";"no"
"7961393123";"-35.2401819";"139.4404743";"charging_station";"Murray Bridge";"Australia";"South Australia";"N/A";"N/A";"";"";"";"";"Evie Networks";"Q105795220";"";"";"";"";"";"";"";"";"";"";"";"";"";""
"12105324344";"-35.258032";"139.4551773";"charging_station";"Murray Bridge";"Australia";"South Australia";"N/A";"N/A";"";"";"";"";"Chargefox";"Q105775824";"";"";"";"";"";"";"";"";"";"";"RAA";"";"";""
"1176146545";"";"";"charging_station";"N/A";"N/A";"N/A";"N/A";"N/A";"";"6";"";"";"Tesla, Inc.";"Q478214";"";"";"";"";"";"";"";"";"";"";"Tesla Supercharger";"";"";""
"10928122945";"-35.3040185";"139.5011723";"";"Murray Bridge";"Australia";"South Australia";"N/A";"N/A";"";"";"";"";"";"";"";"";"";"";"";"";"";"";"";"";"";"";"";""
"10928122976";"-35.3040544";"139.5012011";"";"Murray Bridge";"Australia";"South Australia";"N/A";"N/A";"";"";"";"";"";"";"";"";"";"";"";"";"";"";"";"";"";"";"";""
"10928122977";"-35.3039393";"139.5013176";"";"Murray Bridge";"Australia";"South Australia";"N/A";"N/A";"";"";"";"";"";"";"";"";"";"";"";"";"";"";"";"";"";"";"";""
"10928122978";"-35.3039736";"139.5013471";"";"Murray Bridge";"Australia";"South Australia";"N/A";"N/A";"";"";"";"";"";"";"";"";"";"";"";"";"";"";"";"";"";"";"";""
"10928122979";"-35.3040401";"139.5012277";"";"Murray Bridge";"Australia";"South Australia";"N/A";"N/A";"";"";"";"";"";"";"";"";"";"";"";"";"";"";"";"";"";"";"";""
"10928122980";"-35.3040043";"139.501199";"";"Murray Bridge";"Australia";"South Australia";"N/A";"N/A";"";"";"";"";"";"";"";"";"";"";"";"";"";"";"";"";"";"";"";""
"10928122981";"-35.3040264";"139.5012529";"";"Murray Bridge";"Australia";"South Australia";"N/A";"N/A";"";"";"";"";"";"";"";"";"";"";"";"";"";"";"";"";"";"";"";""
"10928122982";"-35.3039909";"139.5012244";"";"Murray Bridge";"Australia";"South Australia";"N/A";"N/A";"";"";"";"";"";"";"";"";"";"";"";"";"";"";"";"";"";"";"";""
"10928122983";"-35.3039787";"139.5012467";"";"Murray Bridge";"Australia";"South Australia";"N/A";"N/A";"";"";"";"";"";"";"";"";"";"";"";"";"";"";"";"";"";"";"";""
"10928122984";"-35.3040137";"139.5012757";"";"Murray Bridge";"Australia";"South Australia";"N/A";"N/A";"";"";"";"";"";"";"";"";"";"";"";"";"";"";"";"";"";"";"";""
"10928122985";"-35.3039659";"139.5012707";"";"Murray Bridge";"Australia";"South Australia";"N/A";"N/A";"";"";"";"";"";"";"";"";"";"";"";"";"";"";"";"";"";"";"";""
"10928122986";"-35.304001";"139.501299";"";"Murray Bridge";"Australia";"South Australia";"N/A";"N/A";"";"";"";"";"";"";"";"";"";"";"";"";"";"";"";"";"";"";"";""
"10928122987";"-35.3039531";"139.5012935";"";"Murray Bridge";"Australia";"South Australia";"N/A";"N/A";"";"";"";"";"";"";"";"";"";"";"";"";"";"";"";"";"";"";"";""
"10928122988";"-35.3039874";"139.5013229";"";"Murray Bridge";"Australia";"South Australia";"N/A";"N/A";"";"";"";"";"";"";"";"";"";"";"";"";"";"";"";"";"";"";"";""
"11365424997";"-35.2610559";"140.9087627";"charging_station";"Loxton Waikerie";"Australia";"South Australia";"N/A";"N/A";"";"";"";"";"Chargefox";"Q105775824";"";"";"";"";"";"";"";"";"";"";"";"";"";""
"11415799827";"-35.2632634";"141.1829709";"charging_station";"Loxton Waikerie";"Australia";"South Australia";"N/A";"N/A";"";"";"";"";"Evie Networks";"Q105795220";"";"";"";"";"";"";"";"";"";"";"";"";"";""
"11577888417";"-35.2635176";"141.1831081";"charging_station";"Loxton Waikerie";"Australia";"South Australia";"N/A";"N/A";"";"";"";"";"Evie Networks";"Q105795220";"";"";"";"";"";"";"";"";"";"";"";"";"";""
"9072216068";"-35.5040579";"142.8516829";"charging_station";"Mildura Shire";"Australia";"Victoria";"N/A";"N/A";"";"2";"";"";"Central Victorian Greenhouse Alliance";"Q106320329";"";"";"";"";"";"";"";"";"";"";"Charging the Regions";"";"";""
"9092865942";"-35.3409423";"143.5617026";"charging_station";"Swan Hill";"Australia";"Victoria";"N/A";"N/A";"";"2";"";"";"Central Victorian Greenhouse Alliance";"Q106320329";"";"";"";"";"";"";"";"";"";"";"Charging the Regions";"";"";""
"8317195266";"-35.3549489";"145.7250878";"charging_station";"Berrigan";"Australia";"New South Wales";"N/A";"N/A";"";"";"";"";"NRMA";"Q6955173";"";"";"";"";"";"";"";"";"";"";"";"";"";""
"12885318906";"-35.3612063";"145.71943";"charging_station";"Berrigan";"Australia";"New South Wales";"N/A";"N/A";"";"6";"";"";"BP Pulse";"Q39057719";"";"";"";"";"";"";"";"";"";"";"BP Pulse";"";"";""
"12885058063";"-35.2198921";"146.712906";"charging_station";"Greater Hume Shire";"Australia";"New South Wales";"N/A";"N/A";"";"";"";"";"Exploren";"Q130278349";"";"";"";"1";"";"";"";"";"";"";"";"";"";""
"12885058064";"-35.220556";"146.7157786";"charging_station";"Greater Hume Shire";"Australia";"New South Wales";"N/A";"N/A";"";"";"";"";"Exploren";"Q130278349";"";"";"";"2";"";"";"";"";"";"";"";"";"";""
"10747930958";"-35.1582148";"147.4595905";"charging_station";"Wagga Wagga";"Australia";"New South Wales";"N/A";"N/A";"";"1";"";"";"";"";"";"";"";"";"";"";"";"";"";"";"Tesla";"";"";""
"11155180657";"-35.1309893";"147.3397911";"charging_station";"Wagga Wagga";"Australia";"New South Wales";"N/A";"N/A";"";"6";"";"";"Tesla";"Q478214";"";"";"";"";"";"";"";"";"";"";"Tesla Supercharger";"";"";""
"12339085550";"-35.2656329";"147.1106112";"charging_station";"Wagga Wagga";"Australia";"New South Wales";"N/A";"N/A";"";"1";"";"";"";"";"";"";"";"";"";"";"";"";"";"";"";"";"24/7";"yes"
"7478006036";"-35.2771687";"147.7361254";"charging_station";"Wagga Wagga";"Australia";"New South Wales";"N/A";"N/A";"";"2";"";"";"Evie Networks";"Q105795220";"";"";"";"";"";"";"";"";"";"";"";"";"";""
"12885315538";"-35.5811554";"148.2992239";"charging_station";"Tumut Shire";"Australia";"New South Wales";"N/A";"N/A";"";"2";"";"";"Chargefox";"Q105775824";"";"";"";"2";"";"";"";"";"";"";"";"";"";""
"8660527323";"-35.3457734";"149.0857708";"charging_station";"";"Australia";"Australian Capital Territory";"N/A";"N/A";"";"";"";"";"";"";"";"";"";"";"";"";"";"";"";"";"";"";"";""
"10815538922";"-35.4161685";"149.0642995";"charging_station";"";"Australia";"Australian Capital Territory";"N/A";"N/A";"";"6";"";"";"Tesla, Inc.";"Q478214";"";"";"";"";"";"";"";"";"";"";"Tesla Supercharger";"";"24/7";"yes"
"12081896276";"-35.2534898";"149.0707193";"charging_station";"";"Australia";"Australian Capital Territory";"N/A";"N/A";"";"4";"";"";"Evie Networks";"Q105795220";"";"";"";"";"";"";"";"";"";"";"";"";"";""
"5985113586";"-35.2942945";"149.1902341";"charging_station";"";"Australia";"Australian Capital Territory";"N/A";"N/A";"";"6";"";"";"Tesla";"Q478214";"";"";"";"";"";"";"";"";"";"";"Tesla Supercharger";"";"24/7";"yes"
"7853763889";"-35.2998964";"149.190361";"charging_station";"";"Australia";"Australian Capital Territory";"N/A";"N/A";"";"1";"";"";"";"";"";"";"";"1";"";"";"";"";"";"";"";"";"";"no"
"7853779128";"-35.279627";"149.1283604";"charging_station";"";"Australia";"Australian Capital Territory";"N/A";"N/A";"";"1";"";"";"Evie Networks";"Q105795220";"";"";"";"";"";"";"";"";"";"";"";"";"";"yes"
"7853799488";"-35.2801903";"149.1354521";"charging_station";"";"Australia";"Australian Capital Territory";"N/A";"N/A";"";"4";"";"";"";"";"";"";"";"4";"";"";"";"";"";"";"";"";"";"no"
"7858748739";"-35.3224367";"149.165535";"charging_station";"";"Australia";"Australian Capital Territory";"N/A";"N/A";"";"1";"";"";"Chargefox";"Q105775824";"";"";"";"";"";"";"";"";"";"";"";"";"Mo-Su 06:00-20:00";"no"
"8660496889";"-35.2745267";"149.1333578";"charging_station";"";"Australia";"Australian Capital Territory";"N/A";"N/A";"";"";"";"";"";"";"";"";"";"";"";"";"";"";"";"";"Tesla";"";"";""
"8849746220";"-35.1841062";"149.1354639";"charging_station";"";"Australia";"Australian Capital Territory";"N/A";"N/A";"";"2";"";"";"";"";"";"";"";"";"";"";"";"";"";"";"";"";"";""
"10738276283";"-35.319776";"149.1389146";"charging_station";"";"Australia";"Australian Capital Territory";"N/A";"N/A";"";"";"";"";"Evie Networks";"Q105795220";"";"";"";"";"";"";"";"";"";"";"";"";"";""
"11060799096";"-35.2577259";"149.4397081";"charging_station";"Palerang";"Australia";"New South Wales";"N/A";"N/A";"";"";"";"";"Exploren";"Q130278349";"";"";"";"";"";"";"";"";"";"";"Exploren";"";"";"yes"
"11927351347";"-35.2818558";"149.1222442";"charging_station";"";"Australia";"Australian Capital Territory";"N/A";"N/A";"";"8";"";"";"Evie Networks";"Q105795220";"";"";"";"";"";"";"";"";"";"";"";"";"";""
"12555903853";"-35.2514976";"149.1379696";"charging_station";"";"Australia";"Australian Capital Territory";"N/A";"N/A";"";"";"";"";"";"";"";"";"";"";"";"";"";"";"";"";"";"";"";""
"12644710826";"-35.2577457";"149.4397985";"charging_station";"Palerang";"Australia";"New South Wales";"N/A";"N/A";"";"";"";"";"Exploren";"Q130278349";"";"";"";"";"";"";"";"";"";"";"Exploren";"";"";"yes"
"12861805832";"-35.3168159";"149.1495592";"charging_station";"";"Australia";"Australian Capital Territory";"N/A";"N/A";"";"4";"";"";"Evie Networks";"Q105795220";"";"";"";"";"";"";"";"10";"Parbery Street";"2604";"Evie";"";"";"yes"
"12644131940";"-35.4426145";"149.7917635";"charging_station";"Palerang";"Australia";"New South Wales";"N/A";"N/A";"";"Fast Charger";"";"";"NRMA";"Q6955173";"";"";"";"";"";"";"";"";"";"";"";"";"";"yes"
"12644131941";"-35.4425963";"149.7916899";"charging_station";"Palerang";"Australia";"New South Wales";"N/A";"N/A";"";"Fast Charger";"";"";"NRMA";"Q6955173";"";"";"";"";"";"";"";"";"";"";"";"";"";"yes"
"12599800358";"-35.3576676";"150.4733075";"charging_station";"Shoalhaven Shire";"Australia";"New South Wales";"N/A";"N/A";"";"";"";"";"";"";"";"";"";"";"";"";"";"";"";"";"";"";"";""
"12599818149";"-35.3679732";"150.4707849";"charging_station";"Shoalhaven Shire";"Australia";"New South Wales";"N/A";"N/A";"";"";"";"";"Exploren";"Q130278349";"";"";"";"4";"";"";"";"";"";"";"";"";"";""
"5005065633";"-35.3798102";"174.0655579";"charging_station";"Far North District";"New Zealand";"Northland";"N/A";"N/A";"";"";"";"yes";"ChargeNet NZ";"Q105872959";"";"";"";"";"";"";"";"";"";"";"";"";"";""
"9767165706";"-35.2266935";"173.9510572";"charging_station";"Far North District";"New Zealand";"Northland";"N/A";"N/A";"";"";"";"";"";"";"";"";"";"";"";"";"";"";"";"";"";"";"";""
"9767165707";"-35.226713";"173.9510448";"charging_station";"Far North District";"New Zealand";"Northland";"N/A";"N/A";"";"";"";"";"";"";"";"";"";"";"";"";"";"";"";"";"";"";"";""
"9767165708";"-35.2267318";"173.951028";"charging_station";"Far North District";"New Zealand";"Northland";"N/A";"N/A";"";"";"";"";"";"";"";"";"";"";"";"";"";"";"";"";"";"";"";""
"10175205376";"-35.2103398";"173.9195877";"charging_station";"Far North District";"New Zealand";"Northland";"N/A";"N/A";"";"1";"";"";"ChargeNet NZ";"Q105872959";"";"";"";"";"";"";"";"";"";"";"";"";"";"yes"
"10175205395";"-35.2103468";"173.9182746";"charging_station";"Far North District";"New Zealand";"Northland";"N/A";"N/A";"";"1";"";"";"ChargeNet NZ";"Q105872959";"";"";"";"";"";"";"";"";"";"";"";"";"";"yes"
"6003584185";"-35.2818206";"174.0928355";"charging_station";"Far North District";"New Zealand";"Northland";"N/A";"N/A";"";"2";"";"";"Tesla, Inc.";"";"";"";"";"";"";"";"";"";"";"";"";"";"";""
"12588641303";"-35.2829154";"174.0903884";"charging_station";"Far North District";"New Zealand";"Northland";"N/A";"N/A";"";"2";"";"";"Crimson Cruiser";"";"";"";"";"";"";"";"";"";"";"";"";"";"";""
"6802736326";"-34.7359962";"-71.0400268";"charging_station";"Provincia de Colchagua";"Chile";"O'Higgins";"N/A";"N/A";"";"2";"";"";"Copec";"";"";"";"";"";"";"";"";"";"";"";"";"";"24/7";""
"12884411731";"-34.770475";"-71.0431158";"charging_station";"Provincia de Colchagua";"Chile";"O'Higgins";"N/A";"N/A";"";"2";"";"";"Enel X";"Q5376815";"";"";"";"";"";"";"";"";"";"";"Enel X";"";"";""
"4742788021";"-34.8060571";"-64.3708086";"charging_station";"";"Argentina";"Cordoba";"N/A";"N/A";"";"";"";"";"ypf";"";"";"";"";"";"";"";"";"";"";"";"";"";"";""
"4571251290";"-34.6364052";"-58.6805459";"charging_station";"";"Argentina";"Buenos Aires";"N/A";"N/A";"";"";"";"";"La Colonial";"";"";"";"";"";"";"";"";"";"";"";"";"";"";""
"9995929735";"-34.812203";"-58.5405224";"charging_station";"Partido de Ezeiza";"Argentina";"Buenos Aires";"N/A";"N/A";"";"";"";"";"";"";"";"";"";"";"";"";"";"";"";"";"";"";"";""
"9995929736";"-34.8122273";"-58.5405192";"charging_station";"Partido de Ezeiza";"Argentina";"Buenos Aires";"N/A";"N/A";"";"";"";"";"";"";"";"";"";"";"";"";"";"";"";"";"";"";"";""
"12387173876";"-34.6810812";"-58.4506068";"charging_station";"";"Argentina";"Buenos Aires F.D.";"N/A";"N/A";"";"2";"";"";"";"";"";"";"";"";"";"";"";"";"";"";"";"";"";""
"9221498905";"-34.6853121";"-58.3042712";"charging_station";"Partido de Quilmes";"Argentina";"Buenos Aires";"N/A";"N/A";"";"";"";"";"YPF OPESSA AUBASA SUR";"";"";"";"";"";"";"";"";"";"";"";"";"";"";"yes"
"9221537974";"-34.6853277";"-58.3041998";"charging_station";"Partido de Quilmes";"Argentina";"Buenos Aires";"N/A";"N/A";"";"";"";"";"YPF";"";"";"";"";"";"";"";"";"";"";"";"";"";"";"yes"
"9221537975";"-34.6845804";"-58.3046039";"charging_station";"Partido de Quilmes";"Argentina";"Buenos Aires";"N/A";"N/A";"";"";"";"";"YPF";"";"";"";"";"";"";"";"";"";"";"";"";"";"";"yes"
"9221537976";"-34.6845916";"-58.3045395";"charging_station";"Partido de Quilmes";"Argentina";"Buenos Aires";"N/A";"N/A";"";"";"";"";"YPF";"";"";"";"";"";"";"";"";"";"";"";"";"";"";"yes"
"9221579754";"-34.9170875";"-57.9510896";"charging_station";"Partido de La Plata";"Argentina";"Buenos Aires";"N/A";"N/A";"";"";"";"";"";"";"";"";"";"";"";"";"";"";"";"";"";"";"";""
"5993435965";"-34.8448807";"-56.0200731";"charging_station";"";"Uruguay";"Canelones";"N/A";"N/A";"";"1";"";"";"UTE";"";"";"";"";"";"";"";"";"";"Ruta 101 km 19";"";"";"";"";""
"5993456591";"-34.8961764";"-56.1404073";"charging_station";"";"Uruguay";"Montevideo";"N/A";"N/A";"";"2";"";"";"UTE";"";"";"";"";"";"";"";"";"3463";"José Leguizamón";"";"";"";"";""
"5993811519";"-34.8851983";"-56.1953647";"charging_station";"";"Uruguay";"Montevideo";"N/A";"N/A";"";"1";"";"";"UTE";"";"";"";"";"";"";"";"";"";"General Fausto Aguilar";"";"";"";"";""
"11090569589";"-34.9146473";"-56.1854513";"charging_station";"";"Uruguay";"Montevideo";"N/A";"N/A";"";"1";"";"yes";"";"";"";"";"";"";"";"";"";"";"";"";"";"";"24/7";"yes"
"11090569590";"-34.9146516";"-56.1855217";"charging_station";"";"Uruguay";"Montevideo";"N/A";"N/A";"";"1";"";"yes";"";"";"";"";"";"";"";"";"";"";"";"";"";"";"24/7";"yes"
"11090569591";"-34.9146559";"-56.1855921";"charging_station";"";"Uruguay";"Montevideo";"N/A";"N/A";"";"1";"";"yes";"";"";"";"";"";"";"";"";"";"";"";"";"";"";"24/7";"yes"
"11090569592";"-34.9146602";"-56.1856625";"charging_station";"";"Uruguay";"Montevideo";"N/A";"N/A";"";"1";"";"yes";"";"";"";"";"";"";"";"";"";"";"";"";"";"";"24/7";"yes"
"11296502607";"-34.9128143";"-56.1696685";"charging_station";"";"Uruguay";"Montevideo";"N/A";"N/A";"";"1";"";"yes";"UTE";"";"";"";"";"";"";"";"";"";"";"";"";"";"24/7";"yes"
"11296502608";"-34.9128273";"-56.169685";"charging_station";"";"Uruguay";"Montevideo";"N/A";"N/A";"";"1";"";"yes";"UTE";"";"";"";"";"";"";"";"";"";"";"";"";"";"24/7";"yes"
"11296502609";"-34.9128403";"-56.1697015";"charging_station";"";"Uruguay";"Montevideo";"N/A";"N/A";"";"1";"";"yes";"UTE";"";"";"";"";"";"";"";"";"";"";"";"";"";"24/7";"yes"
"11296502610";"-34.9128534";"-56.169718";"charging_station";"";"Uruguay";"Montevideo";"N/A";"N/A";"";"1";"";"yes";"UTE";"";"";"";"";"";"";"";"";"";"";"";"";"";"24/7";"yes"
"11296502612";"-34.9063853";"-56.1854922";"charging_station";"";"Uruguay";"Montevideo";"N/A";"N/A";"";"1";"";"yes";"UTE";"";"";"";"";"";"";"";"";"";"";"";"";"";"24/7";"yes"
"11296502613";"-34.9063274";"-56.1854986";"charging_station";"";"Uruguay";"Montevideo";"N/A";"N/A";"";"1";"";"yes";"UTE";"";"";"";"";"";"";"";"";"";"";"";"";"";"24/7";"yes"
"11296502614";"-34.9062115";"-56.1855114";"charging_station";"";"Uruguay";"Montevideo";"N/A";"N/A";"";"1";"";"yes";"UTE";"";"";"";"";"";"";"";"";"";"";"";"";"";"24/7";"yes"
"11296502615";"-34.9062694";"-56.185505";"charging_station";"";"Uruguay";"Montevideo";"N/A";"N/A";"";"1";"";"yes";"UTE";"";"";"";"";"";"";"";"";"";"";"";"";"";"24/7";"yes"
"11296502616";"-34.9061536";"-56.1855178";"charging_station";"";"Uruguay";"Montevideo";"N/A";"N/A";"";"1";"";"yes";"UTE";"";"";"";"";"";"";"";"";"";"";"";"";"";"24/7";"yes"
"11296502617";"-34.9060957";"-56.1855242";"charging_station";"";"Uruguay";"Montevideo";"N/A";"N/A";"";"1";"";"yes";"UTE";"";"";"";"";"";"";"";"";"";"";"";"";"";"24/7";"yes"
"5993426377";"-34.7702022";"-55.5762156";"charging_station";"";"Uruguay";"Canelones";"N/A";"N/A";"";"1";"";"";"UTE";"";"";"";"";"";"";"";"";"";"Ruta Interbalnearia General Líber Seregni";"";"";"";"";""
"5993352114";"-34.9332525";"-54.9418481";"charging_station";"";"Uruguay";"Maldonado";"N/A";"N/A";"";"1";"";"";"UTE";"";"";"";"";"";"";"";"";"";"";"";"";"";"";""
"5993361151";"-34.9674762";"-54.9518508";"charging_station";"";"Uruguay";"Maldonado";"N/A";"N/A";"";"1";"";"";"UTE";"";"";"";"";"";"";"";"";"";"";"";"";"";"";""
"11445377809";"-34.9603265";"117.3567421";"charging_station";"Denmark";"Australia";"Western Australia";"N/A";"N/A";"";"2";"";"";"Ocular";"";"";"";"";"";"";"";"";"";"";"";"";"";"";""
"11792059229";"-35.0279576";"117.8806315";"charging_station";"Albany";"Australia";"Western Australia";"N/A";"N/A";"";"6";"";"";"Tesla";"Q478214";"";"";"";"";"";"";"";"";"";"";"Tesla Supercharger";"";"";""
"11792059230";"-35.028186";"117.8807495";"charging_station";"Albany";"Australia";"Western Australia";"N/A";"N/A";"";"4";"";"";"Chargefox";"Q105775824";"";"";"";"";"";"";"";"";"";"";"WA EV Network";"";"";""
"9380626727";"-34.7678388";"137.5974941";"charging_station";"Yorke Peninsula";"Australia";"South Australia";"N/A";"N/A";"";"1";"";"";"";"";"";"";"";"1";"";"";"";"";"";"";"Tesla, Inc.";"";"";"no"
"10948726931";"-35.0849323";"137.7480411";"charging_station";"Yorke Peninsula";"Australia";"South Australia";"N/A";"N/A";"";"";"";"";"";"";"";"";"";"";"";"";"";"";"";"";"";"";"";""
"9331261766";"-34.8437992";"138.5042702";"charging_station";"Port Adelaide Enfield";"Australia";"South Australia";"N/A";"N/A";"";"2";"";"";"";"";"";"";"";"";"";"";"";"";"";"";"";"";"";""
"9377957708";"-34.8252197";"138.4863165";"charging_station";"Port Adelaide Enfield";"Australia";"South Australia";"N/A";"N/A";"";"";"";"";"Chargefox";"Q105775824";"";"";"";"2";"";"";"";"";"";"";"Chargefox";"";"";"yes"
"9480216684";"-35.0173769";"138.5496608";"charging_station";"Marion";"Australia";"South Australia";"N/A";"N/A";"";"1";"";"";"Jolt";"Q109783503";"";"";"";"";"";"";"";"";"";"";"";"";"";""
"9610280217";"-34.9060068";"138.573198";"charging_station";"City of West Torrens";"Australia";"South Australia";"N/A";"N/A";"";"1";"";"";"Jolt";"Q109783503";"";"";"";"";"";"";"";"";"";"";"";"";"";""
"9610280317";"-34.905922";"138.5728037";"charging_station";"City of West Torrens";"Australia";"South Australia";"N/A";"N/A";"";"1";"";"";"Jolt";"Q109783503";"";"";"";"";"";"";"";"";"";"";"";"";"";""
"11016679900";"-34.8695824";"138.5130494";"charging_station";"Port Adelaide Enfield";"Australia";"South Australia";"N/A";"N/A";"";"1";"";"";"";"";"";"";"";"";"";"";"";"";"";"";"";"";"";""
"11016872776";"-34.8610146";"138.5134782";"charging_station";"Port Adelaide Enfield";"Australia";"South Australia";"N/A";"N/A";"";"";"";"";"Jolt";"Q109783503";"";"";"";"";"";"";"";"";"";"";"Jolt";"";"";""
"12015928950";"-35.1054081";"138.5286618";"charging_station";"Onkaparinga";"Australia";"South Australia";"N/A";"N/A";"";"";"";"";"Evie Networks";"Q105795220";"";"";"";"";"";"";"";"";"";"";"";"";"";""
"1189771948";"";"";"charging_station";"N/A";"N/A";"N/A";"N/A";"N/A";"";"";"";"";"";"";"";"";"";"";"";"";"";"";"";"";"";"";"";"no"
"11047466790";"-35.0081462";"138.5748466";"";"Marion";"Australia";"South Australia";"N/A";"N/A";"";"";"";"";"";"";"";"";"";"";"";"";"";"";"";"";"";"";"";""
"11047466791";"-35.0081967";"138.5748542";"";"Marion";"Australia";"South Australia";"N/A";"N/A";"";"";"";"";"";"";"";"";"";"";"";"";"";"";"";"";"";"";"";""
"11047466792";"-35.0081669";"138.5750899";"";"Marion";"Australia";"South Australia";"N/A";"N/A";"";"";"";"";"";"";"";"";"";"";"";"";"";"";"";"";"";"";"";""
"11047466793";"-35.0081176";"138.5750818";"";"Marion";"Australia";"South Australia";"N/A";"N/A";"";"";"";"";"";"";"";"";"";"";"";"";"";"";"";"";"";"";"";""
"4681433874";"-34.923656";"138.7249462";"charging_station";"Adelaide Hills";"Australia";"South Australia";"N/A";"N/A";"";"1";"";"";"";"";"";"";"";"";"";"";"";"";"";"";"";"";"";""
"7185843792";"-34.9276045";"138.5952395";"charging_station";"Adelaide";"Australia";"South Australia";"N/A";"N/A";"";"4";"";"";"Tesla";"Q478214";"";"";"";"";"";"";"";"";"";"";"Tesla Supercharger";"";"";""
"7221406917";"-34.9244";"138.6048811";"charging_station";"Adelaide";"Australia";"South Australia";"N/A";"N/A";"";"2";"";"";"Chargefox";"Q105775824";"";"";"";"2";"";"";"";"";"";"";"Chargefox";"";"";"yes"
"8819321066";"-34.9379262";"138.6425047";"charging_station";"Burnside";"Australia";"South Australia";"N/A";"N/A";"";"2";"";"yes";"Chargefox";"Q105775824";"";"";"";"1";"";"";"";"";"";"";"RAA Charge";"";"";"yes"
"9377947870";"-34.9255431";"138.5944471";"charging_station";"Adelaide";"Australia";"South Australia";"N/A";"N/A";"";"2";"";"";"Chargefox";"Q105775824";"";"";"";"2";"";"";"";"";"";"";"chargefox";"";"";"yes"
"9377978026";"-34.9277554";"138.5952833";"charging_station";"Adelaide";"Australia";"South Australia";"N/A";"N/A";"";"2";"";"";"Chargefox";"Q105775824";"";"";"";"";"";"";"";"";"";"";"Chargefox";"";"";"yes"
"9377978027";"-34.9277543";"138.5952236";"charging_station";"Adelaide";"Australia";"South Australia";"N/A";"N/A";"";"2";"";"";"Chargefox";"Q105775824";"";"";"";"2";"";"";"";"";"";"";"Chargefox";"";"";"yes"
"9377983050";"-34.9617279";"138.6010902";"charging_station";"Unley";"Australia";"South Australia";"N/A";"N/A";"";"2";"";"";"";"";"";"";"";"2";"";"";"";"";"";"";"";"";"";"no"
"9704345344";"-34.9420624";"138.6415665";"charging_station";"Burnside";"Australia";"South Australia";"N/A";"N/A";"";"2";"";"";"shopping center";"";"";"";"";"";"";"";"";"";"";"";"";"";"";""
"10234390097";"-34.8892781";"138.6558412";"charging_station";"Campbelltown";"Australia";"South Australia";"N/A";"N/A";"";"";"";"";"Evie Networks";"Q105795220";"";"";"";"";"";"";"";"";"";"";"";"";"";""
"10250489983";"-34.9160235";"138.6315391";"charging_station";"Norwood Payneham St Peters";"Australia";"South Australia";"N/A";"N/A";"";"";"";"";"Jolt";"Q109783503";"";"";"";"";"";"";"";"";"";"";"";"";"";""
"10585020728";"-34.8885406";"138.6731222";"charging_station";"Campbelltown";"Australia";"South Australia";"N/A";"N/A";"";"";"";"";"Jolt";"Q109783503";"";"";"";"";"";"";"";"";"";"";"";"";"";""
"11108914408";"-34.8792237";"138.6733784";"charging_station";"Campbelltown";"Australia";"South Australia";"N/A";"N/A";"";"";"";"";"Jolt";"Q109783503";"";"";"";"";"";"";"";"";"";"";"Jolt";"";"";""
"11365384558";"-35.0195836";"138.6146999";"charging_station";"Mitcham";"Australia";"South Australia";"N/A";"N/A";"";"";"";"";"Chargefox";"Q105775824";"";"";"";"";"";"";"";"";"";"";"";"";"";""
"11365555254";"-34.7187434";"138.6668488";"charging_station";"Salisbury";"Australia";"South Australia";"N/A";"N/A";"";"";"";"";"Chargefox";"Q105775824";"";"";"";"";"";"";"";"";"";"";"";"";"";""
"11365605210";"-34.7591516";"138.5956065";"charging_station";"Salisbury";"Australia";"South Australia";"N/A";"N/A";"";"";"";"";"Evie Networks";"Q105795220";"";"";"";"";"";"";"";"";"";"";"";"";"";""
"12642926716";"-34.9380084";"138.6437407";"charging_station";"Burnside";"Australia";"South Australia";"N/A";"N/A";"";"1";"";"";"";"";"";"";"";"";"";"";"";"";"";"";"";"";"";""
"7769026737";"-35.1205066";"139.2770491";"charging_station";"Murray Bridge";"Australia";"South Australia";"N/A";"N/A";"";"2";"";"";"Chargefox";"Q105775824";"";"";"";"";"";"";"";"";"";"";"";"0.40 Aud per kWh";"";"yes"
"9287553131";"-35.120385";"139.276204";"charging_station";"Murray Bridge";"Australia";"South Australia";"N/A";"N/A";"";"4";"";"";"goelectricstations";"";"";"";"";"4";"";"";"";"";"";"";"";"";"";"no"
"9072184481";"-35.0710089";"142.3156162";"charging_station";"Mildura Shire";"Australia";"Victoria";"N/A";"N/A";"";"";"";"";"Central Victorian Greenhouse Alliance";"Q106320329";"";"";"";"";"";"";"";"";"";"";"Charging the Regions";"";"";""
"12076417655";"-35.0711856";"142.3201772";"charging_station";"Mildura Shire";"Australia";"Victoria";"N/A";"N/A";"";"";"";"";"NRMA";"Q6955173";"";"";"";"";"";"";"";"";"";"";"";"";"";""
"7742159359";"-34.6396148";"143.5644882";"charging_station";"Swan Hill";"Australia";"Victoria";"N/A";"N/A";"";"";"";"";"NRMA";"Q6955173";"";"";"";"";"";"";"";"";"";"";"";"";"";""
"11263803078";"-34.8063865";"145.8804055";"charging_station";"Murrumbidgee Shire";"Australia";"New South Wales";"N/A";"N/A";"";"";"";"";"";"";"";"";"";"";"";"";"";"";"";"";"";"";"";""
"10159370719";"-34.7464753";"146.5498937";"charging_station";"Narrandera";"Australia";"New South Wales";"N/A";"N/A";"";"";"";"";"NRMA";"Q6955173";"";"";"";"";"";"";"";"";"";"";"";"";"";""
"12884903427";"-34.7932886";"147.0386296";"charging_station";"Coolamon";"Australia";"New South Wales";"N/A";"N/A";"";"";"";"";"Exploren";"Q130278349";"";"";"";"1";"";"";"";"";"";"";"";"";"";""
"7932870081";"-35.1083685";"147.3735986";"charging_station";"Wagga Wagga";"Australia";"New South Wales";"N/A";"N/A";"";"2";"";"";"NRMA";"Q6955173";"";"";"";"";"";"";"";"";"";"";"";"";"";""
"12884898642";"-34.8130868";"147.2016407";"charging_station";"Coolamon";"Australia";"New South Wales";"N/A";"N/A";"";"";"";"";"Exploren";"Q130278349";"";"";"";"1";"";"";"";"";"";"";"";"";"";""
"12884912873";"-35.1257311";"147.4208566";"charging_station";"Wagga Wagga";"Australia";"New South Wales";"N/A";"N/A";"";"";"";"";"BP Pulse";"Q39057719";"";"";"";"";"";"";"";"";"";"";"BP Pulse";"";"";""
"12885058151";"-35.0550412";"147.3480713";"charging_station";"Wagga Wagga";"Australia";"New South Wales";"N/A";"N/A";"";"";"";"";"Exploren";"Q130278349";"";"";"";"";"";"";"";"";"";"";"";"";"";""
"12442429578";"-34.6396473";"148.0262487";"charging_station";"Cootamundra";"Australia";"New South Wales";"N/A";"N/A";"";"";"";"";"Exploren";"Q130278349";"";"";"";"4";"";"";"";"";"";"";"Occular";"";"";"yes"
"4027667916";"-35.0021004";"148.1098598";"charging_station";"Gundagai";"Australia";"New South Wales";"N/A";"N/A";"";"6";"";"";"Tesla";"Q478214";"";"";"";"";"";"";"";"";"";"";"Tesla Supercharger";"";"";"yes"
"6749417820";"-34.8234623";"148.3253727";"charging_station";"Gundagai";"Australia";"New South Wales";"N/A";"N/A";"";"2";"";"";"NRMA";"Q6955173";"";"";"";"";"";"";"";"";"";"";"";"";"";"no"
"6773252378";"-35.0021569";"148.1104046";"charging_station";"Gundagai";"Australia";"New South Wales";"N/A";"N/A";"";"1";"";"";"Chargefox";"Q105775824";"";"";"";"";"";"";"";"";"";"";"Chargefox";"";"";"yes"
"7816558586";"-34.8412265";"148.9124032";"charging_station";"Yass Valley";"Australia";"New South Wales";"N/A";"N/A";"";"2";"";"";"NRMA";"Q6955173";"";"";"";"";"";"";"";"";"";"";"";"";"";"no"
"9366472089";"-34.9692613";"149.0300976";"charging_station";"Yass Valley";"Australia";"New South Wales";"N/A";"N/A";"";"2";"";"";"Evie Networks";"Q105795220";"";"";"";"";"";"";"";"";"";"";"";"";"";""
"9987263214";"-34.84184";"148.9128433";"charging_station";"Yass Valley";"Australia";"New South Wales";"N/A";"N/A";"";"2";"";"yes";"Yass Soldiers Club";"";"";"";"";"";"";"";"dc11958";"";"";"";"Tesla";"";"";""
"11289934645";"-34.8436719";"148.914061";"charging_station";"Yass Valley";"Australia";"New South Wales";"N/A";"N/A";"";"12";"";"";"Tesla";"Q478214";"";"";"";"";"";"";"";"";"";"";"Tesla Supercharger";"";"";""
"12441111761";"-34.845478";"148.9155118";"charging_station";"Yass Valley";"Australia";"New South Wales";"N/A";"N/A";"";"";"";"";"Chargefox";"Q105775824";"";"";"";"";"";"";"";"";"";"";"";"";"";""
"12918496794";"-34.9134465";"149.4277912";"charging_station";"Yass Valley";"Australia";"New South Wales";"N/A";"N/A";"";"1";"";"";"Some Store";"";"";"";"";"";"";"";"";"";"";"";"";"";"";""
"4016257448";"-34.7554799";"149.7209942";"charging_station";"Goulburn Mulwaree";"Australia";"New South Wales";"N/A";"N/A";"";"8";"";"";"Tesla";"Q478214";"";"";"";"";"";"";"";"201";"Sloane Street";"";"Tesla Supercharger";"";"24/7";"yes"
"7021322234";"-34.7479333";"149.7496197";"charging_station";"Goulburn Mulwaree";"Australia";"New South Wales";"N/A";"N/A";"";"3";"";"";"Chargefox";"Q105775824";"";"";"";"";"";"";"";"";"";"";"Chargefox";"";"";"yes"
"10263943171";"-34.7190997";"149.9958809";"charging_station";"Goulburn Mulwaree";"Australia";"New South Wales";"N/A";"N/A";"";"";"";"";"BP Pulse";"Q39057719";"";"";"";"";"";"";"";"";"";"";"BP Pulse";"";"";""
"10263943172";"-34.7184231";"150.0006494";"charging_station";"Goulburn Mulwaree";"Australia";"New South Wales";"N/A";"N/A";"";"";"";"";"BP Pulse";"Q39057719";"";"";"";"";"";"";"";"";"";"";"BP Pulse";"";"";""
"10792695777";"-34.7722611";"149.6927672";"charging_station";"Goulburn Mulwaree";"Australia";"New South Wales";"N/A";"N/A";"";"2";"";"";"Chargefox";"Q105775824";"";"";"";"";"";"";"";"";"";"";"Chargefox";"";"";""
"12564147445";"-34.7728854";"149.6927921";"charging_station";"Goulburn Mulwaree";"Australia";"New South Wales";"N/A";"N/A";"";"20";"";"";"Tesla, Inc.";"Q478214";"";"";"";"";"";"";"";"";"";"";"Tesla Supercharger";"";"";""
"6489763087";"-34.775569";"150.7008205";"charging_station";"Shoalhaven Shire";"Australia";"New South Wales";"N/A";"N/A";"";"";"";"";"NRMA";"Q6955173";"";"";"";"";"";"";"";"";"";"";"";"";"";""
"6525751310";"-34.8082768";"150.6367014";"charging_station";"Shoalhaven Shire";"Australia";"New South Wales";"N/A";"N/A";"";"";"";"";"Tesla, Inc.";"Q478214";"";"";"";"";"";"";"";"";"";"";"Tesla Supercharger";"";"";""
"10044105498";"-34.8198452";"173.1246715";"charging_station";"Far North District";"New Zealand";"Northland";"N/A";"N/A";"";"2";"";"";"ChargeNet NZ";"Q105872959";"";"";"";"";"";"";"";"";"";"";"";"$0.25 / kWh + $0.15 / minute";"24/7";"yes"
"10046850911";"-35.0990944";"173.2593645";"charging_station";"Far North District";"New Zealand";"Northland";"N/A";"N/A";"";"1";"";"";"ChargeNet NZ";"Q105872959";"";"";"";"";"";"";"";"";"";"";"";"";"";""
"10046850912";"-35.0979538";"173.2600565";"charging_station";"Far North District";"New Zealand";"Northland";"N/A";"N/A";"";"1";"";"";"ChargeNet NZ";"Q105872959";"";"";"";"";"";"";"";"";"";"";"";"";"";""
"10046898422";"-35.1181131";"173.2688562";"charging_station";"Far North District";"New Zealand";"Northland";"N/A";"N/A";"";"1";"";"";"ChargeNet NZ";"Q105872959";"";"";"";"";"";"";"";"";"";"";"";"0.25 / kWh + 0.25 / minute";"24/7";"yes"
"10161199326";"-34.9919411";"173.509313";"charging_station";"Far North District";"New Zealand";"Northland";"N/A";"N/A";"";"2";"";"";"ChargeNet NZ";"Q105872959";"";"";"";"";"";"";"";"";"";"";"ChargeNet";"$0.80/kWh";"";"yes"
"12608965812";"-34.428298";"-72.0403122";"charging_station";"Provincia de Colchagua";"Chile";"O'Higgins";"N/A";"N/A";"";"2";"";"";"Enel X";"Q5376815";"";"";"";"";"";"";"";"";"";"";"Enel X";"";"";""
"6802755078";"-34.5074585";"-70.9225385";"charging_station";"Provincia de Cachapoal";"Chile";"O'Higgins";"N/A";"N/A";"";"2";"";"";"Copec";"";"";"";"";"";"";"";"";"";"";"";"";"";"24/7";""
"7786298372";"-34.168846";"-70.7256907";"charging_station";"Provincia de Cachapoal";"Chile";"O'Higgins";"N/A";"N/A";"";"3";"";"";"CGE";"";"";"";"";"";"";"";"";"";"";"";"";"";"";"yes"
"12627315266";"-34.185916";"-70.7573482";"charging_station";"Provincia de Cachapoal";"Chile";"O'Higgins";"N/A";"N/A";"";"3";"";"";"Enel X";"Q5376815";"";"";"";"";"";"";"";"";"";"";"Enel X";"";"";""
"12658495226";"-34.1763384";"-70.7047654";"charging_station";"Provincia de Cachapoal";"Chile";"O'Higgins";"N/A";"N/A";"";"4";"";"";"Enel X";"Q5376815";"";"";"";"";"";"";"";"";"";"";"Enel X";"";"";""
"12803403478";"-34.2659731";"-70.8103709";"charging_station";"Provincia de Cachapoal";"Chile";"O'Higgins";"N/A";"N/A";"";"3";"";"";"Enel X";"Q5376815";"";"";"";"";"";"";"";"";"";"";"Enel X";"";"";"no"
"12803507621";"-34.1566435";"-70.7295139";"charging_station";"Provincia de Cachapoal";"Chile";"O'Higgins";"N/A";"N/A";"";"2";"";"";"";"";"";"";"";"";"";"";"";"";"";"";"";"";"";""
"12803507625";"-34.1725512";"-70.7216078";"charging_station";"Provincia de Cachapoal";"Chile";"O'Higgins";"N/A";"N/A";"";"3";"";"";"Enel X";"Q5376815";"";"";"";"";"";"";"";"";"";"";"Enel X";"";"";""
