"id";"lat";"lon";"amenity";"city";"state";"country";"scraped_country_code";"scraped_country_name";"authentication:nfc";"capacity";"capacity:car";"motorcar";"operator";"operator:wikidata";"socket:schuko";"socket:schuko:current";"socket:schuko:voltage";"socket:type2";"socket:type2:current";"socket:type2:voltage";"ref";"addr:housenumber";"addr:street";"addr:postcode";"brand";"charge";"opening_hours";"fee"
"9867614972";"-39.0578439";"174.0777366";"charging_station";"New Plymouth District";"New Zealand";"Taranaki";"N/A";"N/A";"";"1";"";"";"ChargeNet NZ";"Q105872959";"";"";"";"";"";"";"";"";"";"";"";"";"";"yes"
"11082024319";"-39.0559357";"174.0870546";"charging_station";"New Plymouth District";"New Zealand";"Taranaki";"N/A";"N/A";"";"3";"";"";"Tesla";"Q478214";"";"";"";"";"";"";"";"";"";"";"Tesla Supercharger";"";"";""
"9960977573";"-38.6982161";"174.6192372";"charging_station";"New Plymouth District";"New Zealand";"Taranaki";"N/A";"N/A";"";"50";"";"";"ChargeNet NZ";"Q105872959";"";"";"";"";"";"";"";"";"";"";"";"";"";""
"5593696787";"-38.6926802";"176.0760127";"charging_station";"Taupo District";"New Zealand";"Waikato";"N/A";"N/A";"";"1";"";"yes";"ChargeNet NZ";"Q105872959";"";"";"";"";"";"";"";"";"";"";"";"";"";"yes"
"5626318886";"-38.9900242";"175.8101809";"charging_station";"";"New Zealand";"Waikato";"N/A";"N/A";"";"2";"";"yes";"Z Energy";"Q8063337";"";"";"";"";"";"";"";"";"";"";"";"";"";"yes"
"8313610080";"-38.6890957";"176.0724149";"charging_station";"Taupo District";"New Zealand";"Waikato";"N/A";"N/A";"";"1";"";"yes";"ChargeNet NZ";"Q105872959";"";"";"";"";"";"";"";"";"";"";"";"$0.25 / kWh + $0.25 / minute";"";"yes"
"8313645121";"-38.6926196";"176.0760249";"charging_station";"Taupo District";"New Zealand";"Waikato";"N/A";"N/A";"";"4";"";"yes";"Tesla, Inc.";"Q478214";"";"";"";"";"";"";"";"";"";"";"Tesla, Inc.";"73c/kWh";"24/7";"yes"
"9847589301";"-38.6900505";"176.0723611";"charging_station";"Taupo District";"New Zealand";"Waikato";"N/A";"N/A";"";"6";"";"yes";"ChargeNet NZ";"Q105872959";"";"";"";"";"";"";"";"";"";"";"";"0.85 NZD/kWh";"24/7";"yes"
"9847589302";"-38.6890132";"176.0724305";"charging_station";"Taupo District";"New Zealand";"Waikato";"N/A";"N/A";"";"2";"";"";"ChargeNet NZ";"Q105872959";"";"";"";"2";"";"";"";"";"";"";"";"$0.30 / kWh";"";"yes"
"10031247345";"-38.7402061";"176.082183";"charging_station";"Taupo District";"New Zealand";"Waikato";"N/A";"N/A";"";"2";"";"";"Contact Energy";"";"";"";"";"";"";"";"";"";"";"";"";"";"";"no"
"5096295207";"-38.8784398";"176.3693501";"charging_station";"Taupo District";"New Zealand";"Waikato";"N/A";"N/A";"";"2";"";"yes";"ChargeNet NZ";"Q105872959";"";"";"";"1";"";"";"";"";"";"";"";"$0.40 / kWh";"24/7";"yes"
"10031206361";"-38.6289104";"176.1017518";"charging_station";"Taupo District";"New Zealand";"Waikato";"N/A";"N/A";"";"1";"";"";"ChargeNet NZ";"Q105872959";"";"";"";"";"";"";"";"";"";"";"";"$0.25 / kWh + $0.15 / minute";"Mo-Su 09:00-16:00";"yes"
"10030880745";"-39.0342322";"177.4214972";"charging_station";"Wairoa District";"New Zealand";"Hawke's Bay";"N/A";"N/A";"";"2";"";"";"ChargeNet NZ";"Q105872959";"";"";"";"1";"";"";"";"";"";"";"";"$0.40 / kWh";"";"yes"
"9956395667";"-38.6676241";"178.0277625";"charging_station";"Gisborne District";"New Zealand";"Gisborne";"N/A";"N/A";"";"2";"";"";"ChargeNet NZ";"Q105872959";"";"";"";"1";"";"";"";"";"";"";"";"$0.40 kWh";"";"yes"
"9956479123";"-38.6708386";"178.0254534";"charging_station";"Gisborne District";"New Zealand";"Gisborne";"N/A";"N/A";"";"1";"";"";"ChargeNet NZ";"Q105872959";"";"";"";"";"";"";"";"";"";"";"";"";"";"yes"
"9956497288";"-38.6612092";"178.0181607";"charging_station";"Gisborne District";"New Zealand";"Gisborne";"N/A";"N/A";"";"4";"";"";"";"";"";"";"";"4";"";"";"";"";"";"";"";"";"";""
"10572056313";"-38.9864164";"177.7909956";"charging_station";"Gisborne District";"New Zealand";"Gisborne";"N/A";"N/A";"";"";"";"";"ChargeNet NZ";"Q105872959";"";"";"";"";"";"";"";"";"";"";"";"";"";"yes"
"12810966947";"-38.2792524";"-72.3655212";"charging_station";"Provincia de Malleco";"Chile";"Araucania";"N/A";"N/A";"";"";"";"";"Copec";"Q1130956";"";"";"";"";"";"";"";"";"";"";"";"";"";""
"12810966957";"-38.280899";"-72.3670384";"charging_station";"Provincia de Malleco";"Chile";"Araucania";"N/A";"N/A";"";"2";"";"";"";"";"";"";"";"";"";"";"";"";"";"";"";"";"";""
"11577859205";"-38.3466301";"141.6027913";"charging_station";"Glenelg";"Australia";"Victoria";"N/A";"N/A";"";"";"";"";"Evie Networks";"Q105795220";"";"";"";"";"";"";"";"";"";"";"";"";"";""
"9291799180";"-38.381323";"142.5192858";"charging_station";"Warrnambool";"Australia";"Victoria";"N/A";"N/A";"";"";"";"";"Tesla";"Q478214";"";"";"";"";"";"";"";"";"";"";"Tesla Supercharger";"";"";""
"11334781754";"-38.3890481";"142.4848481";"charging_station";"Warrnambool";"Australia";"Victoria";"N/A";"N/A";"";"";"";"";"Chargefox";"Q105775824";"";"";"";"";"";"";"";"";"";"";"";"";"";""
"11363483511";"-38.3837032";"142.2386167";"charging_station";"Moyne";"Australia";"Victoria";"N/A";"N/A";"";"2";"";"";"Evie Networks";"Q105795220";"";"";"";"";"";"";"";"";"";"";"";"";"";""
"12141140553";"-38.6187378";"142.9953568";"charging_station";"Warrnambool";"Australia";"Victoria";"N/A";"N/A";"";"";"";"";"Tesla";"Q478214";"";"";"";"";"";"";"";"";"";"";"Tesla Supercharger";"";"";""
"10923519868";"-38.2303057";"143.1458587";"charging_station";"Colac-Otway";"Australia";"Victoria";"N/A";"N/A";"";"";"";"";"Evie Networks";"Q105795220";"";"";"";"";"";"";"";"";"";"";"";"";"";""
"11590237423";"-38.3407944";"143.5853794";"charging_station";"Colac-Otway";"Australia";"Victoria";"N/A";"N/A";"";"";"";"";"Evie Networks";"Q105795220";"";"";"";"";"";"";"";"";"";"";"";"";"";""
"7987569797";"-38.5366421";"143.9742629";"charging_station";"Surf Coast";"Australia";"Victoria";"N/A";"N/A";"";"2";"";"";"Chargefox";"Q105775824";"";"";"";"";"";"";"";"";"";"";"";"";"";""
"8687625054";"-38.3413505";"143.5929776";"charging_station";"Colac-Otway";"Australia";"Victoria";"N/A";"N/A";"";"";"";"";"Tesla, Inc.";"Q478214";"";"";"";"";"";"";"";"";"";"";"Tesla Supercharger";"";"";""
"11142742081";"-38.3413412";"143.5931753";"charging_station";"Colac-Otway";"Australia";"Victoria";"N/A";"N/A";"";"";"";"";"";"";"";"";"";"2";"";"";"";"";"";"";"";"";"";""
"12027247963";"-38.245915";"143.9831636";"charging_station";"Surf Coast";"Australia";"Victoria";"N/A";"N/A";"";"";"";"";"AmpCharge";"Q111744561";"";"";"";"";"";"";"";"";"";"";"";"";"";""
"6460737186";"-38.1433232";"144.3612324";"charging_station";"Greater Geelong";"Australia";"Victoria";"N/A";"N/A";"";"4";"";"";"";"";"";"";"";"";"";"";"";"";"";"";"";"";"";""
"6585408270";"-38.3401694";"144.3113609";"charging_station";"Surf Coast";"Australia";"Victoria";"N/A";"N/A";"";"";"";"";"Chargefox";"Q105775824";"";"";"";"";"";"";"";"";"";"";"";"";"";"yes"
"8778736867";"-38.1293011";"144.3453057";"charging_station";"Greater Geelong";"Australia";"Victoria";"N/A";"N/A";"";"2";"";"";"";"";"";"";"";"";"";"";"";"";"";"";"";"";"";""
"9295253802";"-38.2159676";"144.3181255";"charging_station";"Greater Geelong";"Australia";"Victoria";"N/A";"N/A";"";"";"";"";"";"";"";"";"";"";"";"";"";"";"";"";"";"";"";""
"10312526546";"-38.228002";"144.3398434";"charging_station";"Greater Geelong";"Australia";"Victoria";"N/A";"N/A";"";"";"";"";"";"";"";"";"";"2";"";"";"";"";"";"";"";"";"";""
"10744548980";"-38.2466668";"144.5400775";"charging_station";"Greater Geelong";"Australia";"Victoria";"N/A";"N/A";"";"4";"";"";"Exploren";"Q130278349";"";"";"";"";"";"";"";"";"";"";"";"";"";""
"10956647220";"-38.1975552";"144.3210427";"charging_station";"Greater Geelong";"Australia";"Victoria";"N/A";"N/A";"";"";"";"";"";"";"";"";"";"";"";"";"";"";"";"";"";"";"";""
"11041250798";"-38.1862324";"144.4645623";"charging_station";"Greater Geelong";"Australia";"Victoria";"N/A";"N/A";"";"2";"";"";"Chargefox";"Q105775824";"";"";"";"";"";"";"";"";"";"";"";"";"";"yes"
"11350711593";"-38.3312269";"144.3249846";"charging_station";"Greater Geelong";"Australia";"Victoria";"N/A";"N/A";"";"";"";"";"Evie Networks";"Q105795220";"";"";"";"";"";"";"";"";"";"";"";"";"";""
"11566319008";"-38.1892051";"144.5546647";"charging_station";"Greater Geelong";"Australia";"Victoria";"N/A";"N/A";"";"";"";"";"Chargefox";"Q105775824";"";"";"";"";"";"";"";"";"";"";"";"";"";""
"12072525400";"-38.1607247";"144.3058758";"charging_station";"Greater Geelong";"Australia";"Victoria";"N/A";"N/A";"";"";"";"";"Evie Networks";"Q105795220";"";"";"";"";"";"";"";"";"";"";"";"";"";""
"12677775693";"-38.1368485";"144.3483538";"charging_station";"Greater Geelong";"Australia";"Victoria";"N/A";"N/A";"";"";"";"";"Evie Networks";"Q105795220";"";"";"";"";"";"";"";"";"";"";"";"";"";""
"12849834829";"-38.2008779";"144.3124931";"charging_station";"Greater Geelong";"Australia";"Victoria";"N/A";"N/A";"";"5";"";"";"Evie Networks";"Q105795220";"";"";"";"";"";"";"";"";"";"";"";"";"";""
"12963725087";"-38.1991564";"144.3169442";"charging_station";"Greater Geelong";"Australia";"Victoria";"N/A";"N/A";"";"4";"";"";"AmpCharge";"Q111744561";"";"";"";"";"";"";"";"";"";"";"";"";"";""
"8962371069";"-38.3709259";"144.8209256";"charging_station";"";"Australia";"Victoria";"N/A";"N/A";"";"2";"";"";"";"";"";"";"";"";"";"";"";"";"";"";"Tesla, Inc.";"";"";""
"9217134714";"-38.2344038";"145.05112";"charging_station";"Mornington Peninsula";"Australia";"Victoria";"N/A";"N/A";"";"";"";"";"Tesla, Inc.";"Q478214";"";"";"";"";"";"";"";"";"";"";"Tesla Supercharger";"";"";""
"9738634914";"-38.3385411";"144.7370438";"charging_station";"Mornington Peninsula";"Australia";"Victoria";"N/A";"N/A";"";"";"";"";"Evie Networks";"Q105795220";"";"";"";"";"";"";"";"";"";"";"";"";"";""
"10770078050";"-38.371497";"144.8276459";"charging_station";"";"Australia";"Victoria";"N/A";"N/A";"";"";"";"";"BP Pulse";"Q39057719";"";"";"";"";"";"";"";"";"";"";"";"";"";""
"10923045686";"-38.2207078";"145.0612105";"charging_station";"Mornington Peninsula";"Australia";"Victoria";"N/A";"N/A";"";"2";"";"";"";"";"";"";"";"4";"";"";"";"";"";"";"";"";"";""
"10923134040";"-38.3683136";"144.9044702";"charging_station";"Mornington Peninsula";"Australia";"Victoria";"N/A";"N/A";"";"";"";"";"";"";"";"";"";"";"";"";"";"";"";"";"";"";"";""
"10933923525";"-38.4744469";"145.0187073";"charging_station";"Mornington Peninsula";"Australia";"Victoria";"N/A";"N/A";"";"";"";"";"Evie Networks";"Q105795220";"";"";"";"";"";"";"";"";"";"";"";"";"";""
"11049081033";"-38.2730919";"145.0409495";"charging_station";"Mornington Peninsula";"Australia";"Victoria";"N/A";"N/A";"";"";"";"";"";"";"";"";"";"";"";"";"";"";"";"";"";"";"";""
"11049294289";"-38.2679563";"144.6590581";"charging_station";"Queenscliffe";"Australia";"Victoria";"N/A";"N/A";"";"";"";"";"Chargefox";"Q105775824";"";"";"";"";"";"";"";"";"";"";"";"";"";""
"11158866814";"-38.2242104";"145.039637";"charging_station";"Mornington Peninsula";"Australia";"Victoria";"N/A";"N/A";"";"";"";"";"Evie Networks";"Q105795220";"";"";"";"";"";"";"";"";"";"";"";"";"";""
"11840233273";"-38.2183773";"145.0390668";"charging_station";"Mornington Peninsula";"Australia";"Victoria";"N/A";"N/A";"";"";"";"";"Chargefox";"Q105775824";"";"";"";"2";"";"";"";"";"";"";"";"";"";""
"12098106390";"-38.3335119";"144.9659824";"charging_station";"Mornington Peninsula";"Australia";"Victoria";"N/A";"N/A";"";"";"";"";"Evie Networks";"Q105795220";"";"";"";"";"";"";"";"";"";"";"";"";"";""
"6839063086";"-38.2998125";"145.1705033";"charging_station";"Mornington Peninsula";"Australia";"Victoria";"N/A";"N/A";"";"";"";"";"";"";"";"";"";"";"";"";"";"";"";"";"";"";"";""
"8456443961";"-38.4513659";"145.2402838";"charging_station";"Bass Coast";"Australia";"Victoria";"N/A";"N/A";"";"2";"";"";"EVolution";"";"";"";"";"";"";"";"";"";"";"";"";"";"";""
"8520707717";"-38.4513302";"145.2402851";"charging_station";"Bass Coast";"Australia";"Victoria";"N/A";"N/A";"";"2";"";"";"Tesla";"";"";"";"";"";"";"";"";"";"";"";"Tesla, Inc.";"";"";""
"10010196224";"-38.1438691";"145.1227188";"charging_station";"Frankston";"Australia";"Victoria";"N/A";"N/A";"";"2";"";"";"";"";"";"";"";"2";"";"";"";"";"";"";"Jetcharge";"";"";""
"10060883781";"-38.3082563";"145.1918955";"charging_station";"Mornington Peninsula";"Australia";"Victoria";"N/A";"N/A";"";"";"";"";"Evie Networks";"Q105795220";"";"";"";"";"";"";"";"";"";"";"";"";"";""
"10943436950";"-38.1398846";"145.1242877";"charging_station";"Frankston";"Australia";"Victoria";"N/A";"N/A";"";"";"";"";"Chargefox";"Q105775824";"";"";"";"";"";"";"";"";"";"";"";"";"";""
"11529283544";"-38.1496782";"145.290863";"charging_station";"Casey";"Australia";"Victoria";"N/A";"N/A";"";"";"";"";"Chargefox";"Q105775824";"";"";"";"1";"";"";"";"";"";"";"";"";"";""
"11599375156";"-38.1517507";"145.1347522";"charging_station";"Frankston";"Australia";"Victoria";"N/A";"N/A";"";"";"";"";"Chargefox";"Q105775824";"";"";"";"";"";"";"";"";"";"";"";"";"";""
"12040935270";"-38.450502";"145.2404665";"charging_station";"Bass Coast";"Australia";"Victoria";"N/A";"N/A";"";"4";"";"";"Evie Networks";"Q105795220";"";"";"";"";"";"";"";"";"";"";"";"";"";""
"12869684252";"-38.4070331";"145.5299311";"charging_station";"Bass Coast";"Australia";"Victoria";"N/A";"N/A";"";"";"";"";"Chargefox";"Q105775824";"";"";"";"";"";"";"";"";"";"";"";"";"";""
"12876393097";"-38.5150148";"145.3485936";"charging_station";"Bass Coast";"Australia";"Victoria";"N/A";"N/A";"";"4";"";"";"Chargefox";"Q105775824";"";"";"";"";"";"";"";"";"";"";"";"";"";""
"12888558474";"-38.1514595";"145.1660039";"charging_station";"Frankston";"Australia";"Victoria";"N/A";"N/A";"";"8";"";"";"AmpCharge";"Q111744561";"";"";"";"";"";"";"";"";"";"";"";"";"";""
"11217247140";"-38.4758989";"145.9448225";"charging_station";"Baw Baw";"Australia";"Victoria";"N/A";"N/A";"";"";"";"";"Central Victorian Greenhouse Alliance";"Q106320329";"";"";"";"";"";"";"";"";"";"";"Charging the Regions";"";"";""
"11217250326";"-38.5773347";"146.0128144";"charging_station";"Bass Coast";"Australia";"Victoria";"N/A";"N/A";"";"";"";"";"Central Victorian Greenhouse Alliance";"Q106320329";"";"";"";"";"";"";"";"";"";"";"Charging the Regions";"";"";""
"11217255913";"-38.4327834";"145.8256";"charging_station";"Bass Coast";"Australia";"Victoria";"N/A";"N/A";"";"";"";"";"Central Victorian Greenhouse Alliance";"Q106320329";"";"";"";"";"";"";"";"";"";"";"Charging the Regions";"";"";""
"11234771568";"-38.1674817";"145.953366";"charging_station";"Baw Baw";"Australia";"Victoria";"N/A";"N/A";"";"";"";"";"Evie Networks";"Q105795220";"";"";"";"";"";"";"";"";"";"";"";"";"";""
"11395449317";"-38.4779021";"145.9436282";"charging_station";"Baw Baw";"Australia";"Victoria";"N/A";"N/A";"";"";"";"";"Evie Networks";"Q105795220";"";"";"";"";"";"";"";"";"";"";"";"";"";""
"11413716984";"-38.4345088";"145.8255061";"charging_station";"Bass Coast";"Australia";"Victoria";"N/A";"N/A";"";"";"";"";"Evie Networks";"Q105795220";"";"";"";"";"";"";"";"";"";"";"";"";"";""
"12503301405";"-38.1668166";"145.9405613";"charging_station";"Baw Baw";"Australia";"Victoria";"N/A";"N/A";"";"";"";"";"";"";"";"";"";"";"";"";"";"156-158";"Queen Street";"";"";"";"";""
"6914078647";"-38.184512";"146.2375699";"charging_station";"Latrobe";"Australia";"Victoria";"N/A";"N/A";"";"";"";"";"Chargefox";"Q105775824";"";"";"";"";"";"";"";"";"";"";"";"";"";""
"8620612761";"-38.1805437";"146.3477263";"charging_station";"Latrobe";"Australia";"Victoria";"N/A";"N/A";"";"";"";"";"EnergyAustralia";"Q5376876";"";"";"";"";"";"";"";"";"";"";"";"";"";""
"9026039108";"-38.1729485";"146.2591125";"charging_station";"Latrobe";"Australia";"Victoria";"N/A";"N/A";"";"";"";"";"Tesla, Inc.";"Q478214";"";"";"";"";"";"";"";"";"";"";"Tesla Supercharger";"";"";""
"10720898724";"-38.1956713";"146.5329719";"charging_station";"Latrobe";"Australia";"Victoria";"N/A";"N/A";"";"";"";"";"Evie Networks";"Q105795220";"";"";"";"";"";"";"";"";"";"";"";"";"";""
"11504841063";"-38.4004937";"146.1548714";"charging_station";"Latrobe";"Australia";"Victoria";"N/A";"N/A";"";"";"";"";"Central Victorian Greenhouse Alliance";"Q106320329";"";"";"";"";"";"";"";"";"";"";"Charging the Regions";"";"";""
"12183020131";"-38.1969025";"146.5416834";"charging_station";"Latrobe";"Australia";"Victoria";"N/A";"N/A";"";"";"";"";"Evie Networks";"Q105795220";"";"";"";"";"";"";"";"";"";"";"";"";"";""
"12316528243";"-38.1924257";"146.5269699";"charging_station";"Latrobe";"Australia";"Victoria";"N/A";"N/A";"";"";"";"";"Tesla, Inc.";"Q478214";"";"";"";"";"";"";"";"";"";"";"Tesla Supercharger";"";"";""
"12557815920";"-38.2175858";"146.4748835";"charging_station";"Latrobe";"Australia";"Victoria";"N/A";"N/A";"";"2";"";"";"Chargefox";"Q105775824";"";"";"";"2";"";"";"";"";"";"";"";"";"";""
"9880056998";"-38.5644471";"146.6747212";"charging_station";"Latrobe";"Australia";"Victoria";"N/A";"N/A";"";"";"";"";"Central Victorian Greenhouse Alliance";"Q106320329";"";"";"";"";"";"";"";"";"";"";"Charging the Regions";"";"";""
"10060324929";"-38.4678647";"175.015091";"charging_station";"Otorohanga District";"New Zealand";"Waikato";"N/A";"N/A";"";"1";"";"";"";"";"";"";"";"1";"";"";"";"";"";"";"";"";"";""
"10060324932";"-38.4654035";"175.0189157";"charging_station";"Otorohanga District";"New Zealand";"Waikato";"N/A";"N/A";"";"1";"";"";"OpenLoop";"Q113289213";"";"";"";"";"";"";"";"";"";"";"";"";"";"yes"
"5621684636";"-38.3318578";"175.1628471";"charging_station";"Otorohanga District";"New Zealand";"Waikato";"N/A";"N/A";"";"";"";"yes";"ChargeNet NZ";"Q105872959";"";"";"";"";"";"";"";"";"";"";"";"";"";""
"9984698326";"-38.1863266";"175.2121925";"charging_station";"Otorohanga District";"New Zealand";"Waikato";"N/A";"N/A";"";"2";"";"yes";"OpenLoop";"Q113289213";"";"";"";"";"";"";"";"";"";"";"OpenLoop";"0.25 / kWh + 0.25 / minute";"24/7";"yes"
"10845056505";"-38.2439053";"175.1828412";"charging_station";"Otorohanga District";"New Zealand";"Waikato";"N/A";"N/A";"";"";"";"";"";"";"";"";"";"";"";"";"";"";"";"";"";"";"";""
"6836428749";"-38.2180323";"175.8675367";"charging_station";"South Waikato District";"New Zealand";"Waikato";"N/A";"N/A";"yes";"2";"";"";"ChargeNet NZ";"Q105872959";"";"";"";"";"";"";"";"";"";"";"";"0.25 / kWh + 0.25 / minute";"";"yes"
"11228698597";"-38.6261113";"176.0884041";"charging_station";"Taupo District";"New Zealand";"Waikato";"N/A";"N/A";"";"2";"";"";"BP Pulse";"Q39057719";"";"";"";"";"";"";"";"";"";"";"BP Pulse";"";"";""
"5623891222";"-38.1363093";"176.2530076";"charging_station";"Rotorua District";"New Zealand";"Bay of Plenty";"N/A";"N/A";"";"";"";"yes";"Unison Networks";"Q24190006";"";"";"";"";"";"";"";"";"";"";"";"";"";""
"9847531454";"-38.1648896";"176.247608";"charging_station";"Rotorua District";"New Zealand";"Bay of Plenty";"N/A";"N/A";"";"1";"";"";"ChargeNet NZ";"Q105872959";"";"";"";"";"";"";"";"";"";"";"";"0.25 / kWh + 0.25 / minute";"";"yes"
"10003085706";"-38.1419691";"176.2512591";"charging_station";"Rotorua District";"New Zealand";"Bay of Plenty";"N/A";"N/A";"";"4 CCS2, 2 Chademo";"";"";"ChargeNet NZ";"Q105872959";"";"";"";"";"";"";"";"";"";"";"ChargeNet";"$0.60 / kWh (minimum $0.35 / minute)";"";"yes"
"11258789265";"-38.1411897";"176.2528483";"charging_station";"Rotorua District";"New Zealand";"Bay of Plenty";"N/A";"N/A";"";"6 CCS2";"";"";"Tesla, Inc.";"Q478214";"";"";"";"";"";"";"";"";"";"";"Tesla Supercharger";"";"";"yes"
"10032688552";"-38.4571819";"176.7044844";"charging_station";"Whakatane District";"New Zealand";"Bay of Plenty";"N/A";"N/A";"";"2";"";"";"ChargeNet NZ";"Q105872959";"";"";"";"1";"";"";"";"";"";"";"";"$0.20 / kWh + $0.275 / minute";"";"yes"
"9954318039";"-38.3572301";"177.5350925";"charging_station";"Opotiki District";"New Zealand";"Bay of Plenty";"N/A";"N/A";"";"2";"";"";"ChargeNet NZ";"Q105872959";"";"";"";"1";"";"";"";"";"";"";"";"";"";"yes"
"10078581147";"-38.3738395";"178.2964049";"charging_station";"Gisborne District";"New Zealand";"Gisborne";"N/A";"N/A";"";"1";"";"";"ChargeNet NZ";"Q105872959";"";"";"";"";"";"";"";"";"";"";"";"";"";"yes"
"4257319289";"-37.7963617";"-72.7080829";"charging_station";"Provincia de Malleco";"Chile";"Araucania";"N/A";"N/A";"";"";"";"";"Copec";"Q1130956";"";"";"";"";"";"";"";"171";"Colipi";"";"";"";"";""
"12091747469";"-38.023544";"-60.1157428";"charging_station";"Partido de Tres Arroyos";"Argentina";"Buenos Aires";"N/A";"N/A";"";"";"";"";"";"";"";"";"";"";"";"";"";"";"Ruta 3 N";"";"";"";"24/7";""
"12583036547";"-37.9701921";"-57.5440371";"charging_station";"";"Argentina";"Buenos Aires";"N/A";"N/A";"";"2";"";"yes";"";"";"";"";"";"2";"";"";"";"";"";"";"";"";"";""
"12718408197";"-38.0506236";"-57.5443093";"charging_station";"";"Argentina";"Buenos Aires";"N/A";"N/A";"";"1";"";"";"";"";"";"";"";"";"";"";"";"";"";"";"Scame";"";"Mo-Fr 08:30-18:00";""
"10048907994";"-37.8347592";"140.8026216";"charging_station";"Mount Gambier";"Australia";"South Australia";"N/A";"N/A";"";"";"";"";"Tesla";"Q478214";"";"";"";"";"";"";"";"";"";"";"Tesla Supercharger";"";"";""
"10772422189";"-37.8323149";"140.7933056";"charging_station";"Mount Gambier";"Australia";"South Australia";"N/A";"N/A";"";"";"";"";"";"";"";"";"";"4";"";"";"";"";"";"";"";"";"";""
"5334248922";"-37.921672";"141.2756294";"charging_station";"Grant";"Australia";"South Australia";"N/A";"N/A";"";"";"";"";"";"";"";"";"";"";"";"";"";"";"";"";"";"";"";""
"10923543492";"-37.9222177";"141.2762627";"charging_station";"Grant";"Australia";"South Australia";"N/A";"N/A";"";"";"";"";"Evie Networks";"Q105795220";"";"";"";"";"";"";"";"";"";"";"";"";"";""
"10923549956";"-37.7404408";"142.0245584";"charging_station";"Southern Grampians";"Australia";"Victoria";"N/A";"N/A";"";"2";"";"";"Evie Networks";"Q105795220";"";"";"";"";"";"";"";"";"";"";"";"";"";""
"10925614342";"-37.6495903";"142.342789";"charging_station";"Southern Grampians";"Australia";"Victoria";"N/A";"N/A";"";"2";"";"";"Evie Networks";"Q105795220";"";"";"";"";"";"";"";"";"";"";"";"";"";"yes"
"10184611930";"-37.7117289";"142.8409671";"charging_station";"Ararat";"Australia";"Victoria";"N/A";"N/A";"";"";"";"";"EVup";"";"";"";"";"";"";"";"";"";"";"";"";"";"";""
"10925612987";"-37.8443654";"144.0767302";"charging_station";"Ballarat North";"Australia";"Victoria";"N/A";"N/A";"";"";"";"";"Evie Networks";"Q105795220";"";"";"";"";"";"";"";"";"";"";"";"";"";""
"12045207970";"-37.6492826";"143.8841475";"charging_station";"Ballarat North";"Australia";"Victoria";"N/A";"N/A";"";"";"";"";"";"";"";"";"";"2";"";"";"";"";"";"";"";"";"";""
"8219338731";"-37.7227909";"144.5721618";"charging_station";"Melton";"Australia";"Victoria";"N/A";"N/A";"";"";"";"";"Evie Networks";"Q105795220";"";"";"";"";"";"";"";"";"";"";"";"";"";""
"8711272569";"-38.0651667";"144.3824797";"charging_station";"Greater Geelong";"Australia";"Victoria";"N/A";"N/A";"";"";"";"";"Tesla, Inc.";"Q478214";"";"";"";"";"";"";"";"";"";"";"Tesla Supercharger";"";"";""
"11395425005";"-38.0473092";"144.170628";"charging_station";"Greater Geelong";"Australia";"Victoria";"N/A";"N/A";"";"";"";"";"Evie Networks";"Q105795220";"";"";"";"";"";"";"";"";"";"";"";"";"";""
"12917259414";"-38.0753815";"144.3702352";"charging_station";"Greater Geelong";"Australia";"Victoria";"N/A";"N/A";"";"";"";"";"Shell Recharge Solutions";"Q105883058";"";"";"";"";"";"";"";"";"";"";"";"";"";""
"4332286415";"-37.8872284";"145.0824905";"charging_station";"Glen Eira";"Australia";"Victoria";"N/A";"N/A";"";"4";"";"";"";"";"";"";"";"";"";"";"";"1341";"Dandenong Road";"";"Tesla";"";"";""
"4332324003";"-37.8042881";"144.9719796";"charging_station";"";"Australia";"Victoria";"N/A";"N/A";"";"2";"";"";"Museums Victoria";"";"";"";"";"";"";"";"";"";"";"";"";"";"";""
"4356704673";"-37.8321721";"144.9957089";"charging_station";"";"Australia";"Victoria";"N/A";"N/A";"";"4";"";"";"Tesla, Inc.";"Q478214";"";"";"";"";"";"";"";"650";"Church Street";"";"Tesla Supercharger";"";"";""
"4776121605";"-37.7412518";"144.9701016";"charging_station";"Moreland";"Australia";"Victoria";"N/A";"N/A";"";"";"";"";"Chargefox";"Q105775824";"";"";"";"8";"";"";"";"";"";"";"";"";"";""
"4896269173";"-37.9584508";"145.0534948";"charging_station";"";"Australia";"Victoria";"N/A";"N/A";"";"";"";"";"ChargePoint";"Q5176149";"";"";"";"";"";"";"";"";"";"";"ChargePoint";"";"";""
"5395408885";"-37.7025331";"144.9695097";"charging_station";"Moreland";"Australia";"Victoria";"N/A";"N/A";"";"1";"";"";"";"";"";"";"";"";"";"";"";"";"";"";"";"";"";""
"5553840397";"-37.7407364";"144.9697797";"charging_station";"Moreland";"Australia";"Victoria";"N/A";"N/A";"";"";"";"";"";"";"";"";"";"";"";"";"";"";"";"";"";"";"Mo-Su 09:00-09:00";""
"5879749471";"-37.7714237";"144.9619656";"charging_station";"Moreland";"Australia";"Victoria";"N/A";"N/A";"";"";"";"";"Chargefox";"Q105775824";"";"";"";"";"";"";"";"";"";"";"";"";"";"no"
"6456731585";"-37.9505279";"145.080672";"charging_station";"";"Australia";"Victoria";"N/A";"N/A";"";"";"";"";"ChargePoint";"Q5176149";"";"";"";"";"";"";"";"";"";"";"ChargePoint";"";"";""
"6562161992";"-37.7237042";"144.9209626";"charging_station";"Moreland";"Australia";"Victoria";"N/A";"N/A";"";"3";"";"";"";"";"";"";"";"";"";"";"";"";"";"";"";"";"";""
"6566927907";"-37.7401175";"145.0050847";"charging_station";"";"Australia";"Victoria";"N/A";"N/A";"";"1";"";"";"Darebin City Council";"";"";"";"";"";"";"";"";"";"";"";"";"";"";"no"
"6573455731";"-37.8160073";"144.9597412";"charging_station";"Melbourne";"Australia";"Victoria";"N/A";"N/A";"";"4";"";"";"RACV";"";"";"";"";"";"";"";"";"";"";"";"";"";"";"yes"
"6573455732";"-37.8163799";"144.9547665";"charging_station";"Melbourne";"Australia";"Victoria";"N/A";"N/A";"";"1";"";"";"Alto Hotel";"";"";"";"";"";"";"";"";"";"";"";"";"";"";"no"
"6573455737";"-37.8132556";"144.9559119";"charging_station";"Melbourne";"Australia";"Victoria";"N/A";"N/A";"";"";"";"";"";"";"";"";"";"";"";"";"";"";"";"";"";"";"";"yes"
"6573455738";"-37.8143461";"144.9618065";"charging_station";"Melbourne";"Australia";"Victoria";"N/A";"N/A";"";"2";"";"";"";"";"";"";"";"";"";"";"";"";"";"";"";"";"";"yes"
"6573455739";"-37.81826";"144.9639555";"charging_station";"Melbourne";"Australia";"Victoria";"N/A";"N/A";"";"2";"";"";"";"";"";"";"";"";"";"";"";"";"";"";"";"";"";"yes"
"6573455740";"-37.8162175";"144.9707936";"charging_station";"Melbourne";"Australia";"Victoria";"N/A";"N/A";"";"";"";"";"GreenCo";"";"";"";"";"";"";"";"";"";"";"";"";"";"";"yes"
"6573455741";"-37.8153856";"144.9700374";"charging_station";"Melbourne";"Australia";"Victoria";"N/A";"N/A";"";"";"";"";"";"";"";"";"";"";"";"";"";"";"";"";"";"";"";"no"
"6573455742";"-37.8144864";"144.9730784";"charging_station";"Melbourne";"Australia";"Victoria";"N/A";"N/A";"";"";"";"";"";"";"";"";"";"";"";"";"";"";"";"";"";"";"";"yes"
"6573455743";"-37.8125596";"144.9695662";"charging_station";"Melbourne";"Australia";"Victoria";"N/A";"N/A";"";"2";"";"";"Secure Parking";"";"";"";"";"";"";"";"";"";"";"";"";"";"";"yes"
"6573455744";"-37.813368";"144.9681379";"charging_station";"Melbourne";"Australia";"Victoria";"N/A";"N/A";"";"";"";"";"QT";"";"";"";"";"";"";"";"";"";"";"";"";"";"";"yes"
"6585419253";"-37.713734";"144.8855401";"charging_station";"Moreland";"Australia";"Victoria";"N/A";"N/A";"";"";"";"";"Chargefox";"Q105775824";"";"";"";"";"";"";"";"";"";"";"Chargefox";"";"";""
"6704482109";"-37.86395";"144.830228";"charging_station";"Hobsons Bay";"Australia";"Victoria";"N/A";"N/A";"";"";"";"";"";"";"";"";"";"";"";"";"";"";"";"";"";"";"";""
"6720432773";"-37.8188089";"144.9426093";"charging_station";"Melbourne";"Australia";"Victoria";"N/A";"N/A";"";"";"";"";"";"";"";"";"";"";"";"";"";"";"";"";"";"";"";""
"6775859672";"-37.8098361";"144.9692983";"charging_station";"Melbourne";"Australia";"Victoria";"N/A";"N/A";"";"1";"";"";"";"";"";"";"";"";"";"";"";"";"";"";"";"";"";"no"
"6775859673";"-37.8101221";"144.970523";"charging_station";"Melbourne";"Australia";"Victoria";"N/A";"N/A";"";"";"";"";"Secure Parking";"";"";"";"";"";"";"";"";"";"";"";"";"";"";"yes"
"6775859674";"-37.8055148";"144.9633222";"charging_station";"";"Australia";"Victoria";"N/A";"N/A";"";"";"";"";"Arrow on Swanston";"";"";"";"";"";"";"";"";"";"";"";"";"";"";"no"
"6775859675";"-37.8022448";"144.9669687";"charging_station";"";"Australia";"Victoria";"N/A";"N/A";"";"";"";"";"";"";"";"";"";"";"";"";"";"";"";"";"";"";"";"no"
"6775859678";"-37.8044709";"144.9733535";"charging_station";"Yarra";"Australia";"Victoria";"N/A";"N/A";"";"2";"";"";"Melbourne Museum";"";"";"";"";"";"";"";"";"";"";"";"";"";"";"yes"
"6775859679";"-37.8014314";"144.9427005";"charging_station";"Melbourne";"Australia";"Victoria";"N/A";"N/A";"";"1";"";"";"Jet Charge";"";"";"";"";"";"";"";"";"";"";"";"";"";"";"no"
"6775859680";"-37.801086";"144.9428225";"charging_station";"Melbourne";"Australia";"Victoria";"N/A";"N/A";"";"";"";"";"The Green Guys";"";"";"";"";"";"";"";"";"";"";"";"";"";"";"yes"
"6775859681";"-37.812617";"144.939222";"charging_station";"Melbourne";"Australia";"Victoria";"N/A";"N/A";"";"1";"";"";"The District Docklands";"";"";"";"";"";"";"";"";"";"";"";"";"";"";"yes"
"6775859682";"-37.8129804";"144.9370084";"charging_station";"Melbourne";"Australia";"Victoria";"N/A";"N/A";"";"";"";"";"The District Docklands";"";"";"";"";"";"";"";"";"";"";"";"";"";"";"yes"
"6775859684";"-37.8100036";"144.9509974";"charging_station";"Melbourne";"Australia";"Victoria";"N/A";"N/A";"";"";"";"";"Flagstaff City Inn";"";"";"";"";"";"";"";"";"";"";"";"";"";"";"no"
"6775895585";"-37.8319526";"144.9607646";"charging_station";"Port Phillip";"Australia";"Victoria";"N/A";"N/A";"";"";"";"";"";"";"";"";"";"";"";"";"";"";"";"";"";"";"";"no"
"6775895586";"-37.8322063";"144.9692208";"charging_station";"Port Phillip";"Australia";"Victoria";"N/A";"N/A";"";"";"";"";"";"";"";"";"";"";"";"";"";"";"";"";"";"";"";""
"6967811174";"-37.7644055";"144.9222192";"charging_station";"Moonee Valley";"Australia";"Victoria";"N/A";"N/A";"";"";"";"";"Tesla, Inc.";"Q478214";"";"";"";"";"";"";"";"";"";"";"Tesla Supercharger";"";"";""
"7149039454";"-37.7189925";"144.9614795";"charging_station";"Moreland";"Australia";"Victoria";"N/A";"N/A";"";"1";"";"";"Chargefox";"Q105775824";"";"";"";"";"";"";"";"";"";"";"";"";"";"no"
"7416508372";"-37.8244076";"144.9244765";"charging_station";"Port Phillip";"Australia";"Victoria";"N/A";"N/A";"";"";"";"";"";"";"";"";"";"";"";"";"";"";"";"";"";"";"";""
"7416508373";"-37.8243839";"144.9244672";"charging_station";"Port Phillip";"Australia";"Victoria";"N/A";"N/A";"";"";"";"";"";"";"";"";"";"";"";"";"";"";"";"";"";"";"";""
"7416508374";"-37.8243625";"144.9244629";"charging_station";"Port Phillip";"Australia";"Victoria";"N/A";"N/A";"";"";"";"";"";"";"";"";"";"";"";"";"";"";"";"";"";"";"";""
"7500495489";"-37.7719979";"144.9789845";"charging_station";"";"Australia";"Victoria";"N/A";"N/A";"";"2";"";"";"";"";"";"";"";"";"";"";"";"";"";"";"";"";"";""
"8195721669";"-37.6784969";"145.0730497";"charging_station";"Whittlesea";"Australia";"Victoria";"N/A";"N/A";"";"";"";"";"Evie Networks";"Q105795220";"";"";"";"";"";"";"";"";"";"";"";"";"";""
"8562296543";"-37.8292531";"145.056178";"charging_station";"";"Australia";"Victoria";"N/A";"N/A";"";"";"";"";"Tesla";"Q478214";"";"";"";"";"";"";"";"";"";"";"Tesla Supercharger";"";"";""
"8770992013";"-37.6965635";"144.7821513";"charging_station";"Brimbank";"Australia";"Victoria";"N/A";"N/A";"";"";"";"";"Evie Networks";"Q105795220";"";"";"";"";"";"";"";"";"";"";"";"";"";""
"8943191752";"-37.9593639";"145.017674";"charging_station";"Bayside";"Australia";"Victoria";"N/A";"N/A";"";"";"";"";"Chargefox";"Q105775824";"";"";"";"";"";"";"";"";"";"";"";"";"";""
"9426555291";"-37.8043969";"144.9933258";"charging_station";"Yarra";"Australia";"Victoria";"N/A";"N/A";"";"";"";"";"Evie Networks";"Q105795220";"";"";"";"";"";"";"";"";"";"";"";"";"";""
"9679133660";"-37.7151996";"144.5997596";"charging_station";"Melton";"Australia";"Victoria";"N/A";"N/A";"";"2";"";"";"Chargefox";"Q105775824";"";"";"";"";"";"";"";"";"";"";"";"";"";""
"9930952737";"-37.7637113";"145.023233";"charging_station";"Darebin";"Australia";"Victoria";"N/A";"N/A";"";"2";"";"";"";"";"";"";"";"2";"";"";"";"";"";"";"";"";"";"no"
"9930952738";"-37.7637061";"145.023185";"charging_station";"Darebin";"Australia";"Victoria";"N/A";"N/A";"";"2";"";"";"";"";"";"";"";"2";"";"";"";"";"";"";"";"";"";"no"
"9930952741";"-37.7637001";"145.0231298";"charging_station";"Darebin";"Australia";"Victoria";"N/A";"N/A";"";"2";"";"";"";"";"";"";"";"2";"";"";"";"";"";"";"";"";"";"no"
"10007612223";"-37.7726106";"144.9152589";"charging_station";"Moonee Valley";"Australia";"Victoria";"N/A";"N/A";"";"50";"";"";"Evie Networks";"Q105795220";"";"";"";"";"";"";"";"";"";"";"";"";"";"yes"
"10156617736";"-37.9001349";"145.0069973";"charging_station";"Bayside";"Australia";"Victoria";"N/A";"N/A";"";"6";"";"";"BP Pulse";"Q39057719";"";"";"";"";"";"";"";"";"";"";"BP Pulse";"";"";""
"10184502299";"-37.7264375";"144.8082128";"charging_station";"Brimbank";"Australia";"Victoria";"N/A";"N/A";"";"";"";"";"Evie Networks";"Q105795220";"";"";"";"";"";"";"";"";"";"";"";"";"";""
"10184521127";"-37.8631061";"145.0268501";"charging_station";"Glen Eira";"Australia";"Victoria";"N/A";"N/A";"";"";"";"";"Evie Networks";"Q105795220";"";"";"";"";"";"";"";"";"";"";"";"";"";""
"10224669726";"-37.8808068";"145.0225411";"charging_station";"Glen Eira";"Australia";"Victoria";"N/A";"N/A";"";"";"";"";"Foxcharger";"";"";"";"";"";"";"";"";"";"";"";"";"";"";"yes"
"10224669728";"-37.8808133";"145.0225886";"charging_station";"Glen Eira";"Australia";"Victoria";"N/A";"N/A";"";"";"";"";"Foxcharger";"";"";"";"";"";"";"";"";"";"";"";"";"";"";"yes"
"10744312168";"-37.8467311";"144.8092326";"charging_station";"Hobsons Bay";"Australia";"Victoria";"N/A";"N/A";"";"4";"";"";"AmpCharge";"Q111744561";"";"";"";"";"";"";"";"";"";"";"";"";"";""
"10744578942";"-37.8126532";"145.0102415";"charging_station";"Yarra";"Australia";"Victoria";"N/A";"N/A";"";"4";"";"";"";"";"";"";"";"";"";"";"";"";"";"";"";"";"";""
"10744581205";"-37.8128161";"145.0104534";"charging_station";"Yarra";"Australia";"Victoria";"N/A";"N/A";"";"4";"";"";"IKEA";"Q54078";"";"";"";"4";"";"";"";"";"";"";"";"";"";""
"10744604228";"-37.8252377";"144.6830044";"charging_station";"Wyndham";"Australia";"Victoria";"N/A";"N/A";"";"";"";"";"";"";"";"";"";"1";"";"";"";"";"";"";"";"";"";""
"10925613031";"-37.8048975";"144.7523843";"charging_station";"Wyndham";"Australia";"Victoria";"N/A";"N/A";"";"";"";"";"AmpCharge";"Q111744561";"";"";"";"";"";"";"";"";"";"";"";"";"";""
"10925696347";"-37.9062995";"145.0036062";"charging_station";"Bayside";"Australia";"Victoria";"N/A";"N/A";"";"";"";"";"Evie Networks";"Q105795220";"";"";"";"";"";"";"";"";"";"";"";"";"";""
"11043399301";"-37.9071507";"145.0111517";"charging_station";"Bayside";"Australia";"Victoria";"N/A";"N/A";"";"4";"";"";"Tesla";"Q478214";"";"";"";"";"";"";"";"";"";"";"Tesla Supercharger";"";"";""
"11055831302";"-37.8555678";"145.0296259";"charging_station";"Glen Eira";"Australia";"Victoria";"N/A";"N/A";"";"";"";"";"Chargefox";"Q105775824";"";"";"";"";"";"";"";"";"";"";"";"";"";""
"11118158089";"-37.9103331";"145.0860961";"charging_station";"";"Australia";"Victoria";"N/A";"N/A";"";"";"";"";"Evie Networks";"Q105795220";"";"";"";"";"";"";"";"";"";"";"";"";"";""
"11137132736";"-37.7794587";"145.032662";"charging_station";"";"Australia";"Victoria";"N/A";"N/A";"";"";"";"";"Evie Networks";"Q105795220";"";"";"";"";"";"";"";"";"";"";"";"";"";""
"11140229945";"-37.8965087";"144.6711485";"charging_station";"Wyndham";"Australia";"Victoria";"N/A";"N/A";"";"4";"";"yes";"Chargefox";"Q105775824";"";"";"";"";"";"";"";"";"";"";"";"";"24/7";"yes"
"11142763864";"-37.6940479";"144.7554035";"charging_station";"Brimbank";"Australia";"Victoria";"N/A";"N/A";"";"";"";"";"AmpCharge";"Q111744561";"";"";"";"";"";"";"";"";"";"";"";"";"";""
"11184921745";"-37.6770375";"144.9222367";"charging_station";"Hume";"Australia";"Victoria";"N/A";"N/A";"";"";"";"";"Evie Networks";"Q105795220";"";"";"";"";"";"";"";"";"";"";"";"";"";""
"11219920873";"-37.8683054";"144.9807906";"charging_station";"Port Phillip";"Australia";"Victoria";"N/A";"N/A";"";"";"";"";"Tesla, Inc.";"Q478214";"";"";"";"";"";"";"";"";"";"";"Tesla Supercharger";"";"";""
"11221448525";"-37.7588379";"145.0686042";"charging_station";"";"Australia";"Victoria";"N/A";"N/A";"";"";"";"";"";"";"";"";"";"";"";"";"";"";"";"";"";"";"";""
"11254805479";"-37.9369598";"145.0502541";"charging_station";"";"Australia";"Victoria";"N/A";"N/A";"";"6";"";"";"Chargefox";"Q105775824";"";"";"";"";"";"";"";"";"";"";"EVlink";"";"";""
"11363461220";"-38.0083659";"145.0848785";"charging_station";"Kingston";"Australia";"Victoria";"N/A";"N/A";"";"";"";"";"Evie Networks";"Q105795220";"";"";"";"";"";"";"";"";"";"";"";"";"";""
"11384855150";"-37.7366668";"144.8928132";"charging_station";"Moonee Valley";"Australia";"Victoria";"N/A";"N/A";"";"";"";"";"Evie Networks";"Q105795220";"";"";"";"";"";"";"";"";"";"";"";"";"";""
"11433579681";"-37.8452917";"145.0419354";"charging_station";"";"Australia";"Victoria";"N/A";"N/A";"";"12";"";"";"Tesla";"Q478214";"";"";"";"";"";"";"";"";"";"";"Tesla Supercharger";"";"";""
"11433584698";"-37.8391816";"144.99606";"charging_station";"";"Australia";"Victoria";"N/A";"N/A";"";"";"";"";"Tesla, Inc.";"Q478214";"";"";"";"";"";"";"";"";"";"";"Tesla Supercharger";"";"";""
"11434374870";"-37.686614";"144.8665448";"charging_station";"Hume";"Australia";"Victoria";"N/A";"N/A";"";"";"";"";"";"";"";"";"";"";"";"";"";"";"";"";"";"";"";""
"11526398297";"-37.9563505";"145.0415494";"charging_station";"Bayside";"Australia";"Victoria";"N/A";"N/A";"";"";"";"";"Jolt";"Q109783503";"";"";"";"";"";"";"";"";"";"";"";"";"";""
"11559043538";"-37.805075";"144.7520377";"charging_station";"Wyndham";"Australia";"Victoria";"N/A";"N/A";"";"2";"";"";"AmpCharge";"";"";"";"";"";"";"";"";"";"";"";"";"";"24/7";""
"11648746507";"-37.8023621";"144.8943248";"charging_station";"Maribyrnong";"Australia";"Victoria";"N/A";"N/A";"";"";"";"";"Evie Networks";"Q105795220";"";"";"";"";"";"";"";"";"";"";"";"";"";""
"11702410958";"-37.9445397";"145.0016823";"charging_station";"";"Australia";"Victoria";"N/A";"N/A";"";"";"";"";"AmpCharge";"Q111744561";"";"";"";"";"";"";"";"";"";"";"";"";"";""
"11840528797";"-37.8343178";"144.6988225";"charging_station";"Wyndham";"Australia";"Victoria";"N/A";"N/A";"";"2";"";"";"";"";"";"";"";"2";"";"";"";"";"";"";"EVLink";"";"";""
"11840562088";"-37.806177";"144.9640885";"charging_station";"";"Australia";"Victoria";"N/A";"N/A";"";"";"";"";"Chargefox";"Q105775824";"";"";"";"";"";"";"";"";"";"";"";"";"";""
"11902564607";"-37.8327807";"144.8272802";"charging_station";"Hobsons Bay";"Australia";"Victoria";"N/A";"N/A";"";"";"";"";"Toyota";"";"";"";"";"4";"";"";"";"";"";"";"";"";"";""
"11902574111";"-37.826279";"144.9349529";"charging_station";"Port Phillip";"Australia";"Victoria";"N/A";"N/A";"";"";"";"";"Toyota";"";"";"";"";"";"";"";"";"";"";"";"";"";"";""
"11918771587";"-37.8842255";"145.082897";"charging_station";"Monash";"Australia";"Victoria";"N/A";"N/A";"";"";"";"";"Chargefox";"Q105775824";"";"";"";"4";"";"";"";"";"";"";"Engie";"";"";""
"11918796109";"-37.8877585";"145.085418";"charging_station";"Monash";"Australia";"Victoria";"N/A";"N/A";"";"4";"";"";"Chargefox";"Q105775824";"";"";"";"";"";"";"";"";"";"";"Engie";"";"";""
"11957141120";"-37.8268734";"145.0519905";"charging_station";"Boroondara";"Australia";"Victoria";"N/A";"N/A";"";"";"";"";"AmpCharge";"Q111744561";"";"";"";"";"";"";"";"";"";"";"";"";"";""
"11957148095";"-37.6600467";"145.0729626";"charging_station";"Whittlesea";"Australia";"Victoria";"N/A";"N/A";"";"";"";"";"AmpCharge";"Q111744561";"";"";"";"";"";"";"";"";"";"";"";"";"";""
"11963644089";"-37.8561354";"144.9931675";"charging_station";"Stonnington";"Australia";"Victoria";"N/A";"N/A";"";"";"";"";"Evie Networks";"Q105795220";"";"";"";"";"";"";"";"";"";"";"";"";"";""
"11970924520";"-37.6889736";"144.9566037";"charging_station";"Hume";"Australia";"Victoria";"N/A";"N/A";"";"";"";"";"Tesla, Inc.";"Q478214";"";"";"";"";"";"";"";"";"";"";"Tesla Supercharger";"";"";""
"11976844222";"-37.8291883";"144.7229835";"charging_station";"Wyndham";"Australia";"Victoria";"N/A";"N/A";"";"";"";"";"Chargefox";"Q105775824";"";"";"";"";"";"";"";"";"";"";"";"";"";""
"11986369056";"-37.8253323";"144.9499059";"charging_station";"Melbourne";"Australia";"Victoria";"N/A";"N/A";"";"";"";"";"Chargefox";"Q105775824";"";"";"";"";"";"";"";"";"";"";"";"";"";""
"12012093903";"-37.8761058";"145.0436862";"charging_station";"Stonnington";"Australia";"Victoria";"N/A";"N/A";"";"";"";"";"Chargefox";"Q105775824";"";"";"";"";"";"";"";"";"";"";"";"";"";""
"12035123226";"-37.7839148";"144.7725509";"charging_station";"Brimbank";"Australia";"Victoria";"N/A";"N/A";"";"4";"";"";"Evie Networks";"Q105795220";"";"";"";"";"";"";"";"";"";"";"";"";"";""
"12035129545";"-37.9098986";"144.6138686";"charging_station";"Wyndham";"Australia";"Victoria";"N/A";"N/A";"";"";"";"";"Chargefox";"Q105775824";"";"";"";"";"";"";"";"";"";"";"";"";"";""
"12076430482";"-37.831803";"144.9610974";"charging_station";"Port Phillip";"Australia";"Victoria";"N/A";"N/A";"";"";"";"";"Tesla, Inc.";"Q478214";"";"";"";"";"";"";"";"";"";"";"Tesla Supercharger";"";"";""
"12084097067";"-37.6839369";"144.881856";"charging_station";"Hume";"Australia";"Victoria";"N/A";"N/A";"";"4";"";"";"Evie Networks";"Q105795220";"";"";"";"";"";"";"";"";"";"";"";"";"";""
"12121937916";"-37.7929012";"144.7895532";"charging_station";"Brimbank";"Australia";"Victoria";"N/A";"N/A";"";"";"";"";"Evie Networks";"Q105795220";"";"";"";"";"";"";"";"";"";"";"";"";"";""
"12154622373";"-37.7834418";"144.9833663";"charging_station";"Yarra";"Australia";"Victoria";"N/A";"N/A";"";"";"";"";"Evie Networks";"Q105795220";"";"";"";"";"";"";"";"";"";"";"";"";"";""
"12212965861";"-37.8997618";"144.6650595";"charging_station";"Wyndham";"Australia";"Victoria";"N/A";"N/A";"";"2";"";"";"AmpCharge";"Q111744561";"";"";"";"";"";"";"";"";"";"";"";"";"";""
"12324871668";"-37.8123725";"145.0114051";"charging_station";"Yarra";"Australia";"Victoria";"N/A";"N/A";"";"4";"";"";"Chargefox";"Q105775824";"";"";"";"";"";"";"";"";"";"";"";"";"";""
"12330013149";"-37.7763484";"144.9637746";"charging_station";"";"Australia";"Victoria";"N/A";"N/A";"";"8";"";"";"AmpCharge";"Q111744561";"";"";"";"";"";"";"";"";"";"";"";"";"";""
"12330039656";"-37.8819256";"145.0802156";"charging_station";"Glen Eira";"Australia";"Victoria";"N/A";"N/A";"";"";"";"";"Chargefox";"Q105775824";"";"";"";"2";"";"";"";"";"";"";"";"";"";""
"12335937418";"-37.6480825";"144.9941732";"charging_station";"Whittlesea";"Australia";"Victoria";"N/A";"N/A";"";"";"";"";"BP Pulse";"Q39057719";"";"";"";"";"";"";"";"";"";"";"BP Pulse";"";"";""
"12363563752";"-37.7555095";"144.7411105";"charging_station";"Melton";"Australia";"Victoria";"N/A";"N/A";"";"8";"";"";"BP Pulse";"Q39057719";"";"";"";"";"";"";"";"";"";"";"BP Pulse";"";"";""
"12385814009";"-37.7692014";"144.9746948";"charging_station";"";"Australia";"Victoria";"N/A";"N/A";"";"1";"";"yes";"";"";"";"";"";"";"";"";"2822";"";"";"";"Chargefox";"";"";"yes"
"12385814010";"-37.7691861";"144.9746968";"charging_station";"";"Australia";"Victoria";"N/A";"N/A";"";"1";"";"yes";"";"";"";"";"";"";"";"";"2821";"";"";"";"Chargefox";"";"";"yes"
"12418016612";"-37.7423951";"144.9672501";"charging_station";"Moreland";"Australia";"Victoria";"N/A";"N/A";"";"";"";"";"Chargefox";"Q105775824";"";"";"";"";"";"";"";"";"";"";"";"";"";""
"12507942094";"-37.8253425";"144.998531";"charging_station";"Yarra";"Australia";"Victoria";"N/A";"N/A";"";"";"";"";"Evie Networks";"Q105795220";"";"";"";"";"";"";"";"";"";"";"";"";"";""
"12507943794";"-37.827493";"144.9909014";"charging_station";"";"Australia";"Victoria";"N/A";"N/A";"";"";"";"";"Chargefox";"Q105775824";"";"";"";"1";"";"";"";"";"";"";"";"";"";""
"12508231334";"-37.8211024";"145.0341062";"charging_station";"Boroondara";"Australia";"Victoria";"N/A";"N/A";"";"";"";"";"Chargefox";"Q105775824";"";"";"";"2";"";"";"";"";"";"";"";"";"";""
"12508257801";"-37.8221671";"144.9683551";"charging_station";"Melbourne";"Australia";"Victoria";"N/A";"N/A";"";"";"";"";"";"";"";"";"";"4";"";"";"";"";"";"";"";"";"";""
"12508316374";"-37.8308679";"144.9299454";"charging_station";"Port Phillip";"Australia";"Victoria";"N/A";"N/A";"";"";"";"";"Chargefox";"Q105775824";"";"";"";"";"";"";"";"";"";"";"";"";"";""
"12576932361";"-37.8952823";"145.0513802";"charging_station";"Glen Eira";"Australia";"Victoria";"N/A";"N/A";"";"8";"";"";"Chargefox";"Q105775824";"";"";"";"8";"";"";"";"";"";"";"";"";"";""
"12576957641";"-37.8966547";"145.070175";"charging_station";"";"Australia";"Victoria";"N/A";"N/A";"";"4";"";"";"Chargefox";"Q105775824";"";"";"";"4";"";"";"";"";"";"";"";"";"";""
"12596710629";"-37.862638";"145.0773032";"charging_station";"Boroondara";"Australia";"Victoria";"N/A";"N/A";"";"";"";"";"Chargefox";"Q105775824";"";"";"";"";"";"";"";"";"";"";"";"";"";""
"12616945791";"-37.8006732";"144.9275453";"charging_station";"Moonee Valley";"Australia";"Victoria";"N/A";"N/A";"";"2";"";"";"Exploren";"Q130278349";"";"";"";"2";"";"";"";"";"";"";"";"";"";"yes"
"12685745688";"-37.6920413";"144.7484941";"charging_station";"Melton";"Australia";"Victoria";"N/A";"N/A";"";"4";"";"";"Chargefox";"Q105775824";"";"";"";"4";"";"";"";"";"";"";"";"";"";""
"12706471410";"-37.8045543";"144.9003187";"charging_station";"Maribyrnong";"Australia";"Victoria";"N/A";"N/A";"";"";"";"";"Evie Networks";"Q105795220";"";"";"";"";"";"";"";"";"";"";"";"";"";""
"12743939234";"-37.8077312";"145.0306604";"charging_station";"Boroondara";"Australia";"Victoria";"N/A";"N/A";"";"4";"";"";"Evie Networks";"Q105795220";"";"";"";"";"";"";"";"";"";"";"";"";"";"yes"
"12751624244";"-37.7576158";"144.7410065";"charging_station";"Melton";"Australia";"Victoria";"N/A";"N/A";"";"2";"";"";"Exploren";"Q130278349";"";"";"";"";"";"";"";"";"";"";"Exploren";"";"";"yes"
"12757240228";"-37.7472341";"145.0317684";"charging_station";"";"Australia";"Victoria";"N/A";"N/A";"";"2";"";"";"Exploren";"Q130278349";"";"";"";"";"";"";"";"";"";"";"";"";"";""
"12757254073";"-37.8189304";"144.7204136";"charging_station";"Wyndham";"Australia";"Victoria";"N/A";"N/A";"";"4";"";"";"Exploren";"Q130278349";"";"";"";"";"";"";"";"";"";"";"";"";"";"yes"
"12843835382";"-37.8717181";"144.7749036";"charging_station";"Hobsons Bay";"Australia";"Victoria";"N/A";"N/A";"";"6";"";"";"Tesla";"Q478214";"";"";"";"";"";"";"";"";"";"";"Tesla Supercharger";"";"";""
"12854389700";"-37.6736757";"145.0157743";"charging_station";"Whittlesea";"Australia";"Victoria";"N/A";"N/A";"";"4";"";"";"Evie Networks";"Q105795220";"";"";"";"";"";"";"";"";"";"";"";"";"";""
"12869724886";"-37.8123289";"145.0835316";"charging_station";"Boroondara";"Australia";"Victoria";"N/A";"N/A";"";"4";"";"";"Chargefox";"Q105775824";"";"";"";"";"";"";"";"";"";"";"";"";"";""
"12911967581";"-37.7643621";"144.9219629";"charging_station";"Moonee Valley";"Australia";"Victoria";"N/A";"N/A";"";"6";"";"";"AmpCharge";"Q111744561";"";"";"";"";"";"";"";"";"";"";"";"";"";""
"12926719590";"-37.8091781";"144.9957217";"charging_station";"";"Australia";"Victoria";"N/A";"N/A";"";"8";"";"";"Tesla";"Q478214";"";"";"";"";"";"";"";"";"";"";"Tesla Supercharger";"";"";"yes"
"1258973419";"";"";"charging_station";"N/A";"N/A";"N/A";"N/A";"N/A";"";"";"";"";"";"";"";"";"";"";"";"";"";"";"";"";"EVlink";"";"";""
"1317548657";"";"";"charging_station";"N/A";"N/A";"N/A";"N/A";"N/A";"";"2";"";"";"";"";"";"";"";"2";"";"";"";"";"";"";"";"0.48 AUD/kWh";"";"yes"
"12194189388";"-37.863031";"144.9046178";"";"Hobsons Bay";"Australia";"Victoria";"N/A";"N/A";"";"";"";"";"";"";"";"";"";"";"";"";"";"";"";"";"";"";"";""
"12194189389";"-37.8630662";"144.9045631";"";"Hobsons Bay";"Australia";"Victoria";"N/A";"N/A";"";"";"";"";"";"";"";"";"";"";"";"";"";"";"";"";"";"";"";""
"12194189390";"-37.8630876";"144.9046275";"";"Hobsons Bay";"Australia";"Victoria";"N/A";"N/A";"";"";"";"";"";"";"";"";"";"";"";"";"";"";"";"";"";"";"";""
"12194189391";"-37.8630527";"144.9046806";"";"Hobsons Bay";"Australia";"Victoria";"N/A";"N/A";"";"";"";"";"";"";"";"";"";"";"";"";"";"";"";"";"";"";"";""
"2774312859";"-37.8037928";"144.9936476";"";"Yarra";"Australia";"Victoria";"N/A";"N/A";"";"";"";"";"";"";"";"";"";"";"";"";"";"";"";"";"";"";"";""
"11703566928";"-37.8034672";"144.9937049";"";"Yarra";"Australia";"Victoria";"N/A";"N/A";"";"";"";"";"";"";"";"";"";"";"";"";"";"";"";"";"";"";"";""
"11703566929";"-37.8034759";"144.9937834";"";"Yarra";"Australia";"Victoria";"N/A";"N/A";"";"";"";"";"";"";"";"";"";"";"";"";"";"";"";"";"";"";"";""
"12864655025";"-37.8038015";"144.993726";"";"Yarra";"Australia";"Victoria";"N/A";"N/A";"";"";"";"";"";"";"";"";"";"";"";"";"";"";"";"";"";"";"";""
"4332296675";"-38.0270897";"145.2116252";"charging_station";"Casey";"Australia";"Victoria";"N/A";"N/A";"";"2";"";"";"";"";"";"";"";"";"";"";"";"";"";"";"";"";"";""
"4776101051";"-37.9054453";"145.133609";"charging_station";"Monash";"Australia";"Victoria";"N/A";"N/A";"";"";"";"";"";"";"";"";"";"";"";"";"";"";"";"";"";"";"";""
"4776130324";"-37.6507196";"145.5029836";"charging_station";"Yarra Ranges";"Australia";"Victoria";"N/A";"N/A";"";"";"";"";"";"";"";"";"";"";"";"";"";"";"";"";"";"";"";""
"6456735006";"-37.9214395";"145.1577067";"charging_station";"Monash";"Australia";"Victoria";"N/A";"N/A";"";"";"";"";"ChargePoint";"Q5176149";"";"";"";"";"";"";"";"";"";"";"ChargePoint";"";"";""
"6456735596";"-37.8748303";"145.165502";"charging_station";"Whitehorse";"Australia";"Victoria";"N/A";"N/A";"";"";"";"";"ChargePoint";"Q5176149";"";"";"";"";"";"";"";"";"";"";"ChargePoint";"";"";""
"6618649725";"-37.9430275";"145.1184356";"charging_station";"Kingston";"Australia";"Victoria";"N/A";"N/A";"";"";"";"";"";"";"";"";"";"";"";"";"";"";"";"";"";"";"";""
"6663145566";"-38.0870252";"145.279579";"charging_station";"Casey";"Australia";"Victoria";"N/A";"N/A";"";"2";"";"";"Evie Networks";"Q105795220";"";"";"";"";"";"";"";"";"";"";"";"";"";""
"7818245016";"-37.9208333";"145.1400183";"charging_station";"Monash";"Australia";"Victoria";"N/A";"N/A";"";"";"";"";"";"";"";"";"";"1";"";"";"";"";"";"";"";"";"";""
"8280179360";"-37.9279602";"145.1431387";"charging_station";"Monash";"Australia";"Victoria";"N/A";"N/A";"";"4";"";"";"";"";"";"";"";"";"";"";"";"";"";"";"";"";"";""
"8477352112";"-37.9713082";"145.2238554";"charging_station";"Greater Dandenong";"Australia";"Victoria";"N/A";"N/A";"";"2";"";"";"Evie Networks";"Q105795220";"";"";"";"";"";"";"";"";"";"";"";"";"";""
"8858740996";"-37.9365224";"145.1907152";"charging_station";"Greater Dandenong";"Australia";"Victoria";"N/A";"N/A";"";"22";"";"";"Chargefox";"Q105775824";"";"";"";"";"";"";"";"";"";"";"";"";"";"yes"
"8858753812";"-37.9528827";"145.1800698";"charging_station";"Greater Dandenong";"Australia";"Victoria";"N/A";"N/A";"";"";"";"";"Chargefox";"Q105775824";"";"";"";"";"";"";"";"";"";"";"";"";"";"yes"
"9222837083";"-37.9271751";"145.1435899";"charging_station";"Monash";"Australia";"Victoria";"N/A";"N/A";"";"4";"";"";"Chargefox";"Q105775824";"";"";"";"4";"";"";"";"";"";"";"";"";"";""
"9323036820";"-38.0547644";"145.1159422";"charging_station";"Kingston";"Australia";"Victoria";"N/A";"N/A";"";"2";"";"";"Evie Networks";"Q105795220";"";"";"";"";"";"";"";"";"";"";"";"";"";""
"9797555741";"-37.9213954";"145.237506";"charging_station";"Knox";"Australia";"Victoria";"N/A";"N/A";"";"2";"";"";"Evie Networks";"Q105795220";"";"";"";"";"";"";"";"";"";"";"";"";"";""
"9852170665";"-37.8319262";"145.2139634";"charging_station";"Knox";"Australia";"Victoria";"N/A";"N/A";"";"";"";"";"Evie Networks";"Q105795220";"";"";"";"";"";"";"";"";"";"";"";"";"";""
"10100811799";"-37.6802607";"145.1233653";"charging_station";"";"Australia";"Victoria";"N/A";"N/A";"";"";"";"";"BP Pulse";"Q39057719";"";"";"";"";"";"";"";"";"";"";"BP Pulse";"";"";""
"10271676341";"-37.8377449";"145.1347209";"charging_station";"Whitehorse";"Australia";"Victoria";"N/A";"N/A";"";"12";"";"";"Tesla, Inc.";"Q478214";"";"";"";"";"";"";"";"";"";"";"Tesla Supercharger";"";"";""
"10606057530";"-37.908123";"145.1319018";"charging_station";"Monash";"Australia";"Victoria";"N/A";"N/A";"";"2";"";"";"";"";"";"";"";"";"";"";"";"";"";"";"";"";"";""
"10724628252";"-38.0932813";"145.3417866";"charging_station";"Casey";"Australia";"Victoria";"N/A";"N/A";"";"2";"";"";"Chargefox";"Q105775824";"";"";"";"";"";"";"";"";"";"";"";"";"";""
"10724639943";"-38.0512314";"145.2569607";"charging_station";"Casey";"Australia";"Victoria";"N/A";"N/A";"";"4";"";"";"Evie Networks";"Q105795220";"";"";"";"";"";"";"";"";"";"";"";"";"";""
"10747234585";"-37.8755074";"145.1645031";"charging_station";"Whitehorse";"Australia";"Victoria";"N/A";"N/A";"";"";"";"";"";"";"";"";"";"";"";"";"";"";"";"";"Engie";"";"";""
"10841728252";"-37.9420423";"145.1679215";"charging_station";"Greater Dandenong";"Australia";"Victoria";"N/A";"N/A";"";"";"";"";"";"";"";"";"";"";"";"";"";"";"";"";"";"";"";""
"10923020181";"-37.9707686";"145.2231276";"charging_station";"Greater Dandenong";"Australia";"Victoria";"N/A";"N/A";"";"";"";"";"BP Pulse";"Q39057719";"";"";"";"";"";"";"";"";"";"";"BP Pulse";"";"";""
"10927958414";"-38.0884048";"145.1825279";"charging_station";"Frankston";"Australia";"Victoria";"N/A";"N/A";"";"";"";"";"Evie Networks";"Q105795220";"";"";"";"";"";"";"";"";"";"";"";"";"";""
"10931032796";"-37.9132563";"145.2184081";"charging_station";"Monash";"Australia";"Victoria";"N/A";"N/A";"";"";"";"";"Chargefox";"Q105775824";"";"";"";"";"";"";"";"";"";"";"";"";"";""
"10931072151";"-37.8986283";"145.2304685";"charging_station";"Knox";"Australia";"Victoria";"N/A";"N/A";"";"";"";"";"Jolt";"Q109783503";"";"";"";"";"";"";"";"";"";"";"";"";"";""
"10938919622";"-37.7039707";"145.1603959";"charging_station";"Nillumbik";"Australia";"Victoria";"N/A";"N/A";"";"";"";"";"BP Pulse";"Q39057719";"";"";"";"";"";"";"";"";"";"";"BP Pulse";"";"";""
"10938996112";"-37.881819";"145.2948225";"charging_station";"Knox";"Australia";"Victoria";"N/A";"N/A";"";"";"";"";"Jolt";"Q109783503";"";"";"";"";"";"";"";"";"";"";"";"";"";""
"11043365400";"-37.9858932";"145.218728";"charging_station";"Greater Dandenong";"Australia";"Victoria";"N/A";"N/A";"";"";"";"";"Tesla, Inc.";"Q478214";"";"";"";"";"";"";"";"";"";"";"Tesla Supercharger";"";"";""
"11049270181";"-37.6538335";"145.5140998";"charging_station";"Yarra Ranges";"Australia";"Victoria";"N/A";"N/A";"";"2";"";"yes";"Evie Networks";"Q105795220";"";"";"";"";"";"";"";"";"";"";"";"";"24/7";"yes"
"11049290237";"-37.656863";"145.3737771";"charging_station";"Yarra Ranges";"Australia";"Victoria";"N/A";"N/A";"";"2";"";"";"Chargefox";"Q105775824";"";"";"";"";"";"";"";"";"";"";"";"";"";""
"11050379972";"-37.9082794";"145.3534525";"charging_station";"Yarra Ranges";"Australia";"Victoria";"N/A";"N/A";"";"";"";"";"Evie Networks";"Q105795220";"";"";"";"";"";"";"";"";"";"";"";"";"";""
"11142747612";"-37.7985627";"145.2541767";"charging_station";"Maroondah";"Australia";"Victoria";"N/A";"N/A";"";"";"";"";"BP Pulse";"Q39057719";"";"";"";"";"";"";"";"";"";"";"BP Pulse";"";"";""
"11142747613";"-37.8232059";"145.2963129";"charging_station";"Maroondah";"Australia";"Victoria";"N/A";"N/A";"";"";"";"";"AmpCharge";"Q111744561";"";"";"";"";"";"";"";"";"";"";"";"";"";""
"11221461253";"-37.7869143";"145.1281439";"charging_station";"Manningham";"Australia";"Victoria";"N/A";"N/A";"";"";"";"";"Bunnings";"";"";"";"";"2";"";"";"";"";"";"";"";"";"";""
"11242774690";"-37.8410946";"145.2666345";"charging_station";"Knox";"Australia";"Victoria";"N/A";"N/A";"";"";"";"";"Jolt";"Q109783503";"";"";"";"";"";"";"";"";"";"";"Jolt";"";"";""
"11335132177";"-37.900927";"145.1436383";"charging_station";"Monash";"Australia";"Victoria";"N/A";"N/A";"";"";"";"";"AmpCharge";"Q111744561";"";"";"";"";"";"";"";"";"";"";"";"";"";""
"11404710581";"-37.7907099";"145.2622369";"charging_station";"Maroondah";"Australia";"Victoria";"N/A";"N/A";"";"";"";"";"Evie Networks";"Q105795220";"";"";"";"";"";"";"";"";"";"";"";"";"";""
"11413950126";"-37.9101188";"145.3542395";"charging_station";"Yarra Ranges";"Australia";"Victoria";"N/A";"N/A";"";"6";"";"";"Chargefox";"Q105775824";"";"";"";"6";"";"";"";"";"";"";"";"";"";""
"11455171314";"-37.8193923";"145.120603";"charging_station";"Whitehorse";"Australia";"Victoria";"N/A";"N/A";"";"4";"";"";"Chargefox";"Q105775824";"";"";"";"";"";"";"";"";"";"";"Engie";"";"";""
"11565614049";"-37.902775";"145.1633681";"charging_station";"Monash";"Australia";"Victoria";"N/A";"N/A";"";"";"";"";"";"";"";"";"";"";"";"";"";"";"";"";"";"";"";""
"11578300609";"-37.8751244";"145.1648273";"charging_station";"Whitehorse";"Australia";"Victoria";"N/A";"N/A";"";"";"";"";"Chargefox";"Q105775824";"";"";"";"1";"";"";"";"";"";"";"Jetcharge";"";"";""
"11590215721";"-37.8562732";"145.3153562";"charging_station";"Knox";"Australia";"Victoria";"N/A";"N/A";"";"";"";"";"Evie Networks";"Q105795220";"";"";"";"";"";"";"";"";"";"";"";"";"";""
"11808829441";"-38.107942";"145.2819089";"charging_station";"Casey";"Australia";"Victoria";"N/A";"N/A";"";"";"";"";"Chargefox";"Q105775824";"";"";"";"";"";"";"";"";"";"";"";"";"";""
"11914867701";"-38.1101926";"145.2641028";"charging_station";"Casey";"Australia";"Victoria";"N/A";"N/A";"";"2";"";"";"BP Pulse";"Q39057719";"";"";"";"";"";"";"";"";"";"";"BP Pulse";"";"";""
"11927231085";"-37.883474";"145.2758214";"charging_station";"Knox";"Australia";"Victoria";"N/A";"N/A";"";"";"";"";"Jolt";"Q109783503";"";"";"";"";"";"";"";"";"";"";"";"";"";""
"11927237526";"-37.907299";"145.2367441";"charging_station";"Knox";"Australia";"Victoria";"N/A";"N/A";"";"";"";"";"AmpCharge";"Q111744561";"";"";"";"";"";"";"";"";"";"";"";"";"";""
"11951847302";"-37.8419754";"145.2655057";"charging_station";"Knox";"Australia";"Victoria";"N/A";"N/A";"";"";"";"";"Jolt";"Q109783503";"";"";"";"";"";"";"";"";"";"";"";"";"";""
"11952706225";"-37.8687419";"145.264251";"charging_station";"Knox";"Australia";"Victoria";"N/A";"N/A";"";"2";"";"";"Chargefox";"Q105775824";"";"";"";"2";"";"";"";"";"";"";"";"";"";""
"12012090534";"-37.8699815";"145.2376796";"charging_station";"Knox";"Australia";"Victoria";"N/A";"N/A";"";"";"";"";"Jolt";"Q109783503";"";"";"";"1";"";"";"";"";"";"";"";"";"";""
"12212905787";"-37.7611088";"145.312117";"charging_station";"Yarra Ranges";"Australia";"Victoria";"N/A";"N/A";"";"";"";"";"Evie Networks";"Q105795220";"";"";"";"";"";"";"";"";"";"";"";"";"";""
"12212952715";"-37.9953252";"145.182069";"charging_station";"Greater Dandenong";"Australia";"Victoria";"N/A";"N/A";"";"2";"";"";"AmpCharge";"Q111744561";"";"";"";"";"";"";"";"";"";"";"";"";"";""
"12229465743";"-38.0054338";"145.2483376";"charging_station";"Casey";"Australia";"Victoria";"N/A";"N/A";"";"";"";"";"Evie Networks";"Q105795220";"";"";"";"";"";"";"";"";"";"";"";"";"";""
"12360137872";"-38.0595853";"145.3378901";"charging_station";"Casey";"Australia";"Victoria";"N/A";"N/A";"";"";"";"";"Jolt";"Q109783503";"";"";"";"";"";"";"";"";"";"";"";"";"";""
"12427684093";"-37.9155781";"145.1032662";"charging_station";"";"Australia";"Victoria";"N/A";"N/A";"";"6";"";"";"Tesla, Inc.";"Q478214";"";"";"";"";"";"";"";"";"";"";"Tesla Supercharger";"";"";""
"12576954674";"-37.8497735";"145.0955244";"charging_station";"Monash";"Australia";"Victoria";"N/A";"N/A";"";"4";"";"";"Chargefox";"Q105775824";"";"";"";"2";"";"";"";"";"";"";"";"";"";""
"12594929219";"-37.7147748";"145.150521";"charging_station";"Nillumbik";"Australia";"Victoria";"N/A";"N/A";"";"";"";"";"Evie Networks";"Q105795220";"";"";"";"";"";"";"";"";"";"";"";"";"";""
"12747594915";"-37.9412149";"145.1668104";"charging_station";"Greater Dandenong";"Australia";"Victoria";"N/A";"N/A";"";"";"";"";"AmpCharge";"Q111744561";"";"";"";"";"";"";"";"";"";"";"";"";"";"yes"
"12751624243";"-37.8824926";"145.1641155";"charging_station";"Monash";"Australia";"Victoria";"N/A";"N/A";"";"1";"";"";"Exploren";"Q130278349";"";"";"";"1";"";"";"";"";"";"";"";"";"";""
"12751641414";"-37.8747844";"145.1269631";"charging_station";"Monash";"Australia";"Victoria";"N/A";"N/A";"";"";"";"";"Exploren";"Q130278349";"";"";"";"2";"";"";"";"";"";"";"";"";"";"yes"
"12839464034";"-38.0605804";"145.4519173";"charging_station";"Cardinia";"Australia";"Victoria";"N/A";"N/A";"";"6";"";"";"Tesla";"Q478214";"";"";"";"";"";"";"";"";"";"";"Tesla Supercharger";"";"";""
"12885302056";"-37.9319008";"145.1527483";"charging_station";"Greater Dandenong";"Australia";"Victoria";"N/A";"N/A";"";"2";"";"";"Exploren";"Q130278349";"";"";"";"";"";"";"";"";"";"";"";"";"";""
"12901220543";"-37.8588472";"145.240934";"charging_station";"Knox";"Australia";"Victoria";"N/A";"N/A";"";"";"";"";"Jolt";"Q109783503";"";"";"";"";"";"";"";"";"";"";"";"";"";""
"12911706578";"-37.8361191";"145.1329109";"charging_station";"Whitehorse";"Australia";"Victoria";"N/A";"N/A";"";"2";"";"";"Exploren";"Q130278349";"";"";"";"";"";"";"";"";"";"";"";"";"";""
"11413941452";"-37.7808512";"145.6132606";"charging_station";"Yarra Ranges";"Australia";"Victoria";"N/A";"N/A";"";"";"";"";"Evie Networks";"Q105795220";"";"";"";"";"";"";"";"";"";"";"";"";"";""
"8573118340";"-38.1121039";"147.063117";"charging_station";"Wellington";"Australia";"Victoria";"N/A";"N/A";"";"";"";"";"Central Victorian Greenhouse Alliance";"Q106320329";"";"";"";"";"";"";"";"";"";"";"Charging the Regions";"";"";""
"10925657911";"-37.9673797";"146.9750191";"charging_station";"Wellington";"Australia";"Victoria";"N/A";"N/A";"";"1";"";"yes";"Evie Networks";"Q105795220";"";"";"";"";"";"";"";"";"";"";"";"";"24/7";"yes"
"12771464241";"-37.98032";"146.786884";"charging_station";"Wellington";"Australia";"Victoria";"N/A";"N/A";"";"2";"";"";"Chargefox";"";"";"";"";"";"";"";"";"";"";"";"";"";"";"yes"
"8441518529";"-37.8810561";"147.9849476";"charging_station";"East Gippsland";"Australia";"Victoria";"N/A";"N/A";"";"";"";"";"";"";"";"";"";"";"";"";"";"";"";"";"Tesla";"";"";""
"10205699729";"-37.8255492";"147.6276789";"charging_station";"East Gippsland";"Australia";"Victoria";"N/A";"N/A";"";"";"";"";"Central Victorian Greenhouse Alliance";"Q106320329";"";"";"";"";"";"";"";"";"";"";"Charging the Regions";"";"";""
"10892824559";"-37.8815874";"147.9729315";"charging_station";"East Gippsland";"Australia";"Victoria";"N/A";"N/A";"";"2";"";"";"Evie Networks";"Q105795220";"";"";"";"";"";"";"";"";"";"";"";"";"";""
"10923467119";"-37.8236524";"147.6298864";"charging_station";"East Gippsland";"Australia";"Victoria";"N/A";"N/A";"";"";"";"";"Evie Networks";"Q105795220";"";"";"";"";"";"";"";"";"";"";"";"";"";""
"10925625893";"-37.9191889";"147.7230181";"charging_station";"East Gippsland";"Australia";"Victoria";"N/A";"N/A";"";"2";"";"";"Evie Networks";"Q105795220";"";"";"";"";"";"";"";"";"";"";"";"";"";""
"11377314807";"-37.8244565";"147.632675";"charging_station";"East Gippsland";"Australia";"Victoria";"N/A";"N/A";"";"";"";"";"Tesla, Inc.";"Q478214";"";"";"";"";"";"";"";"";"";"";"Tesla Supercharger";"";"";""
"12054200473";"-37.7082491";"147.8344445";"charging_station";"East Gippsland";"Australia";"Victoria";"N/A";"N/A";"";"";"";"";"Evie Networks";"Q105795220";"";"";"";"";"";"";"";"";"";"";"";"";"";""
"10062824393";"-37.7057324";"148.4559951";"charging_station";"East Gippsland";"Australia";"Victoria";"N/A";"N/A";"";"2";"";"";"Central Victorian Greenhouse Alliance";"Q106320329";"";"";"";"";"";"";"";"";"";"";"Charging the Regions";"";"";""
"9981314209";"-37.8003299";"174.8703072";"charging_station";"Waikato District";"New Zealand";"Waikato";"N/A";"N/A";"yes";"2";"";"yes";"OpenLoop";"Q113289213";"";"";"";"";"";"";"";"43";"Bow Street";"";"OpenLoop";"";"24/7";""
"5621471908";"-37.7883648";"175.2812883";"charging_station";"Hamilton City";"New Zealand";"Waikato";"N/A";"N/A";"";"2";"";"yes";"";"";"";"";"";"1";"";"";"";"";"";"";"";"";"";""
"5623682276";"-38.0084554";"175.3289049";"charging_station";"Waipa District";"New Zealand";"Waikato";"N/A";"N/A";"";"1";"";"yes";"ChargeNet NZ";"Q105872959";"";"";"";"";"";"";"";"";"";"";"";"";"";"yes"
"5623791284";"-37.8917769";"175.4669493";"charging_station";"Waipa District";"New Zealand";"Waikato";"N/A";"N/A";"";"1";"";"";"ChargeNet NZ";"Q105872959";"";"";"";"";"";"";"";"";"";"";"";"$0.25 / kWh + $0.25 / minute";"";"yes"
"6403463430";"-37.7780642";"175.3096585";"charging_station";"Hamilton City";"New Zealand";"Waikato";"N/A";"N/A";"";"2";"";"";"WEL Networks";"Q7948949";"";"";"";"1";"";"";"";"";"";"";"";"";"";"no"
"6884124421";"-37.7936927";"175.2863297";"charging_station";"Hamilton City";"New Zealand";"Waikato";"N/A";"N/A";"";"";"";"";"WEL Networks";"Q7948949";"";"";"";"";"";"";"";"";"";"";"";"";"";""
"8474121321";"-37.6600585";"175.5220157";"charging_station";"Waipa District";"New Zealand";"Waikato";"N/A";"N/A";"";"1";"";"";"ChargeNet NZ";"Q105872959";"";"";"";"";"";"";"";"79-87";"Thames Street";"";"";"0.25 / kWh + 0.25 / minute";"24/7";"yes"
"9911059127";"-37.7781287";"175.3079851";"charging_station";"Hamilton City";"New Zealand";"Waikato";"N/A";"N/A";"";"4";"";"";"Hikotron";"Q113289003";"";"";"";"4";"";"";"";"";"";"";"";"$0.50/kWh (min $2 fee) Idle fees may apply, please check the app for site specific details";"";"yes"
"9920476888";"-37.8052512";"175.3967862";"charging_station";"Waipa District";"New Zealand";"Waikato";"N/A";"N/A";"";"1";"";"";"Hikotron";"Q113289003";"";"";"";"2";"";"";"";"";"";"";"";"$0.50/kWh (min $2 fee) Idle fees may apply, please check the app for site specific details";"";"yes"
"9931567730";"-37.8940021";"175.4714348";"charging_station";"Waipa District";"New Zealand";"Waikato";"N/A";"N/A";"";"4";"";"";"Hikotron";"Q113289003";"";"";"";"4";"";"";"";"";"";"";"";"$0.50/kWh (min $2 fee)";"";"yes"
"9941787739";"-38.008125";"175.3249881";"charging_station";"Waipa District";"New Zealand";"Waikato";"N/A";"N/A";"";"4";"";"";"Hikotron";"Q113289003";"";"";"";"4";"";"";"";"232";"Mahoe Street";"3800";"";"$0.50/kWh (min $2 fee) Idle fees may apply, please check the app for site specific details";"";"yes"
"9965499061";"-37.8767065";"175.3245586";"charging_station";"Hamilton City";"New Zealand";"Waikato";"N/A";"N/A";"";"2";"";"yes";"OpenLoop";"Q113289213";"";"";"";"1";"";"";"";"153";"Ingram Road";"3282";"OpenLoop";"";"24/7";"no"
"9984621644";"-37.9916366";"175.2003051";"charging_station";"Otorohanga District";"New Zealand";"Waikato";"N/A";"N/A";"";"1";"";"";"ChargeNet NZ";"Q105872959";"";"";"";"";"";"";"";"";"";"";"";"0.25 / kWh + 0.25 / minute";"24/7";"yes"
"10015270450";"-37.7460794";"175.2248459";"charging_station";"Hamilton City";"New Zealand";"Waikato";"N/A";"N/A";"";"2";"";"";"ChargeNet NZ";"Q105872959";"";"";"";"";"";"";"";"";"";"";"";"$0.60 / kWh";"";"yes"
"10020136535";"-37.7705408";"175.3395655";"charging_station";"Hamilton City";"New Zealand";"Waikato";"N/A";"N/A";"";"6";"";"";"Hikotron";"Q113289003";"";"";"";"6";"";"";"";"44";"Hopkins Road";"";"";"$0.50/kWh (min $2 fee)";"";"yes"
"10284058490";"-37.7317213";"175.2225525";"charging_station";"Hamilton City";"New Zealand";"Waikato";"N/A";"N/A";"";"50";"";"";"WEL Networks";"Q7948949";"";"";"";"";"";"";"";"";"";"";"";"";"";"no"
"10578325831";"-37.8906649";"175.4677661";"charging_station";"Waipa District";"New Zealand";"Waikato";"N/A";"N/A";"";"2";"";"";"bpcharge";"Q39057719";"";"";"";"";"";"";"";"";"";"";"bpcharge";"";"";"yes"
"11055916641";"-37.7793095";"175.3330773";"charging_station";"Hamilton City";"New Zealand";"Waikato";"N/A";"N/A";"";"4";"";"";"WEL Networks";"Q7948949";"";"";"";"";"";"";"";"";"";"";"";"";"";"yes"
"11159728780";"-37.8671145";"175.4566017";"charging_station";"Waipa District";"New Zealand";"Waikato";"N/A";"N/A";"";"3";"";"";"Z Energy";"Q8063337";"";"";"";"";"";"";"";"";"";"";"Z Energy";"0.69 NZD/kWh";"";"yes"
"11254394292";"-37.7810198";"175.325364";"charging_station";"Hamilton City";"New Zealand";"Waikato";"N/A";"N/A";"";"";"";"";"Hikotron";"Q113289003";"";"";"";"";"";"";"";"";"";"";"";"";"";""
"11601235402";"-37.7774084";"175.3452461";"charging_station";"Hamilton City";"New Zealand";"Waikato";"N/A";"N/A";"";"6";"";"";"Tesla, Inc.";"Q478214";"";"";"";"";"";"";"";"";"";"";"Tesla Supercharger";"";"";"yes"
"9914233423";"-37.9781469";"175.7585592";"charging_station";"Matamata-Piako District";"New Zealand";"Waikato";"N/A";"N/A";"";"2";"";"";"ChargeNet NZ";"Q105872959";"";"";"";"";"";"";"";"";"";"";"";"";"";"yes"
"9914233429";"-37.8037641";"175.7699667";"charging_station";"Matamata-Piako District";"New Zealand";"Waikato";"N/A";"N/A";"";"1";"";"";"ChargeNet NZ";"Q105872959";"";"";"";"";"";"";"";"";"";"";"";"";"";"yes"
"10005250881";"-37.872944";"175.8425663";"charging_station";"Matamata-Piako District";"New Zealand";"Waikato";"N/A";"N/A";"";"1";"";"";"kiwev";"";"";"";"";"1";"";"";"";"";"";"";"";"";"";"yes"
"10939671209";"-37.9769426";"175.7550198";"charging_station";"Matamata-Piako District";"New Zealand";"Waikato";"N/A";"N/A";"";"2";"";"";"";"";"";"";"";"";"";"";"";"";"";"";"BP";"";"";"yes"
"11544893284";"-37.6411763";"176.0374465";"charging_station";"Tauranga City";"New Zealand";"Bay of Plenty";"N/A";"N/A";"";"2";"";"";"Hikotron";"Q113289003";"";"";"";"2";"";"";"";"";"";"";"";"";"";""
"6564435009";"-37.7176342";"176.3417613";"charging_station";"Western Bay of Plenty District";"New Zealand";"Bay of Plenty";"N/A";"N/A";"";"2";"";"";"";"";"";"";"";"2";"";"";"";"";"";"";"Tesla, Inc.";"";"";""
"9787663378";"-37.7379992";"176.1038271";"charging_station";"Tauranga City";"New Zealand";"Bay of Plenty";"N/A";"N/A";"";"4";"";"";"";"";"";"";"";"";"";"";"";"";"";"";"";"";"";"no"
"9787663383";"-37.6733642";"176.2228193";"charging_station";"Tauranga City";"New Zealand";"Bay of Plenty";"N/A";"N/A";"";"2";"";"";"Bayfair";"";"";"";"";"";"";"";"";"";"";"";"";"";"";"no"
"9826881384";"-38.1106217";"176.2233333";"charging_station";"Rotorua District";"New Zealand";"Bay of Plenty";"N/A";"N/A";"";"1";"";"";"ChargeNet NZ";"Q105872959";"";"";"";"";"";"";"";"";"";"";"";"$0.25 / kWh + $0.25 / minute";"";"yes"
"9833041473";"-37.737164";"176.1067373";"charging_station";"Tauranga City";"New Zealand";"Bay of Plenty";"N/A";"N/A";"";"2";"";"";"";"";"";"";"";"";"";"";"";"";"";"";"";"";"";"no"
"9859794026";"-37.6749384";"176.2243026";"charging_station";"Tauranga City";"New Zealand";"Bay of Plenty";"N/A";"N/A";"";"1";"";"";"ChargeNet NZ";"Q105872959";"";"";"";"";"";"";"";"";"";"";"";"";"";""
"9859794027";"-37.6749309";"176.2242929";"charging_station";"Tauranga City";"New Zealand";"Bay of Plenty";"N/A";"N/A";"";"2";"";"";"Bayfair";"";"";"";"";"1";"";"";"";"";"";"";"";"";"";"no"
"9859794028";"-37.6749238";"176.2242849";"charging_station";"Tauranga City";"New Zealand";"Bay of Plenty";"N/A";"N/A";"";"1";"";"";"Bayfair";"";"";"";"";"";"";"";"";"";"";"";"";"";"";"no"
"9859794082";"-37.6650395";"176.1970197";"charging_station";"Tauranga City";"New Zealand";"Bay of Plenty";"N/A";"N/A";"";"2";"";"";"ChargeNet NZ";"Q105872959";"";"";"";"";"";"";"";"";"";"";"";"";"";"yes"
"9859794083";"-37.6537733";"176.1986272";"charging_station";"Tauranga City";"New Zealand";"Bay of Plenty";"N/A";"N/A";"";"1";"";"";"ChargeNet NZ";"Q105872959";"";"";"";"1";"";"";"";"";"";"";"";"";"";""
"9863261709";"-37.6956417";"176.1613922";"charging_station";"Tauranga City";"New Zealand";"Bay of Plenty";"N/A";"N/A";"";"1";"";"";"ChargeNet NZ";"Q105872959";"";"";"";"";"";"";"";"";"";"";"";"$0.25 / kWh + $0.25 / minute";"";"yes"
"9863261710";"-37.6964533";"176.160279";"charging_station";"Tauranga City";"New Zealand";"Bay of Plenty";"N/A";"N/A";"";"2";"";"";"Chargefox";"Q105775824";"";"";"";"2";"";"";"";"";"";"";"";"";"";""
"9863329207";"-37.7051179";"176.1532445";"charging_station";"Tauranga City";"New Zealand";"Bay of Plenty";"N/A";"N/A";"";"1";"";"";"";"";"";"";"";"1";"";"";"";"";"";"";"";"";"";"no"
"9863329216";"-37.6850351";"176.1676452";"charging_station";"Tauranga City";"New Zealand";"Bay of Plenty";"N/A";"N/A";"";"3";"";"";"";"";"";"";"";"3";"";"";"";"";"";"";"";"";"";"no"
"9863335917";"-37.6874985";"176.1676682";"charging_station";"Tauranga City";"New Zealand";"Bay of Plenty";"N/A";"N/A";"";"3";"";"";"";"";"";"";"";"3";"";"";"";"";"";"";"";"";"";"no"
"9920395563";"-37.7835006";"176.3272963";"charging_station";"Western Bay of Plenty District";"New Zealand";"Bay of Plenty";"N/A";"N/A";"";"1";"";"";"ChargeNet NZ";"Q105872959";"";"";"";"";"";"";"";"";"";"";"";"$0.80/kWh";"";"yes"
"9922180703";"-37.6904207";"176.2392844";"charging_station";"Tauranga City";"New Zealand";"Bay of Plenty";"N/A";"N/A";"";"2";"";"";"";"";"";"";"";"2";"";"";"";"";"";"";"";"";"";""
"9922180704";"-37.6904441";"176.2393325";"charging_station";"Tauranga City";"New Zealand";"Bay of Plenty";"N/A";"N/A";"";"2";"";"";"";"";"";"";"";"2";"";"";"";"";"";"";"";"";"";""
"9922180705";"-37.6904681";"176.2393834";"charging_station";"Tauranga City";"New Zealand";"Bay of Plenty";"N/A";"N/A";"";"2";"";"";"";"";"";"";"";"2";"";"";"";"";"";"";"";"";"";""
"9938245456";"-37.7371308";"176.1068173";"charging_station";"Tauranga City";"New Zealand";"Bay of Plenty";"N/A";"N/A";"";"2";"";"";"";"";"";"";"";"";"";"";"";"";"";"";"Tesla, Inc.";"";"";"no"
"9952325355";"-37.6811151";"176.1684149";"charging_station";"Tauranga City";"New Zealand";"Bay of Plenty";"N/A";"N/A";"";"2";"";"";"";"";"";"";"";"";"";"";"";"";"";"";"Tesla, Inc.";"";"";""
"10050605855";"-37.6989022";"176.1577006";"charging_station";"Tauranga City";"New Zealand";"Bay of Plenty";"N/A";"N/A";"";"4";"";"";"";"";"";"";"";"";"";"";"";"";"";"";"";"";"";"no"
"10888869034";"-37.6960901";"176.1068446";"charging_station";"Tauranga City";"New Zealand";"Bay of Plenty";"N/A";"N/A";"";"2";"";"";"Z Energy";"Q8063337";"";"";"";"";"";"";"";"";"";"";"";"";"";""
"12141294186";"-37.7379676";"176.1048131";"charging_station";"Tauranga City";"New Zealand";"Bay of Plenty";"N/A";"N/A";"";"10";"";"";"ChargeNet NZ";"Q105872959";"";"";"";"";"";"";"";"";"";"";"";"$0.85 kW/h";"24/7";"yes"
"5070640639";"-37.9497218";"176.9988888";"charging_station";"Whakatane District";"New Zealand";"Bay of Plenty";"N/A";"N/A";"";"2";"";"";"ChargeNet NZ";"Q105872959";"";"";"";"1";"";"";"";"32";"Quay Street";"";"";"";"";"yes"
"9954015822";"-38.0851946";"176.7017188";"charging_station";"Kawerau District";"New Zealand";"Bay of Plenty";"N/A";"N/A";"";"1";"";"";"ChargeNet NZ";"Q105872959";"";"";"";"";"";"";"";"";"";"";"";"$0.25 / kWh + $0.25 / minute";"24/7";"yes"
"9954263962";"-38.0125323";"177.2834506";"charging_station";"Opotiki District";"New Zealand";"Bay of Plenty";"N/A";"N/A";"";"2";"";"";"ChargeNet NZ";"Q105872959";"";"";"";"1";"";"";"";"";"";"";"";"";"";"yes"
"9958469828";"-37.7402837";"177.6749044";"charging_station";"Opotiki District";"New Zealand";"Bay of Plenty";"N/A";"N/A";"";"2";"";"";"ChargeNet NZ";"Q105872959";"";"";"";"1";"";"";"";"";"";"";"";"";"";"yes"
"8863135595";"-37.6338064";"178.3692653";"charging_station";"Gisborne District";"New Zealand";"Gisborne";"N/A";"N/A";"";"2";"";"";"";"";"";"";"";"";"";"";"";"";"";"";"";"";"";""
"4376146591";"-37.4255003";"-72.3469646";"charging_station";"Provincia de Biobio";"Chile";"Biobio";"N/A";"N/A";"";"";"";"";"";"";"";"";"";"";"";"";"";"";"";"";"";"";"";""
"4761684222";"-37.2983617";"-69.0676321";"charging_station";"";"Argentina";"Neuquen";"N/A";"N/A";"";"";"";"";"YPF PIPH";"";"";"";"";"";"";"";"";"";"";"";"";"";"";""
