"id";"lat";"lon";"amenity";"city";"state";"country";"scraped_country_code";"scraped_country_name";"authentication:nfc";"capacity";"capacity:car";"motorcar";"operator";"operator:wikidata";"socket:schuko";"socket:schuko:current";"socket:schuko:voltage";"socket:type2";"socket:type2:current";"socket:type2:voltage";"ref";"addr:housenumber";"addr:street";"addr:postcode";"brand";"charge";"opening_hours";"fee"
"10047349917";"3.6033194";"-76.4815466";"charging_station";"";"Colombia";"Valle del Cauca";"N/A";"N/A";"";"";"";"";"";"";"";"";"";"";"";"";"";"";"";"";"";"";"";""
"10782549305";"3.4531058";"-76.5317658";"charging_station";"";"Colombia";"Valle del Cauca";"N/A";"N/A";"";"";"";"";"";"";"";"";"";"";"";"";"";"";"";"";"";"";"";""
"6409892986";"3.7898289";"-71.4240266";"charging_station";"";"Colombia";"Meta";"N/A";"N/A";"";"";"";"";"";"";"";"";"";"";"";"";"";"";"";"";"";"";"";""
"6774521785";"3.8857845";"11.5009641";"charging_station";"";"Cameroon";"Centre";"N/A";"N/A";"";"";"";"";"Logistics Base";"";"";"";"";"";"";"";"";"";"";"";"";"";"";""
"11455050263";"3.8717244";"11.4682192";"charging_station";"";"Cameroon";"Centre";"N/A";"N/A";"";"";"";"";"";"";"";"";"";"";"";"";"";"";"";"";"";"";"";""
"740750567";"";"";"charging_station";"N/A";"N/A";"N/A";"N/A";"N/A";"";"";"";"";"";"";"";"";"";"";"";"";"";"";"";"";"";"";"";""
"6935230445";"3.7572905";"34.8166104";"";"Kaabong District";"Uganda";"Northern Region";"N/A";"N/A";"";"";"";"";"";"";"";"";"";"";"";"";"";"";"";"";"";"";"";""
"6935230446";"3.7572968";"34.8166373";"";"Kaabong District";"Uganda";"Northern Region";"N/A";"N/A";"";"";"";"";"";"";"";"";"";"";"";"";"";"";"";"";"";"";"";""
"6935230448";"3.7573177";"34.8166053";"";"Kaabong District";"Uganda";"Northern Region";"N/A";"N/A";"";"";"";"";"";"";"";"";"";"";"";"";"";"";"";"";"";"";"";""
"11007119435";"3.7573228";"34.8166325";"";"Kaabong District";"Uganda";"Northern Region";"N/A";"N/A";"";"";"";"";"";"";"";"";"";"";"";"";"";"";"";"";"";"";"";""
"11209171186";"3.7572961";"34.8166336";"";"Kaabong District";"Uganda";"Northern Region";"N/A";"N/A";"";"";"";"";"";"";"";"";"";"";"";"";"";"";"";"";"";"";"";""
"11209171187";"3.7572782";"34.8166369";"";"Kaabong District";"Uganda";"Northern Region";"N/A";"N/A";"";"";"";"";"";"";"";"";"";"";"";"";"";"";"";"";"";"";"";""
"11209171188";"3.7572745";"34.8166176";"";"Kaabong District";"Uganda";"Northern Region";"N/A";"N/A";"";"";"";"";"";"";"";"";"";"";"";"";"";"";"";"";"";"";"";""
"11209171189";"3.7572913";"34.8166145";"";"Kaabong District";"Uganda";"Northern Region";"N/A";"N/A";"";"";"";"";"";"";"";"";"";"";"";"";"";"";"";"";"";"";"";""
"5876287235";"3.8497209";"73.4550735";"charging_station";"";"Maldives";"Maale";"N/A";"N/A";"";"6";"";"";"";"";"";"";"";"";"";"";"";"";"";"";"";"";"";""
"11500046001";"3.6628853";"101.5206194";"charging_station";"";"Malaysia";"Selangor";"N/A";"N/A";"";"";"";"";"Gentari";"";"";"";"";"";"";"";"";"";"";"";"Gentari";"";"";"no"
"10112713052";"4.011005";"-76.2231794";"charging_station";"";"Colombia";"Valle del Cauca";"N/A";"N/A";"";"";"";"";"";"";"";"";"";"";"";"";"";"";"";"";"";"";"";""
"1425506843";"4.4339497";"-75.1761094";"charging_station";"";"Colombia";"Tolima";"N/A";"N/A";"";"";"";"";"parqueadero";"";"";"";"";"";"";"";"";"";"";"";"";"";"";""
"1425506845";"4.4345063";"-75.1742773";"charging_station";"";"Colombia";"Tolima";"N/A";"N/A";"";"";"";"";"parqueadero";"";"";"";"";"";"";"";"";"";"";"";"";"";"";""
"1425517218";"4.4346944";"-75.1752052";"charging_station";"";"Colombia";"Tolima";"N/A";"N/A";"";"";"";"";"parqueadero";"";"";"";"";"";"";"";"";"";"";"";"";"";"";""
"7123129887";"4.2528671";"-74.9170808";"charging_station";"Flandes";"Colombia";"Tolima";"N/A";"N/A";"";"";"";"";"Familia sosa Ferreira";"";"";"";"";"";"";"";"";"";"";"";"";"";"";""
"12150682955";"4.0239153";"11.3814543";"charging_station";"";"Cameroon";"Centre";"N/A";"N/A";"";"";"";"";"";"";"";"";"";"";"";"";"";"";"";"";"";"";"";""
"1349114506";"";"";"charging_station";"N/A";"N/A";"N/A";"N/A";"N/A";"";"";"";"";"";"";"";"";"";"";"";"";"";"";"";"";"";"";"";""
"12479583795";"4.3764328";"18.5622461";"";"";"Central African Republic";"Bangui";"N/A";"N/A";"";"";"";"";"";"";"";"";"";"";"";"";"";"";"";"";"";"";"";""
"12479583796";"4.3760591";"18.5624107";"";"";"Central African Republic";"Bangui";"N/A";"N/A";"";"";"";"";"";"";"";"";"";"";"";"";"";"";"";"";"";"";"";""
"12479583797";"4.376257";"18.562664";"";"";"Central African Republic";"Bangui";"N/A";"N/A";"";"";"";"";"";"";"";"";"";"";"";"";"";"";"";"";"";"";"";""
"12479583798";"4.3765108";"18.5625461";"";"";"Central African Republic";"Bangui";"N/A";"N/A";"";"";"";"";"";"";"";"";"";"";"";"";"";"";"";"";"";"";"";""
"11182440740";"4.1777991";"73.5173391";"charging_station";"";"Maldives";"Maale";"N/A";"N/A";"";"";"";"";"";"";"";"";"";"";"";"";"";"";"";"";"";"";"";""
"11590567674";"4.1878156";"73.5274272";"charging_station";"";"Maldives";"Maale";"N/A";"N/A";"";"";"";"";"";"";"";"";"";"";"";"";"";"";"";"";"";"";"";""
"12916603364";"4.1699251";"73.5130915";"charging_station";"";"Maldives";"Maale";"N/A";"N/A";"";"2";"";"";"stelco";"";"";"";"";"";"";"";"";"";"";"";"";"";"";""
"12916643092";"4.1700276";"73.5131031";"charging_station";"";"Maldives";"Maale";"N/A";"N/A";"";"2";"";"";"stelco";"";"";"";"";"";"";"";"";"";"";"";"";"";"";""
"12916734892";"4.170347";"73.5131343";"charging_station";"";"Maldives";"Maale";"N/A";"N/A";"";"2";"";"";"stelco";"";"";"";"";"";"";"";"";"";"";"";"";"";"";""
"12916752091";"4.1701312";"73.5131075";"charging_station";"";"Maldives";"Maale";"N/A";"N/A";"";"2";"";"";"stelco";"";"";"";"";"";"";"";"";"";"";"";"";"";"";""
"8370035578";"4.3886294";"103.4559755";"charging_station";"";"Malaysia";"Terengganu";"N/A";"N/A";"";"";"";"yes";"Resorts World Kijal";"";"";"";"";"1";"32";"400";"BMW I Wallbox";"";"";"";"BMW i Wallbox";"Guests and facilities customers.";"";"yes"
"5869758585";"4.7919288";"-75.7359131";"charging_station";"";"Colombia";"Risaralda";"N/A";"N/A";"";"";"";"";"";"";"";"";"";"";"";"";"";"";"";"";"";"";"";""
"7142533362";"4.5416075";"-75.771321";"charging_station";"";"Colombia";"Quindio";"N/A";"N/A";"";"";"";"";"";"";"";"";"";"";"";"";"";"";"";"";"";"";"";""
"9499336071";"4.7930094";"-75.6895499";"charging_station";"";"Colombia";"Risaralda";"N/A";"N/A";"";"";"";"";"";"";"";"";"";"";"";"";"";"";"";"";"";"";"";""
"10007796363";"4.5188014";"-75.6894372";"charging_station";"";"Colombia";"Quindio";"N/A";"N/A";"";"";"";"";"";"";"";"";"";"";"";"";"";"";"";"";"";"";"";""
"11034495218";"4.8557347";"-75.6367228";"charging_station";"";"Colombia";"Risaralda";"N/A";"N/A";"";"";"";"";"";"";"";"";"";"";"";"";"";"";"";"";"";"";"";"yes"
"9288466215";"4.5502777";"-74.2408513";"charging_station";"";"Colombia";"Cundinamarca";"N/A";"N/A";"";"2";"";"";"Terpel";"";"";"";"";"1";"";"";"";"";"";"";"";"";"";"yes"
"9288524337";"4.788985";"-74.195471";"charging_station";"";"Colombia";"Cundinamarca";"N/A";"N/A";"";"2";"";"";"Terpel";"";"";"";"";"1";"";"";"";"";"";"";"";"";"";"yes"
"6876702735";"4.6739285";"-74.0883747";"charging_station";"";"Colombia";"Bogota D.C.";"N/A";"N/A";"yes";"1";"";"";"Terpel";"";"";"";"";"";"";"";"";"";"";"";"";"";"24/7";""
"6876710563";"4.7026605";"-74.0421981";"charging_station";"";"Colombia";"Bogota D.C.";"N/A";"N/A";"";"2";"";"yes";"Codensa";"";"";"";"";"2";"";"";"";"";"";"";"";"";"24/7";"no"
"6876729187";"4.7041608";"-74.0291324";"charging_station";"";"Colombia";"Bogota D.C.";"N/A";"N/A";"";"2";"";"yes";"Autogermana";"";"";"";"";"";"";"";"";"";"";"";"";"";"Mo-Fr 09:00-19:00; Sa 10:00-18:00; Su 11:00-15:00";"no"
"6876751154";"4.6659334";"-74.0541601";"charging_station";"";"Colombia";"Bogota D.C.";"N/A";"N/A";"";"";"";"yes";"";"";"";"";"";"1";"";"";"";"";"";"";"";"";"Mo-Th 10:00-20:00; Fr,Sa 10:00-21:00; Su 12:00-19:00; PH off";"no"
"6876751240";"4.6972245";"-74.0497546";"charging_station";"";"Colombia";"Bogota D.C.";"N/A";"N/A";"yes";"";"";"";"Codensa";"";"";"";"";"1";"";"";"";"";"";"";"";"";"";""
"6876755454";"4.664195";"-74.0596073";"charging_station";"";"Colombia";"Bogota D.C.";"N/A";"N/A";"yes";"";"";"yes";"Codensa";"";"";"";"";"1";"";"";"";"";"";"";"";"";"";""
"6876762284";"4.6676296";"-74.0969481";"charging_station";"";"Colombia";"Bogota D.C.";"N/A";"N/A";"";"";"";"";"Codensa";"";"";"";"";"";"";"";"";"";"";"";"";"";"";""
"6876765986";"4.5962124";"-74.0827122";"charging_station";"";"Colombia";"Bogota D.C.";"N/A";"N/A";"";"";"";"";"Codensa";"";"";"";"";"";"";"";"";"";"";"";"";"";"";""
"6876777150";"4.613668";"-74.0709682";"charging_station";"";"Colombia";"Bogota D.C.";"N/A";"N/A";"";"";"";"yes";"Hotel Tequendama";"";"";"";"";"";"";"";"";"";"";"";"";"";"";"no"
"6876783132";"4.6044764";"-74.0656976";"charging_station";"";"Colombia";"Bogota D.C.";"N/A";"N/A";"";"";"";"";"Universiad de Los Andes";"";"";"";"";"";"";"";"";"";"";"";"";"";"";""
"6876784306";"4.6873009";"-74.0511265";"charging_station";"";"Colombia";"Bogota D.C.";"N/A";"N/A";"";"";"";"";"Car-B";"";"";"";"";"";"";"";"";"";"";"";"";"";"";""
"6900649800";"4.6467369";"-74.0955052";"charging_station";"";"Colombia";"Bogota D.C.";"N/A";"N/A";"";"";"";"yes";"";"";"";"";"";"1";"";"";"";"";"";"";"";"";"";""
"11371338669";"4.620202";"-74.0815754";"charging_station";"";"Colombia";"Bogota D.C.";"N/A";"N/A";"";"";"";"";"";"";"";"";"";"";"";"";"";"";"";"";"";"";"";""
"11371341369";"4.6195983";"-74.0807165";"charging_station";"";"Colombia";"Bogota D.C.";"N/A";"N/A";"";"";"";"";"";"";"";"";"";"";"";"";"";"";"";"";"";"";"";""
"11371343170";"4.6177741";"-74.0793336";"charging_station";"";"Colombia";"Bogota D.C.";"N/A";"N/A";"";"";"";"";"";"";"";"";"";"";"";"";"";"";"";"";"";"";"";""
"7985104846";"4.9439038";"-52.3087122";"charging_station";"Guyane";"French Guiana";"Guyane";"N/A";"N/A";"";"1";"";"";"EZDrive";"";"";"";"";"";"";"";"";"";"";"";"";"";"";""
"10205145356";"4.9391613";"-52.3007798";"charging_station";"Guyane";"French Guiana";"Guyane";"N/A";"N/A";"";"1";"";"";"EZDrive";"";"";"";"";"";"";"";"";"";"";"";"";"";"";""
"10223802667";"4.9261306";"-52.2879005";"charging_station";"Guyane";"French Guiana";"Guyane";"N/A";"N/A";"";"2";"";"";"Wallbox";"";"";"";"";"";"";"";"";"";"";"";"";"";"";""
"10669591141";"4.9095908";"-52.2728688";"charging_station";"Guyane";"French Guiana";"Guyane";"N/A";"N/A";"";"2";"";"";"EZDrive";"";"";"";"";"";"";"";"";"";"";"";"";"";"";""
"11109169126";"4.903192";"-52.31936";"charging_station";"Guyane";"French Guiana";"Guyane";"N/A";"N/A";"";"";"";"";"Freshmile SAS";"";"";"";"";"yes";"";"";"L5AB9NSGAH";"";"";"";"";"";"24/7";"no"
"11109169127";"4.9046693";"-52.2765218";"charging_station";"Guyane";"French Guiana";"Guyane";"N/A";"N/A";"";"";"";"";"Green Technologie";"";"";"";"";"yes";"";"";"FR*EZD*E65528, FR*EZD*E65529";"";"";"";"";"";"24/7";"no"
"11109169129";"4.9097088";"-52.3218898";"charging_station";"Guyane";"French Guiana";"Guyane";"N/A";"N/A";"";"1";"";"";"Green Technologie";"";"";"";"";"yes";"";"";"FR*EZD*E45628";"";"";"";"";"";"Mo-Fr 07:30-17:15, Sa 07:30-12:15";"no"
"11109170884";"4.8792899";"-52.3663951";"charging_station";"";"French Guiana";"";"N/A";"N/A";"";"";"";"";"Green Technologie";"";"";"";"";"yes";"";"";"FR*EZD*E45643";"";"";"";"";"";"24/7";"no"
"11109170888";"4.8468044";"-52.3352609";"charging_station";"Guyane";"French Guiana";"Guyane";"N/A";"N/A";"";"";"";"";"Green Technologie";"";"";"";"";"yes";"";"";"FR*EZD*E45632";"";"";"";"";"";"24/7";"no"
"11366131900";"4.9391199";"-52.3317171";"charging_station";"Guyane";"French Guiana";"Guyane";"N/A";"N/A";"";"1";"";"";"";"";"";"";"";"";"";"";"";"";"";"";"";"";"";""
"12736936137";"4.9320497";"-52.307771";"charging_station";"Guyane";"French Guiana";"Guyane";"N/A";"N/A";"";"2";"";"yes";"EZDrive";"";"";"";"";"";"";"";"";"";"";"";"";"";"";""
"4515733292";"4.8805606";"-8.3832957";"charging_station";"";"Liberia";"Grand Kru";"N/A";"N/A";"";"";"";"";"徐工矿区";"";"";"";"";"";"";"";"";"";"";"";"";"";"";""
"4663295908";"4.4512705";"100.6238526";"charging_station";"";"Malaysia";"Perak";"N/A";"N/A";"";"";"";"";"ooooooik";"";"";"";"";"";"";"";"";"";"";"";"";"";"";""
"8566605832";"4.7726251";"100.761468";"charging_station";"";"Malaysia";"Perak";"N/A";"N/A";"";"43-50 kW";"";"";"EV Connection";"";"";"";"";"1";"";"";"";"";"North-South Expressway Northbound";"";"ABB Terra CJG";"RM1.20 per minute";"";"yes"
"8568358419";"4.7738068";"100.7552531";"charging_station";"";"Malaysia";"Perak";"N/A";"N/A";"";"43-50 kW";"";"";"EV Connection";"";"";"";"";"1";"";"";"";"";"North-South Expressway Southbound";"";"ABB Terra CJG";"RM1.20 per minute";"";"yes"
"10063847912";"4.598138";"101.0761023";"charging_station";"";"Malaysia";"Perak";"N/A";"N/A";"";"1";"";"";"ChargEV";"";"";"";"";"";"";"";"";"";"";"";"";"";"";"no"
"11493155072";"4.71309";"100.9450512";"charging_station";"";"Malaysia";"Perak";"N/A";"N/A";"";"";"";"";"JomCharge";"";"";"";"";"";"";"";"";"";"";"";"JomCharge";"";"";"yes"
"11738057754";"4.6206763";"101.1479652";"charging_station";"";"Malaysia";"Perak";"N/A";"N/A";"";"";"";"";"chargEV";"";"";"";"";"";"";"";"";"";"";"";"chargEV";"";"";"yes"
"11738057755";"4.6203541";"101.1483179";"charging_station";"";"Malaysia";"Perak";"N/A";"N/A";"";"";"";"";"Gentari";"";"";"";"";"";"";"";"";"";"";"";"Gentari";"";"";"yes"
