"id";"lat";"lon";"amenity";"city";"state";"country";"scraped_country_code";"scraped_country_name";"authentication:nfc";"capacity";"capacity:car";"motorcar";"operator";"operator:wikidata";"socket:schuko";"socket:schuko:current";"socket:schuko:voltage";"socket:type2";"socket:type2:current";"socket:type2:voltage";"ref";"addr:housenumber";"addr:street";"addr:postcode";"brand";"charge";"opening_hours";"fee"
"7657918685";"-6.8125605";"38.3282035";"charging_station";"";"Tanzania";"Pwani";"N/A";"N/A";"";"";"";"";"railway station";"";"";"";"";"";"";"";"";"";"";"";"";"";"";""
"3766218735";"-6.8171713";"39.2724246";"charging_station";"";"Tanzania";"Dar es Salaam";"N/A";"N/A";"";"";"";"";"";"";"";"";"";"";"";"";"";"";"";"";"";"";"";""
"3766222577";"-6.8172303";"39.2722752";"charging_station";"";"Tanzania";"Dar es Salaam";"N/A";"N/A";"";"";"";"";"";"";"";"";"";"";"";"";"";"";"";"";"";"";"";""
"3766320219";"-6.8167051";"39.2727634";"charging_station";"";"Tanzania";"Dar es Salaam";"N/A";"N/A";"";"";"";"";"";"";"";"";"";"";"";"";"";"";"";"";"";"";"";""
"3766320222";"-6.8167239";"39.2726652";"charging_station";"";"Tanzania";"Dar es Salaam";"N/A";"N/A";"";"";"";"";"";"";"";"";"";"";"";"";"";"";"";"";"";"";"";""
"6263676672";"-6.8297884";"39.1676472";"charging_station";"";"Tanzania";"Dar es Salaam";"N/A";"N/A";"";"";"";"";"";"";"";"";"";"";"";"";"";"";"";"";"";"";"";""
"7701303185";"-6.3537658";"31.0620868";"charging_station";"";"Tanzania";"Katavi";"N/A";"N/A";"";"";"";"";"TANESCO POWER STATION MPANDA";"";"";"";"";"";"";"";"";"";"";"";"";"";"";""
"5053386124";"-6.2034334";"35.7403999";"charging_station";"";"Tanzania";"Dodoma";"N/A";"N/A";"";"";"";"";"mipango oil stastion";"";"";"";"";"";"";"";"";"";"";"";"";"";"";""
"7651951663";"-5.8583646";"38.0062769";"charging_station";"";"Tanzania";"Tanga";"N/A";"N/A";"";"";"";"";"";"";"";"";"";"";"";"";"";"";"";"";"";"";"";""
"4556863992";"-4.8663787";"29.6318538";"charging_station";"";"Tanzania";"Kigoma";"N/A";"N/A";"";"";"";"";"";"";"";"";"";"";"";"";"";"";"";"";"";"";"";""
"7231234086";"-5.0690527";"31.8711657";"charging_station";"";"Tanzania";"Tabora";"N/A";"N/A";"";"";"";"";"Tanesco substation, Urambo to Kigoma";"";"";"";"";"";"";"";"";"";"";"";"";"";"";""
"5516715724";"-5.0046049";"34.7569246";"charging_station";"";"Tanzania";"Singida";"N/A";"N/A";"";"";"";"";"hamiss charging station";"";"";"";"";"";"";"";"";"";"";"";"";"";"";""
"5516747125";"-5.0045343";"34.7571444";"charging_station";"";"Tanzania";"Singida";"N/A";"N/A";"";"";"";"";"shahar charging station";"";"";"";"";"";"";"";"";"";"";"";"";"";"";""
"8718811517";"-4.8875844";"38.2914193";"charging_station";"";"Tanzania";"Tanga";"N/A";"N/A";"";"";"";"";"";"";"";"";"";"";"";"";"";"";"";"";"";"";"";""
"5495577130";"-5.0282314";"39.8152618";"charging_station";"";"Tanzania";"Pemba North";"N/A";"N/A";"";"";"";"";"Jaza Energy";"";"";"";"";"";"";"";"";"";"";"";"";"";"";""
"5496066221";"-4.9478126";"39.8626166";"charging_station";"";"Tanzania";"Pemba North";"N/A";"N/A";"";"";"";"";"Jaza Energy";"";"";"";"";"";"";"";"";"";"";"";"";"";"";""
"4555366889";"-4.6007566";"33.1626637";"charging_station";"";"Tanzania";"Tabora";"N/A";"N/A";"";"";"";"";"nkinizwa water tank";"";"";"";"";"";"";"";"";"";"";"";"";"";"";""
"5410204721";"-3.821955";"33.0876994";"charging_station";"";"Tanzania";"Shinyanga";"N/A";"N/A";"";"";"";"";"CITY CENTRE-DIDIA LOHUMBO.";"";"";"";"";"";"";"";"";"";"DIDIA.";"";"";"";"";""
"5432838329";"-3.8519338";"33.0833188";"charging_station";"";"Tanzania";"Shinyanga";"N/A";"N/A";"";"";"";"";"KING OIL STATION- LOHUMBO.";"";"";"";"";"";"";"";"";"";"";"";"";"";"";""
"7046129285";"-3.6702388";"33.464498";"charging_station";"";"Tanzania";"Shinyanga";"N/A";"N/A";"";"";"";"";"lake oil filling station.";"";"";"";"";"";"";"";"";"";"";"";"";"";"";""
"10012724217";"-2.9970086";"35.9984042";"charging_station";"";"Tanzania";"Arusha";"N/A";"N/A";"";"";"";"";"";"";"";"";"";"";"";"";"";"";"";"";"";"";"";""
"7072548386";"-2.6382329";"32.6561195";"charging_station";"";"Tanzania";"Mwanza";"N/A";"N/A";"";"";"";"";"S. mshandete shop";"";"";"";"";"";"";"";"";"";"";"";"";"";"";""
"9072937217";"-2.5551934";"33.0466505";"charging_station";"";"Tanzania";"Mwanza";"N/A";"N/A";"";"";"";"";"";"";"";"";"";"";"";"";"";"";"";"";"";"";"";""
"9893319308";"-2.5274253";"33.0280719";"charging_station";"";"Tanzania";"Mwanza";"N/A";"N/A";"";"";"";"";"";"";"";"";"";"";"";"";"";"";"";"";"";"";"";""
"8816058906";"-1.9561663";"30.0919582";"charging_station";"";"Rwanda";"Kigali";"N/A";"N/A";"";"";"";"";"Volkswagen";"";"";"";"";"1";"";"";"";"";"";"";"";"";"";""
"8816058907";"-1.9562391";"30.092018";"charging_station";"";"Rwanda";"Kigali";"N/A";"N/A";"";"";"";"";"Volkswagen";"";"";"";"";"1";"";"";"";"";"";"";"";"";"";""
"8816068253";"-1.9563063";"30.0920785";"charging_station";"";"Rwanda";"Kigali";"N/A";"N/A";"";"";"";"";"Volkswagen";"";"";"";"";"";"";"";"";"";"";"";"";"";"";""
"8816112276";"-1.9559235";"30.1601375";"charging_station";"";"Rwanda";"Kigali";"N/A";"N/A";"";"";"";"";"Volkswagen";"";"";"";"";"1";"";"";"";"";"";"";"";"";"";""
"11658397436";"-1.9612678";"30.119778";"charging_station";"";"Rwanda";"Kigali";"N/A";"N/A";"";"";"";"";"Ampersand Rwanda";"";"";"";"";"";"";"";"";"";"";"";"Ampersand Giporoso";"";"";""
"1254199644";"";"";"charging_station";"N/A";"N/A";"N/A";"N/A";"N/A";"";"";"";"";"";"";"";"";"";"";"";"";"";"";"";"";"";"";"";""
"11658288608";"-1.9595044";"30.1164982";"";"";"Rwanda";"Kigali";"N/A";"N/A";"";"";"";"";"";"";"";"";"";"";"";"";"";"";"";"";"";"";"";""
"11658288609";"-1.9594964";"30.1165798";"";"";"Rwanda";"Kigali";"N/A";"N/A";"";"";"";"";"";"";"";"";"";"";"";"";"";"";"";"";"";"";"";""
"11658288610";"-1.9595891";"30.1165926";"";"";"Rwanda";"Kigali";"N/A";"N/A";"";"";"";"";"";"";"";"";"";"";"";"";"";"";"";"";"";"";"";""
"11658288611";"-1.9595971";"30.116511";"";"";"Rwanda";"Kigali";"N/A";"N/A";"";"";"";"";"";"";"";"";"";"";"";"";"";"";"";"";"";"";"";""
"10792575194";"-1.8936977";"30.469785";"charging_station";"";"Rwanda";"Eastern Province";"N/A";"N/A";"";"1";"";"";"";"";"";"";"";"";"";"";"";"";"";"";"";"";"";"no"
"9559151618";"-1.84148";"31.6559621";"charging_station";"";"Tanzania";"Kagera";"N/A";"N/A";"";"";"";"";"";"";"";"";"";"";"";"";"";"";"";"";"";"";"";""
"9727979517";"-1.8428185";"31.6518453";"charging_station";"";"Tanzania";"Kagera";"N/A";"N/A";"";"";"";"";"";"";"";"";"";"";"";"";"";"";"";"";"";"";"";""
"6695320685";"-1.9970774";"34.3704239";"charging_station";"";"Tanzania";"Mara";"N/A";"N/A";"";"";"";"";"duka la dawa";"";"";"";"";"";"";"";"";"";"";"";"";"";"";""
"4432596191";"-1.8381615";"34.6787887";"charging_station";"";"Tanzania";"Mara";"N/A";"N/A";"";"";"";"";"";"";"";"";"";"";"";"";"";"";"";"";"";"";"";""
"5040607021";"-1.8490425";"34.6612297";"charging_station";"";"Tanzania";"Mara";"N/A";"N/A";"";"";"";"";"";"";"";"";"";"";"";"";"";"";"";"";"";"";"";""
"5298885522";"-1.6455459";"31.5893292";"charging_station";"";"Tanzania";"Kagera";"N/A";"N/A";"";"";"";"";"scarion power bust";"";"";"";"";"";"";"";"";"";"";"";"";"";"";""
"5545349322";"-1.4445267";"31.4382788";"charging_station";"";"Tanzania";"Kagera";"N/A";"N/A";"";"";"";"";"JR station";"";"";"";"";"";"";"";"";"";"";"";"";"";"";""
"9735248918";"-1.7474059";"31.701237";"charging_station";"";"Tanzania";"Kagera";"N/A";"N/A";"";"";"";"";"community";"";"";"";"";"";"";"";"";"100";"Katwerere hamlet";"";"";"";"";""
"9890597635";"-1.3294819";"36.7159";"charging_station";"";"Kenya";"Kajiado";"N/A";"N/A";"";"";"";"";"";"";"";"";"";"";"";"";"";"";"";"";"";"";"";""
"8816120323";"-1.2196541";"36.8885534";"charging_station";"";"Kenya";"Nairobi Area";"N/A";"N/A";"";"";"";"";"NopeaRide";"";"";"";"";"1";"";"";"";"";"";"";"";"";"";""
