"id";"lat";"lon";"amenity";"city";"state";"country";"scraped_country_code";"scraped_country_name";"authentication:nfc";"capacity";"capacity:car";"motorcar";"operator";"operator:wikidata";"socket:schuko";"socket:schuko:current";"socket:schuko:voltage";"socket:type2";"socket:type2:current";"socket:type2:voltage";"ref";"addr:housenumber";"addr:street";"addr:postcode";"brand";"charge";"opening_hours";"fee"
"12827177192";"65.5963949";"-24.0026804";"charging_station";"";"Iceland";"West";"N/A";"N/A";"";"3";"";"";"Orkubú Vestfjarða";"";"";"";"";"yes";"";"";"";"";"";"";"";"";"";"yes"
"12827177195";"65.628348";"-23.8455529";"charging_station";"";"Iceland";"West";"N/A";"N/A";"";"1";"";"";"Orkubú Vestfjarða";"";"";"";"";"yes";"";"";"";"";"";"";"";"";"";"yes"
"7681130385";"65.5760018";"-23.1686914";"charging_station";"";"Iceland";"Westfjords";"N/A";"N/A";"";"2";"";"";"Orkubú Vestfjarða";"";"";"";"";"yes";"";"";"";"";"";"";"";"";"";"yes"
"9850910317";"65.7366471";"-23.2089239";"charging_station";"";"Iceland";"Westfjords";"N/A";"N/A";"";"2";"";"";"EVink";"";"";"";"";"";"";"";"";"";"";"";"";"";"";""
"12827177193";"65.5558893";"-22.103368";"charging_station";"";"Iceland";"West";"N/A";"N/A";"";"2";"";"";"Orkubú Vestfjarða";"";"";"";"";"yes";"";"";"";"";"";"";"";"";"";"yes"
"12827177196";"65.4514156";"-22.2018208";"charging_station";"";"Iceland";"West";"N/A";"N/A";"";"1";"";"";"Orkubú Vestfjarða";"";"";"";"";"yes";"";"";"";"";"";"";"";"";"";"yes"
"11929357012";"65.7012157";"-21.6861547";"charging_station";"";"Iceland";"West";"N/A";"N/A";"";"2";"";"";"";"";"";"";"";"";"";"";"";"";"";"";"";"";"";"yes"
"11929357506";"65.7804057";"-21.5191754";"charging_station";"";"Iceland";"West";"N/A";"N/A";"";"4";"";"";"Orkubú Vestfjarða";"";"";"";"";"4";"";"400";"";"";"";"";"";"";"";""
"11929383590";"65.7011819";"-21.6861496";"charging_station";"";"Iceland";"West";"N/A";"N/A";"";"2";"";"";"";"";"";"";"";"1";"";"";"";"";"";"";"";"";"";"yes"
"12827177194";"65.6886822";"-21.4471506";"charging_station";"";"Iceland";"West";"N/A";"N/A";"";"1";"";"";"Orkubú Vestfjarða";"";"";"";"";"yes";"";"";"";"";"";"";"";"";"";"yes"
"12858552350";"65.7064574";"-21.6658827";"charging_station";"";"Iceland";"West";"N/A";"N/A";"";"4";"";"";"Kempower";"";"";"";"";"";"";"";"";"";"";"";"";"";"";""
"11051583474";"65.3998262";"-20.9428236";"charging_station";"";"Iceland";"West";"N/A";"N/A";"";"4";"";"";"Orka náttúrunnar";"Q25051792";"";"";"";"4";"";"";"";"";"";"";"ON";"27 ISK/kWh + 0.5 ISK/min";"";"yes"
"11051599095";"65.3971775";"-20.9454437";"charging_station";"";"Iceland";"West";"N/A";"N/A";"";"4";"";"";"Orka náttúrunnar";"Q25051792";"";"";"";"4";"";"";"";"";"";"";"ON";"27 ISK/kWh + 0.5 ISK/min";"";"yes"
"9214937460";"65.3814253";"-20.644618";"charging_station";"";"Iceland";"Northwest";"N/A";"N/A";"";"4";"";"";"Orka náttúrunnar";"Q25051792";"";"";"";"";"";"";"";"";"";"";"ON";"69 ISK/kWh";"";"yes"
"11051599139";"65.3814206";"-20.6447561";"charging_station";"";"Iceland";"Northwest";"N/A";"N/A";"";"4";"";"";"Orka náttúrunnar";"Q25051792";"";"";"";"";"";"";"";"";"";"";"ON";"69 ISK/kWh";"";"yes"
"11165926931";"65.6600897";"-20.2748562";"charging_station";"";"Iceland";"Northwest";"N/A";"N/A";"";"2";"";"";"N1";"";"";"";"";"";"";"";"";"";"";"";"N1";"55 ISK/kWh";"";"yes"
"12688710542";"65.8237984";"-20.3072826";"charging_station";"";"Iceland";"Northwest";"N/A";"N/A";"";"2";"";"";"";"";"";"";"";"2";"";"";"";"";"";"";"";"";"";""
"12695483991";"65.6600823";"-20.2826511";"charging_station";"";"Iceland";"Northwest";"N/A";"N/A";"";"";"";"";"";"";"";"";"";"";"";"";"";"";"";"";"";"";"";""
"12914389325";"65.6602297";"-20.2749036";"charging_station";"";"Iceland";"Northwest";"N/A";"N/A";"";"12";"";"";"Tesla";"Q478214";"";"";"";"";"";"";"";"";"";"";"Tesla Supercharger";"";"";"yes"
"6721193276";"65.5540883";"-19.4473411";"charging_station";"";"Iceland";"Northwest";"N/A";"N/A";"";"2";"";"";"Orka náttúrunnar";"Q25051792";"";"";"";"";"";"";"";"";"";"";"ON";"69 ISK/kWh";"";"yes"
"11165926930";"65.739955";"-19.6361727";"charging_station";"";"Iceland";"Northwest";"N/A";"N/A";"";"2";"";"";"N1";"";"";"";"";"1";"";"";"";"";"";"";"N1";"55 ISK/kWh";"";"yes"
"4346238381";"65.6840867";"-18.0868575";"charging_station";"";"Iceland";"Northeast";"N/A";"N/A";"";"2";"";"yes";"Orka náttúrunnar";"Q25051792";"";"";"";"";"";"";"";"";"";"";"ON";"69 ISK/kWh";"";"yes"
"6721193275";"65.687645";"-18.0995265";"charging_station";"";"Iceland";"Northeast";"N/A";"N/A";"";"1";"";"";"Orka náttúrunnar";"Q25051792";"";"";"";"";"";"";"";"";"";"";"ON";"69 ISK/kWh";"";"yes"
"9891067419";"65.6974156";"-18.1392324";"charging_station";"";"Iceland";"Northeast";"N/A";"N/A";"";"4";"";"";"Tesla, Inc.";"";"";"";"";"";"";"";"";"2";"Austursíða";"603";"Tesla Supercharger";"";"24/7";"yes"
"11051584876";"65.699919";"-18.1387112";"charging_station";"";"Iceland";"Northeast";"N/A";"N/A";"";"2";"";"";"Orka náttúrunnar";"Q25051792";"";"";"";"2";"";"";"";"";"";"";"ON";"27 ISK/kWh + 0.5 ISK/min";"";"yes"
"11081866800";"65.707094";"-17.8905031";"charging_station";"";"Iceland";"Northeast";"N/A";"N/A";"";"";"";"";"";"";"";"";"";"";"";"";"";"";"";"";"";"";"";""
"11537281661";"65.6955621";"-18.1212869";"charging_station";"";"Iceland";"Northeast";"N/A";"N/A";"";"8";"";"";"Orkan";"";"";"";"";"";"";"";"";"";"";"";"Orkan";"47 ISK/kWh + 47 ISK/min (after 60 min)";"";"yes"
"12066059869";"65.670899";"-18.0951018";"charging_station";"";"Iceland";"Northeast";"N/A";"N/A";"";"";"";"";"Saeluhus Apartments & Houses
Sæluhús Akureyri";"";"";"";"";"";"";"";"";"2";"Sunnutröð";"600";"";"";"24/7";""
"12094975336";"65.6876838";"-18.0997711";"charging_station";"";"Iceland";"Northeast";"N/A";"N/A";"";"12";"";"";"";"";"";"";"";"";"";"";"";"";"";"";"";"";"";""
"12692769467";"65.6865856";"-18.0793967";"charging_station";"";"Iceland";"Northeast";"N/A";"N/A";"";"6";"";"";"";"";"";"";"";"6";"";"";"";"";"";"";"";"";"";""
"12692769547";"65.6710838";"-18.0947655";"charging_station";"";"Iceland";"Northeast";"N/A";"N/A";"";"14";"";"";"";"";"";"";"";"";"";"";"";"";"";"";"";"3000 ISK";"";"yes"
"6721193274";"65.7216173";"-17.3727021";"charging_station";"";"Iceland";"Northeast";"N/A";"N/A";"";"2";"";"";"Orka náttúrunnar";"Q25051792";"";"";"";"2";"";"";"";"";"";"";"ON";"27 ISK/kWh + 0.5 ISK/min";"";"yes"
"6721193273";"65.6593141";"-16.9579829";"charging_station";"";"Iceland";"Northeast";"N/A";"N/A";"";"3";"";"";"Orka náttúrunnar";"Q25051792";"";"";"";"";"";"";"";"";"";"";"";"";"";"yes"
"9904508752";"65.644847";"-16.9140901";"charging_station";"";"Iceland";"Northeast";"N/A";"N/A";"";"2";"";"";"Orka Náttúrunnar";"";"";"";"";"";"";"";"";"";"";"";"";"";"";""
"5808132254";"65.3933783";"12.0993813";"charging_station";"Somna";"Norway";"Nordland";"N/A";"N/A";"";"";"";"";"Torghatten Restaurant & Camping";"";"";"";"";"";"";"";"";"";"";"";"";"";"";""
"6044761522";"65.4729099";"12.2070932";"charging_station";"Bronnoy";"Norway";"Nordland";"N/A";"N/A";"";"3";"";"";"";"";"";"";"";"2";"";"";"";"";"";"";"Mer";"";"24/7";""
"12786844485";"65.45994";"12.2092";"charging_station";"Bronnoy";"Norway";"Nordland";"N/A";"N/A";"";"4";"";"";"";"";"";"";"";"";"";"";"";"";"";"";"Mer";"";"";""
"12826899945";"65.468854";"12.2132122";"charging_station";"Bronnoy";"Norway";"Nordland";"N/A";"N/A";"";"2";"";"";"Kople";"";"";"";"";"1";"";"";"";"";"";"";"ChargeUp";"";"";""
"12827810305";"65.3686669";"12.1967079";"charging_station";"Somna";"Norway";"Nordland";"N/A";"N/A";"";"5";"";"";"Kople";"";"";"";"";"2";"";"";"";"";"";"";"Pwr Up";"";"";""
"6044761490";"65.4037959";"12.5473961";"charging_station";"Vevelstad";"Norway";"Nordland";"N/A";"N/A";"";"3";"";"";"";"";"";"";"";"2";"";"";"";"";"";"";"Mer";"";"24/7";""
"3556397666";"65.834865";"13.19151";"charging_station";"Vefsn";"Norway";"Nordland";"N/A";"N/A";"";"6";"";"";"";"";"";"";"";"";"";"";"";"";"";"";"Tesla";"";"";""
"6044761489";"65.8356371";"13.1903357";"charging_station";"Vefsn";"Norway";"Nordland";"N/A";"N/A";"";"1";"";"";"Fru Haugans Hotel";"";"";"";"";"1";"";"";"";"";"";"";"";"";"24/7";""
"6044761492";"65.8348151";"13.1917973";"charging_station";"Vefsn";"Norway";"Nordland";"N/A";"N/A";"";"5";"";"";"";"";"";"";"";"4";"";"";"";"";"";"";"Recharge";"";"24/7";""
"6044761517";"65.84628";"13.19937";"charging_station";"Vefsn";"Norway";"Nordland";"N/A";"N/A";"";"2";"";"";"Mosjøen Hotell AS";"";"";"";"";"";"";"";"";"";"";"";"";"";"24/7";""
"6044761518";"65.8414258";"13.201004";"charging_station";"Vefsn";"Norway";"Nordland";"N/A";"N/A";"";"2";"";"";"";"";"";"";"";"";"";"";"";"";"";"";"Circle K";"";"";""
"7402178698";"65.841893";"13.188515";"charging_station";"Vefsn";"Norway";"Nordland";"N/A";"N/A";"";"10";"";"";"";"";"";"";"";"";"";"";"";"";"";"";"Tesla";"";"";""
"11184683160";"65.8345245";"13.2208925";"charging_station";"Vefsn";"Norway";"Nordland";"N/A";"N/A";"";"13";"";"";"Kople";"";"";"";"";"6";"";"";"";"";"";"";"Lad Opp";"";"";""
"12811981925";"65.834032";"13.212248";"charging_station";"Vefsn";"Norway";"Nordland";"N/A";"N/A";"";"4";"";"";"";"";"";"";"";"";"";"";"";"";"";"";"Uno-X";"";"";""
"6044757984";"65.537004";"13.387582";"charging_station";"Grane";"Norway";"Nordland";"N/A";"N/A";"";"4";"";"";"";"";"";"";"";"2";"";"";"";"";"";"";"Mer";"";"24/7";""
"12826899944";"65.8511656";"13.279048";"charging_station";"Vefsn";"Norway";"Nordland";"N/A";"N/A";"";"1";"";"";"Kople";"";"";"";"";"";"";"";"";"";"";"";"ChargeUp";"";"";""
"6044761503";"65.595753";"13.9891967";"charging_station";"Hattfjelldal";"Norway";"Nordland";"N/A";"N/A";"";"3";"";"";"";"";"";"";"";"2";"";"";"";"";"";"";"Recharge";"";"24/7";""
"9522282878";"65.8198053";"15.0826676";"charging_station";"Rana";"Norway";"Nordland";"N/A";"N/A";"";"4";"";"";"Umeå Energi AB";"";"";"";"";"2";"";"";"";"";"";"";"";"";"";"yes"
"12620374621";"65.8199245";"15.0846159";"charging_station";"Rana";"Norway";"Nordland";"N/A";"N/A";"";"4";"";"";"E.ON";"Q270223";"";"";"";"";"";"";"";"";"";"";"";"";"";"yes"
"10742232155";"65.71436";"15.29427";"charging_station";"Rana";"Norway";"Nordland";"N/A";"N/A";"";"1";"";"";"";"";"";"";"";"1";"";"";"";"";"";"";"";"";"";""
"10742232165";"65.70852";"15.24719";"charging_station";"Rana";"Norway";"Nordland";"N/A";"N/A";"";"1";"";"";"";"";"";"";"";"1";"";"";"";"";"";"";"InCharge";"";"";""
"10742300413";"65.7114539";"15.2578745";"charging_station";"Rana";"Norway";"Nordland";"N/A";"N/A";"";"2";"";"";"Vattenfall";"";"";"";"";"2";"";"";"";"";"";"";"InCharge";"3.00 SEK/kWh";"";"yes"
"10742232167";"65.4307388";"16.2492915";"charging_station";"Storumans Kommun";"Sweden";"Vaesterbotten";"N/A";"N/A";"";"4";"";"";"";"";"";"";"";"2";"";"";"";"";"";"";"InCharge";"";"";""
"10742232146";"65.53508";"17.54249";"charging_station";"Sorsele Kommun";"Sweden";"Vaesterbotten";"N/A";"N/A";"";"4";"";"";"";"";"";"";"";"2";"";"";"";"";"";"";"InCharge";"";"";""
"10032141223";"65.5861006";"18.1655608";"charging_station";"Arjeplogs Kommun";"Sweden";"Norrbotten";"N/A";"N/A";"";"2";"";"";"Tjintokk AB";"";"";"";"";"2";"";"";"";"";"";"";"";"";"24/7";""
"8955164262";"65.5905373";"19.1836933";"charging_station";"Arvidsjaurs Kommun";"Sweden";"Norrbotten";"N/A";"N/A";"";"6";"";"";"";"";"";"";"";"";"";"";"";"43";"Storgatan";"93333";"Tesla, Inc.";"";"";""
"10742242044";"65.59492";"19.17056";"charging_station";"Arvidsjaurs Kommun";"Sweden";"Norrbotten";"N/A";"N/A";"";"2";"";"";"Skellefteå Kraft AB";"";"";"";"";"";"";"";"";"";"";"";"";"";"";""
"10742242047";"65.5921454";"19.1785057";"charging_station";"Arvidsjaurs Kommun";"Sweden";"Norrbotten";"N/A";"N/A";"";"2";"";"";"Coop Norrbotten";"";"";"";"";"2";"";"";"";"";"";"";"";"";"";""
"10742242059";"65.5903";"19.18572";"charging_station";"Arvidsjaurs Kommun";"Sweden";"Norrbotten";"N/A";"N/A";"";"1";"";"";"Hotell Laponia/TOCN";"";"";"";"";"1";"";"";"";"";"";"";"";"";"";""
"10742242097";"65.59345";"19.16343";"charging_station";"Arvidsjaurs Kommun";"Sweden";"Norrbotten";"N/A";"N/A";"";"2";"";"";"Icemakers Test AB";"";"";"";"";"1";"";"";"";"";"";"";"";"";"";""
"11423175616";"65.5881576";"19.1898972";"charging_station";"Arvidsjaurs Kommun";"Sweden";"Norrbotten";"N/A";"N/A";"";"4";"";"";"Ionity";"";"";"";"";"";"";"";"";"";"";"";"Ionity";"";"24/7";"yes"
"12469065120";"65.3845875";"20.3300849";"charging_station";"Skelleftea Kommun";"Sweden";"Vaesterbotten";"N/A";"N/A";"";"";"";"yes";"";"";"";"";"";"";"";"";"";"";"";"";"";"";"";"yes"
"12791419228";"65.8570543";"20.4246086";"charging_station";"Alvsbyns Kommun";"Sweden";"Norrbotten";"N/A";"N/A";"";"";"";"yes";"";"";"";"";"";"2";"";"";"";"";"";"";"";"";"";"yes"
"10742242050";"65.67431";"21.00321";"charging_station";"Alvsbyns Kommun";"Sweden";"Norrbotten";"N/A";"N/A";"";"1";"";"";"Älvsbyn Kommun";"";"";"";"";"1";"";"";"";"";"";"";"";"";"";""
"10742242058";"65.67267";"20.99745";"charging_station";"Alvsbyns Kommun";"Sweden";"Norrbotten";"N/A";"N/A";"";"1";"";"";"Älvsbyn Kommun";"";"";"";"";"1";"";"";"";"";"";"";"";"";"";""
"10742242078";"65.67225";"20.9987042";"charging_station";"Alvsbyns Kommun";"Sweden";"Norrbotten";"N/A";"N/A";"";"4";"";"";"Älvsbyn kommun";"";"";"";"";"4";"";"";"";"";"";"";"";"";"";""
"10742242086";"65.67291";"21.00514";"charging_station";"Alvsbyns Kommun";"Sweden";"Norrbotten";"N/A";"N/A";"";"2";"";"";"";"";"";"";"";"";"";"";"";"";"";"";"OKQ8";"";"";""
"10742242096";"65.6707672";"21.0104755";"charging_station";"Alvsbyns Kommun";"Sweden";"Norrbotten";"N/A";"N/A";"";"2";"";"";"";"";"";"";"";"";"";"";"";"";"";"";"Eviny";"";"";""
"10742278208";"65.67783";"20.99399";"charging_station";"Alvsbyns Kommun";"Sweden";"Norrbotten";"N/A";"N/A";"";"3";"";"";"Älvsbyns kommun";"";"";"";"";"3";"";"";"";"";"";"";"";"";"";""
"10742278217";"65.67436";"21.00294";"charging_station";"Alvsbyns Kommun";"Sweden";"Norrbotten";"N/A";"N/A";"";"5";"";"";"Älvsbyns kommun";"";"";"";"";"5";"";"";"";"";"";"";"";"";"";""
"10742242052";"65.816769";"21.709398";"charging_station";"Bodens Kommun";"Sweden";"Norrbotten";"N/A";"N/A";"";"2";"";"";"ICA";"";"";"";"";"2";"";"";"";"";"";"";"";"";"";""
"10742242068";"65.43103";"21.69065";"charging_station";"Pitea Kommun";"Sweden";"Norrbotten";"N/A";"N/A";"";"2";"";"";"Coop Norrbotten";"";"";"";"";"2";"";"";"";"";"";"";"";"";"";""
"10742242077";"65.809665";"21.701045";"charging_station";"Bodens Kommun";"Sweden";"Norrbotten";"N/A";"N/A";"";"2";"";"";"";"";"";"";"";"2";"";"";"";"";"";"";"InCharge";"";"";""
"10742242095";"65.4218777";"21.4967412";"charging_station";"Pitea Kommun";"Sweden";"Norrbotten";"N/A";"N/A";"";"5";"";"";"";"";"";"";"";"1";"";"";"";"";"";"";"Eviny";"";"";""
"10742278213";"65.8238657";"21.6671689";"charging_station";"Bodens Kommun";"Sweden";"Norrbotten";"N/A";"N/A";"";"2";"";"";"Lidl Sverige KB";"";"";"";"";"2";"";"";"";"";"";"";"";"";"";""
"5693979728";"65.5852684";"22.150948";"charging_station";"Lulea Kommun";"Sweden";"Norrbotten";"N/A";"N/A";"";"2";"";"";"Luleå Energi AB";"";"";"";"";"2";"";"";"";"";"";"";"";"";"";""
"5693988916";"65.590699";"22.1484496";"charging_station";"Lulea Kommun";"Sweden";"Norrbotten";"N/A";"N/A";"";"2";"";"";"Luleå Energi";"";"";"";"";"1";"";"";"";"";"";"";"";"";"";""
"10742242045";"65.5824973";"22.1550218";"charging_station";"Lulea Kommun";"Sweden";"Norrbotten";"N/A";"N/A";"";"8";"";"";"Luleå Kommun";"";"8";"";"";"8";"";"";"";"";"";"";"";"";"";""
"10742242054";"65.589037";"22.151064";"charging_station";"Lulea Kommun";"Sweden";"Norrbotten";"N/A";"N/A";"";"2";"";"";"Luleå Energi AB";"";"";"";"";"2";"";"";"";"";"";"";"";"";"";""
"10742242055";"65.59461";"22.14888";"charging_station";"Lulea Kommun";"Sweden";"Norrbotten";"N/A";"N/A";"";"2";"";"";"ICA";"";"";"";"";"2";"";"";"";"";"";"";"";"";"";""
"10742242056";"65.58581";"22.15433";"charging_station";"Lulea Kommun";"Sweden";"Norrbotten";"N/A";"N/A";"";"4";"";"";"";"";"";"";"";"4";"";"";"";"";"";"";"";"";"";""
"10742242061";"65.6180028";"22.044459";"charging_station";"Lulea Kommun";"Sweden";"Norrbotten";"N/A";"N/A";"";"2";"";"";"Luleå Energi AB";"";"";"";"";"1";"";"";"";"";"";"";"";"";"";""
"10742242064";"65.61855";"22.04157";"charging_station";"Lulea Kommun";"Sweden";"Norrbotten";"N/A";"N/A";"";"2";"";"";"Luleå Energi";"";"";"";"";"1";"";"";"";"";"";"";"";"";"";""
"10742242070";"65.6209";"22.04343";"charging_station";"Lulea Kommun";"Sweden";"Norrbotten";"N/A";"N/A";"";"10";"";"";"Coop Norrbotten";"";"";"";"";"10";"";"";"";"";"";"";"";"";"";""
"10742242074";"65.5962023";"22.1488832";"charging_station";"Lulea Kommun";"Sweden";"Norrbotten";"N/A";"N/A";"";"2";"";"";"Luleå Energi AB";"";"";"";"";"2";"";"";"";"";"";"";"";"";"";""
"10742242075";"65.5805243";"22.1733735";"charging_station";"Lulea Kommun";"Sweden";"Norrbotten";"N/A";"N/A";"";"2";"";"";"Lidl";"Q151954";"";"";"";"1";"";"";"";"";"";"";"";"";"";""
"10742242079";"65.55075";"22.12423";"charging_station";"Lulea Kommun";"Sweden";"Norrbotten";"N/A";"N/A";"";"2";"";"";"Luleå Energi";"";"";"";"";"1";"";"";"";"";"";"";"";"";"";""
"10742242082";"65.60707";"22.10819";"charging_station";"Lulea Kommun";"Sweden";"Norrbotten";"N/A";"N/A";"";"8";"";"";"Arnes Bil & Service AB";"";"";"";"";"8";"";"";"";"";"";"";"";"";"";""
"10742242083";"65.65908";"21.94392";"charging_station";"Lulea Kommun";"Sweden";"Norrbotten";"N/A";"N/A";"";"6";"";"";"Sunderby Folkhögskola";"";"";"";"";"6";"";"";"";"";"";"";"";"";"";""
"10742242085";"65.617526";"22.124819";"charging_station";"Lulea Kommun";"Sweden";"Norrbotten";"N/A";"N/A";"";"3";"";"";"Vattenfall InCharge";"Q71041027";"";"";"";"3";"";"";"";"";"";"";"Vattenfall InCharge";"";"";""
"10742242089";"65.614544";"22.123142";"charging_station";"Lulea Kommun";"Sweden";"Norrbotten";"N/A";"N/A";"";"1";"";"";"Luleå Energi AB";"";"";"";"";"";"";"";"";"";"";"";"";"";"";""
"10742242090";"65.61445";"22.12359";"charging_station";"Lulea Kommun";"Sweden";"Norrbotten";"N/A";"N/A";"";"1";"";"";"Luleå Energi";"";"";"";"";"";"";"";"";"";"";"";"";"";"";""
"10742242091";"65.60365";"22.13234";"charging_station";"Lulea Kommun";"Sweden";"Norrbotten";"N/A";"N/A";"";"6";"";"";"";"";"";"";"";"6";"";"";"";"";"";"";"Mer";"";"";""
"10742278210";"65.58302";"22.15428";"charging_station";"Lulea Kommun";"Sweden";"Norrbotten";"N/A";"N/A";"";"4";"";"";"";"";"";"";"";"4";"";"";"";"";"";"";"";"";"";""
"10742278211";"65.556897";"21.825628";"charging_station";"Lulea Kommun";"Sweden";"Norrbotten";"N/A";"N/A";"";"2";"";"";"Luleå Energi AB";"";"";"";"";"2";"";"";"";"";"";"";"";"";"";""
"10742278212";"65.58156";"22.13469";"charging_station";"Lulea Kommun";"Sweden";"Norrbotten";"N/A";"N/A";"";"6";"";"";"";"";"";"";"";"6";"";"";"";"";"";"";"";"";"";""
"12092653147";"65.5813233";"22.1435742";"charging_station";"Lulea Kommun";"Sweden";"Norrbotten";"N/A";"N/A";"";"";"";"yes";"";"";"";"";"";"";"";"";"";"";"";"";"";"";"24/7";"yes"
"12393624330";"65.670822";"21.9286726";"charging_station";"Lulea Kommun";"Sweden";"Norrbotten";"N/A";"N/A";"";"";"";"";"";"";"";"";"";"";"";"";"";"";"";"";"";"";"";""
"1238845363";"";"";"charging_station";"N/A";"N/A";"N/A";"N/A";"N/A";"";"8";"";"";"ZPark";"";"";"";"";"";"";"";"";"";"";"";"ZPark";"";"";"no"
"2092753807";"65.6182218";"22.1282878";"";"Lulea Kommun";"Sweden";"Norrbotten";"N/A";"N/A";"";"";"";"";"";"";"";"";"";"";"";"";"";"";"";"";"";"";"";""
"2092753845";"65.6183949";"22.1282642";"";"Lulea Kommun";"Sweden";"Norrbotten";"N/A";"N/A";"";"";"";"";"";"";"";"";"";"";"";"";"";"";"";"";"";"";"";""
"2092753896";"65.6182635";"22.1280962";"";"Lulea Kommun";"Sweden";"Norrbotten";"N/A";"N/A";"";"";"";"";"";"";"";"";"";"";"";"";"";"";"";"";"";"";"";""
"11508539880";"65.6183412";"22.1285111";"";"Lulea Kommun";"Sweden";"Norrbotten";"N/A";"N/A";"";"";"";"";"";"";"";"";"";"";"";"";"";"";"";"";"";"";"";""
"11992915194";"65.6182097";"22.1283432";"";"Lulea Kommun";"Sweden";"Norrbotten";"N/A";"N/A";"";"";"";"";"";"";"";"";"";"";"";"";"";"";"";"";"";"";"";""
"9532168193";"65.8562537";"22.2899812";"charging_station";"Lulea Kommun";"Sweden";"Norrbotten";"N/A";"N/A";"";"2";"";"";"Luleå Energi";"";"";"";"";"2";"";"";"";"";"";"";"";"";"";"yes"
"10742242066";"65.853296";"23.1433149";"charging_station";"Kalix Kommun";"Sweden";"Norrbotten";"N/A";"N/A";"";"4";"";"";"Kalix Kommun";"";"";"";"";"4";"";"";"";"";"";"";"";"";"";""
"10742242094";"65.8537";"23.1475314";"charging_station";"Kalix Kommun";"Sweden";"Norrbotten";"N/A";"N/A";"";"2";"";"";"";"";"";"";"";"1";"";"";"";"";"";"";"";"";"";""
"10742242101";"65.8541521";"23.1450341";"charging_station";"Kalix Kommun";"Sweden";"Norrbotten";"N/A";"N/A";"";"2";"";"";"Coop Norrbotten";"";"";"";"";"2";"";"";"";"";"";"";"";"";"";""
"10742242053";"65.82891";"24.13269";"charging_station";"Haparanda Kommun";"Sweden";"Norrbotten";"N/A";"N/A";"";"4";"";"";"Haparanda Kommun";"";"";"";"";"4";"";"";"";"";"";"";"";"";"";""
"10742242065";"65.84001";"24.13434";"charging_station";"Haparanda Kommun";"Sweden";"Norrbotten";"N/A";"N/A";"";"4";"";"";"Haparanda Kommun";"";"";"";"";"4";"";"";"";"";"";"";"";"";"";""
"10742242080";"65.83537";"24.13375";"charging_station";"Haparanda Kommun";"Sweden";"Norrbotten";"N/A";"N/A";"";"4";"";"";"Haparanda Kommun";"";"";"";"";"4";"";"";"";"";"";"";"";"";"";""
"10742242084";"65.83596";"24.13564";"charging_station";"Haparanda Kommun";"Sweden";"Norrbotten";"N/A";"N/A";"";"4";"";"";"Haparanda Kommun";"";"";"";"";"4";"";"";"";"";"";"";"";"";"";""
"10742242092";"65.8418964";"24.1201029";"charging_station";"Haparanda Kommun";"Sweden";"Norrbotten";"N/A";"N/A";"";"8";"";"";"";"";"";"";"";"2";"";"";"";"";"";"";"Eviny";"";"";""
"10742242098";"65.84816";"24.11224";"charging_station";"Haparanda Kommun";"Sweden";"Norrbotten";"N/A";"N/A";"";"4";"";"";"Haparanda Kommun";"";"";"";"";"4";"";"";"";"";"";"";"";"";"";""
"1360329919";"";"";"charging_station";"N/A";"N/A";"N/A";"N/A";"N/A";"";"6";"";"";"Neste";"";"";"";"";"";"";"";"";"";"";"";"Neste";"";"";"yes"
"556916841";"65.8438837";"24.1675443";"";"Kemi-Tornio";"Finland";"Lapland";"N/A";"N/A";"";"";"";"";"";"";"";"";"";"";"";"";"";"";"";"";"";"";"";""
"12592886521";"65.843895";"24.1674138";"";"Kemi-Tornio";"Finland";"Lapland";"N/A";"N/A";"";"";"";"";"";"";"";"";"";"";"";"";"";"";"";"";"";"";"";""
"12592886522";"65.8437046";"24.1673147";"";"Kemi-Tornio";"Finland";"Lapland";"N/A";"N/A";"";"";"";"";"";"";"";"";"";"";"";"";"";"";"";"";"";"";"";""
"12592886523";"65.8436933";"24.1674453";"";"Kemi-Tornio";"Finland";"Lapland";"N/A";"N/A";"";"";"";"";"";"";"";"";"";"";"";"";"";"";"";"";"";"";"";""
"6967586485";"65.697469";"24.6777792";"charging_station";"Kemi-Tornio";"Finland";"Lapland";"N/A";"N/A";"";"2";"";"";"";"";"";"";"";"";"";"";"";"";"";"";"";"";"";"yes"
"11390319968";"65.7930705";"24.5273815";"charging_station";"Kemi-Tornio";"Finland";"Lapland";"N/A";"N/A";"";"6";"";"";"Ionity";"";"";"";"";"";"";"";"";"";"";"";"Ionity";"";"24/7";"yes"
"11813567269";"65.8452717";"24.5207681";"charging_station";"Kemi-Tornio";"Finland";"Lapland";"N/A";"N/A";"";"";"";"";"";"";"";"";"";"";"";"";"";"";"";"";"";"";"";""
"11813620671";"65.7392985";"24.5618159";"charging_station";"Kemi-Tornio";"Finland";"Lapland";"N/A";"N/A";"";"";"";"";"";"";"";"";"";"";"";"";"";"";"";"";"";"";"24/7";""
"12339183243";"65.7319297";"24.5556971";"charging_station";"Kemi-Tornio";"Finland";"Lapland";"N/A";"N/A";"";"4";"";"";"";"";"";"";"";"";"";"";"";"";"";"";"VIRTA";"FI*001*E166294 0.44 EUR/kWh Vapaa FI*001*E166295 0.44 EUR/kWh Vapaa FI*001*E166296 0.44 EUR/kWh Vapaa FI*001*E166297 0.44 EUR/kWh";"";"yes"
"12513861714";"65.7999814";"24.5039494";"charging_station";"Kemi-Tornio";"Finland";"Lapland";"N/A";"N/A";"";"8";"";"";"Tesla, Inc.";"Q478214";"";"";"";"";"";"";"";"";"";"";"Tesla Supercharger";"";"";"yes"
"12609546164";"65.7348364";"24.5692182";"charging_station";"Kemi-Tornio";"Finland";"Lapland";"N/A";"N/A";"";"";"";"";"";"";"";"";"";"";"";"";"";"";"";"";"";"";"";""
"1360332679";"";"";"charging_station";"N/A";"N/A";"N/A";"N/A";"N/A";"";"6";"";"";"Neste";"";"";"";"";"";"";"";"";"";"";"";"Neste";"";"";"yes"
"12592949422";"65.6973838";"24.6779073";"";"Kemi-Tornio";"Finland";"Lapland";"N/A";"N/A";"";"";"";"";"";"";"";"";"";"";"";"";"";"";"";"";"";"";"";""
"12592949423";"65.6974508";"24.6779049";"";"Kemi-Tornio";"Finland";"Lapland";"N/A";"N/A";"";"";"";"";"";"";"";"";"";"";"";"";"";"";"";"";"";"";"";""
"12592949424";"65.6974482";"24.6774557";"";"Kemi-Tornio";"Finland";"Lapland";"N/A";"N/A";"";"";"";"";"";"";"";"";"";"";"";"";"";"";"";"";"";"";"";""
"12592949425";"65.6973811";"24.677458";"";"Kemi-Tornio";"Finland";"Lapland";"N/A";"N/A";"";"";"";"";"";"";"";"";"";"";"";"";"";"";"";"";"";"";"";""
"7945967290";"65.5855282";"25.1955863";"charging_station";"Oulunkaari";"Finland";"Northern Ostrobothnia";"N/A";"N/A";"";"";"";"";"";"";"";"";"";"";"";"";"";"";"";"";"";"";"";"yes"
"11775076569";"65.5260963";"25.2583493";"charging_station";"Oulunkaari";"Finland";"Northern Ostrobothnia";"N/A";"N/A";"";"";"";"";"";"";"";"";"";"";"";"";"";"";"";"";"";"";"24/7";""
"7960920902";"65.3720186";"26.9935272";"charging_station";"Oulunkaari";"Finland";"Northern Ostrobothnia";"N/A";"N/A";"";"1";"";"";"";"";"";"";"";"";"";"";"";"";"";"";"";"";"";"no"
"9666332374";"65.3981653";"27.3150424";"charging_station";"Oulunkaari";"Finland";"Northern Ostrobothnia";"N/A";"N/A";"";"11 kW";"";"";"";"";"";"";"";"";"";"";"";"";"";"";"";"";"";""
"11232191280";"65.8803451";"-149.7210049";"charging_station";"Fairbanks North Star Borough";"United States";"Alaska";"N/A";"N/A";"";"";"";"";"";"";"";"";"";"";"";"";"";"";"";"";"";"";"";""
"12827177197";"65.8800539";"-23.4919679";"charging_station";"";"Iceland";"Westfjords";"N/A";"N/A";"";"1";"";"";"Orkubú Vestfjarða";"";"";"";"";"yes";"";"";"";"";"";"";"";"";"";"yes"
"11165926932";"66.0746374";"-23.1243492";"charging_station";"";"Iceland";"Westfjords";"N/A";"N/A";"";"2";"";"";"N1";"";"";"";"";"1";"";"";"";"";"";"";"N1";"55 ISK/kWh";"";"yes"
"11920307983";"65.9923139";"-22.8142696";"charging_station";"";"Iceland";"Westfjords";"N/A";"N/A";"";"1";"";"";"Orkubú Vestfjarða";"";"";"";"";"yes";"";"";"";"";"";"";"";"";"";"yes"
"11920329578";"66.0700471";"-23.1221122";"charging_station";"";"Iceland";"Westfjords";"N/A";"N/A";"";"2";"";"";"Orkubú Vestfjarða";"";"";"";"";"";"";"";"";"";"";"";"";"";"";""
"11920330808";"66.0257165";"-22.9918571";"charging_station";"";"Iceland";"Westfjords";"N/A";"N/A";"";"";"";"";"";"";"";"";"";"";"";"";"";"";"";"";"";"";"";""
"12827177198";"66.0735374";"-23.1313615";"charging_station";"";"Iceland";"Westfjords";"N/A";"N/A";"";"1";"";"";"Orkubú Vestfjarða";"";"";"";"";"yes";"";"";"";"";"";"";"";"";"";"yes"
"12827177199";"66.0736106";"-23.1314934";"charging_station";"";"Iceland";"Westfjords";"N/A";"N/A";"";"1";"";"";"Orkubú Vestfjarða";"";"";"";"";"yes";"";"";"";"";"";"";"";"";"";"yes"
"12847310841";"66.1559268";"-23.2522417";"charging_station";"";"Iceland";"Westfjords";"N/A";"N/A";"";"";"";"";"Orkubú Vestfjarða";"";"";"";"";"";"";"";"";"";"";"";"";"";"";""
"12847310842";"66.1554516";"-23.2528088";"charging_station";"";"Iceland";"Westfjords";"N/A";"N/A";"";"";"";"";"";"";"";"";"";"";"";"";"";"";"";"";"";"";"";""
"11920306941";"65.9266517";"-22.4299771";"charging_station";"";"Iceland";"Westfjords";"N/A";"N/A";"";"4";"";"";"Orkubú Vestfjarða";"";"";"";"";"yes";"";"";"";"";"";"";"";"";"";""
"12827177200";"65.944628";"-21.5591105";"charging_station";"";"Iceland";"West";"N/A";"N/A";"";"1";"";"";"Orkubú Vestfjarða";"";"";"";"";"yes";"";"";"";"";"";"";"";"";"";"yes"
"11051592773";"66.0526259";"-19.1179584";"charging_station";"";"Iceland";"Northeast";"N/A";"N/A";"";"2";"";"";"Orka náttúrunnar";"Q25051792";"";"";"";"2";"";"";"";"";"";"";"ON";"27 ISK/kWh + 0.5 ISK/min";"";"yes"
"12695403588";"66.1491626";"-18.9119097";"charging_station";"";"Iceland";"Northeast";"N/A";"N/A";"";"4";"";"";"";"";"";"";"";"";"";"";"";"";"";"";"InstaVolt";"";"";"yes"
"12695517401";"66.1492112";"-18.9036205";"charging_station";"";"Iceland";"Northeast";"N/A";"N/A";"";"2";"";"";"Ísorka";"";"";"";"";"";"";"";"";"";"";"";"";"";"";""
"6723103509";"65.9700212";"-18.5284002";"charging_station";"";"Iceland";"Northeast";"N/A";"N/A";"";"2";"";"";"Orka náttúrunnar";"";"";"";"";"";"";"";"";"";"";"";"";"";"";"yes"
"12695479966";"65.9668911";"-18.5298236";"charging_station";"";"Iceland";"Northeast";"N/A";"N/A";"";"2";"";"";"Ísorka";"";"";"";"";"";"";"";"";"";"";"";"Hypercharger";"";"";""
"6655870965";"66.0485607";"-17.3443643";"charging_station";"";"Iceland";"Northeast";"N/A";"N/A";"";"3";"";"";"Orka náttúrunnar";"Q25051792";"";"";"";"2";"";"";"";"";"";"";"";"DC: 69 ISK/kWh. AC: 27 ISK/kWh + 0.5 ISK/min.";"";"yes"
"12691969939";"66.0469533";"-17.3420537";"charging_station";"";"Iceland";"Northeast";"N/A";"N/A";"";"4";"";"";"";"";"";"";"";"";"";"";"";"";"";"";"";"75 ISK/kWh";"";"yes"
"12691970132";"66.0464908";"-17.3379098";"charging_station";"";"Iceland";"Northeast";"N/A";"N/A";"";"2";"";"";"";"";"";"";"";"";"";"";"";"";"";"";"";"";"";"yes"
"3760569527";"66.0259509";"-16.4954079";"charging_station";"";"Iceland";"Northeast";"N/A";"N/A";"";"";"";"";"";"";"";"";"";"";"";"";"";"";"";"";"";"";"";""
"3760569528";"66.0257976";"-16.4949941";"charging_station";"";"Iceland";"Northeast";"N/A";"N/A";"";"";"";"";"";"";"";"";"";"";"";"";"";"";"";"";"";"";"";""
"3760746578";"66.0254576";"-16.4951463";"charging_station";"";"Iceland";"Northeast";"N/A";"N/A";"";"";"";"";"";"";"";"";"";"";"";"";"";"";"";"";"";"";"";""
"3760746579";"66.0253995";"-16.4956109";"charging_station";"";"Iceland";"Northeast";"N/A";"N/A";"";"";"";"";"";"";"";"";"";"";"";"";"";"";"";"";"";"";"";""
"3760746580";"66.0251707";"-16.4949318";"charging_station";"";"Iceland";"Northeast";"N/A";"N/A";"";"";"";"";"";"";"";"";"";"";"";"";"";"";"";"";"";"";"";""
"3760746581";"66.0250364";"-16.495316";"charging_station";"";"Iceland";"Northeast";"N/A";"N/A";"";"";"";"";"";"";"";"";"";"";"";"";"";"";"";"";"";"";"";""
"3760746582";"66.0248585";"-16.4948872";"charging_station";"";"Iceland";"Northeast";"N/A";"N/A";"";"";"";"";"";"";"";"";"";"";"";"";"";"";"";"";"";"";"";""
"3760746586";"66.0235624";"-16.4975765";"charging_station";"";"Iceland";"Northeast";"N/A";"N/A";"";"";"";"";"";"";"";"";"";"";"";"";"";"";"";"";"";"";"";""
"9905886701";"66.0283722";"-16.4891445";"charging_station";"";"Iceland";"Northeast";"N/A";"N/A";"";"2";"";"";"";"";"";"";"";"";"";"";"";"";"";"";"";"";"";""
"5808132160";"66.0230468";"12.6368592";"charging_station";"Alstahaug";"Norway";"Nordland";"N/A";"N/A";"";"6";"";"";"";"";"";"";"";"4";"";"";"";"";"";"";"Recharge";"";"24/7";""
"11214406686";"66.0225039";"12.6380391";"charging_station";"Alstahaug";"Norway";"Nordland";"N/A";"N/A";"";"8";"";"";"Kople";"";"";"";"";"4";"";"";"";"";"";"";"Lad Opp";"";"";""
"12335595026";"65.9805693";"12.2818535";"charging_station";"Heroy";"Norway";"Nordland";"N/A";"N/A";"";"6";"";"";"Kople";"";"";"";"";"2";"";"";"";"";"";"";"Lad Opp";"";"";""
"6044757982";"66.20278";"13.02245";"charging_station";"Nesna";"Norway";"Nordland";"N/A";"N/A";"";"2";"";"";"Havblikk camping";"";"";"";"";"2";"";"";"";"";"";"";"";"";"24/7";""
"6044761519";"65.863289";"13.1958434";"charging_station";"Vefsn";"Norway";"Nordland";"N/A";"N/A";"";"8";"";"";"Kople";"";"";"";"";"";"";"";"";"";"";"";"Lad Opp";"";"";""
"11183384528";"66.0653861";"12.9337483";"charging_station";"Leirfjord";"Norway";"Nordland";"N/A";"N/A";"";"6";"";"";"Kople";"";"";"";"";"4";"";"";"";"";"";"";"Lad Opp";"";"";""
"11993721948";"66.0705703";"13.0534335";"charging_station";"Leirfjord";"Norway";"Nordland";"N/A";"N/A";"";"";"";"";"";"";"";"";"";"";"";"";"";"";"";"";"";"";"";""
"12739474509";"65.8645626";"13.1955706";"charging_station";"Vefsn";"Norway";"Nordland";"N/A";"N/A";"";"6";"";"";"";"";"";"";"";"";"";"";"";"";"";"";"Ionity";"";"";""
"12776979271";"65.8638497";"13.195737";"charging_station";"Vefsn";"Norway";"Nordland";"N/A";"N/A";"";"6";"";"";"";"";"";"";"";"";"";"";"";"";"";"";"St1 Charge";"";"";""
"11183384530";"66.2959296";"13.5507426";"charging_station";"Hemnes";"Norway";"Nordland";"N/A";"N/A";"";"5";"";"";"Kople";"";"";"";"";"2";"";"";"";"";"";"";"Lad Opp";"";"";""
"5779547451";"66.3074877";"14.1503115";"charging_station";"Rana";"Norway";"Nordland";"N/A";"N/A";"";"2";"";"";"";"";"";"";"";"";"";"";"";"";"";"";"Circle K";"";"";""
"5779561253";"66.3045524";"14.1342334";"charging_station";"Rana";"Norway";"Nordland";"N/A";"N/A";"";"6";"";"";"";"";"";"";"";"";"";"";"";"";"";"";"Recharge";"";"24/7";""
"5808132154";"66.0813177";"13.8274426";"charging_station";"Hemnes";"Norway";"Nordland";"N/A";"N/A";"";"3";"";"";"";"";"";"";"";"";"";"";"";"";"";"";"Circle K";"";"";""
"5808132159";"66.3062505";"14.149235";"charging_station";"Rana";"Norway";"Nordland";"N/A";"N/A";"";"3";"";"";"";"";"";"";"";"1";"";"";"";"";"";"";"Recharge";"";"24/7";""
"6044761491";"66.3127646";"14.1341875";"charging_station";"Rana";"Norway";"Nordland";"N/A";"N/A";"";"1";"";"";"Comfort Hotell";"";"";"";"";"1";"";"";"";"";"";"";"";"";"24/7";""
"6044761499";"66.32193";"14.15417";"charging_station";"Rana";"Norway";"Nordland";"N/A";"N/A";"";"1";"";"";"Telemix/Telehuset";"";"";"";"";"1";"";"";"";"";"";"";"";"";"24/7";""
"6044761501";"66.30879";"14.13911";"charging_station";"Rana";"Norway";"Nordland";"N/A";"N/A";"";"1";"";"";"Clarion Hotel Helma";"";"";"";"";"1";"";"";"";"";"";"";"";"";"24/7";""
"6044761509";"66.0806226";"13.8234846";"charging_station";"Hemnes";"Norway";"Nordland";"N/A";"N/A";"";"6";"";"";"";"";"";"";"";"4";"";"";"";"";"";"";"Recharge";"";"24/7";""
"6762237197";"66.3203748";"14.203267";"charging_station";"Rana";"Norway";"Nordland";"N/A";"N/A";"";"8";"";"";"";"";"";"";"";"3";"";"";"";"";"";"";"Recharge";"";"";""
"7004520228";"66.3074708";"14.1521424";"charging_station";"Rana";"Norway";"Nordland";"N/A";"N/A";"";"12";"";"";"";"";"";"";"";"";"";"";"";"";"";"";"Tesla";"";"";""
"9919998654";"66.3122801";"14.1357609";"charging_station";"Rana";"Norway";"Nordland";"N/A";"N/A";"";"14";"";"";"Charge365";"";"";"";"";"14";"";"";"";"";"";"";"";"";"";"yes"
"11172580349";"66.3408263";"14.1429448";"charging_station";"Rana";"Norway";"Nordland";"N/A";"N/A";"";"4";"";"";"";"";"";"";"";"";"";"";"";"";"";"";"Recharge";"";"";""
"12827797092";"66.081217";"13.825828";"charging_station";"Hemnes";"Norway";"Nordland";"N/A";"N/A";"";"8";"";"";"Kople";"";"";"";"";"";"";"";"";"";"";"";"Lad Opp";"";"";""
"11183384529";"66.1642081";"14.5862576";"charging_station";"Rana";"Norway";"Nordland";"N/A";"N/A";"";"5";"";"";"Kople";"";"";"";"";"2";"";"";"";"";"";"";"Lad Opp";"";"";""
"10742300405";"65.947008";"15.036384";"charging_station";"Rana";"Norway";"Nordland";"N/A";"N/A";"";"1";"";"";"";"";"";"";"";"1";"";"";"";"";"";"";"";"";"";""
"10742232189";"65.95905";"16.21637";"charging_station";"Storumans Kommun";"Sweden";"Vaesterbotten";"N/A";"N/A";"";"4";"";"";"InCharge";"Q71041027";"";"";"";"2";"";"";"";"";"";"";"InCharge";"";"";""
"10742232202";"65.95822";"16.21225";"charging_station";"Storumans Kommun";"Sweden";"Vaesterbotten";"N/A";"N/A";"";"2";"";"";"Ammarnäs Livs";"";"";"";"";"2";"";"";"";"";"";"";"";"";"";""
"12095084196";"65.9576203";"16.210713";"charging_station";"Storumans Kommun";"Sweden";"Vaesterbotten";"N/A";"N/A";"";"4";"";"";"Vattenfall InCharge";"";"";"";"";"";"";"";"";"";"";"";"";"";"";""
"12084539105";"66.0525717";"17.8659994";"charging_station";"Arjeplogs Kommun";"Sweden";"Norrbotten";"N/A";"N/A";"";"10";"";"";"";"";"";"";"";"";"";"";"";"";"";"";"";"";"";""
"12084546026";"66.0529096";"17.8914402";"charging_station";"Arjeplogs Kommun";"Sweden";"Norrbotten";"N/A";"N/A";"";"";"";"";"";"";"";"";"";"";"";"";"";"";"";"";"";"";"";""
"10742242102";"66.08523";"20.95258";"charging_station";"Alvsbyns Kommun";"Sweden";"Norrbotten";"N/A";"N/A";"";"4";"";"";"kWatt AB";"";"";"";"";"2";"";"";"";"";"";"";"";"";"";""
"9355856534";"65.9115733";"22.6570907";"charging_station";"Kalix Kommun";"Sweden";"Norrbotten";"N/A";"N/A";"";"8";"";"";"Tesla, Inc.";"Q478214";"";"";"";"";"";"";"";"3";"Klippgränd";"";"Tesla Supercharger";"";"";"yes"
"10716578959";"65.9116744";"22.6566765";"charging_station";"Kalix Kommun";"Sweden";"Norrbotten";"N/A";"N/A";"";"6";"";"";"Ionity";"";"";"";"";"";"";"";"";"";"";"";"Ionity";"";"";"yes"
"9532506783";"66.3230697";"22.847447";"charging_station";"Overkalix Kommun";"Sweden";"Norrbotten";"N/A";"N/A";"";"2";"";"";"Överkalix Livs AB";"";"";"";"";"2";"";"";"";"";"";"";"";"";"";"no"
"9532590534";"66.3273129";"22.8449894";"charging_station";"Overkalix Kommun";"Sweden";"Norrbotten";"N/A";"N/A";"";"1";"";"";"InCharge";"Q71041027";"";"";"";"1";"";"";"";"";"";"";"InCharge";"2.50 kr/kwh";"";"yes"
"9533408462";"66.3256017";"22.8362514";"charging_station";"Overkalix Kommun";"Sweden";"Norrbotten";"N/A";"N/A";"";"4";"";"";"InCharge";"Q71041027";"";"";"";"4";"";"";"";"";"";"";"InCharge";"2.50 kr/kwh";"";"yes"
"10742242099";"65.86329";"23.13711";"charging_station";"Kalix Kommun";"Sweden";"Norrbotten";"N/A";"N/A";"";"3";"";"";"Strömbergs Bil";"";"";"";"";"1";"";"";"";"";"";"";"";"";"";""
"10742278216";"66.32511";"22.83697";"charging_station";"Overkalix Kommun";"Sweden";"Norrbotten";"N/A";"N/A";"";"4";"";"";"Överkalix kommun";"";"";"";"";"4";"";"";"";"";"";"";"";"";"";""
"11813141869";"66.3266996";"23.6767114";"charging_station";"Torniolaakso";"Finland";"Lapland";"N/A";"N/A";"";"";"";"";"";"";"";"";"";"";"";"";"";"";"";"";"";"";"24/7";""
"3844026304";"66.1614895";"25.1055044";"charging_station";"Kemi-Tornio";"Finland";"Lapland";"N/A";"N/A";"";"";"";"";"Virta";"";"";"";"";"";"";"";"";"3079";"Nelostie";"";"";"";"";""
"10694850244";"66.1664236";"25.1564992";"charging_station";"Kemi-Tornio";"Finland";"Lapland";"N/A";"N/A";"";"";"";"";"";"";"";"";"";"";"";"";"";"";"";"";"";"";"";"yes"
"11775609869";"66.0855518";"24.7712619";"charging_station";"Kemi-Tornio";"Finland";"Lapland";"N/A";"N/A";"";"2";"";"";"Recharge";"";"";"";"";"";"";"";"";"";"";"";"";"";"24/7";"yes"
"8311196619";"66.1131346";"28.1796223";"charging_station";"Itae-Lappi";"Finland";"Lapland";"N/A";"N/A";"";"";"";"";"";"";"";"";"";"";"";"";"";"";"";"";"";"";"";"yes"
"10159419412";"66.1123127";"28.157921";"charging_station";"Itae-Lappi";"Finland";"Lapland";"N/A";"N/A";"";"";"";"";"";"";"";"";"";"";"";"";"";"";"";"";"";"";"";"yes"
"7858616841";"66.0013216";"29.1690122";"charging_station";"Koillismaa";"Finland";"Northern Ostrobothnia";"N/A";"N/A";"";"4";"";"";"";"";"";"";"";"";"";"";"";"";"";"";"";"";"";""
"11374916319";"65.9584164";"29.1566883";"charging_station";"Koillismaa";"Finland";"Northern Ostrobothnia";"N/A";"N/A";"";"4";"";"";"";"";"";"";"";"";"";"";"";"";"";"";"ABC!";"";"";""
"12460900912";"65.9588873";"29.1564568";"charging_station";"Koillismaa";"Finland";"Northern Ostrobothnia";"N/A";"N/A";"";"8";"";"";"Tesla, Inc.";"Q478214";"";"";"";"";"";"";"";"";"";"";"Tesla Supercharger";"";"";"yes"
"7003277270";"66.2282182";"29.2621146";"charging_station";"Koillismaa";"Finland";"Northern Ostrobothnia";"N/A";"N/A";"";"8";"";"";"";"";"";"";"";"";"";"";"";"";"";"";"";"";"";"no"
"7003296585";"66.2170477";"29.3222707";"charging_station";"Koillismaa";"Finland";"Northern Ostrobothnia";"N/A";"N/A";"";"12";"";"";"";"";"";"";"";"";"";"";"";"";"";"";"";"";"";"no"
"12392596001";"66.37192";"-136.7210484";"charging_station";"";"Canada";"Northwest Territories";"N/A";"N/A";"";"";"";"";"";"";"";"";"";"";"";"";"";"";"";"";"";"";"";""
