"id";"lat";"lon";"amenity";"city";"state";"country";"scraped_country_code";"scraped_country_name";"authentication:nfc";"capacity";"capacity:car";"motorcar";"operator";"operator:wikidata";"socket:schuko";"socket:schuko:current";"socket:schuko:voltage";"socket:type2";"socket:type2:current";"socket:type2:voltage";"ref";"addr:housenumber";"addr:street";"addr:postcode";"brand";"charge";"opening_hours";"fee"
"8990704383";"53.9383081";"21.5459869";"charging_station";"Powiat gizycki";"Poland";"Warmian-Masurian Voivodeship";"N/A";"N/A";"";"";"";"yes";"wtyczka.eu";"";"";"";"";"2";"";"";"";"";"";"";"";"";"";"yes"
"8999577564";"54.0803305";"21.4943638";"charging_station";"";"Poland";"Warmian-Masurian Voivodeship";"N/A";"N/A";"";"2";"";"yes";"Power EV";"";"";"";"";"1";"";"";"";"";"";"";"";"";"";"yes"
"9573524672";"54.0357849";"21.7599183";"charging_station";"Powiat gizycki";"Poland";"Warmian-Masurian Voivodeship";"N/A";"N/A";"";"2";"";"yes";"Hotel St. Bruno.";"";"";"";"";"";"";"";"";"";"";"";"Tesla, Inc.";"";"24/7";"no"
"8930752595";"54.0282611";"22.8941914";"charging_station";"Suwalki";"Poland";"Podlasie";"N/A";"N/A";"yes";"1";"";"";"EV+";"";"";"";"";"1";"";"";"PL*EVP*EPL112";"";"";"";"";"";"";"yes"
"9329364440";"53.9977796";"22.8256386";"charging_station";"Powiat suwalski";"Poland";"Podlasie";"N/A";"N/A";"";"3";"";"";"Orlen";"Q971649";"";"";"";"";"";"";"";"";"";"";"";"";"";""
"11893688169";"54.1226399";"22.9285468";"charging_station";"Suwalki";"Poland";"Podlasie";"N/A";"N/A";"";"";"";"";"";"";"";"";"";"";"";"";"";"";"";"";"";"";"24/7";""
"5818953361";"54.1254286";"22.9441689";"charging_station";"Suwalki";"Poland";"Podlasie";"N/A";"N/A";"";"3";"";"yes";"GreenWay";"Q116450281";"";"";"";"1";"";"";"";"";"";"";"";"";"24/7";"yes"
"9386395207";"54.3185911";"23.1364775";"charging_station";"Powiat sejnenski";"Poland";"Podlasie";"N/A";"N/A";"";"";"";"";"LAKD";"";"";"";"";"";"";"";"";"";"";"";"";"";"";"no"
"9862616445";"54.234961";"23.516836";"charging_station";"";"Lithuania";"";"N/A";"N/A";"";"";"";"";"UAB Ignitis";"";"";"";"";"2";"";"";"";"";"";"";"Ignitis ON";"";"";"yes"
"4009256494";"54.1160875";"24.1076058";"charging_station";"";"Lithuania";"Alytaus apskritis";"N/A";"N/A";"";"";"";"";"";"";"1";"";"";"1";"";"";"";"";"";"";"";"";"";"no"
"7084014993";"54.3959739";"24.0441163";"charging_station";"Alytus";"Lithuania";"Alytaus apskritis";"N/A";"N/A";"";"2";"";"";"Elinta";"";"";"";"";"1";"";"";"";"";"";"";"";"";"";""
"7605082349";"54.3964535";"24.0504992";"charging_station";"Alytus";"Lithuania";"Alytaus apskritis";"N/A";"N/A";"";"2";"";"";"";"";"";"";"";"1";"";"";"";"";"";"";"";"";"";""
"10857860406";"54.2552443";"24.5433215";"charging_station";"";"Lithuania";"Alytaus apskritis";"N/A";"N/A";"";"";"";"";"";"";"";"";"";"";"";"";"";"";"";"";"";"";"";""
"11647242903";"54.3645119";"24.8367723";"charging_station";"Trakai";"Lithuania";"Vilnius County";"N/A";"N/A";"";"3";"";"";"";"";"";"";"";"";"";"";"";"";"";"";"Eleport";"";"";""
"12923025690";"54.2551628";"24.541727";"charging_station";"";"Lithuania";"Alytaus apskritis";"N/A";"N/A";"";"10";"";"yes";"Eldrive";"";"";"";"";"";"";"";"";"";"";"";"";"";"";"yes"
"6944755227";"54.2348936";"25.3577716";"charging_station";"";"Lithuania";"";"N/A";"N/A";"";"2";"";"";"Белоруснефть";"Q4082693";"";"";"";"1";"";"";"";"";"";"";"Malanka";"";"24/7";""
"9202792170";"54.2623297";"25.3623015";"charging_station";"";"Lithuania";"";"N/A";"N/A";"";"";"";"";"";"";"";"";"";"";"";"";"";"";"";"";"";"";"";""
"9202792181";"54.2627547";"25.3633692";"charging_station";"";"Lithuania";"";"N/A";"N/A";"";"1";"";"no";"";"";"";"";"";"";"";"";"";"";"";"";"";"";"";""
"6097064344";"53.931961";"25.7760452";"charging_station";"";"Belarus";"Grodnenskaya";"N/A";"N/A";"";"2";"";"";"Белоруснефть";"";"";"";"";"";"";"";"ЭЗС г.Ивье";"";"";"";"Malanka";"";"";""
"11563773772";"53.910516";"25.8758968";"charging_station";"";"Belarus";"Grodnenskaya";"N/A";"N/A";"";"";"";"";"Белоруснефть";"Q4082693";"";"";"";"";"";"";"";"";"";"";"Malanka";"";"";""
"6070108786";"54.338341";"26.2090549";"charging_station";"";"Belarus";"Grodnenskaya";"N/A";"N/A";"";"";"";"";"Belorusneft";"";"";"";"";"";"";"";"";"";"";"";"";"";"";""
"6854258521";"54.0519194";"26.770915";"charging_station";"";"Belarus";"Minsk";"N/A";"N/A";"";"2";"";"";"Белоруснефть";"Q4082693";"";"";"";"1";"";"";"";"";"";"";"Malanka";"";"";""
"11476574568";"54.5590246";"23.3491102";"charging_station";"Marijampole Municipality";"Lithuania";"Marijampoles apskritis";"N/A";"N/A";"";"2";"";"";"";"";"";"";"";"1";"";"";"";"";"";"";"Elinta Charge";"";"";""
"11476628062";"54.5535174";"23.3463958";"charging_station";"Marijampole Municipality";"Lithuania";"Marijampoles apskritis";"N/A";"N/A";"";"2";"";"";"";"";"";"";"";"1";"";"";"";"";"";"";"Elinta Charge";"";"";""
"12111215467";"54.5636362";"23.3582055";"charging_station";"Marijampole Municipality";"Lithuania";"Marijampoles apskritis";"N/A";"N/A";"";"4";"";"";"IgnitisON";"";"";"";"";"4";"";"";"";"";"";"";"";"";"";"yes"
"12111215468";"54.5681438";"23.3615536";"charging_station";"Marijampole Municipality";"Lithuania";"Marijampoles apskritis";"N/A";"N/A";"";"2";"";"";"IgnitisON";"";"";"";"";"2";"";"";"";"";"";"";"";"";"";"yes"
"12111215469";"54.5666532";"23.3635773";"charging_station";"Marijampole Municipality";"Lithuania";"Marijampoles apskritis";"N/A";"N/A";"";"4";"";"";"IgnitisON";"";"";"";"";"2";"";"";"";"";"";"";"";"";"";"yes"
"12111215470";"54.5581621";"23.3483204";"charging_station";"Marijampole Municipality";"Lithuania";"Marijampoles apskritis";"N/A";"N/A";"";"2";"";"";"IgnitisON";"";"";"";"";"";"";"";"";"";"";"";"";"";"";"yes"
"12111215471";"54.5572371";"23.3520604";"charging_station";"Marijampole Municipality";"Lithuania";"Marijampoles apskritis";"N/A";"N/A";"";"4";"";"";"IgnitisON";"";"";"";"";"";"";"";"";"";"";"";"";"";"";"yes"
"12111215472";"54.5564739";"23.3634779";"charging_station";"Marijampole Municipality";"Lithuania";"Marijampoles apskritis";"N/A";"N/A";"";"2";"";"";"IgnitisON";"";"";"";"";"";"";"";"";"";"";"";"";"";"";"yes"
"12111215473";"54.5536689";"23.3730414";"charging_station";"Marijampole Municipality";"Lithuania";"Marijampoles apskritis";"N/A";"N/A";"";"4";"";"";"IgnitisON";"";"";"";"";"";"";"";"";"";"";"";"";"";"";"yes"
"12111215474";"54.5519525";"23.3864615";"charging_station";"Marijampole Municipality";"Lithuania";"Marijampoles apskritis";"N/A";"N/A";"";"4";"";"";"IgnitisON";"";"";"";"";"";"";"";"";"";"";"";"";"";"";"yes"
"12111215475";"54.5638999";"23.3335397";"charging_station";"Marijampole Municipality";"Lithuania";"Marijampoles apskritis";"N/A";"N/A";"";"2";"";"";"IgnitisON";"";"";"";"";"";"";"";"";"";"";"";"";"";"";"yes"
"12111215476";"54.5696053";"23.338833";"charging_station";"Marijampole Municipality";"Lithuania";"Marijampoles apskritis";"N/A";"N/A";"";"2";"";"";"IgnitisON";"";"";"";"";"2";"";"";"";"";"";"";"";"";"";"yes"
"12111215477";"54.5506512";"23.3477318";"charging_station";"Marijampole Municipality";"Lithuania";"Marijampoles apskritis";"N/A";"N/A";"";"2";"";"";"";"";"";"";"";"2";"";"";"";"";"";"";"";"";"";"yes"
"12111215478";"54.5465333";"23.3470124";"charging_station";"Marijampole Municipality";"Lithuania";"Marijampoles apskritis";"N/A";"N/A";"";"4";"";"";"IgnitisON";"";"";"";"";"";"";"";"";"";"";"";"";"";"";"yes"
"12111215479";"54.5480278";"23.3453408";"charging_station";"Marijampole Municipality";"Lithuania";"Marijampoles apskritis";"N/A";"N/A";"";"2";"";"";"IgnitisON";"";"";"";"";"";"";"";"";"";"";"";"";"";"";"yes"
"3355629510";"54.8986536";"23.9071189";"charging_station";"Kaunas";"Lithuania";"Kauno apskritis";"N/A";"N/A";"";"";"";"";"Kauno m. savivaldybė";"";"";"";"";"";"";"";"";"";"";"";"";"";"";"no"
"8979537933";"54.8894006";"23.9195266";"charging_station";"Kaunas";"Lithuania";"Kauno apskritis";"N/A";"N/A";"";"2";"";"";"Elinta";"";"";"";"";"1";"";"";"";"";"";"";"";"";"";"no"
"9623073989";"54.896255";"23.9071432";"charging_station";"Kaunas";"Lithuania";"Kauno apskritis";"N/A";"N/A";"";"2";"";"";"Elinta";"";"";"";"";"";"";"";"";"";"";"";"";"";"";"no"
"9623073990";"54.8902183";"23.9293961";"charging_station";"Kaunas";"Lithuania";"Kauno apskritis";"N/A";"N/A";"";"2";"";"";"Elinta";"";"";"";"";"";"";"";"";"";"";"";"";"";"";"no"
"9623073991";"54.894009";"23.9162134";"charging_station";"Kaunas";"Lithuania";"Kauno apskritis";"N/A";"N/A";"";"2";"";"";"Elinta";"";"";"";"";"";"";"";"";"";"";"";"";"0.30 €/kWh";"";"yes"
"9623073992";"54.8940088";"23.9161564";"charging_station";"Kaunas";"Lithuania";"Kauno apskritis";"N/A";"N/A";"";"2";"";"";"Elinta";"";"";"";"";"";"";"";"";"";"";"";"";"0.30 €/kWh";"";"yes"
"9623073993";"54.89401";"23.9161044";"charging_station";"Kaunas";"Lithuania";"Kauno apskritis";"N/A";"N/A";"";"2";"";"";"Elinta";"";"";"";"";"";"";"";"";"";"";"";"";"0.30 €/kWh";"";"yes"
"9623073994";"54.8940115";"23.9160414";"charging_station";"Kaunas";"Lithuania";"Kauno apskritis";"N/A";"N/A";"";"2";"";"";"Elinta";"";"";"";"";"";"";"";"";"";"";"";"";"0.30 €/kWh";"";"yes"
"9623073995";"54.8938002";"23.9156055";"charging_station";"Kaunas";"Lithuania";"Kauno apskritis";"N/A";"N/A";"";"2";"";"yes";"Elinta";"";"";"";"";"";"";"";"";"";"";"";"";"0.30 €/kWh";"";"yes"
"9623073996";"54.8914485";"23.9149459";"charging_station";"Kaunas";"Lithuania";"Kauno apskritis";"N/A";"N/A";"";"2";"";"";"Elinta";"";"";"";"";"2";"";"";"";"";"";"";"";"";"";"no"
"9623073997";"54.8914074";"23.9149706";"charging_station";"Kaunas";"Lithuania";"Kauno apskritis";"N/A";"N/A";"";"2";"";"";"Elinta";"";"";"";"";"2";"";"";"";"";"";"";"";"";"";"no"
"9623073998";"54.8894184";"23.9196014";"charging_station";"Kaunas";"Lithuania";"Kauno apskritis";"N/A";"N/A";"";"2";"";"";"Elinta";"";"";"";"";"";"";"";"";"";"";"";"";"";"";"no"
"9689873238";"54.8742995";"23.9131216";"charging_station";"Kaunas";"Lithuania";"Kauno apskritis";"N/A";"N/A";"";"";"";"";"";"";"";"";"";"";"";"";"";"";"";"";"";"";"";""
"10605755832";"54.8191156";"23.8575235";"charging_station";"Kauno rajonas";"Lithuania";"Kauno apskritis";"N/A";"N/A";"";"6";"";"";"Ionity";"";"";"";"";"";"";"";"";"";"";"";"Ionity";"";"24/7";"yes"
"11971961109";"54.7237121";"23.6003207";"charging_station";"";"Lithuania";"";"N/A";"N/A";"";"6";"";"";"";"";"";"";"";"";"";"";"";"";"";"";"";"";"";""
"12049637669";"54.8465348";"23.8799833";"charging_station";"Kauno rajonas";"Lithuania";"Kauno apskritis";"N/A";"N/A";"";"150";"";"";"Ignitis";"";"";"";"";"";"";"";"";"";"";"";"";"";"";""
"12049637670";"54.8465455";"23.8798925";"charging_station";"Kauno rajonas";"Lithuania";"Kauno apskritis";"N/A";"N/A";"";"150";"";"";"Ignitis";"";"";"";"";"";"";"";"";"";"";"";"";"";"";""
"12876818671";"54.89359";"23.8143515";"charging_station";"Kauno rajonas";"Lithuania";"Kauno apskritis";"N/A";"N/A";"";"2";"";"yes";"";"";"";"";"";"";"";"";"";"";"";"";"";"";"";""
"7444118552";"54.606998";"24.0270956";"charging_station";"";"Lithuania";"";"N/A";"N/A";"";"";"";"";"Elinta Charge";"";"";"";"";"";"";"";"";"";"";"";"";"";"";"no"
"7444118554";"54.6035049";"24.0223654";"charging_station";"";"Lithuania";"";"N/A";"N/A";"";"";"";"";"Elinta Charge";"";"";"";"";"";"";"";"";"";"";"";"";"";"";"no"
"10053560092";"54.8701378";"23.9495285";"charging_station";"";"Lithuania";"Kauno apskritis";"N/A";"N/A";"";"2";"";"";"";"";"";"";"";"";"";"";"";"";"";"";"";"";"";""
"10053560094";"54.8700745";"23.9490839";"charging_station";"";"Lithuania";"Kauno apskritis";"N/A";"N/A";"";"2";"";"";"";"";"";"";"";"";"";"";"";"";"";"";"";"";"";""
"11295496610";"54.4047751";"24.0219096";"charging_station";"Alytus";"Lithuania";"Alytaus apskritis";"N/A";"N/A";"";"";"";"";"Elinta";"";"";"";"";"";"";"";"";"";"";"";"";"";"";""
"3685431627";"54.7878444";"24.7034507";"charging_station";"";"Lithuania";"Vilnius County";"N/A";"N/A";"";"";"";"";"";"";"";"";"";"";"";"";"";"";"";"";"";"";"24/7";""
"4952380331";"54.7728796";"24.8175385";"charging_station";"Vilniaus Rajonas";"Lithuania";"Vilnius County";"N/A";"N/A";"";"2";"";"";"";"";"";"";"";"yes";"";"";"";"";"";"";"";"";"";"no"
"5840262464";"54.5804727";"24.5490445";"charging_station";"";"Lithuania";"";"N/A";"N/A";"";"2";"";"";"";"";"";"";"";"";"";"";"";"";"";"";"";"";"";""
"5950704523";"54.7846111";"24.6594664";"charging_station";"";"Lithuania";"Vilnius County";"N/A";"N/A";"";"2";"";"";"";"";"";"";"";"";"";"";"";"";"";"";"";"";"";""
"9165686451";"54.789374";"24.6751196";"charging_station";"";"Lithuania";"Vilnius County";"N/A";"N/A";"";"2";"";"";"";"";"";"";"";"";"";"";"";"";"";"";"";"";"";""
"9862616443";"54.6492483";"24.930326";"charging_station";"";"Lithuania";"";"N/A";"N/A";"";"2";"";"";"UAB Ignitis";"";"";"";"";"2";"";"";"";"";"";"";"Ignitis ON";"";"";"yes"
"12498495296";"54.6496043";"24.9288127";"charging_station";"";"Lithuania";"";"N/A";"N/A";"";"2";"";"yes";"";"";"";"";"";"";"";"";"";"";"";"";"";"";"24/7";"yes"
"12732815305";"54.5211897";"24.834761";"charging_station";"Trakai";"Lithuania";"Vilnius County";"N/A";"N/A";"";"2";"";"yes";"Ignitis ON";"";"";"";"";"";"";"";"";"";"";"";"";"";"24/7";"yes"
"1979357302";"54.7250395";"25.3422753";"charging_station";"";"Lithuania";"Vilnius County";"N/A";"N/A";"yes";"";"";"";"Ignitis ON";"";"";"";"";"1";"";"";"";"";"";"";"";"";"24/7";"yes"
"3355421670";"54.6686506";"25.2345584";"charging_station";"";"Lithuania";"Vilnius County";"N/A";"N/A";"";"";"";"";"Fakto auto";"";"";"";"";"";"";"";"";"";"";"";"";"";"";"yes"
"3355429157";"54.7837095";"25.2759615";"charging_station";"Vilnius";"Lithuania";"Vilnius County";"N/A";"N/A";"";"2";"";"";"UAB ""Arginta""";"";"";"";"";"";"";"";"";"";"";"";"";"";"24/7";""
"3355493943";"54.6885086";"25.278184";"charging_station";"Vilnius";"Lithuania";"Vilnius County";"N/A";"N/A";"";"2";"";"";"UAB Ignitis";"";"";"";"";"1";"";"";"";"";"";"";"Ignitis ON";"";"";"no"
"3355616095";"54.7151796";"25.2762449";"charging_station";"Vilnius";"Lithuania";"Vilnius County";"N/A";"N/A";"";"";"";"";"PPC „Ozas“";"";"";"";"";"";"";"";"";"";"";"";"";"";"";"no"
"3355616096";"54.654691";"25.266587";"charging_station";"";"Lithuania";"Vilnius County";"N/A";"N/A";"";"";"";"";"UAB „Transmitto“";"";"";"";"";"";"";"";"";"";"";"";"";"";"";""
"3571119693";"54.7627068";"25.1985082";"charging_station";"";"Lithuania";"Vilnius County";"N/A";"N/A";"";"";"";"";"ABB";"";"";"";"";"";"";"";"";"";"";"";"ABB";"";"";""
"3889092272";"54.7419045";"25.223347";"charging_station";"";"Lithuania";"Vilnius County";"N/A";"N/A";"";"";"";"";"KIA";"";"";"";"";"";"";"";"";"";"";"";"";"";"24/7";""
"4009648287";"54.6810083";"25.2835366";"charging_station";"Vilnius";"Lithuania";"Vilnius County";"N/A";"N/A";"";"";"";"";"";"";"";"";"";"";"";"";"";"";"";"";"";"";"";""
"4168758289";"54.6821903";"25.2504127";"charging_station";"";"Lithuania";"Vilnius County";"N/A";"N/A";"";"2";"";"";"Spark";"";"";"";"";"2";"";"";"";"";"";"";"";"";"";"yes"
"4739650121";"54.7373031";"25.2313038";"charging_station";"Vilnius";"Lithuania";"Vilnius County";"N/A";"N/A";"";"3";"";"";"";"";"";"";"";"";"";"";"";"";"";"";"";"";"24/7";""
"5025971450";"54.6918213";"25.2878255";"charging_station";"Vilnius";"Lithuania";"Vilnius County";"N/A";"N/A";"";"2";"";"";"Unipark";"";"";"";"";"2";"";"";"";"";"";"";"";"";"24/7";""
"5031575873";"54.6762077";"25.2576824";"charging_station";"";"Lithuania";"Vilnius County";"N/A";"N/A";"";"4";"";"";"SPARK";"";"";"";"";"";"";"";"";"";"";"";"";"";"24/7";"yes"
"5137028820";"54.6697691";"25.2598328";"charging_station";"";"Lithuania";"Vilnius County";"N/A";"N/A";"";"3";"";"yes";"";"";"";"";"";"";"";"";"";"";"";"";"";"";"";""
"5224689927";"54.7086684";"25.2271352";"charging_station";"";"Lithuania";"Vilnius County";"N/A";"N/A";"";"2";"";"";"Spark";"";"";"";"";"";"";"";"";"";"";"";"";"";"";"no"
"5240629593";"54.7152796";"25.2459365";"charging_station";"";"Lithuania";"Vilnius County";"N/A";"N/A";"";"2";"";"";"Spark";"";"";"";"";"";"";"";"";"32";"Šeškinės g.";"07157";"";"";"";""
"5240629594";"54.7128718";"25.3038906";"charging_station";"Vilnius";"Lithuania";"Vilnius County";"N/A";"N/A";"";"";"";"";"Spark";"";"";"";"";"";"";"";"";"";"";"";"";"";"24/7";""
"5486381178";"54.7406716";"25.2759093";"charging_station";"Vilnius";"Lithuania";"Vilnius County";"N/A";"N/A";"";"2";"";"";"";"";"";"";"";"";"";"";"";"";"";"";"";"";"24/7";""
"5943035131";"54.6327654";"24.9354087";"charging_station";"";"Lithuania";"";"N/A";"N/A";"";"2";"";"yes";"UAB Ignitis";"";"";"";"";"2";"";"";"";"";"";"";"Ignitis ON";"";"";"yes"
"6314743473";"54.6711245";"25.2592179";"charging_station";"";"Lithuania";"Vilnius County";"N/A";"N/A";"";"";"";"";"";"";"";"";"";"";"";"";"";"";"";"";"";"";"";""
"6858230036";"54.7032668";"25.22299";"charging_station";"";"Lithuania";"Vilnius County";"N/A";"N/A";"";"2";"";"yes";"UAB Ignitis";"";"";"";"";"1";"";"";"";"";"";"";"Ignitis ON";"";"24/7";"yes"
"6881432756";"54.7095254";"25.2268557";"charging_station";"";"Lithuania";"Vilnius County";"N/A";"N/A";"";"2";"";"yes";"UAB Ignitis";"";"";"";"";"1";"";"";"";"";"";"";"Ignitis ON";"";"24/7";"yes"
"6898296083";"54.7022305";"25.2139177";"charging_station";"";"Lithuania";"Vilnius County";"N/A";"N/A";"";"2";"";"";"UAB Ignitis";"";"";"";"";"1";"";"";"";"";"";"";"Ignitis ON";"";"";"yes"
"6911604450";"54.7086056";"25.3145453";"charging_station";"";"Lithuania";"Vilnius County";"N/A";"N/A";"";"2";"";"";"UAB Ignitis";"Q583822";"";"";"";"1";"";"";"";"";"";"";"Ignitis ON";"";"";"yes"
"6944389835";"54.6900368";"25.2638003";"charging_station";"";"Lithuania";"Vilnius County";"N/A";"N/A";"";"2";"";"";"UAB Ignitis";"";"";"";"";"1";"";"";"";"";"";"";"Ignitis ON";"";"";"yes"
"6944398028";"54.6739922";"25.2855506";"charging_station";"Vilnius";"Lithuania";"Vilnius County";"N/A";"N/A";"";"2";"";"";"UAB Ignitis";"";"";"";"";"1";"";"";"";"";"";"";"Ignitis ON";"";"";"yes"
"6944401306";"54.7169842";"25.2230818";"charging_station";"";"Lithuania";"Vilnius County";"N/A";"N/A";"";"2";"";"";"UAB Ignitis";"";"";"";"";"1";"";"";"";"";"";"";"Ignitis ON";"";"";"yes"
"7003973493";"54.6785189";"25.2931565";"charging_station";"Vilnius";"Lithuania";"Vilnius County";"N/A";"N/A";"";"3";"";"";"Ignitis ON";"";"";"";"";"1";"";"";"";"1";"Onos Šimaitės g.";"";"";"";"";"yes"
"7030047495";"54.698134";"25.2656434";"charging_station";"Vilnius";"Lithuania";"Vilnius County";"N/A";"N/A";"";"2";"";"";"Ignitis";"";"";"";"";"1";"";"";"";"";"";"";"";"";"";""
"7084525150";"54.6850244";"25.2933128";"charging_station";"Vilnius";"Lithuania";"Vilnius County";"N/A";"N/A";"";"3";"";"";"UAB Ignitis";"";"";"";"";"1";"";"";"";"";"";"";"Ignitis ON";"";"24/7";"yes"
"7114363092";"54.6429758";"25.2747479";"charging_station";"";"Lithuania";"Vilnius County";"N/A";"N/A";"";"";"";"";"UAB Ignitis";"";"";"";"";"1";"";"";"";"";"";"";"Ignitis ON";"";"24/7";"yes"
"7130886338";"54.6712377";"25.2376838";"charging_station";"";"Lithuania";"Vilnius County";"N/A";"N/A";"";"";"";"";"UAB Ignitis";"";"";"";"";"1";"";"";"";"";"";"";"Ignitis ON";"";"24/7";"yes"
"7157026502";"54.6761398";"25.2666435";"charging_station";"";"Lithuania";"Vilnius County";"N/A";"N/A";"";"";"";"";"";"";"";"";"";"";"";"";"";"";"";"";"";"";"";""
"7410347097";"54.6728635";"25.2740124";"charging_station";"";"Lithuania";"Vilnius County";"N/A";"N/A";"";"2";"";"";"Spark";"";"";"";"";"";"";"";"";"";"";"";"";"";"";""
"7558653685";"54.6695029";"25.0959532";"charging_station";"";"Lithuania";"";"N/A";"N/A";"";"3";"";"";"UAB Ignitis";"Q583822";"";"";"";"1";"";"";"";"";"";"";"Ignitis ON";"";"24/7";"yes"
"7931268946";"54.67984";"25.2583991";"charging_station";"";"Lithuania";"Vilnius County";"N/A";"N/A";"";"2";"";"";"UAB Ignitis";"Q583822";"";"";"";"1";"";"";"";"";"";"";"Ignitis ON";"";"";"yes"
"7931308938";"54.6920912";"25.2459285";"charging_station";"";"Lithuania";"Vilnius County";"N/A";"N/A";"";"2";"";"";"UAB Ignitis";"";"";"";"";"1";"";"";"";"";"";"";"Ignitis ON";"";"";"yes"
"8158678514";"54.7543573";"25.2809653";"charging_station";"Vilnius";"Lithuania";"Vilnius County";"N/A";"N/A";"";"2";"";"";"";"";"";"";"";"";"";"";"";"";"";"";"";"";"24/7";""
"8158687233";"54.7515246";"25.2802793";"charging_station";"Vilnius";"Lithuania";"Vilnius County";"N/A";"N/A";"";"2";"";"";"";"";"";"";"";"";"";"";"";"";"";"";"";"";"24/7";""
"8158687234";"54.7529259";"25.2811745";"charging_station";"Vilnius";"Lithuania";"Vilnius County";"N/A";"N/A";"";"2";"";"";"";"";"";"";"";"";"";"";"";"";"";"";"";"";"24/7";""
"8158687244";"54.7508401";"25.2804181";"charging_station";"Vilnius";"Lithuania";"Vilnius County";"N/A";"N/A";"";"2";"";"";"";"";"";"";"";"";"";"";"";"";"";"";"";"";"24/7";""
"8186774183";"54.6228073";"25.1114148";"charging_station";"";"Lithuania";"";"N/A";"N/A";"";"2";"";"";"";"";"";"";"";"";"";"";"";"";"";"";"";"";"24/7";""
"8527992962";"54.6692462";"25.2101773";"charging_station";"";"Lithuania";"Vilnius County";"N/A";"N/A";"";"2";"";"";"UAB Ignitis";"";"";"";"";"1";"";"";"";"";"";"";"ChargePoint";"";"";"yes"
"8527994429";"54.6742361";"25.2014401";"charging_station";"";"Lithuania";"Vilnius County";"N/A";"N/A";"";"3";"";"";"UAB Ignitis";"";"";"";"";"1";"";"";"";"";"";"";"ChargePoint";"";"";"yes"
"8712754677";"54.6774134";"25.2081979";"charging_station";"";"Lithuania";"Vilnius County";"N/A";"N/A";"";"";"";"";"autoPilDYK";"";"";"";"";"";"";"";"";"";"";"";"";"";"";""
"8713052355";"54.6741495";"25.2235742";"charging_station";"";"Lithuania";"Vilnius County";"N/A";"N/A";"";"2";"";"";"Spark";"";"";"";"";"";"";"";"";"";"";"";"";"";"";""
"8718328826";"54.7247567";"25.3419164";"charging_station";"";"Lithuania";"Vilnius County";"N/A";"N/A";"";"2";"";"";"UAB Ignitis";"";"";"";"";"1";"";"";"";"";"";"";"Ignitis ON";"";"24/7";"yes"
"8829222628";"54.6778762";"25.2255726";"charging_station";"";"Lithuania";"Vilnius County";"N/A";"N/A";"";"";"";"yes";"UAB Ignitis";"";"";"";"";"1";"";"";"";"";"";"";"Ignitis ON";"";"";"yes"
"9164493563";"54.6895906";"25.2757454";"charging_station";"Vilnius";"Lithuania";"Vilnius County";"N/A";"N/A";"";"4";"";"";"";"";"";"";"";"";"";"";"";"";"";"";"";"";"";""
"9277957553";"54.6725349";"25.2212002";"charging_station";"";"Lithuania";"Vilnius County";"N/A";"N/A";"";"4";"";"";"Ignitis ON";"";"";"";"";"";"";"";"";"";"";"";"";"";"";""
"9344465472";"54.6680793";"25.1750938";"charging_station";"";"Lithuania";"Vilnius County";"N/A";"N/A";"";"";"";"";"McDonalds";"";"";"";"";"";"";"";"";"";"";"";"";"";"";"no"
"9423697544";"54.6956166";"25.2594532";"charging_station";"";"Lithuania";"Vilnius County";"N/A";"N/A";"";"2";"";"";"Spark";"";"";"";"";"";"";"";"";"";"";"";"";"";"";""
"9423697545";"54.6956794";"25.2577634";"charging_station";"";"Lithuania";"Vilnius County";"N/A";"N/A";"";"2";"";"";"UAB Ignitis";"Q583822";"";"";"";"1";"";"";"";"";"";"";"Ignitis ON";"";"";"yes"
"9465414117";"54.7199931";"25.2851682";"charging_station";"Vilnius";"Lithuania";"Vilnius County";"N/A";"N/A";"";"2";"";"";"";"";"";"";"";"";"";"";"";"3";"Juozo Balčikonio g.";"";"Spark";"";"24/7";"yes"
"9500954550";"54.7210034";"25.2825081";"charging_station";"Vilnius";"Lithuania";"Vilnius County";"N/A";"N/A";"";"";"";"";"";"";"";"";"";"";"";"";"";"";"";"";"";"";"";""
"9670265317";"54.7361085";"25.2235257";"charging_station";"";"Lithuania";"Vilnius County";"N/A";"N/A";"";"";"";"";"";"";"";"";"";"";"";"";"";"";"";"";"";"";"";""
"9735658218";"54.6783085";"25.2770862";"charging_station";"";"Lithuania";"Vilnius County";"N/A";"N/A";"";"3";"";"";"";"";"";"";"";"";"";"";"";"";"";"";"";"";"";""
"9814719517";"54.7168271";"25.2766335";"charging_station";"";"Lithuania";"Vilnius County";"N/A";"N/A";"";"2";"";"";"";"";"";"";"";"";"";"";"";"";"";"";"";"";"24/7";"yes"
"9821548087";"54.6455856";"24.9342442";"charging_station";"";"Lithuania";"";"N/A";"N/A";"";"2";"";"";"Ignitis";"";"";"";"";"";"";"";"063";"";"";"";"";"";"24/7";"yes"
"9824761717";"54.716986";"25.2779065";"charging_station";"Vilnius";"Lithuania";"Vilnius County";"N/A";"N/A";"";"2";"";"";"";"";"";"";"";"";"";"";"";"";"";"";"";"";"24/7";"yes"
"9862616418";"54.6990303";"25.2594322";"charging_station";"";"Lithuania";"Vilnius County";"N/A";"N/A";"";"3";"";"";"UAB Ignitis";"Q583822";"";"";"";"1";"";"";"";"";"";"";"Ignitis ON";"";"";"yes"
"9862616419";"54.698073";"25.2653015";"charging_station";"Vilnius";"Lithuania";"Vilnius County";"N/A";"N/A";"";"1";"";"";"UAB Ignitis";"";"";"";"";"1";"";"";"";"";"";"";"Ignitis ON";"";"";"yes"
"9862616420";"54.6980738";"25.2696425";"charging_station";"Vilnius";"Lithuania";"Vilnius County";"N/A";"N/A";"";"2";"";"";"UAB Ignitis";"";"";"";"";"1";"";"";"";"";"";"";"Ignitis ON";"";"24/7";"yes"
"9862616421";"54.6937985";"25.2750988";"charging_station";"Vilnius";"Lithuania";"Vilnius County";"N/A";"N/A";"";"1";"";"";"UAB Ignitis";"";"";"";"";"1";"";"";"";"";"";"";"Ignitis ON";"";"24/7";"yes"
"9862616422";"54.6832935";"25.2798688";"charging_station";"Vilnius";"Lithuania";"Vilnius County";"N/A";"N/A";"";"";"";"";"UAB Ignitis";"";"";"";"";"1";"";"";"";"";"";"";"Ignitis ON";"";"";"yes"
"9862616423";"54.6785039";"25.2856969";"charging_station";"Vilnius";"Lithuania";"Vilnius County";"N/A";"N/A";"";"2";"";"";"UAB Ignitis";"";"";"";"";"";"";"";"";"";"";"";"Ignitis ON";"";"";"yes"
"9862616424";"54.6810546";"25.2986294";"charging_station";"";"Lithuania";"Vilnius County";"N/A";"N/A";"";"2";"";"";"UAB Ignitis";"";"";"";"";"1";"";"";"";"";"";"";"Ignitis ON";"";"";"yes"
"9862616425";"54.6862556";"25.2592851";"charging_station";"";"Lithuania";"Vilnius County";"N/A";"N/A";"";"";"";"";"UAB Ignitis";"Q583822";"";"";"";"1";"";"";"";"";"";"";"Ignitis ON";"";"";"yes"
"9862616426";"54.6822871";"25.2689385";"charging_station";"";"Lithuania";"Vilnius County";"N/A";"N/A";"";"2";"";"";"UAB Ignitis";"";"";"";"";"1";"";"";"";"";"";"";"Ignitis ON";"";"";"yes"
"9862616427";"54.6762749";"25.2840957";"charging_station";"Vilnius";"Lithuania";"Vilnius County";"N/A";"N/A";"";"2";"";"";"UAB Ignitis";"";"";"";"";"1";"";"";"";"";"";"";"Ignitis ON";"";"";"yes"
"9862616428";"54.6707297";"25.2597228";"charging_station";"";"Lithuania";"Vilnius County";"N/A";"N/A";"";"3";"";"";"UAB Ignitis";"";"";"";"";"1";"";"";"";"";"";"";"Ignitis ON";"";"";"yes"
"9862616429";"54.6732986";"25.2480644";"charging_station";"";"Lithuania";"Vilnius County";"N/A";"N/A";"";"2";"";"";"UAB Ignitis";"Q583822";"";"";"";"1";"";"";"";"";"";"";"Ignitis ON";"";"";"yes"
"9862616430";"54.698466";"25.2470225";"charging_station";"";"Lithuania";"Vilnius County";"N/A";"N/A";"";"2";"";"";"UAB Ignitis";"";"";"";"";"1";"";"";"";"";"";"";"Ignitis ON";"";"";"yes"
"9862616431";"54.6935395";"25.2890857";"charging_station";"Vilnius";"Lithuania";"Vilnius County";"N/A";"N/A";"";"";"";"";"UAB Ignitis";"Q583822";"";"";"";"8";"";"";"";"";"";"";"Ignitis ON";"";"";"yes"
"9862616432";"54.6991882";"25.2865324";"charging_station";"Vilnius";"Lithuania";"Vilnius County";"N/A";"N/A";"";"";"";"";"UAB Ignitis";"";"";"";"";"1";"";"";"";"";"";"";"Ignitis ON";"";"24/7";"yes"
"9862616433";"54.6976908";"25.2999538";"charging_station";"Vilnius";"Lithuania";"Vilnius County";"N/A";"N/A";"";"";"";"";"UAB Ignitis";"";"";"";"";"1";"";"";"";"";"";"";"Ignitis ON";"";"24/7";"yes"
"9862616434";"54.6990695";"25.3085414";"charging_station";"";"Lithuania";"Vilnius County";"N/A";"N/A";"";"3";"";"";"UAB Ignitis";"";"";"";"";"1";"";"";"";"";"";"";"Ignitis ON";"";"";"yes"
"9862616435";"54.6725803";"25.222015";"charging_station";"";"Lithuania";"Vilnius County";"N/A";"N/A";"";"6";"";"";"UAB Ignitis";"";"";"";"";"7";"";"";"";"";"";"";"Ignitis ON";"";"";"yes"
"9862616436";"54.692091";"25.2156705";"charging_station";"";"Lithuania";"Vilnius County";"N/A";"N/A";"";"3";"";"";"UAB Ignitis";"";"";"";"";"1";"";"";"";"";"";"";"Ignitis ON";"";"";"yes"
"9862616437";"54.6853409";"25.2056415";"charging_station";"";"Lithuania";"Vilnius County";"N/A";"N/A";"";"2";"";"";"UAB Ignitis";"";"";"";"";"1";"";"";"";"";"";"";"Ignitis ON";"";"";"yes"
"9862616438";"54.6617167";"25.2729082";"charging_station";"";"Lithuania";"Vilnius County";"N/A";"N/A";"";"";"";"";"UAB Ignitis";"";"";"";"";"1";"";"";"";"";"";"";"Ignitis ON";"";"24/7";"yes"
"9862616439";"54.6518776";"25.2820176";"charging_station";"";"Lithuania";"Vilnius County";"N/A";"N/A";"";"";"";"";"UAB „Ignitis“";"";"";"";"";"1";"";"";"";"";"";"";"Ignitis ON";"";"";"yes"
"9862616440";"54.6438962";"25.20017";"charging_station";"";"Lithuania";"Vilnius County";"N/A";"N/A";"";"";"";"";"UAB Ignitis";"";"";"";"";"1";"";"";"";"";"";"";"Ignitis ON";"";"";"yes"
"9862616441";"54.6623362";"25.3427966";"charging_station";"";"Lithuania";"Vilnius County";"N/A";"N/A";"";"";"";"";"UAB Ignitis";"";"";"";"";"1";"";"";"";"";"";"";"Ignitis ON";"";"";"yes"
"9862616442";"54.6926412";"25.409646";"charging_station";"";"Lithuania";"";"N/A";"N/A";"";"";"";"";"UAB Ignitis";"";"";"";"";"1";"";"";"";"";"";"";"Ignitis ON";"";"";"yes"
"9862616444";"54.6434518";"24.9353792";"charging_station";"";"Lithuania";"";"N/A";"N/A";"";"";"";"";"UAB Ignitis";"";"";"";"";"2";"";"";"";"";"";"";"Ignitis ON";"";"";"yes"
"9862616446";"54.7073029";"25.1751989";"charging_station";"";"Lithuania";"Vilnius County";"N/A";"N/A";"";"3";"";"";"UAB Ignitis";"";"";"";"";"1";"";"";"";"";"";"";"Ignitis ON";"";"";"yes"
"9862616448";"54.7114427";"25.3042567";"charging_station";"Vilnius";"Lithuania";"Vilnius County";"N/A";"N/A";"";"";"";"";"UAB Ignitis";"";"";"";"";"1";"";"";"";"";"";"";"Ignitis ON";"";"24/7";"yes"
"9862616449";"54.7040474";"25.2764362";"charging_station";"Vilnius";"Lithuania";"Vilnius County";"N/A";"N/A";"";"3";"";"";"UAB Ignitis";"";"";"";"";"1";"";"";"";"";"";"";"Ignitis ON";"";"24/7";"yes"
"9862616450";"54.7170083";"25.2822046";"charging_station";"Vilnius";"Lithuania";"Vilnius County";"N/A";"N/A";"";"3";"";"";"UAB Ignitis";"";"";"";"";"1";"";"";"";"";"";"";"Ignitis ON";"";"24/7";"yes"
"9862616451";"54.7190517";"25.2990353";"charging_station";"Vilnius";"Lithuania";"Vilnius County";"N/A";"N/A";"";"";"";"";"UAB Ignitis";"";"";"";"";"1";"";"";"";"";"";"";"Ignitis ON";"";"";"yes"
"9862616452";"54.7167898";"25.2450921";"charging_station";"";"Lithuania";"Vilnius County";"N/A";"N/A";"";"3";"";"";"UAB Ignitis";"";"";"";"";"1";"";"";"";"";"";"";"Ignitis ON";"";"";"yes"
"9862616453";"54.7295051";"25.2707189";"charging_station";"";"Lithuania";"Vilnius County";"N/A";"N/A";"";"";"";"";"UAB Ignitis";"";"";"";"";"1";"";"";"";"";"";"";"Ignitis ON";"";"24/7";"yes"
"9862616454";"54.7308373";"25.2470032";"charging_station";"Vilnius";"Lithuania";"Vilnius County";"N/A";"N/A";"";"";"";"";"UAB Ignitis";"";"";"";"";"1";"";"";"";"";"";"";"Ignitis ON";"";"24/7";"yes"
"9862616455";"54.7272964";"25.233539";"charging_station";"Vilnius";"Lithuania";"Vilnius County";"N/A";"N/A";"";"";"";"";"UAB Ignitis";"";"";"";"";"1";"";"";"";"";"";"";"Ignitis ON";"";"";"yes"
"9862616456";"54.7348195";"25.2211493";"charging_station";"";"Lithuania";"Vilnius County";"N/A";"N/A";"";"";"";"";"UAB Ignitis";"";"";"";"";"1";"";"";"";"";"";"";"Ignitis ON";"";"";"yes"
"9862616457";"54.7344715";"25.3381794";"charging_station";"";"Lithuania";"Vilnius County";"N/A";"N/A";"";"";"";"";"Ignitis ON";"";"";"";"";"1";"";"";"";"33";"Nemenčinės pl.";"10104";"Ignitis ON";"";"24/7";"yes"
"9862616458";"54.740275";"25.2755854";"charging_station";"Vilnius";"Lithuania";"Vilnius County";"N/A";"N/A";"";"";"";"";"UAB Ignitis";"Q583822";"";"";"";"1";"";"";"";"";"";"";"Ignitis ON";"";"24/7";"yes"
"9862616459";"54.7530236";"25.284256";"charging_station";"Vilnius";"Lithuania";"Vilnius County";"N/A";"N/A";"";"";"";"";"UAB Ignitis";"";"";"";"";"1";"";"";"";"";"";"";"Ignitis ON";"";"";"yes"
"9862616460";"54.7736085";"25.2724129";"charging_station";"Vilnius";"Lithuania";"Vilnius County";"N/A";"N/A";"";"";"";"";"UAB Ignitis";"";"";"";"";"1";"";"";"";"";"";"";"Ignitis ON";"";"24/7";"yes"
"9862616461";"54.7767971";"25.3364705";"charging_station";"";"Lithuania";"Vilnius County";"N/A";"N/A";"";"";"";"";"UAB Ignitis";"";"";"";"";"1";"";"";"";"";"";"";"Ignitis ON";"";"";"yes"
"9997193218";"54.7074824";"25.2251329";"charging_station";"";"Lithuania";"Vilnius County";"N/A";"N/A";"";"2";"";"";"Elinta Charge";"";"";"";"";"";"";"";"";"";"";"";"";"";"";""
"10068892917";"54.7037001";"25.2787106";"charging_station";"Vilnius";"Lithuania";"Vilnius County";"N/A";"N/A";"";"";"";"";"";"";"";"";"";"";"";"";"";"";"";"";"";"";"24/7";""
"10082336652";"54.6955755";"25.2590818";"charging_station";"";"Lithuania";"Vilnius County";"N/A";"N/A";"";"2";"";"";"Spark";"";"";"";"";"";"";"";"";"";"";"";"";"";"";""
"10099103917";"54.7151";"25.2782868";"charging_station";"Vilnius";"Lithuania";"Vilnius County";"N/A";"N/A";"";"";"";"";"";"";"";"";"";"";"";"";"";"12A";"Ozo g.";"";"";"";"24/7";""
"10101506217";"54.7192758";"25.2997531";"charging_station";"Vilnius";"Lithuania";"Vilnius County";"N/A";"N/A";"";"";"";"";"";"";"";"";"";"";"";"";"";"";"";"";"";"";"";""
"10137749417";"54.7315254";"25.246922";"charging_station";"Vilnius";"Lithuania";"Vilnius County";"N/A";"N/A";"";"2";"";"";"";"";"";"";"";"";"";"";"";"";"";"";"";"";"24/7";""
"10603558007";"54.7239625";"25.3196435";"charging_station";"";"Lithuania";"Vilnius County";"N/A";"N/A";"";"";"";"";"";"";"";"";"";"";"";"";"";"";"";"";"";"";"";""
"10693375936";"54.6860159";"25.259426";"charging_station";"";"Lithuania";"Vilnius County";"N/A";"N/A";"";"";"";"";"";"";"";"";"";"";"";"";"";"";"";"";"";"";"";""
"10924883721";"54.7359992";"25.2211656";"charging_station";"";"Lithuania";"Vilnius County";"N/A";"N/A";"";"";"";"";"";"";"";"";"";"";"";"";"";"";"";"";"";"";"";""
"10989857306";"54.7102086";"25.2647018";"charging_station";"";"Lithuania";"Vilnius County";"N/A";"N/A";"";"";"";"";"";"";"";"";"";"";"";"";"";"";"";"";"";"";"24/7";""
"11001894705";"54.7099818";"25.213699";"charging_station";"";"Lithuania";"Vilnius County";"N/A";"N/A";"";"";"";"";"";"";"";"";"";"";"";"";"";"";"";"";"";"";"";""
"11037159089";"54.6785305";"25.2576743";"charging_station";"";"Lithuania";"Vilnius County";"N/A";"N/A";"";"1";"";"";"";"";"";"";"";"";"";"";"";"";"";"";"";"";"";""
"11037159090";"54.6784472";"25.2576812";"charging_station";"";"Lithuania";"Vilnius County";"N/A";"N/A";"";"1";"";"";"";"";"";"";"";"";"";"";"";"";"";"";"";"";"";""
"11037159091";"54.6784057";"25.2577378";"charging_station";"";"Lithuania";"Vilnius County";"N/A";"N/A";"";"1";"";"";"";"";"";"";"";"";"";"";"";"";"";"";"";"";"";""
"11097299605";"54.6465055";"25.2652558";"charging_station";"";"Lithuania";"Vilnius County";"N/A";"N/A";"";"";"";"";"";"";"";"";"";"";"";"";"";"";"";"";"";"";"";""
"11123814220";"54.7229414";"25.3363478";"charging_station";"";"Lithuania";"Vilnius County";"N/A";"N/A";"";"2";"";"";"";"";"";"";"";"";"";"";"";"";"";"";"";"";"";""
"11146165945";"54.7095074";"25.1894";"charging_station";"";"Lithuania";"Vilnius County";"N/A";"N/A";"";"4";"";"";"Vilniaus apšvietimas";"";"";"";"";"";"";"";"";"";"";"";"";"";"";""
"11148444705";"54.7543484";"25.2618629";"charging_station";"Vilnius";"Lithuania";"Vilnius County";"N/A";"N/A";"";"";"";"";"";"";"";"";"";"";"";"";"";"";"";"";"";"";"";""
"11148483005";"54.7522733";"25.2647613";"charging_station";"Vilnius";"Lithuania";"Vilnius County";"N/A";"N/A";"";"";"";"";"";"";"";"";"";"";"";"";"";"";"";"";"";"";"";""
"11155822588";"54.647369";"25.2764883";"charging_station";"";"Lithuania";"Vilnius County";"N/A";"N/A";"";"4";"";"";"";"";"";"";"";"";"";"";"";"";"";"";"";"";"";""
"11163263205";"54.702797";"25.2315986";"charging_station";"";"Lithuania";"Vilnius County";"N/A";"N/A";"";"2";"";"";"";"";"";"";"";"";"";"";"";"";"";"";"";"";"";""
"11209952257";"54.6241652";"25.1108735";"charging_station";"";"Lithuania";"";"N/A";"N/A";"";"2";"";"";"Ignitis ON";"";"";"";"";"2";"";"";"";"";"";"";"Ignitis ON";"";"24/7";"yes"
"11211814843";"54.705126";"25.2725515";"charging_station";"Vilnius";"Lithuania";"Vilnius County";"N/A";"N/A";"";"";"";"";"";"";"";"";"";"";"";"";"";"";"";"";"";"";"24/7";""
"11223301748";"54.7305955";"25.3322834";"charging_station";"";"Lithuania";"Vilnius County";"N/A";"N/A";"";"2";"";"";"Lidl";"";"";"";"";"1";"";"";"";"15";"Nemenčinės pl.";"15173";"";"";"24/7";"yes"
"11223312538";"54.7137581";"25.3026409";"charging_station";"Vilnius";"Lithuania";"Vilnius County";"N/A";"N/A";"";"";"";"";"";"";"";"";"";"";"";"";"";"";"";"";"";"";"24/7";""
"11228854665";"54.7376171";"25.2677132";"charging_station";"Vilnius";"Lithuania";"Vilnius County";"N/A";"N/A";"";"";"";"";"";"";"";"";"";"";"";"";"";"";"";"";"";"";"24/7";""
"11519490569";"54.701311";"25.29202";"charging_station";"Vilnius";"Lithuania";"Vilnius County";"N/A";"N/A";"";"";"";"";"";"";"";"";"";"";"";"";"";"";"";"";"";"";"24/7";""
"11659605470";"54.7288476";"25.2703395";"charging_station";"";"Lithuania";"Vilnius County";"N/A";"N/A";"";"2";"";"";"";"";"";"";"";"";"";"";"";"";"";"";"";"";"24/7";""
"11673339313";"54.6587942";"25.1574532";"charging_station";"";"Lithuania";"Vilnius County";"N/A";"N/A";"";"2";"";"";"Elektrum";"";"";"";"";"1";"";"";"";"";"";"";"";"";"";"yes"
"11690071632";"54.6439803";"25.0470443";"charging_station";"";"Lithuania";"";"N/A";"N/A";"";"22";"";"";"IKI";"";"";"";"";"";"";"";"";"";"";"";"Elinta";"";"";"no"
"11690071633";"54.6456969";"25.0482172";"charging_station";"";"Lithuania";"";"N/A";"N/A";"";"22";"";"";"";"";"";"";"";"";"";"";"";"";"";"";"";"";"";"no"
"11690072848";"54.6860678";"25.0537404";"charging_station";"";"Lithuania";"";"N/A";"N/A";"";"150";"";"";"";"";"";"";"";"";"";"";"";"";"";"";"";"";"";"yes"
"11905228841";"54.7095844";"25.1879134";"charging_station";"";"Lithuania";"Vilnius County";"N/A";"N/A";"";"4";"";"yes";"";"";"";"";"";"";"";"";"";"";"";"";"";"";"";"yes"
"11911876669";"54.6498466";"25.2798581";"charging_station";"";"Lithuania";"Vilnius County";"N/A";"N/A";"";"";"";"";"Decathlon";"";"";"";"";"";"";"";"";"";"";"";"";"";"24/7";""
"11911876769";"54.6732479";"25.2750403";"charging_station";"";"Lithuania";"Vilnius County";"N/A";"N/A";"";"";"";"";"";"";"";"";"";"";"";"";"";"";"";"";"";"";"";""
"11913167269";"54.6754033";"25.2792244";"charging_station";"";"Lithuania";"Vilnius County";"N/A";"N/A";"";"";"";"";"";"";"";"";"";"";"";"";"";"";"";"";"";"";"";""
"11914039869";"54.6526754";"25.3039079";"charging_station";"";"Lithuania";"Vilnius County";"N/A";"N/A";"";"";"";"";"";"";"";"";"";"";"";"";"";"";"";"";"";"";"24/7";""
"12038002345";"54.7257835";"25.3280016";"charging_station";"";"Lithuania";"Vilnius County";"N/A";"N/A";"";"";"";"";"";"";"";"";"";"";"";"";"";"";"";"";"";"";"24/7";""
"12082957930";"54.6585093";"25.1561313";"charging_station";"";"Lithuania";"Vilnius County";"N/A";"N/A";"";"4";"";"";"Vilniaus apšvietimas";"";"";"";"";"";"";"";"";"";"";"";"";"";"";"yes"
"12293997424";"54.6470334";"25.1014942";"charging_station";"";"Lithuania";"";"N/A";"N/A";"";"";"";"";"";"";"";"";"";"yes";"";"";"";"";"";"";"";"";"";""
"12375060063";"54.6747047";"25.2529328";"charging_station";"";"Lithuania";"Vilnius County";"N/A";"N/A";"";"4";"";"";"";"";"";"";"";"";"";"";"";"";"";"";"Inbalance Grid";"";"24/7";"yes"
"12426910301";"54.740047";"25.2258932";"charging_station";"";"Lithuania";"Vilnius County";"N/A";"N/A";"";"";"";"";"";"";"";"";"";"";"";"";"";"";"";"";"";"";"";""
"12515948872";"54.7029761";"25.2186087";"charging_station";"";"Lithuania";"Vilnius County";"N/A";"N/A";"";"4";"";"";"";"";"";"";"";"";"";"";"";"";"";"";"";"";"";"yes"
"12523856274";"54.7264243";"25.2989177";"charging_station";"Vilnius";"Lithuania";"Vilnius County";"N/A";"N/A";"";"2";"";"yes";"";"";"";"";"";"";"";"";"";"";"";"";"";"";"";"yes"
"12648400301";"54.6048984";"25.2606129";"charging_station";"";"Lithuania";"";"N/A";"N/A";"";"2";"";"";"";"";"";"";"";"";"";"";"";"1";"Barčių g.";"";"";"";"";""
"12668958226";"54.6461287";"25.0518719";"charging_station";"";"Lithuania";"";"N/A";"N/A";"";"2x22kW";"";"";"Enefit";"";"";"";"";"";"";"";"";"";"";"";"Enefit";"";"";"yes"
"12668958227";"54.6461633";"25.0518364";"charging_station";"";"Lithuania";"";"N/A";"N/A";"";"2x22kW";"";"";"Enefit";"";"";"";"";"";"";"";"";"";"";"";"Enefit";"";"";"yes"
"12750031558";"54.6785831";"25.2554977";"charging_station";"";"Lithuania";"Vilnius County";"N/A";"N/A";"";"4";"";"yes";"";"";"";"";"";"";"";"";"";"";"";"";"";"";"";""
"12752775138";"54.6585967";"25.1539795";"charging_station";"";"Lithuania";"Vilnius County";"N/A";"N/A";"";"2";"";"yes";"";"";"";"";"";"";"";"";"";"";"";"";"";"";"";"yes"
"12758473797";"54.7484133";"24.9327306";"charging_station";"";"Lithuania";"";"N/A";"N/A";"";"12";"";"";"";"";"";"";"";"";"";"";"";"";"";"";"";"";"";""
"12802565701";"54.7788113";"25.274918";"charging_station";"Vilnius";"Lithuania";"Vilnius County";"N/A";"N/A";"";"";"";"";"";"";"";"";"";"";"";"";"";"";"";"";"";"";"24/7";""
"12831768447";"54.82518";"25.3531728";"charging_station";"";"Lithuania";"";"N/A";"N/A";"";"";"";"";"";"";"";"";"";"";"";"";"";"";"";"";"";"";"";""
"1394475424";"";"";"charging_station";"N/A";"N/A";"N/A";"N/A";"N/A";"";"";"";"";"Ignitis";"Q583822";"";"";"";"";"";"";"";"";"";"";"Ignitis ON";"";"";""
"12908894519";"54.6622183";"25.2343318";"";"";"Lithuania";"Vilnius County";"N/A";"N/A";"";"";"";"";"";"";"";"";"";"";"";"";"";"";"";"";"";"";"";""
"12908894520";"54.662179";"25.2343112";"";"";"Lithuania";"Vilnius County";"N/A";"N/A";"";"";"";"";"";"";"";"";"";"";"";"";"";"";"";"";"";"";"";""
"12908894521";"54.6621723";"25.2343496";"";"";"Lithuania";"Vilnius County";"N/A";"N/A";"";"";"";"";"";"";"";"";"";"";"";"";"";"";"";"";"";"";"";""
"12908894522";"54.6622116";"25.2343702";"";"";"Lithuania";"Vilnius County";"N/A";"N/A";"";"";"";"";"";"";"";"";"";"";"";"";"";"";"";"";"";"";"";""
"3453862516";"54.426692";"25.904844";"charging_station";"";"Belarus";"Grodnenskaya";"N/A";"N/A";"";"";"";"yes";"Белоруснефть";"Q4082693";"";"";"";"";"";"";"";"";"";"";"Malanka";"";"24/7";""
"5310276417";"54.4400433";"25.9640461";"charging_station";"";"Belarus";"Grodnenskaya";"N/A";"N/A";"";"2";"";"yes";"Белоруснефть";"Q4082693";"";"";"";"";"125";"";"";"";"";"";"Malanka";"";"24/7";"no"
"9616201607";"54.6147075";"25.9800602";"charging_station";"";"Belarus";"Grodnenskaya";"N/A";"N/A";"";"";"";"";"";"";"";"";"";"";"";"";"";"";"";"";"";"";"";""
"9616201608";"54.6138446";"25.9787071";"charging_station";"";"Belarus";"Grodnenskaya";"N/A";"N/A";"";"";"";"";"";"";"";"";"";"";"";"";"";"";"";"";"";"";"";""
"11078339170";"54.6050563";"25.9754918";"charging_station";"";"Belarus";"Grodnenskaya";"N/A";"N/A";"";"1";"";"";"";"";"";"";"";"";"";"";"";"";"";"";"";"";"";"yes"
"11948098901";"54.4327141";"25.9752866";"charging_station";"";"Belarus";"Grodnenskaya";"N/A";"N/A";"";"";"";"yes";"";"";"";"";"";"";"";"";"";"";"";"";"";"";"";""
"12652452053";"54.4878089";"26.3741958";"charging_station";"";"Belarus";"Grodnenskaya";"N/A";"N/A";"";"2";"";"";"";"";"";"";"";"";"";"";"";"";"";"";"Evika";"";"";"yes"
"4952418870";"55.3027092";"21.0087578";"charging_station";"";"Lithuania";"";"N/A";"N/A";"";"2";"";"";"Inbalance Grid";"";"";"";"";"";"";"";"";"";"";"";"";"";"";""
"6725128938";"55.3010467";"20.9865018";"charging_station";"";"Lithuania";"";"N/A";"N/A";"";"3";"";"";"";"";"";"";"";"";"";"";"";"";"";"";"";"";"";""
"12695335034";"55.3537788";"21.471258";"charging_station";"";"Lithuania";"Klaipedos apskritis";"N/A";"N/A";"";"";"";"";"Elinta";"";"";"";"";"";"";"";"";"";"";"";"";"";"Mo-Fr 08:00-19:00; Sa 08:00-17:00; Su 09:00-15:00";"yes"
"12697544469";"55.3531628";"21.4724451";"charging_station";"";"Lithuania";"Klaipedos apskritis";"N/A";"N/A";"";"";"";"";"Elinta";"";"";"";"";"";"";"";"";"";"";"";"";"";"";"yes"
"12697544485";"55.3485172";"21.471238";"charging_station";"";"Lithuania";"Klaipedos apskritis";"N/A";"N/A";"";"";"";"";"Elinta";"";"";"";"";"";"";"";"";"";"";"";"";"0.25 EUR/kWh";"";"yes"
"12903110622";"55.3409927";"21.4517997";"charging_station";"";"Lithuania";"Klaipedos apskritis";"N/A";"N/A";"";"";"";"";"Elektrum";"Q67199788";"";"";"";"2";"";"";"EDLT-14";"";"";"";"";"";"";"yes"
"12118162002";"55.2600703";"22.299663";"charging_station";"";"Lithuania";"Taurages apskritis";"N/A";"N/A";"";"";"";"";"";"";"";"";"";"";"";"";"";"";"";"";"";"";"";""
"12118162801";"55.2668969";"22.3101967";"charging_station";"";"Lithuania";"Taurages apskritis";"N/A";"N/A";"";"";"";"";"";"";"";"";"";"";"";"";"";"";"";"";"";"";"";""
"12118163301";"55.2558496";"22.2936194";"charging_station";"";"Lithuania";"Taurages apskritis";"N/A";"N/A";"";"";"";"";"";"";"";"";"";"";"";"";"";"";"";"";"";"";"";""
"5748975566";"55.37787";"22.930752";"charging_station";"";"Lithuania";"";"N/A";"N/A";"";"2";"";"";"";"";"";"";"";"";"";"";"";"";"";"";"";"";"";""
"7944486350";"54.9558817";"23.0425139";"charging_station";"";"Lithuania";"";"N/A";"N/A";"";"2";"";"";"";"";"";"";"";"";"";"";"";"";"";"";"";"";"";""
"12648172894";"55.2799677";"23.3404582";"charging_station";"";"Lithuania";"";"N/A";"N/A";"";"";"";"yes";"Eldrive";"";"";"";"";"";"";"";"";"";"";"";"";"";"";"yes"
"12943639789";"54.9541789";"23.026556";"charging_station";"";"Lithuania";"";"N/A";"N/A";"";"2";"";"";"UAB Ignitis";"Q583822";"";"";"";"";"";"";"";"";"";"";"Ignitis ON";"";"24/7";"yes"
"4009252981";"54.940481";"23.8906574";"charging_station";"Kaunas";"Lithuania";"Kauno apskritis";"N/A";"N/A";"";"2";"";"yes";"PLC „Mega“";"";"1";"";"";"1";"";"";"";"";"";"";"";"";"24/7";""
"4009256493";"54.9362753";"23.8887335";"charging_station";"Kaunas";"Lithuania";"Kauno apskritis";"N/A";"N/A";"";"";"";"";"";"";"1";"";"";"1";"";"";"";"";"";"";"";"";"";""
"5312409882";"55.2274825";"23.5465588";"charging_station";"";"Lithuania";"";"N/A";"N/A";"";"2";"";"yes";"";"";"";"";"";"";"";"";"";"";"";"";"";"";"";""
"6425110400";"54.9000491";"23.8873787";"charging_station";"Kaunas";"Lithuania";"Kauno apskritis";"N/A";"N/A";"";"6";"";"";"";"";"";"";"";"6";"";"";"";"";"";"";"";"";"";""
"7893195593";"54.9387938";"23.9004584";"charging_station";"Kaunas";"Lithuania";"Kauno apskritis";"N/A";"N/A";"";"2";"";"";"ENSTO";"";"";"";"";"";"";"";"";"";"";"";"";"";"";""
"8000888641";"55.2230386";"23.5574966";"charging_station";"";"Lithuania";"";"N/A";"N/A";"";"";"";"";"";"";"";"";"";"";"";"";"";"";"";"";"";"";"";""
"8960588795";"54.9026428";"23.9288225";"charging_station";"Kaunas";"Lithuania";"Kauno apskritis";"N/A";"N/A";"";"2";"";"";"Elinta Charge";"";"";"";"";"2";"";"";"";"";"";"";"";"";"";""
"8987445219";"54.8998576";"23.9224414";"charging_station";"Kaunas";"Lithuania";"Kauno apskritis";"N/A";"N/A";"";"2";"";"";"Elinta Charge";"";"";"";"";"2";"";"";"";"";"";"";"";"";"";""
"9982850618";"55.1975369";"23.625755";"charging_station";"";"Lithuania";"";"N/A";"N/A";"";"";"";"";"";"";"";"";"";"";"";"";"";"";"";"";"";"";"";""
"10063667900";"54.9391242";"23.8926019";"charging_station";"Kaunas";"Lithuania";"Kauno apskritis";"N/A";"N/A";"";"8";"";"";"AutoPildyk";"";"";"";"";"8";"";"";"";"";"";"";"";"0.13 EUR/minute";"";"yes"
"10582032584";"54.933278";"23.8174041";"charging_station";"Kauno rajonas";"Lithuania";"Kauno apskritis";"N/A";"N/A";"";"2";"";"";"";"";"";"";"";"";"";"";"";"";"";"";"";"";"";""
"10605760180";"55.1060196";"23.7801234";"charging_station";"Kaunas";"Lithuania";"Kauno apskritis";"N/A";"N/A";"";"";"";"";"UniPark";"";"";"";"";"";"";"";"";"";"";"";"UniPark";"0.89 EUR/kW + 0.10 EUR/session";"";"yes"
"10768038322";"54.9382766";"23.9024848";"charging_station";"Kaunas";"Lithuania";"Kauno apskritis";"N/A";"N/A";"";"2";"";"";"Elinta";"";"";"";"";"2";"";"";"";"";"";"";"";"";"";""
"10768038323";"54.9382789";"23.902393";"charging_station";"Kaunas";"Lithuania";"Kauno apskritis";"N/A";"N/A";"";"1";"";"";"Eldrive";"";"";"";"";"";"";"";"";"";"";"";"";"";"";""
"10786631564";"54.928532";"23.9077357";"charging_station";"Kaunas";"Lithuania";"Kauno apskritis";"N/A";"N/A";"";"2";"";"";"Elinta";"";"";"";"";"";"";"";"";"";"";"";"Elinta Charge";"";"";""
"10862207014";"54.9076584";"23.9049237";"charging_station";"Kaunas";"Lithuania";"Kauno apskritis";"N/A";"N/A";"";"";"";"";"";"";"";"";"";"";"";"";"";"";"";"";"";"";"";""
"12089208853";"54.9347298";"23.8626216";"charging_station";"Kaunas";"Lithuania";"Kauno apskritis";"N/A";"N/A";"";"2";"";"yes";"";"";"";"";"";"";"";"";"";"";"";"";"";"";"";"yes"
"12106211532";"54.9332397";"23.8171685";"charging_station";"Kauno rajonas";"Lithuania";"Kauno apskritis";"N/A";"N/A";"";"2";"";"";"";"";"";"";"";"";"";"";"";"";"";"";"";"";"";""
"12109789575";"54.9305492";"23.8848158";"charging_station";"Kaunas";"Lithuania";"Kauno apskritis";"N/A";"N/A";"";"4";"";"";"";"";"";"";"";"";"";"";"";"";"";"";"";"";"";""
"12109802613";"54.9151326";"23.8608623";"charging_station";"Kaunas";"Lithuania";"Kauno apskritis";"N/A";"N/A";"";"2";"";"";"";"";"";"";"";"";"";"";"";"";"";"";"";"";"";""
"12232864350";"54.9586025";"23.8624616";"charging_station";"Kaunas";"Lithuania";"Kauno apskritis";"N/A";"N/A";"";"";"";"";"";"";"";"";"";"";"";"";"";"";"";"";"";"";"";""
"12356243190";"54.9251115";"23.9292474";"charging_station";"Kaunas";"Lithuania";"Kauno apskritis";"N/A";"N/A";"";"4";"";"";"";"";"";"";"";"";"";"";"";"";"";"";"";"";"";""
"12663018371";"54.9091584";"23.92843";"charging_station";"Kaunas";"Lithuania";"Kauno apskritis";"N/A";"N/A";"";"8";"";"";"Elinta Charge";"";"";"";"";"";"";"";"";"";"";"";"";"";"";""
"12876854705";"54.9312577";"23.7223513";"charging_station";"Kauno rajonas";"Lithuania";"Kauno apskritis";"N/A";"N/A";"";"2";"";"";"";"";"";"";"";"";"";"";"";"";"";"";"";"";"";""
"3355620328";"54.9417912";"24.006696";"charging_station";"";"Lithuania";"";"N/A";"N/A";"";"";"";"";"UAB „Elinta“";"";"";"";"";"";"";"";"";"";"";"";"";"";"";""
"3355620329";"54.941904";"24.0069514";"charging_station";"";"Lithuania";"";"N/A";"N/A";"";"";"";"";"UAB „Elinta“";"";"";"";"";"";"";"";"";"";"";"";"";"";"";"no"
"4727801824";"54.9198242";"23.9493102";"charging_station";"";"Lithuania";"Kauno apskritis";"N/A";"N/A";"";"2";"";"";"";"";"";"";"";"1";"";"";"";"";"";"";"";"";"";""
"4952418876";"55.2731664";"24.0165689";"charging_station";"";"Lithuania";"Kauno apskritis";"N/A";"N/A";"";"";"";"";"";"";"yes";"";"";"yes";"";"";"";"";"";"";"";"";"";""
"5347140529";"54.929644";"24.0211801";"charging_station";"";"Lithuania";"";"N/A";"N/A";"";"2";"";"";"LAKD";"";"";"";"";"";"";"";"";"";"";"";"";"";"";""
"5518242783";"54.9130069";"23.9400002";"charging_station";"Kaunas";"Lithuania";"Kauno apskritis";"N/A";"N/A";"";"2";"";"yes";"";"";"";"";"";"";"";"";"";"";"";"";"";"";"";""
"6665335686";"55.07318";"24.2816753";"charging_station";"";"Lithuania";"Kauno apskritis";"N/A";"N/A";"";"2";"";"";"Elinta Charge";"";"";"";"";"";"";"";"";"";"";"";"";"";"";""
"6665335687";"55.0773908";"24.2740583";"charging_station";"";"Lithuania";"Kauno apskritis";"N/A";"N/A";"";"2";"";"";"";"";"";"";"";"";"";"";"";"";"";"";"";"";"";""
"7050038207";"54.946215";"24.0518142";"charging_station";"";"Lithuania";"";"N/A";"N/A";"";"10";"";"";"";"";"";"";"";"";"";"";"";"";"";"";"";"";"";""
"7122203081";"54.9202327";"23.9551528";"charging_station";"";"Lithuania";"Kauno apskritis";"N/A";"N/A";"";"";"";"";"";"";"";"";"";"2";"";"";"";"";"";"";"";"";"";""
"7273137918";"54.9426371";"24.0058973";"charging_station";"";"Lithuania";"";"N/A";"N/A";"";"6";"";"";"";"";"";"";"";"6";"";"";"";"";"";"";"";"";"";""
"7273137919";"54.9425436";"24.0053161";"charging_station";"";"Lithuania";"";"N/A";"N/A";"";"";"";"";"";"";"";"";"";"4";"";"";"";"";"";"";"";"";"";""
"7273137926";"54.9039603";"23.949645";"charging_station";"";"Lithuania";"Kauno apskritis";"N/A";"N/A";"";"2";"";"";"Elinta Charge";"";"";"";"";"2";"";"";"";"";"";"";"";"";"";""
"7605082350";"54.9342173";"23.9656865";"charging_station";"";"Lithuania";"Kauno apskritis";"N/A";"N/A";"";"2";"";"";"";"";"";"";"";"1";"";"";"";"";"";"";"";"";"";""
"7810503809";"54.9031621";"23.957617";"charging_station";"";"Lithuania";"Kauno apskritis";"N/A";"N/A";"";"";"";"";"";"";"";"";"";"";"";"";"";"";"";"";"";"";"";""
"8551572406";"54.9226394";"23.9589438";"charging_station";"";"Lithuania";"Kauno apskritis";"N/A";"N/A";"";"2";"";"";"";"";"";"";"";"2";"";"";"";"";"";"";"";"";"";""
"8596335121";"54.9192724";"23.9821406";"charging_station";"";"Lithuania";"Kauno apskritis";"N/A";"N/A";"";"";"";"";"";"";"";"";"";"";"";"";"";"";"";"";"";"";"";""
"8672631705";"55.1270744";"24.403565";"charging_station";"";"Lithuania";"Kauno apskritis";"N/A";"N/A";"";"2";"";"";"";"";"";"";"";"";"";"";"";"";"";"";"";"";"";""
"8672656867";"55.0733542";"24.2558235";"charging_station";"";"Lithuania";"Kauno apskritis";"N/A";"N/A";"";"2";"";"";"";"";"";"";"";"";"";"";"";"";"";"";"";"";"";""
"9024438180";"54.925841";"23.9502399";"charging_station";"Kaunas";"Lithuania";"Kauno apskritis";"N/A";"N/A";"";"2";"";"";"";"";"";"";"";"2";"";"";"";"";"";"";"";"";"";""
"9188424650";"54.9326916";"24.0007087";"charging_station";"";"Lithuania";"Kauno apskritis";"N/A";"N/A";"";"3";"";"";"";"";"";"";"";"";"";"";"";"";"";"";"";"";"";""
"9188424651";"54.9326452";"24.0004402";"charging_station";"";"Lithuania";"Kauno apskritis";"N/A";"N/A";"";"3";"";"";"";"";"";"";"";"";"";"";"";"";"";"";"";"";"";""
"9188424652";"54.9324144";"24.0000005";"charging_station";"";"Lithuania";"Kauno apskritis";"N/A";"N/A";"";"2";"";"";"";"";"";"";"";"";"";"";"";"";"";"";"";"";"";""
"9190242539";"54.94216";"24.0064593";"charging_station";"";"Lithuania";"";"N/A";"N/A";"";"8";"";"";"Tesla, Inc.";"";"";"";"";"";"";"";"";"";"";"";"Tesla Supercharger";"";"24/7";"yes"
"9232407506";"54.9157998";"23.9863238";"charging_station";"";"Lithuania";"Kauno apskritis";"N/A";"N/A";"";"8";"";"";"";"";"";"";"";"";"";"";"";"";"";"";"";"";"";""
"9489565289";"54.9062533";"23.9553237";"charging_station";"";"Lithuania";"Kauno apskritis";"N/A";"N/A";"";"4";"";"";"";"";"";"";"";"4";"";"";"";"";"";"";"";"";"";""
"9496027106";"54.9208409";"23.9533053";"charging_station";"";"Lithuania";"Kauno apskritis";"N/A";"N/A";"";"6";"";"";"";"";"";"";"";"";"";"";"";"";"";"";"";"";"";""
"10077769302";"54.9197563";"23.950465";"charging_station";"";"Lithuania";"Kauno apskritis";"N/A";"N/A";"";"2";"";"";"";"";"";"";"";"2";"";"";"";"";"";"";"";"";"";""
"10115958478";"54.9037381";"23.9571254";"charging_station";"";"Lithuania";"Kauno apskritis";"N/A";"N/A";"";"";"";"";"";"";"";"";"";"";"";"";"";"";"";"";"";"";"";""
"10126034496";"54.9031703";"23.984273";"charging_station";"";"Lithuania";"Kauno apskritis";"N/A";"N/A";"";"2";"";"";"";"";"";"";"";"";"";"";"";"";"";"";"";"";"";""
"10219872187";"54.921475";"23.9820669";"charging_station";"";"Lithuania";"Kauno apskritis";"N/A";"N/A";"";"2";"";"";"";"";"";"";"";"";"";"";"";"";"";"";"";"";"";""
"10257838416";"54.9188302";"23.9521427";"charging_station";"";"Lithuania";"Kauno apskritis";"N/A";"N/A";"";"4";"";"";"uniPark";"";"";"";"";"4";"";"";"";"";"";"";"";"";"";""
"10653257027";"54.9384549";"24.0231646";"charging_station";"";"Lithuania";"";"N/A";"N/A";"";"6";"";"";"";"";"";"";"";"";"";"";"";"";"";"";"";"";"";""
"10712280733";"54.905002";"23.9666322";"charging_station";"";"Lithuania";"Kauno apskritis";"N/A";"N/A";"";"2";"";"";"KTU";"";"";"";"";"";"";"";"";"";"";"";"";"";"";""
"10751544474";"54.9240658";"23.9400671";"charging_station";"Kaunas";"Lithuania";"Kauno apskritis";"N/A";"N/A";"";"4";"";"";"";"";"";"";"";"";"";"";"";"";"";"";"";"";"";""
"10751544475";"54.9309171";"23.9330353";"charging_station";"Kaunas";"Lithuania";"Kauno apskritis";"N/A";"N/A";"";"4";"";"";"Eldrive";"";"";"";"";"";"";"";"";"";"";"";"Eldrive";"";"";""
"10774156030";"54.9169197";"23.9519969";"charging_station";"";"Lithuania";"Kauno apskritis";"N/A";"N/A";"";"";"";"";"";"";"";"";"";"";"";"";"";"";"";"";"";"";"";""
"10925476613";"54.928795";"23.9718757";"charging_station";"";"Lithuania";"Kauno apskritis";"N/A";"N/A";"";"2";"";"";"";"";"";"";"";"";"";"";"130";"";"";"";"Ignitis ON";"";"";""
"10927710629";"54.9334364";"23.9647353";"charging_station";"";"Lithuania";"Kauno apskritis";"N/A";"N/A";"";"5";"";"";"";"";"";"";"";"2";"";"";"121;122";"";"";"";"Ignitis ON";"";"";""
"11133567488";"54.9250066";"23.9637835";"charging_station";"";"Lithuania";"Kauno apskritis";"N/A";"N/A";"";"4";"";"yes";"";"";"";"";"";"";"";"";"";"";"";"";"";"";"";""
"11230595787";"54.933586";"23.9433522";"charging_station";"Kaunas";"Lithuania";"Kauno apskritis";"N/A";"N/A";"";"4";"";"";"";"";"";"";"";"";"";"";"";"";"";"";"";"";"";""
"11647242908";"54.9141767";"23.9864899";"charging_station";"";"Lithuania";"Kauno apskritis";"N/A";"N/A";"";"2";"";"";"";"";"";"";"";"2";"";"";"";"";"";"";"Eleport";"";"";""
"11886656969";"55.2876376";"23.9741623";"charging_station";"";"Lithuania";"Kauno apskritis";"N/A";"N/A";"";"";"";"";"";"";"";"";"";"";"";"";"";"";"";"";"Elinta";"";"24/7";""
"12089209540";"54.9169812";"24.0382776";"charging_station";"";"Lithuania";"";"N/A";"N/A";"";"4";"";"yes";"";"";"";"";"";"";"";"";"";"";"";"";"";"";"";"yes"
"12099078244";"54.9670557";"24.0710355";"charging_station";"Kauno rajonas";"Lithuania";"Kauno apskritis";"N/A";"N/A";"";"7";"";"yes";"Eldrive";"";"";"";"";"";"";"";"";"";"";"";"";"";"";"yes"
"12099153754";"54.9324534";"24.0035216";"charging_station";"";"Lithuania";"";"N/A";"N/A";"";"2";"";"";"";"";"";"";"";"";"";"";"";"";"";"";"";"";"";""
"12099153795";"54.9348782";"23.988164";"charging_station";"";"Lithuania";"Kauno apskritis";"N/A";"N/A";"";"4";"";"yes";"";"";"";"";"";"";"";"";"";"";"";"";"";"";"";""
"12099153796";"54.9327689";"23.98943";"charging_station";"";"Lithuania";"Kauno apskritis";"N/A";"N/A";"";"4";"";"yes";"";"";"";"";"";"";"";"";"";"";"";"";"";"";"";""
"12099153797";"54.932893";"23.9895668";"charging_station";"";"Lithuania";"Kauno apskritis";"N/A";"N/A";"";"4";"";"yes";"";"";"";"";"";"";"";"";"";"";"";"";"";"";"";""
"12099153798";"54.9329246";"23.9892932";"charging_station";"";"Lithuania";"Kauno apskritis";"N/A";"N/A";"";"4";"";"yes";"";"";"";"";"";"";"";"";"";"";"";"";"";"";"";""
"12099153799";"54.9335722";"23.9882994";"charging_station";"";"Lithuania";"Kauno apskritis";"N/A";"N/A";"";"4";"";"yes";"";"";"";"";"";"";"";"";"";"";"";"";"";"";"";""
"12099153800";"54.9338981";"23.9880064";"charging_station";"";"Lithuania";"Kauno apskritis";"N/A";"N/A";"";"4";"";"yes";"";"";"";"";"";"";"";"";"";"";"";"";"";"";"";""
"12600155296";"54.9262788";"23.9490778";"charging_station";"Kaunas";"Lithuania";"Kauno apskritis";"N/A";"N/A";"";"4";"";"";"";"";"";"";"";"2";"";"";"";"";"";"";"Inbalance grid";"";"";""
"12874729999";"54.9155085";"23.9874355";"charging_station";"";"Lithuania";"Kauno apskritis";"N/A";"N/A";"";"2";"";"";"";"";"";"";"";"";"";"";"";"";"";"";"";"";"";""
"12874779204";"54.9151106";"23.9864307";"charging_station";"";"Lithuania";"Kauno apskritis";"N/A";"N/A";"";"2";"";"";"";"";"";"";"";"";"";"";"";"";"";"";"";"";"";""
"12874779205";"54.9154907";"23.986442";"charging_station";"";"Lithuania";"Kauno apskritis";"N/A";"N/A";"";"2";"";"";"";"";"";"";"";"";"";"";"";"";"";"";"";"";"";""
"12886786337";"54.9250502";"23.9638749";"charging_station";"";"Lithuania";"Kauno apskritis";"N/A";"N/A";"";"2";"";"yes";"";"";"";"";"";"";"";"";"";"";"";"";"";"";"";""
"12886786338";"54.9251421";"23.9629141";"charging_station";"";"Lithuania";"Kauno apskritis";"N/A";"N/A";"";"6";"";"yes";"";"";"";"";"";"";"";"";"";"";"";"";"";"";"";""
"12886786339";"54.9250465";"23.9630425";"charging_station";"";"Lithuania";"Kauno apskritis";"N/A";"N/A";"";"6";"";"yes";"";"";"";"";"";"";"";"";"";"";"";"";"";"";"";""
"12896255950";"54.9331307";"24.006694";"charging_station";"";"Lithuania";"";"N/A";"N/A";"";"2";"";"yes";"";"";"";"";"";"";"";"";"";"";"";"";"";"";"";""
"12896256037";"54.9350947";"23.9886347";"charging_station";"";"Lithuania";"Kauno apskritis";"N/A";"N/A";"";"2";"";"yes";"";"";"";"";"";"";"";"";"";"";"";"";"";"";"";""
"5745193682";"55.314563";"24.7798092";"charging_station";"";"Lithuania";"Vilnius County";"N/A";"N/A";"";"2";"";"";"";"";"";"";"";"";"";"";"";"";"";"";"";"";"";""
"10607682989";"55.2493191";"24.7647483";"charging_station";"";"Lithuania";"Vilnius County";"N/A";"N/A";"";"2";"";"";"Ukmergės rajono savivaldybės administracija";"";"";"";"";"2";"";"";"";"";"";"";"Elinta";"";"";""
"5904664335";"55.0842759";"25.3522304";"charging_station";"";"Lithuania";"";"N/A";"N/A";"";"";"";"";"";"";"";"";"";"";"";"";"";"";"";"";"";"";"";""
"9862616462";"55.2525076";"25.9844917";"charging_station";"";"Lithuania";"";"N/A";"N/A";"";"";"";"";"UAB Ignitis";"";"";"";"";"2";"";"";"";"";"";"";"Ignitis ON";"";"";"yes"
"12007367428";"55.3366105";"26.1319234";"charging_station";"";"Lithuania";"";"N/A";"N/A";"";"2";"";"";"";"";"";"";"";"";"";"";"";"";"";"";"";"";"";""
"7620273135";"54.9116805";"26.6993967";"charging_station";"";"Belarus";"Minsk";"N/A";"N/A";"";"";"";"";"Белоруснефть";"Q4082693";"";"";"";"";"";"";"";"";"";"";"Malanka";"";"24/7";""
"9977310017";"55.3781636";"26.8181258";"charging_station";"";"Belarus";"Vitebsk";"N/A";"N/A";"";"";"";"";"";"";"";"";"";"";"";"";"";"";"";"";"";"";"";"yes"
"4009256522";"55.6876124";"21.1567927";"charging_station";"Klaipeda";"Lithuania";"Klaipedos apskritis";"N/A";"N/A";"";"2";"";"";"";"";"1";"";"";"1";"";"";"";"";"";"";"";"";"24/7";"no"
"4009256542";"55.729185";"21.1245486";"charging_station";"Klaipeda";"Lithuania";"Klaipedos apskritis";"N/A";"N/A";"";"";"";"";"";"";"1";"";"";"1";"";"";"";"";"";"";"";"";"";"no"
"5280591362";"55.705232";"21.1323115";"charging_station";"Klaipeda";"Lithuania";"Klaipedos apskritis";"N/A";"N/A";"";"2";"";"";"Klaipėdos Savivaldybė";"";"";"";"";"";"";"";"";"";"";"";"";"";"";""
"5568851734";"55.7334541";"21.3827364";"charging_station";"";"Lithuania";"Klaipedos apskritis";"N/A";"N/A";"";"";"";"";"LAKD";"";"";"";"";"1";"";"";"";"";"";"";"";"";"";""
"5708357910";"55.6929859";"21.1535946";"charging_station";"Klaipeda";"Lithuania";"Klaipedos apskritis";"N/A";"N/A";"";"4";"";"";"Imbalance Grid";"";"";"";"";"";"";"";"";"";"";"";"";"";"";""
"5825797783";"55.6843521";"21.1447864";"charging_station";"Klaipeda";"Lithuania";"Klaipedos apskritis";"N/A";"N/A";"";"4";"";"";"Renerga";"";"";"";"";"";"";"";"";"";"";"";"";"";"";""
"6727560128";"55.5421941";"21.1220916";"charging_station";"Klaipeda";"Lithuania";"Klaipedos apskritis";"N/A";"N/A";"";"2";"";"yes";"Elinta";"";"";"";"";"1";"";"";"";"";"";"";"";"";"";""
"10861645346";"55.6854654";"21.128955";"charging_station";"Klaipeda";"Lithuania";"Klaipedos apskritis";"N/A";"N/A";"";"4";"";"";"";"";"";"";"";"";"";"";"";"";"";"";"";"";"";""
"11138263169";"55.8956294";"21.2372075";"charging_station";"";"Lithuania";"Klaipedos apskritis";"N/A";"N/A";"";"2";"";"yes";"";"";"";"";"";"1";"32 A";"";"";"";"";"";"";"";"24/7";""
"11694981264";"55.8950912";"21.234342";"charging_station";"";"Lithuania";"Klaipedos apskritis";"N/A";"N/A";"";"";"";"";"";"";"";"";"";"";"";"";"";"";"";"";"";"";"";""
"11954269785";"55.674334";"21.1746662";"charging_station";"Klaipeda";"Lithuania";"Klaipedos apskritis";"N/A";"N/A";"";"2";"";"";"";"";"";"";"";"";"";"";"";"";"";"";"";"";"";""
"12161473310";"55.7024133";"21.1363111";"charging_station";"Klaipeda";"Lithuania";"Klaipedos apskritis";"N/A";"N/A";"";"";"";"";"";"";"";"";"";"";"";"";"";"";"";"";"";"";"";""
"12263160501";"55.6993561";"21.1374875";"charging_station";"Klaipeda";"Lithuania";"Klaipedos apskritis";"N/A";"N/A";"";"";"";"";"";"";"";"";"";"";"";"";"";"";"";"";"";"";"";""
"12804242777";"55.7122439";"21.3874054";"charging_station";"";"Lithuania";"Klaipedos apskritis";"N/A";"N/A";"";"";"";"";"";"";"";"";"";"";"";"";"";"";"";"";"";"";"";""
"5748995356";"55.568714";"22.1778321";"charging_station";"";"Lithuania";"";"N/A";"N/A";"";"";"";"";"";"";"";"";"";"";"";"";"";"";"";"";"";"";"";""
"7858005017";"55.570062";"22.1761268";"charging_station";"";"Lithuania";"";"N/A";"N/A";"";"";"";"";"";"";"";"";"";"";"";"";"";"";"";"";"";"";"";""
"4009256496";"55.4689645";"22.6901617";"charging_station";"";"Lithuania";"";"N/A";"N/A";"";"";"";"";"";"";"1";"";"";"1";"";"";"";"5";"";"";"";"";"";"no"
"5483400683";"55.4119661";"22.8296435";"charging_station";"";"Lithuania";"";"N/A";"N/A";"";"";"";"";"";"";"";"";"";"";"";"";"";"";"";"";"";"";"";""
"11129506385";"55.4842553";"22.5871546";"charging_station";"";"Lithuania";"";"N/A";"N/A";"";"6";"";"";"Ionity";"";"";"";"";"";"";"";"";"";"";"";"Ionity";"";"24/7";"yes"
"9440244758";"55.6750925";"22.937313";"charging_station";"";"Lithuania";"";"N/A";"N/A";"";"4";"";"";"";"";"";"";"";"";"";"";"";"";"";"";"";"";"";""
"4952418854";"55.7444403";"24.3348482";"charging_station";"Panevezys City";"Lithuania";"Panevezys";"N/A";"N/A";"";"";"";"";"";"";"yes";"";"";"yes";"";"";"";"";"";"";"";"";"";""
"4952418866";"55.7298295";"24.3116859";"charging_station";"Panevezys City";"Lithuania";"Panevezys";"N/A";"N/A";"";"";"";"";"";"";"yes";"";"";"yes";"";"";"";"";"";"";"";"";"";""
"10814996900";"55.6725343";"24.3359774";"charging_station";"Panevezys City";"Lithuania";"Panevezys";"N/A";"N/A";"";"6";"";"";"Ionity";"";"";"";"";"";"";"";"";"";"";"";"Ionity";"";"24/7";"yes"
"11883538269";"55.7388603";"24.3412009";"charging_station";"Panevezys City";"Lithuania";"Panevezys";"N/A";"N/A";"";"";"";"";"Dentavita";"";"";"";"";"";"";"";"";"";"";"";"Įkrautas";"";"24/7";""
"11885251869";"55.7273538";"24.3799536";"charging_station";"Panevezys City";"Lithuania";"Panevezys";"N/A";"N/A";"";"";"";"";"IKI Dembava";"";"";"";"";"";"";"";"";"";"";"";"Inbalance";"";"24/7";""
"11885268469";"55.7269456";"24.3630218";"charging_station";"Panevezys City";"Lithuania";"Panevezys";"N/A";"N/A";"";"";"";"";"";"";"";"";"";"";"";"";"";"";"";"";"Elinta";"";"";"no"
"12920162030";"55.768106";"24.2969171";"charging_station";"Panevezys City";"Lithuania";"Panevezys";"N/A";"N/A";"";"20";"";"yes";"Eldrive";"";"";"";"";"";"";"";"";"";"";"";"";"";"";"yes"
"6617428677";"55.8383361";"24.9743003";"charging_station";"";"Lithuania";"";"N/A";"N/A";"";"2";"";"";"Elinta Charge";"";"";"";"";"";"";"";"";"";"";"";"";"";"";"yes"
"11164926852";"55.4847302";"25.0584841";"charging_station";"Anyksciai";"Lithuania";"Utenos apskritis";"N/A";"N/A";"";"1";"";"yes";"";"";"";"";"";"";"";"";"";"";"";"";"";"";"";""
"11387519681";"55.8494004";"24.9763886";"charging_station";"";"Lithuania";"";"N/A";"N/A";"";"2";"";"";"Elinta Charge";"";"";"";"";"";"";"";"";"";"";"";"Elinta Charge CityCharge Mini2";"";"";"yes"
"11575442743";"55.5256874";"25.1180015";"charging_station";"Anyksciai";"Lithuania";"Utenos apskritis";"N/A";"N/A";"";"22";"";"";"";"";"";"";"";"18";"";"";"";"";"";"";"Ignitis ON";"";"";"yes"
"12009638344";"55.5250862";"25.1256279";"charging_station";"Anyksciai";"Lithuania";"Utenos apskritis";"N/A";"N/A";"";"1";"";"";"";"";"";"";"";"";"";"";"";"";"";"";"";"";"";""
"12348981123";"55.8304554";"24.9872734";"charging_station";"";"Lithuania";"";"N/A";"N/A";"";"";"";"";"";"";"";"";"";"";"";"";"";"";"";"";"";"";"";""
"12626325781";"55.8360825";"24.9770956";"charging_station";"";"Lithuania";"";"N/A";"N/A";"";"";"";"";"";"";"";"";"";"";"";"";"";"";"";"";"";"";"";"yes"
"12626325782";"55.8361464";"24.9770793";"charging_station";"";"Lithuania";"";"N/A";"N/A";"";"";"";"";"";"";"";"";"";"";"";"";"";"";"";"";"";"";"";"yes"
"12626325783";"55.8364198";"24.9932388";"charging_station";"";"Lithuania";"";"N/A";"N/A";"";"";"";"";"";"";"";"";"";"";"";"";"";"";"";"";"";"";"";""
"12626325784";"55.8364008";"24.9932526";"charging_station";"";"Lithuania";"";"N/A";"N/A";"";"";"";"";"";"";"";"";"";"";"";"";"";"";"";"";"";"";"";""
"12159520583";"55.498464";"25.6010411";"charging_station";"Utena";"Lithuania";"Utenos apskritis";"N/A";"N/A";"";"";"";"";"";"";"";"";"";"1";"";"";"";"";"";"";"Elinta Charge";"";"";""
"9407556888";"55.5973273";"26.4221518";"charging_station";"";"Lithuania";"Utenos apskritis";"N/A";"N/A";"";"";"";"";"";"";"";"";"";"";"";"";"";"";"";"";"";"";"";""
"11158984032";"55.6582216";"26.0524688";"charging_station";"";"Lithuania";"";"N/A";"N/A";"";"";"";"";"";"";"";"";"";"";"";"";"";"";"";"";"";"";"";""
"7596360071";"56.0748529";"26.7352778";"charging_station";"";"Latvia";"Preilu Rajons";"N/A";"N/A";"";"50";"";"";"";"";"";"";"";"";"";"";"";"3";"Šosejas iela";"LV-5481";"";"";"";""
"7814292272";"56.2951473";"26.7268104";"charging_station";"";"Latvia";"Preilu Rajons";"N/A";"N/A";"";"50";"";"";"CSDD - Ceļu Satiksmes Drošības Direkcija";"";"";"";"";"";"";"";"";"11";"Tirgus laukums";"LV-5301";"";"";"";""
"11736212270";"56.2879049";"26.737404";"charging_station";"";"Latvia";"Preilu Rajons";"N/A";"N/A";"";"60";"";"";"Elektrum Drive";"";"";"";"";"";"";"";"";"60";"Aglonas iela";"LV-5301";"";"";"";""
"7613564049";"56.4168205";"23.6820813";"charging_station";"Joniskis";"Lithuania";"Siauliu apskritis";"N/A";"N/A";"";"";"";"";"";"";"";"";"";"";"";"";"";"28";"Lietuvas iela";"LV-3023";"";"";"24/7";"yes"
"7814292273";"55.8814603";"26.5046748";"charging_station";"";"Latvia";"Daugavpils";"N/A";"N/A";"";"50";"";"";"CSDD - Ceļu Satiksmes Drošības Direkcija";"";"";"";"";"";"";"";"";"3";"Kraujas iela";"LV-5401";"";"";"";""
"8658074912";"55.8763726";"26.5219938";"charging_station";"";"Latvia";"Daugavpils";"N/A";"N/A";"";"3";"";"";"e-mobi";"";"";"";"";"";"";"";"0108";"";"";"";"";"";"24/7";"yes"
"9825697890";"55.8721513";"26.5090064";"charging_station";"";"Latvia";"Daugavpils";"N/A";"N/A";"";"";"";"";"CSDD";"Q27055983";"";"";"";"";"";"";"";"";"";"";"";"";"";""
"9825731490";"55.8804884";"26.5593353";"charging_station";"";"Latvia";"Daugavpils";"N/A";"N/A";"";"2";"";"";"CSDD";"Q27055983";"";"";"";"";"";"";"";"3";"Valkas iela";"LV-5417";"";"";"";""
"5797574734";"56.346082";"21.0654607";"charging_station";"";"Latvia";"Nica";"N/A";"N/A";"";"2";"";"";"CSDD";"Q27055983";"";"";"";"";"";"";"";"";"";"LV-3473";"";"";"24/7";"yes"
"6399647728";"56.1601538";"21.1613835";"charging_station";"";"Latvia";"Rucavas";"N/A";"N/A";"";"";"";"";"CSDD";"Q27055983";"";"";"";"";"";"";"";"";"";"LV-3477";"";"";"24/7";"yes"
"9750967440";"55.9190317";"21.078589";"charging_station";"Klaipeda";"Lithuania";"Klaipedos apskritis";"N/A";"N/A";"";"2";"";"";"Elektrum";"";"";"";"";"";"";"";"";"";"";"";"";"";"";"yes"
"11053487767";"55.9090052";"21.0691489";"charging_station";"Klaipeda";"Lithuania";"Klaipedos apskritis";"N/A";"N/A";"";"3";"";"";"Elinta Charge";"";"";"";"";"";"";"";"";"";"";"";"";"";"";""
"11062056574";"55.9595533";"21.1451879";"charging_station";"Klaipeda";"Lithuania";"Klaipedos apskritis";"N/A";"N/A";"";"";"";"";"";"";"";"";"";"";"";"";"";"";"";"";"";"";"";""
"12073786870";"56.0260066";"21.0764382";"charging_station";"Palanga";"Lithuania";"Klaipedos apskritis";"N/A";"N/A";"";"";"";"";"";"";"";"";"";"";"";"";"";"";"";"";"";"";"";""
"12073856569";"56.0260122";"21.0756823";"charging_station";"Palanga";"Lithuania";"Klaipedos apskritis";"N/A";"N/A";"";"";"";"";"";"";"";"";"";"";"";"";"";"";"";"";"";"";"";""
"12073865870";"56.0260079";"21.076421";"charging_station";"Palanga";"Lithuania";"Klaipedos apskritis";"N/A";"N/A";"";"";"";"";"";"";"";"";"";"";"";"";"";"";"";"";"";"";"";""
"4952439996";"55.939757";"23.3256035";"charging_station";"Siauliai";"Lithuania";"Siauliu apskritis";"N/A";"N/A";"";"";"";"";"";"";"";"";"";"yes";"";"";"";"";"";"";"";"";"";""
"4952439997";"55.9281682";"23.3071504";"charging_station";"Siauliai";"Lithuania";"Siauliu apskritis";"N/A";"N/A";"";"";"";"";"Inbalance";"";"yes";"";"";"yes";"";"";"";"";"";"";"";"0,39 EUR/kWh";"";"yes"
"5854494327";"55.9397483";"23.3256501";"charging_station";"Siauliai";"Lithuania";"Siauliu apskritis";"N/A";"N/A";"";"";"";"";"";"";"";"";"";"yes";"";"";"";"";"";"";"";"";"";""
"6627635974";"55.9078037";"23.2648222";"charging_station";"Siauliai";"Lithuania";"Siauliu apskritis";"N/A";"N/A";"";"1";"";"yes";"";"";"";"";"";"";"";"";"";"";"";"";"";"";"";"yes"
"10314429859";"56.0045467";"22.9334106";"charging_station";"";"Lithuania";"";"N/A";"N/A";"";"";"";"";"";"";"";"";"";"";"";"";"";"";"";"";"";"";"";""
"12001177422";"55.9276168";"23.3174829";"charging_station";"Siauliai";"Lithuania";"Siauliu apskritis";"N/A";"N/A";"";"2";"";"yes";"Ignitis";"";"";"";"";"";"";"";"";"";"";"";"";"";"24/7";""
"969549106";"";"";"charging_station";"N/A";"N/A";"N/A";"N/A";"N/A";"";"4";"";"";"autoPILDYK";"";"";"";"";"";"";"";"";"";"";"";"";"";"";"yes"
"1206866016";"";"";"charging_station";"N/A";"N/A";"N/A";"N/A";"N/A";"";"4";"";"yes";"";"";"";"";"";"2";"";"";"";"";"";"";"ignitis on";"";"24/7";"yes"
"11183180141";"55.9275437";"23.3173807";"";"Siauliai";"Lithuania";"Siauliu apskritis";"N/A";"N/A";"";"";"";"";"";"";"";"";"";"";"";"";"";"";"";"";"";"";"";""
"11183180142";"55.9275177";"23.317477";"";"Siauliai";"Lithuania";"Siauliu apskritis";"N/A";"N/A";"";"";"";"";"";"";"";"";"";"";"";"";"";"";"";"";"";"";"";""
"11183180143";"55.9276119";"23.3175474";"";"Siauliai";"Lithuania";"Siauliu apskritis";"N/A";"N/A";"";"";"";"";"";"";"";"";"";"";"";"";"";"";"";"";"";"";"";""
"11183180144";"55.9276356";"23.3174541";"";"Siauliai";"Lithuania";"Siauliu apskritis";"N/A";"N/A";"";"";"";"";"";"";"";"";"";"";"";"";"";"";"";"";"";"";"";""
"8972091599";"55.9341868";"23.3176654";"";"Siauliai";"Lithuania";"Siauliu apskritis";"N/A";"N/A";"";"";"";"";"";"";"";"";"";"";"";"";"";"";"";"";"";"";"";""
"8972091602";"55.9342075";"23.3177019";"";"Siauliai";"Lithuania";"Siauliu apskritis";"N/A";"N/A";"";"";"";"";"";"";"";"";"";"";"";"";"";"";"";"";"";"";"";""
"8972091600";"55.9341207";"23.3177844";"";"Siauliai";"Lithuania";"Siauliu apskritis";"N/A";"N/A";"";"";"";"";"";"";"";"";"";"";"";"";"";"";"";"";"";"";"";""
"8972091601";"55.9341414";"23.317821";"";"Siauliai";"Lithuania";"Siauliu apskritis";"N/A";"N/A";"";"";"";"";"";"";"";"";"";"";"";"";"";"";"";"";"";"";"";""
"958196998";"";"";"charging_station";"N/A";"N/A";"N/A";"N/A";"N/A";"";"4";"";"";"";"";"";"";"";"";"";"";"";"";"";"";"";"";"24/7";""
"5552968348";"56.1942167";"23.5694841";"";"Joniskis";"Lithuania";"Siauliu apskritis";"N/A";"N/A";"";"";"";"";"";"";"";"";"";"";"";"";"";"";"";"";"";"";"";""
"8865935762";"56.1941966";"23.5695589";"";"Joniskis";"Lithuania";"Siauliu apskritis";"N/A";"N/A";"";"";"";"";"";"";"";"";"";"";"";"";"";"";"";"";"";"";"";""
"8865935763";"56.1942872";"23.5696482";"";"Joniskis";"Lithuania";"Siauliu apskritis";"N/A";"N/A";"";"";"";"";"";"";"";"";"";"";"";"";"";"";"";"";"";"";"";""
"8865935764";"56.1943115";"23.5695664";"";"Joniskis";"Lithuania";"Siauliu apskritis";"N/A";"N/A";"";"";"";"";"";"";"";"";"";"";"";"";"";"";"";"";"";"";"";""
"11883354969";"56.1228186";"24.4711478";"charging_station";"";"Lithuania";"Panevezys";"N/A";"N/A";"";"";"";"";"";"";"";"";"";"";"";"";"";"";"";"";"Inbalance";"";"24/7";""
"5734651121";"56.1576942";"25.5194873";"charging_station";"";"Lithuania";"";"N/A";"N/A";"";"1";"";"";"";"";"";"";"";"";"";"";"";"";"";"";"";"";"";""
"9344023706";"55.9493843";"25.5901243";"charging_station";"";"Lithuania";"Panevezys";"N/A";"N/A";"";"2";"";"";"";"";"";"";"";"";"";"";"";"";"";"";"";"";"";""
"1161973537";"";"";"charging_station";"N/A";"N/A";"N/A";"N/A";"N/A";"";"";"";"";"";"";"";"";"";"";"";"";"";"";"";"";"e-mobi";"";"";"yes"
"10806751019";"56.3759173";"26.1636958";"";"";"Latvia";"Livani";"N/A";"N/A";"";"";"";"";"";"";"";"";"";"";"";"";"";"";"";"";"";"";"";""
"10806751020";"56.3758677";"26.1637504";"";"";"Latvia";"Livani";"N/A";"N/A";"";"";"";"";"";"";"";"";"";"";"";"";"";"";"";"";"";"";"";""
"10806751021";"56.375891";"26.1638246";"";"";"Latvia";"Livani";"N/A";"N/A";"";"";"";"";"";"";"";"";"";"";"";"";"";"";"";"";"";"";"";""
"10806751022";"56.3759398";"26.16377";"";"";"Latvia";"Livani";"N/A";"N/A";"";"";"";"";"";"";"";"";"";"";"";"";"";"";"";"";"";"";"";""
"9155642743";"56.4429921";"21.5848033";"charging_station";"";"Latvia";"Priekule";"N/A";"N/A";"";"2";"";"";"";"";"";"";"";"";"";"";"";"";"";"";"";"";"";""
"7613512942";"56.4054236";"24.1856725";"charging_station";"";"Latvia";"Bauskas Rajons";"N/A";"N/A";"";"2";"";"";"";"";"";"";"";"";"";"";"";"2";"Pionieru iela";"LV-3901";"";"";"24/7";"yes"
