"id";"lat";"lon";"amenity";"city";"state";"country";"scraped_country_code";"scraped_country_name";"authentication:nfc";"capacity";"capacity:car";"motorcar";"operator";"operator:wikidata";"socket:schuko";"socket:schuko:current";"socket:schuko:voltage";"socket:type2";"socket:type2:current";"socket:type2:voltage";"ref";"addr:housenumber";"addr:street";"addr:postcode";"brand";"charge";"opening_hours";"fee"
"8121290484";"1.532398";"30.2541594";"charging_station";"";"Congo";"Eastern Province";"N/A";"N/A";"";"";"";"";"";"";"";"";"";"";"";"";"";"";"";"";"";"";"";""
"4869649421";"1.7609917";"33.237558";"charging_station";"Kaberamaido District";"Uganda";"Eastern Region";"N/A";"N/A";"";"";"";"";"Aperkira";"";"";"";"";"";"";"";"";"";"";"";"";"";"";""
"5104827024";"1.5180372";"103.5158573";"charging_station";"";"Malaysia";"Johor";"N/A";"N/A";"";"";"";"";"松家园";"";"";"";"";"";"";"";"";"";"";"";"";"";"";""
"6187385985";"1.3429484";"103.6793041";"charging_station";"";"Malaysia";"Johor";"N/A";"N/A";"";"";"";"";"";"";"";"";"";"";"";"";"";"";"";"";"";"";"";""
"6187385986";"1.3459534";"103.6809334";"charging_station";"";"Malaysia";"Johor";"N/A";"N/A";"";"";"";"";"";"";"";"";"";"";"";"";"";"";"";"";"";"";"";""
"6187385987";"1.3557407";"103.6918741";"charging_station";"";"Malaysia";"Johor";"N/A";"N/A";"";"";"";"";"Greenlots";"";"";"";"";"";"";"";"";"";"";"";"";"";"";""
"6187385988";"1.3550221";"103.6935318";"charging_station";"";"Malaysia";"Johor";"N/A";"N/A";"";"";"";"";"Greenlots";"";"";"";"";"";"";"";"";"";"";"";"";"";"";""
"6187385989";"1.3399407";"103.7066559";"charging_station";"";"Malaysia";"Johor";"N/A";"N/A";"";"";"";"";"";"";"";"";"";"";"";"";"";"";"";"";"";"";"";""
"6187385990";"1.3354471";"103.7446382";"charging_station";"";"Singapore";"";"N/A";"N/A";"";"";"";"";"Greenlots";"";"";"";"";"";"";"";"";"";"";"";"";"";"";""
"6187576096";"1.3787383";"103.7620578";"charging_station";"";"Malaysia";"Johor";"N/A";"N/A";"";"";"";"";"Greenlots";"";"";"";"";"";"";"";"";"";"";"";"";"";"";""
"6187608030";"1.4181808";"103.8637781";"charging_station";"";"Malaysia";"Johor";"N/A";"N/A";"";"";"";"";"Greenlots";"";"";"";"";"";"";"";"";"700";"West Camp Road";"";"";"";"";""
"9173660911";"1.5309568";"103.7806642";"charging_station";"";"Malaysia";"Johor";"N/A";"N/A";"";"22 kW, 40 kW (100A)";"";"";"Palkom Motors";"";"";"";"";"1";"";"";"";"";"";"";"Exicom Harmony";"FOC initially";"";"no"
"9858450176";"1.3489596";"103.8376137";"charging_station";"";"Singapore";"";"N/A";"N/A";"";"";"";"";"Shell";"";"";"";"";"";"";"";"";"";"";"";"";"";"";""
"11237231468";"1.5758687";"103.7478477";"charging_station";"";"Malaysia";"Johor";"N/A";"N/A";"";"2";"";"";"chargEV";"";"";"";"";"";"";"";"";"";"";"";"chargEV";"";"";"yes"
"11253973173";"1.5485937";"103.7175605";"charging_station";"";"Malaysia";"Johor";"N/A";"N/A";"";"2";"";"";"chargEV";"";"";"";"";"";"";"";"";"";"";"";"chargEV";"";"";"yes"
"11254037866";"1.5896637";"103.6359419";"charging_station";"";"Malaysia";"Johor";"N/A";"N/A";"";"1";"";"";"JomCharge";"";"";"";"";"";"";"";"";"";"";"";"JomCharge BHP R&R Skudai Charging Station";"";"";"yes"
"11254038968";"1.5488828";"103.7143672";"charging_station";"";"Malaysia";"Johor";"N/A";"N/A";"";"3";"";"";"Gentari";"";"";"";"";"";"";"";"";"";"";"";"Gentari";"";"";"yes"
"11254068691";"1.5907961";"103.6359783";"charging_station";"";"Malaysia";"Johor";"N/A";"N/A";"";"";"";"";"chargEV";"";"";"";"";"";"";"";"";"";"";"";"Starbucks R&R Skudai Charging Station";"";"";"yes"
"11254068692";"1.5910443";"103.6352088";"charging_station";"";"Malaysia";"Johor";"N/A";"N/A";"";"2";"";"";"JomCharge";"";"";"";"";"";"";"";"";"";"";"";"FamilyMart R&R Skudai EV Charging Station";"";"";"yes"
"11254118466";"1.5899128";"103.6352084";"charging_station";"";"Malaysia";"Johor";"N/A";"N/A";"";"1";"";"";"JomCharge";"";"";"";"";"";"";"";"";"";"";"";"Caltex R&R Skudai Charging Station";"";"";"yes"
"11287557611";"1.5872118";"103.7585463";"charging_station";"";"Malaysia";"Johor";"N/A";"N/A";"";"";"";"";"JomCharge Eco Palladium Charging Station";"";"";"";"";"";"";"";"";"";"";"";"JomCharge";"";"";"yes"
"11288841798";"1.3968741";"103.6268215";"charging_station";"";"Malaysia";"Johor";"N/A";"N/A";"";"4";"";"";"Tesla, Inc.";"Q478214";"";"";"";"";"";"";"";"";"";"";"Tesla Supercharger";"";"24/7";"yes"
"11288842086";"1.3968486";"103.6272334";"charging_station";"";"Malaysia";"Johor";"N/A";"N/A";"";"2";"";"";"";"";"";"";"";"";"";"";"";"";"";"";"Tesla, Inc.";"";"24/7";"no"
"11288849242";"1.3954973";"103.6253779";"charging_station";"";"Malaysia";"Johor";"N/A";"N/A";"";"1";"";"";"Gentari";"";"";"";"";"";"";"";"";"";"";"";"Gentari @ XPark Sunway Iskandar";"";"";"yes"
"11294595079";"1.5892773";"103.6359475";"charging_station";"";"Malaysia";"Johor";"N/A";"N/A";"";"";"";"";"Shell Recharge Solutions";"Q105883058";"";"";"";"";"";"";"";"";"";"";"Shell Recharge";"";"";"yes"
"11385382711";"1.591432";"103.635316";"charging_station";"";"Malaysia";"Johor";"N/A";"N/A";"";"2";"";"";"CHARGE+";"";"";"";"";"";"";"";"";"";"";"";"CHARGE+";"";"";"yes"
"11481305041";"1.5930489";"103.6475928";"charging_station";"";"Malaysia";"Johor";"N/A";"N/A";"";"2";"";"";"ChargeSini";"";"";"";"";"";"";"";"";"";"";"";"ChargeSini";"";"";"yes"
"11481890856";"1.58889";"103.7564326";"charging_station";"";"Malaysia";"Johor";"N/A";"N/A";"";"";"";"";"ChargeSini";"";"";"";"";"";"";"";"";"";"";"";"ChargeSini";"";"";"yes"
"11518965813";"1.6350433";"103.6660276";"charging_station";"";"Malaysia";"Johor";"N/A";"N/A";"";"";"";"";"Gentari";"";"";"";"";"";"";"";"";"";"";"";"Gentari";"";"";"yes"
"11518984403";"1.5436137";"103.7398848";"charging_station";"";"Malaysia";"Johor";"N/A";"N/A";"";"";"";"";"Gentari";"";"";"";"";"";"";"";"";"";"";"";"Gentari";"";"";"yes"
"11518984680";"1.5359947";"103.753584";"charging_station";"";"Malaysia";"Johor";"N/A";"N/A";"";"";"";"";"JomCharge";"";"";"";"";"";"";"";"";"";"";"";"JomCharge";"";"";""
"11524337214";"1.5175849";"103.6729878";"charging_station";"";"Malaysia";"Johor";"N/A";"N/A";"";"";"";"";"JomCharge";"";"";"";"";"";"";"";"";"";"";"";"JomCharge";"";"";"yes"
"11524337215";"1.5170239";"103.6700851";"charging_station";"";"Malaysia";"Johor";"N/A";"N/A";"";"";"";"";"ChargeSini";"";"";"";"";"";"";"";"";"";"";"";"ChargeSini";"";"";"yes"
"11524337217";"1.5170613";"103.6746135";"charging_station";"";"Malaysia";"Johor";"N/A";"N/A";"";"";"";"";"JomCharge";"";"";"";"";"";"";"";"";"";"";"";"JomCharge";"";"";"yes"
"11524337369";"1.5176859";"103.6722384";"charging_station";"";"Malaysia";"Johor";"N/A";"N/A";"";"";"";"";"JomCharge";"";"";"";"";"";"";"";"";"";"";"";"JomCharge";"";"";"yes"
"11524337785";"1.5175847";"103.6722432";"charging_station";"";"Malaysia";"Johor";"N/A";"N/A";"";"";"";"";"ChargeSini";"";"";"";"";"";"";"";"";"";"";"";"ChargeSini";"";"";"yes"
"11524363796";"1.5156556";"103.68608";"charging_station";"";"Malaysia";"Johor";"N/A";"N/A";"";"";"";"";"Gentari";"";"";"";"";"";"";"";"";"";"";"";"Gentari";"";"";"yes"
"11524363797";"1.5158835";"103.6858527";"charging_station";"";"Malaysia";"Johor";"N/A";"N/A";"";"";"";"";"Shell Recharge Solutions";"Q105883058";"";"";"";"";"";"";"";"";"";"";"ParkEasy";"";"";"yes"
"11524369957";"1.4908128";"103.7420182";"charging_station";"";"Malaysia";"Johor";"N/A";"N/A";"";"";"";"";"ChargeSini";"";"";"";"";"";"";"";"";"";"";"";"ChargeSini";"";"";"yes"
"11524379086";"1.4863458";"103.7696378";"charging_station";"";"Malaysia";"Johor";"N/A";"N/A";"";"";"";"";"chargEV";"";"";"";"";"";"";"";"";"";"";"";"chargEV";"";"";"yes"
"11524379650";"1.4861604";"103.7622735";"charging_station";"";"Malaysia";"Johor";"N/A";"N/A";"";"";"";"";"ChargeSini";"";"";"";"";"";"";"";"";"";"";"";"ChargeSini";"";"";"yes"
"11524379651";"1.4851363";"103.7627197";"charging_station";"";"Malaysia";"Johor";"N/A";"N/A";"";"";"";"";"ChargeSini";"";"";"";"";"";"";"";"";"";"";"";"ChargeSini";"";"";"yes"
"11524379853";"1.4634195";"103.7621918";"charging_station";"";"Malaysia";"Johor";"N/A";"N/A";"";"";"";"";"JomCharge";"";"";"";"";"";"";"";"";"";"";"";"JomCharge";"";"";"yes"
"11524379854";"1.4643898";"103.762523";"charging_station";"";"Malaysia";"Johor";"N/A";"N/A";"";"";"";"";"chargEV";"";"";"";"";"";"";"";"";"";"";"";"chargEV";"";"";"yes"
"11524392039";"1.4840738";"103.7744656";"charging_station";"";"Malaysia";"Johor";"N/A";"N/A";"";"";"";"";"Gentari";"";"";"";"";"";"";"";"";"";"";"";"Gentari";"";"";"yes"
"11524392899";"1.4655091";"103.7597496";"charging_station";"";"Malaysia";"Johor";"N/A";"N/A";"";"";"";"";"";"";"";"";"";"";"";"";"";"";"";"";"EV Charging Station DoubleTree by Hilton Hotel Johor Bahru";"";"";"no"
"11524830242";"1.4803951";"103.7650938";"charging_station";"";"Malaysia";"Johor";"N/A";"N/A";"";"";"";"";"Gentari";"";"";"";"";"";"";"";"";"";"";"";"Gentari";"";"";"yes"
"11524886149";"1.5793822";"103.6504208";"charging_station";"";"Malaysia";"Johor";"N/A";"N/A";"";"";"";"";"chargEV";"";"";"";"";"";"";"";"";"";"";"";"chargEV";"";"";"yes"
"11527083846";"1.5493109";"103.7963316";"charging_station";"";"Malaysia";"Johor";"N/A";"N/A";"";"";"";"";"chargEV";"";"";"";"";"";"";"";"";"";"";"";"chargEV";"";"";"yes"
"11527094771";"1.5520702";"103.7983195";"charging_station";"";"Malaysia";"Johor";"N/A";"N/A";"";"";"";"";"ParkEasy";"";"";"";"";"";"";"";"";"";"";"";"ParkEasy";"";"";"yes"
"11527094772";"1.5516963";"103.7996184";"charging_station";"";"Malaysia";"Johor";"N/A";"N/A";"";"";"";"";"IKEA";"";"";"";"";"";"";"";"";"";"";"";"";"";"";"no"
"11542379072";"1.3972034";"103.6295452";"charging_station";"";"Malaysia";"Johor";"N/A";"N/A";"";"";"";"";"";"";"";"";"";"";"";"";"";"";"";"";"";"";"";"no"
"11585999017";"1.4362293";"103.7863791";"charging_station";"";"Malaysia";"Johor";"N/A";"N/A";"";"";"";"";"Tesla, Inc.";"Q478214";"";"";"";"";"";"";"";"";"";"";"Tesla Supercharger";"";"";"yes"
"11670619688";"1.5487863";"103.716434";"charging_station";"";"Malaysia";"Johor";"N/A";"N/A";"";"";"";"";"chargEV";"";"";"";"";"";"";"";"";"";"";"";"chargEV";"";"";"yes"
"11676052933";"1.3971185";"103.6316071";"charging_station";"";"Malaysia";"Johor";"N/A";"N/A";"";"";"";"";"chargEV";"";"";"";"";"";"";"";"";"";"";"";"chargEV";"";"";"yes"
"11824773064";"1.6030099";"103.6224559";"charging_station";"";"Malaysia";"Johor";"N/A";"N/A";"";"";"";"";"DC Handal";"";"";"";"";"";"";"";"";"";"";"";"DC Handal";"";"";""
"11830833245";"1.4757432";"103.7415311";"charging_station";"";"Malaysia";"Johor";"N/A";"N/A";"";"";"";"";"Gentari";"";"";"";"";"";"";"";"";"";"";"";"Gentari";"";"";"yes"
"11830833246";"1.4758797";"103.7406661";"charging_station";"";"Malaysia";"Johor";"N/A";"N/A";"";"";"";"";"Gentari";"";"";"";"";"";"";"";"";"";"";"";"Gentari";"";"";"yes"
"11846040050";"1.6022872";"103.6456799";"charging_station";"";"Malaysia";"Johor";"N/A";"N/A";"";"";"";"";"Gentari";"Q123457836";"";"";"";"";"";"";"";"";"";"";"Gentari";"";"";"yes"
"11876524839";"1.517588";"103.6730687";"charging_station";"";"Malaysia";"Johor";"N/A";"N/A";"";"";"";"";"ChargeSini";"";"";"";"";"";"";"";"";"";"";"";"ChargeSini";"";"";"yes"
"11917937518";"1.3349071";"103.8414208";"charging_station";"";"Singapore";"";"N/A";"N/A";"";"4";"";"";"";"";"";"";"";"";"";"";"";"";"";"";"";"";"";""
"12073952530";"1.3873076";"103.7611319";"charging_station";"";"Malaysia";"Johor";"N/A";"N/A";"";"1";"";"";"";"";"";"";"";"";"";"";"";"";"";"";"";"";"";"yes"
"12091963974";"1.3751391";"103.7690277";"charging_station";"";"Malaysia";"Johor";"N/A";"N/A";"";"";"";"";"";"";"";"";"";"";"";"";"";"";"";"";"";"";"";""
"12093251000";"1.3726893";"103.7631673";"charging_station";"";"Malaysia";"Johor";"N/A";"N/A";"";"1";"";"";"LHN Energy";"";"";"";"";"";"";"";"";"";"";"";"";"";"";"yes"
"12096199642";"1.5638802";"103.7776929";"charging_station";"";"Malaysia";"Johor";"N/A";"N/A";"";"";"";"";"EVPower";"";"";"";"";"";"";"";"";"";"";"";"EVPower";"";"";"yes"
"12187362422";"1.5907962";"103.6353344";"charging_station";"";"Malaysia";"Johor";"N/A";"N/A";"";"";"";"";"Tesla, Inc.";"Q478214";"";"";"";"";"";"";"";"";"";"";"Tesla Supercharger";"";"";"yes"
"12217307751";"1.5877876";"103.7593811";"charging_station";"";"Malaysia";"Johor";"N/A";"N/A";"";"";"";"";"chargEV";"";"";"";"";"";"";"";"";"";"";"";"chargEV";"";"";"yes"
"12470619067";"1.380345";"103.7641373";"charging_station";"";"Malaysia";"Johor";"N/A";"N/A";"";"2";"";"";"Singapore Power";"";"";"";"";"";"";"";"";"";"";"";"";"SGD 0.654/kWh";"11:00-23:00";"yes"
"12628368729";"1.4360294";"103.843883";"charging_station";"";"Malaysia";"Johor";"N/A";"N/A";"";"2";"";"";"";"";"";"";"";"";"";"";"";"";"";"";"";"";"";""
"12761938915";"1.3403923";"103.7739341";"charging_station";"";"Singapore";"";"N/A";"N/A";"";"";"";"";"";"";"";"";"";"";"";"";"";"";"";"";"";"";"";""
"6187681000";"1.3758845";"103.9252672";"charging_station";"";"Malaysia";"Johor";"N/A";"N/A";"";"";"";"";"Greenlots";"";"";"";"";"";"";"";"";"";"";"";"";"";"";""
"6187681001";"1.3743132";"103.9323912";"charging_station";"";"Malaysia";"Johor";"N/A";"N/A";"";"";"";"";"";"";"";"";"";"";"";"";"";"";"";"";"";"";"";""
"6187681002";"1.3520089";"103.940112";"charging_station";"";"Singapore";"";"N/A";"N/A";"";"";"";"";"";"";"";"";"";"";"";"";"";"";"";"";"";"";"";""
"6187681003";"1.3408252";"103.9633488";"charging_station";"";"Singapore";"";"N/A";"N/A";"";"";"";"";"Shell Recharge Solutions";"Q105883058";"";"";"";"";"";"";"";"";"";"";"";"";"";""
"6187681004";"1.3372971";"103.9641889";"charging_station";"";"Singapore";"";"N/A";"N/A";"";"";"";"";"";"";"";"";"";"";"";"";"";"";"";"";"";"";"";""
"6187681005";"1.3354179";"103.9637112";"charging_station";"";"Singapore";"";"N/A";"N/A";"";"";"";"";"Shell Recharge Solutions";"Q105883058";"";"";"";"";"";"";"";"";"";"";"";"";"";""
"6187681007";"1.3345969";"103.884048";"charging_station";"";"Singapore";"";"N/A";"N/A";"";"";"";"";"";"";"";"";"";"";"";"";"";"9";"Harrison Road";"";"";"";"";""
"6187681008";"1.3321623";"103.8902281";"charging_station";"";"Singapore";"";"N/A";"N/A";"";"";"";"";"";"";"";"";"";"";"";"";"";"61";"Ubi Road 1";"";"";"";"";""
"6970836697";"1.3614215";"103.9903191";"charging_station";"";"Singapore";"";"N/A";"N/A";"";"";"";"";"";"";"";"";"";"";"";"";"";"";"";"";"";"";"";""
"6970840886";"1.3614638";"103.9902225";"charging_station";"";"Singapore";"";"N/A";"N/A";"";"";"";"";"";"";"";"";"";"";"";"";"";"";"";"";"";"";"";""
"9082240444";"1.3916658";"103.8928146";"charging_station";"";"Malaysia";"Johor";"N/A";"N/A";"";"";"";"";"Shell";"Q110716465";"";"";"";"";"";"";"";"";"";"";"";"";"";""
"9083535422";"1.3623461";"103.8901907";"charging_station";"";"Singapore";"";"N/A";"N/A";"";"4";"";"";"Blue SG";"";"";"";"";"";"";"";"";"";"";"";"";"";"";""
"9611628937";"1.4062174";"103.902338";"charging_station";"";"Malaysia";"Johor";"N/A";"N/A";"";"3";"";"";"Tesla, Inc.";"Q478214";"";"";"";"";"";"";"";"";"";"";"Tesla Supercharger";"";"";"yes"
"9998908020";"1.3535358";"103.9561861";"charging_station";"";"Singapore";"";"N/A";"N/A";"";"";"";"";"";"";"";"";"";"";"";"";"";"";"";"";"";"";"";""
"10036337915";"1.373973";"103.8904969";"charging_station";"";"Singapore";"";"N/A";"N/A";"";"";"";"";"";"";"";"";"";"";"";"";"";"";"";"";"";"";"";""
"11012000772";"1.3698645";"103.8842485";"charging_station";"";"Singapore";"";"N/A";"N/A";"";"";"";"yes";"";"";"";"";"";"";"";"";"";"";"";"";"BlueSG";"";"";""
"11414391709";"1.5386593";"104.264171";"charging_station";"";"Malaysia";"Johor";"N/A";"N/A";"";"2";"";"";"DC Handal";"";"";"";"";"";"";"";"";"";"";"";"DC Handal";"";"";"yes"
"11414391710";"1.5379136";"104.2675336";"charging_station";"";"Malaysia";"Johor";"N/A";"N/A";"";"";"";"";"chargEV";"";"";"";"";"";"";"";"";"";"";"";"chargEV";"";"";"yes"
"11414391711";"1.5406321";"104.2643074";"charging_station";"";"Malaysia";"Johor";"N/A";"N/A";"";"";"";"";"chargEV";"";"";"";"";"";"";"";"";"";"";"";"chargEV";"";"";"yes"
"12533886460";"1.3324082";"103.8959836";"charging_station";"";"Singapore";"";"N/A";"N/A";"";"";"";"";"";"";"";"";"";"";"";"";"";"";"";"";"";"";"";""
"7092610874";"1.5587312";"110.3447372";"charging_station";"";"Malaysia";"Sarawak";"N/A";"N/A";"";"1";"";"yes";"Sarawak Energy";"";"";"";"";"";"";"";"";"";"";"";"";"";"";""
"1328536518";"";"";"charging_station";"N/A";"N/A";"N/A";"N/A";"N/A";"";"2";"";"";"PT PLN (Persero)";"";"";"";"";"";"";"";"";"";"";"";"SPKLU";"";"";"yes"
"12291508682";"1.4864299";"124.8339777";"";"";"Indonesia";"North Sulawesi";"N/A";"N/A";"";"";"";"";"";"";"";"";"";"";"";"";"";"";"";"";"";"";"";""
"12291508683";"1.486396";"124.8340486";"";"";"Indonesia";"North Sulawesi";"N/A";"N/A";"";"";"";"";"";"";"";"";"";"";"";"";"";"";"";"";"";"";"";""
"12291508684";"1.486242";"124.83397";"";"";"Indonesia";"North Sulawesi";"N/A";"N/A";"";"";"";"";"";"";"";"";"";"";"";"";"";"";"";"";"";"";"";""
"12291508685";"1.4862782";"124.8338999";"";"";"Indonesia";"North Sulawesi";"N/A";"N/A";"";"";"";"";"";"";"";"";"";"";"";"";"";"";"";"";"";"";"";""
"6422112485";"2.1708575";"-72.1472326";"charging_station";"";"Colombia";"Guaviare";"N/A";"N/A";"";"";"";"";"puerto de embarque fluvial";"";"";"";"";"";"";"";"";"";"";"";"";"";"";""
"10738040107";"1.9362224";"-60.5940476";"charging_station";"Boa Vista";"Brazil";"Roraima";"N/A";"N/A";"";"";"";"";"";"";"";"";"";"";"";"";"";"";"";"";"";"";"";""
"12671964221";"2.1482655";"102.6982759";"charging_station";"";"Malaysia";"Johor";"N/A";"N/A";"";"2";"";"";"Shell Recharge Solutions";"Q105883058";"";"";"";"";"";"";"";"";"";"";"";"";"";"yes"
"12882368669";"2.2438411";"102.5316578";"charging_station";"";"Malaysia";"Johor";"N/A";"N/A";"";"";"";"";"chargEV";"";"";"";"";"";"";"";"";"";"";"";"chargEV";"";"";"yes"
"11391109082";"1.9328012";"103.1878649";"charging_station";"";"Malaysia";"Johor";"N/A";"N/A";"";"";"";"";"Gentari";"";"";"";"";"";"";"";"";"";"";"";"Gentari";"";"";"yes"
"4326718690";"2.2692707";"111.8579264";"charging_station";"";"Malaysia";"Sarawak";"N/A";"N/A";"";"";"";"";"Shell";"Q110716465";"";"";"";"";"";"";"";"";"";"";"";"";"";""
"4276388925";"2.2917938";"111.9310806";"charging_station";"";"Malaysia";"Sarawak";"N/A";"N/A";"";"";"";"";"Petronas Petrol Station";"";"";"";"";"";"";"";"";"";"";"";"";"";"";""
"10692021906";"2.4520753";"-76.6071987";"charging_station";"";"Colombia";"Cauca";"N/A";"N/A";"";"";"";"";"";"";"";"";"";"";"";"";"";"";"";"";"";"";"";""
"12587816248";"2.4520899";"-76.6071614";"charging_station";"";"Colombia";"Cauca";"N/A";"N/A";"";"";"";"";"";"";"";"";"";"";"";"";"";"";"";"";"";"";"";""
"11210209537";"2.6341755";"10.0693937";"charging_station";"";"Cameroon";"South Province";"N/A";"N/A";"";"";"";"";"";"";"";"";"";"";"";"";"";"";"";"";"";"";"";""
"11490173943";"2.7645458";"101.6830042";"charging_station";"";"Malaysia";"";"N/A";"N/A";"";"";"";"";"Gentari";"";"";"";"";"";"";"";"";"";"";"";"Gentari";"";"";"yes"
"12093421882";"2.7641531";"101.8306805";"charging_station";"";"Malaysia";"Negeri Sembilan";"N/A";"N/A";"";"";"";"";"Shell Recharge Solutions";"Q105883058";"";"";"";"";"";"";"";"";"";"";"";"";"";"yes"
"12093421883";"2.7636997";"101.831229";"charging_station";"";"Malaysia";"Negeri Sembilan";"N/A";"N/A";"";"";"";"";"Gentari";"";"";"";"";"";"";"";"";"";"";"";"Gentari";"";"";""
"12093461484";"2.7568347";"101.8461598";"charging_station";"";"Malaysia";"Negeri Sembilan";"N/A";"N/A";"";"";"";"";"chargEV";"";"";"";"";"";"";"";"";"";"";"";"chargEV";"";"";"yes"
"12093461485";"2.7571409";"101.8455834";"charging_station";"";"Malaysia";"Negeri Sembilan";"N/A";"N/A";"";"";"";"";"Shell Recharge Solutions";"Q105883058";"";"";"";"";"";"";"";"";"";"";"Shell";"";"";"yes"
"12093477717";"2.7572489";"101.8442515";"charging_station";"";"Malaysia";"Negeri Sembilan";"N/A";"N/A";"";"";"";"";"Gentari";"";"";"";"";"";"";"";"";"";"";"";"Gentari";"";"";"yes"
"12300608434";"2.765871";"101.6853896";"charging_station";"";"Malaysia";"";"N/A";"N/A";"";"";"";"";"Gentari";"Q123457836";"";"";"";"";"";"";"";"";"";"";"Gentari";"";"";"yes"
"8366319578";"2.3948999";"102.2236875";"charging_station";"";"Malaysia";"Melaka";"N/A";"N/A";"";"";"";"yes";"JomCharge";"";"";"";"";"1";"";"";"";"";"North-South Expressway Southbound";"";"JomCharge";"RM1.20 per minute";"";"yes"
"8369963394";"2.3982849";"102.2196277";"charging_station";"";"Malaysia";"Melaka";"N/A";"N/A";"";"";"";"yes";"JomCharge";"";"";"";"";"1";"";"";"";"";"North-South Expressway Northbound";"";"JomCharge";"RM1.20 per minute";"";"yes"
"11382919205";"2.4667032";"102.1198072";"charging_station";"";"Malaysia";"Negeri Sembilan";"N/A";"N/A";"";"2";"";"";"Gentari";"";"";"";"";"";"";"";"";"";"";"";"Gentari";"";"";"yes"
"11391086505";"2.4452524";"102.2065328";"charging_station";"";"Malaysia";"Melaka";"N/A";"N/A";"";"4";"";"";"Tesla, Inc.";"Q478214";"";"";"";"";"";"";"";"";"";"";"Tesla Supercharger";"";"";"yes"
"11500980138";"2.3984706";"102.2217222";"charging_station";"";"Malaysia";"Melaka";"N/A";"N/A";"";"";"";"";"chargEV";"";"";"";"";"";"";"";"";"";"";"";"chargEV";"";"";"yes"
"11501042949";"2.3945396";"102.2239535";"charging_station";"";"Malaysia";"Melaka";"N/A";"N/A";"";"";"";"";"chargEV";"";"";"";"";"";"";"";"";"";"";"";"chargEV";"";"";""
