"id";"lat";"lon";"amenity";"city";"state";"country";"scraped_country_code";"scraped_country_name";"authentication:nfc";"capacity";"capacity:car";"motorcar";"operator";"operator:wikidata";"socket:schuko";"socket:schuko:current";"socket:schuko:voltage";"socket:type2";"socket:type2:current";"socket:type2:voltage";"ref";"addr:housenumber";"addr:street";"addr:postcode";"brand";"charge";"opening_hours";"fee"
"1393768066";"47.2421103";"9.6038999";"charging_station";"Politischer Bezirk Feldkirch";"Austria";"Vorarlberg";"N/A";"N/A";"yes";"4";"";"yes";"illwerke vkw";"Q97012080";"";"";"";"4";"";"";"AT*VKW*E4095";"";"";"";"vkw vlotte";"";"24/7";"yes"
"4759119791";"47.2353215";"9.5986624";"charging_station";"Politischer Bezirk Feldkirch";"Austria";"Vorarlberg";"N/A";"N/A";"";"4";"";"no";"";"";"";"";"";"";"";"";"";"";"";"";"";"";"";""
"5015843934";"47.2357753";"9.5963116";"charging_station";"Politischer Bezirk Feldkirch";"Austria";"Vorarlberg";"N/A";"N/A";"";"2";"";"yes";"illwerke vkw";"Q97012080";"";"";"";"";"";"";"";"";"";"";"vkw vlotte";"";"24/7";""
"5159230140";"47.1101923";"9.5237623";"charging_station";"";"Liechtenstein";"Triesen";"N/A";"N/A";"";"";"";"";"Liechtensteinischen Kraftwerke";"";"";"";"";"";"";"";"";"";"";"";"";"";"24/7";"no"
"5159230141";"47.1381844";"9.5214107";"charging_station";"";"Liechtenstein";"Vaduz";"N/A";"N/A";"";"3";"";"";"LKW";"";"";"";"";"";"";"";"";"";"";"";"";"";"";""
"6919511975";"47.2665823";"9.6162107";"charging_station";"Politischer Bezirk Feldkirch";"Austria";"Vorarlberg";"N/A";"N/A";"";"";"";"yes";"illwerke vkw";"Q97012080";"";"";"";"";"";"";"";"";"";"";"vkw vlotte";"";"24/7";""
"7594638875";"47.1454996";"9.5020029";"charging_station";"";"Liechtenstein";"Vaduz";"N/A";"N/A";"";"";"";"yes";"Plug'n Roll";"Q115241443";"";"";"";"";"";"";"";"";"";"";"Plug'n Roll";"";"24/7";""
"7773618518";"47.2682898";"9.5911473";"charging_station";"Politischer Bezirk Feldkirch";"Austria";"Vorarlberg";"N/A";"N/A";"";"2";"";"yes";"illwerke vkw";"Q97012080";"";"";"";"2";"";"";"";"";"";"";"vkw vlotte";"";"Mo-Th 07:00-18:00; Fr 07:00-14:30; Sa-Su 00:00-24:00";"yes"
"7773618519";"47.2704319";"9.6051192";"charging_station";"Politischer Bezirk Feldkirch";"Austria";"Vorarlberg";"N/A";"N/A";"";"2";"";"yes";"illwerke vkw";"Q97012080";"";"";"";"2";"";"";"";"";"";"";"vkw vlotte";"";"24/7";"yes"
"8235484404";"47.1280409";"9.4887593";"charging_station";"Wahlkreis Werdenberg";"Switzerland";"Saint Gallen";"N/A";"N/A";"";"";"";"";"";"";"";"";"";"";"";"";"";"";"";"";"";"";"";""
"8393936723";"47.2384592";"9.6005696";"charging_station";"Politischer Bezirk Feldkirch";"Austria";"Vorarlberg";"N/A";"N/A";"";"2";"";"yes";"illwerke vkw";"Q97012080";"";"";"";"";"";"";"";"";"";"";"vkw vlotte";"";"24/7";""
"8914605531";"47.2246819";"9.616968";"charging_station";"Politischer Bezirk Feldkirch";"Austria";"Vorarlberg";"N/A";"N/A";"";"2";"";"yes";"OMV";"";"";"";"";"";"";"";"";"";"";"";"";"";"";""
"9034466807";"47.2085999";"9.4778427";"charging_station";"Wahlkreis Werdenberg";"Switzerland";"Saint Gallen";"N/A";"N/A";"";"2";"";"yes";"intercharge";"";"";"";"";"2";"";"";"CH*CCI*E20616";"";"";"";"move";"0.57 CHF/kWh";"24/7";"yes"
"9034466811";"47.1731619";"9.474299";"charging_station";"Wahlkreis Werdenberg";"Switzerland";"Saint Gallen";"N/A";"N/A";"";"2";"";"yes";"";"";"";"";"";"2";"";"";"";"";"";"";"";"";"24/7";"yes"
"9034466812";"47.173175";"9.4743741";"charging_station";"Wahlkreis Werdenberg";"Switzerland";"Saint Gallen";"N/A";"N/A";"";"2";"";"yes";"";"";"";"";"";"2";"";"";"";"";"";"";"";"";"24/7";"yes"
"9034484722";"47.1667166";"9.4745307";"charging_station";"Wahlkreis Werdenberg";"Switzerland";"Saint Gallen";"N/A";"N/A";"";"2";"";"yes";"Ost-mobil";"";"";"";"";"2";"";"";"";"";"";"";"";"";"24/7";"yes"
"9034484723";"47.167145";"9.4789433";"charging_station";"Wahlkreis Werdenberg";"Switzerland";"Saint Gallen";"N/A";"N/A";"";"2";"";"yes";"Ostmobil";"";"";"";"";"";"";"";"";"";"";"";"";"";"24/7";"yes"
"9490897969";"47.0752494";"9.4860074";"charging_station";"";"Liechtenstein";"Balzers";"N/A";"N/A";"";"2";"";"yes";"";"";"";"";"";"";"";"";"";"";"";"";"";"";"24/7";"yes"
"9490897970";"47.0752835";"9.4860615";"charging_station";"";"Liechtenstein";"Balzers";"N/A";"N/A";"";"2";"";"yes";"";"";"";"";"";"";"";"";"";"";"";"";"";"";"24/7";"yes"
"9725063465";"47.2242584";"9.6199444";"charging_station";"Politischer Bezirk Feldkirch";"Austria";"Vorarlberg";"N/A";"N/A";"";"2";"";"yes";"Lidl";"Q151954";"";"";"";"1";"";"";"";"";"";"";"";"";"07:15-20:15";"yes"
"9793541418";"47.2405997";"9.5249552";"charging_station";"";"Liechtenstein";"Ruggell";"N/A";"N/A";"";"2";"";"";"LKW";"";"";"";"";"";"";"";"";"";"";"";"";"";"";""
"10095348212";"47.254964";"9.615257";"charging_station";"Politischer Bezirk Feldkirch";"Austria";"Vorarlberg";"N/A";"N/A";"";"2";"";"yes";"illwerke vkw";"Q97012080";"";"";"";"";"";"";"";"";"";"";"vkw vlotte";"";"24/7";""
"10095470695";"47.235925";"9.6305528";"charging_station";"Politischer Bezirk Feldkirch";"Austria";"Vorarlberg";"N/A";"N/A";"";"2";"";"yes";"illwerke vkw";"Q97012080";"";"";"";"";"";"";"";"";"";"";"vkw vlotte";"";"24/7";""
"10095491727";"47.2485861";"9.587156";"charging_station";"Politischer Bezirk Feldkirch";"Austria";"Vorarlberg";"N/A";"N/A";"";"2";"";"yes";"illwerke vkw";"Q97012080";"";"";"";"";"";"";"";"";"";"";"vkw vlotte";"";"24/7";""
"10095502673";"47.2605728";"9.6171979";"charging_station";"Politischer Bezirk Feldkirch";"Austria";"Vorarlberg";"N/A";"N/A";"";"2";"";"yes";"illwerke vkw";"Q97012080";"";"";"";"";"";"";"";"";"";"";"vkw vlotte";"";"24/7";""
"10095502675";"47.261794";"9.615644";"charging_station";"Politischer Bezirk Feldkirch";"Austria";"Vorarlberg";"N/A";"N/A";"";"";"";"yes";"illwerke vkw";"Q97012080";"";"";"";"";"";"";"";"";"";"";"vkw vlotte";"";"24/7";""
"10095502676";"47.2650724";"9.6146606";"charging_station";"Politischer Bezirk Feldkirch";"Austria";"Vorarlberg";"N/A";"N/A";"";"";"";"yes";"illwerke vkw";"Q97012080";"";"";"";"";"";"";"";"";"";"";"vkw vlotte";"";"24/7";""
"10095545533";"47.2270562";"9.5832321";"charging_station";"Politischer Bezirk Feldkirch";"Austria";"Vorarlberg";"N/A";"N/A";"";"";"";"yes";"illwerke vkw";"Q97012080";"";"";"";"";"";"";"";"";"";"";"vkw vlotte";"";"24/7";""
"10095545534";"47.231541";"9.5807619";"charging_station";"Politischer Bezirk Feldkirch";"Austria";"Vorarlberg";"N/A";"N/A";"";"2";"";"yes";"illwerke vkw";"Q97012080";"";"";"";"";"";"";"AT*VKW*E0330";"";"";"";"vkw vlotte";"";"24/7";"yes"
"10095554744";"47.245252";"9.605364";"charging_station";"Politischer Bezirk Feldkirch";"Austria";"Vorarlberg";"N/A";"N/A";"";"";"";"yes";"illwerke vkw";"Q97012080";"";"";"";"";"";"";"";"";"";"";"vkw vlotte";"";"24/7";""
"10095554745";"47.2398572";"9.5980896";"charging_station";"Politischer Bezirk Feldkirch";"Austria";"Vorarlberg";"N/A";"N/A";"";"2";"";"yes";"illwerke vkw";"Q97012080";"";"";"";"";"";"";"";"";"";"";"vkw vlotte";"";"24/7";""
"10095554746";"47.237832";"9.593309";"charging_station";"Politischer Bezirk Feldkirch";"Austria";"Vorarlberg";"N/A";"N/A";"";"";"";"yes";"illwerke vkw";"Q97012080";"";"";"";"";"";"";"";"";"";"";"vkw vlotte";"";"24/7";""
"10095554747";"47.2347163";"9.5868797";"charging_station";"Politischer Bezirk Feldkirch";"Austria";"Vorarlberg";"N/A";"N/A";"";"";"";"yes";"illwerke vkw";"Q97012080";"";"";"";"";"";"";"";"";"";"";"vkw vlotte";"";"24/7";""
"10095554748";"47.235348";"9.59867";"charging_station";"Politischer Bezirk Feldkirch";"Austria";"Vorarlberg";"N/A";"N/A";"";"2";"";"yes";"illwerke vkw";"Q97012080";"";"";"";"";"";"";"";"";"";"";"vkw vlotte";"";"24/7";""
"10095599741";"47.229477";"9.609832";"charging_station";"Politischer Bezirk Feldkirch";"Austria";"Vorarlberg";"N/A";"N/A";"";"";"";"yes";"illwerke vkw";"Q97012080";"";"";"";"";"";"";"";"";"";"";"vkw vlotte";"";"24/7";""
"10095599742";"47.2209807";"9.6037415";"charging_station";"Politischer Bezirk Feldkirch";"Austria";"Vorarlberg";"N/A";"N/A";"";"";"";"yes";"illwerke vkw";"Q97012080";"";"";"";"";"";"";"";"";"";"";"vkw vlotte";"";"24/7";""
"10095616041";"47.217302";"9.632427";"charging_station";"Politischer Bezirk Feldkirch";"Austria";"Vorarlberg";"N/A";"N/A";"";"";"";"yes";"illwerke vkw";"Q97012080";"";"";"";"";"";"";"";"";"";"";"vkw vlotte";"";"24/7";""
"10095616043";"47.21757";"9.63137";"charging_station";"Politischer Bezirk Feldkirch";"Austria";"Vorarlberg";"N/A";"N/A";"";"";"";"yes";"illwerke vkw";"Q97012080";"";"";"";"";"";"";"";"";"";"";"vkw vlotte";"";"24/7";""
"10139534363";"47.23585";"9.59761";"charging_station";"Politischer Bezirk Feldkirch";"Austria";"Vorarlberg";"N/A";"N/A";"";"";"";"";"";"";"";"";"";"";"";"";"";"";"";"";"";"";"";""
"10140039071";"47.2357103";"9.6312396";"charging_station";"Politischer Bezirk Feldkirch";"Austria";"Vorarlberg";"N/A";"N/A";"";"1";"";"yes";"illwerke vkw";"Q97012080";"";"";"";"";"";"";"";"";"";"";"vkw vlotte";"";"24/7";"yes"
"10559125577";"47.1034856";"9.6079612";"charging_station";"";"Liechtenstein";"Triesenberg";"N/A";"N/A";"";"4";"";"";"";"";"";"";"";"";"";"";"";"";"";"";"";"";"";""
"10846397243";"47.1652241";"9.5075322";"charging_station";"";"Liechtenstein";"Schaan";"N/A";"N/A";"";"";"";"";"";"";"";"";"";"";"";"";"";"";"";"";"LKW";"";"";""
"11052820558";"47.2599837";"9.6152863";"charging_station";"Politischer Bezirk Feldkirch";"Austria";"Vorarlberg";"N/A";"N/A";"";"";"";"yes";"Lidl Ã–sterreich GmbH";"";"";"";"";"1";"";"";"E3F8C5A2D24298739CEEA94185817C";"";"";"";"";"";"";""
"11083698040";"47.2392683";"9.5976117";"charging_station";"Politischer Bezirk Feldkirch";"Austria";"Vorarlberg";"N/A";"N/A";"";"";"";"yes";"";"";"";"";"";"";"";"";"";"";"";"";"";"";"";""
"11083701998";"47.2398617";"9.5982995";"charging_station";"Politischer Bezirk Feldkirch";"Austria";"Vorarlberg";"N/A";"N/A";"";"2";"";"yes";"illwerke vkw";"Q97012080";"";"";"";"";"";"";"";"";"";"";"vkw vlotte";"";"24/7";""
"11088619180";"47.217058";"9.6306141";"charging_station";"Politischer Bezirk Feldkirch";"Austria";"Vorarlberg";"N/A";"N/A";"";"1";"";"yes";"illwerke vkw";"Q97012080";"";"";"";"";"";"";"";"";"";"";"vkw vlotte";"";"24/7";""
"11088688617";"47.2397256";"9.602543";"charging_station";"Politischer Bezirk Feldkirch";"Austria";"Vorarlberg";"N/A";"N/A";"";"2";"";"yes";"illwerke vkw";"Q97012080";"";"";"";"";"";"";"";"";"";"";"vkw vlotte";"";"24/7";"yes"
"11139764687";"47.2595246";"9.6234427";"charging_station";"Politischer Bezirk Feldkirch";"Austria";"Vorarlberg";"N/A";"N/A";"";"2";"";"";"illwerke vkw";"Q97012080";"";"";"";"";"";"";"";"";"";"";"";"";"";""
"11232537937";"47.2155948";"9.5503429";"charging_station";"";"Liechtenstein";"Mauren";"N/A";"N/A";"";"6";"";"";"";"";"";"";"";"";"";"";"";"";"";"";"";"";"";""
"11298592000";"47.1231849";"9.4915783";"charging_station";"Wahlkreis Werdenberg";"Switzerland";"Saint Gallen";"N/A";"N/A";"";"";"";"";"";"";"";"";"";"";"";"";"";"";"";"";"";"";"";""
"11492343865";"47.1030681";"9.6078971";"charging_station";"";"Liechtenstein";"Triesenberg";"N/A";"N/A";"";"2";"";"";"LKW";"";"";"";"";"";"";"";"";"";"";"";"Mennekes";"";"";""
"11531632867";"47.1353931";"9.5219424";"charging_station";"";"Liechtenstein";"Vaduz";"N/A";"N/A";"";"1";"";"";"";"";"";"";"";"";"";"";"";"";"";"";"";"";"";""
"11688312171";"47.2390085";"9.5960033";"charging_station";"Politischer Bezirk Feldkirch";"Austria";"Vorarlberg";"N/A";"N/A";"";"";"";"";"";"";"";"";"";"";"";"";"";"";"";"";"";"";"";""
"11688312172";"47.2386717";"9.5958336";"charging_station";"Politischer Bezirk Feldkirch";"Austria";"Vorarlberg";"N/A";"N/A";"";"";"";"";"";"";"";"";"";"";"";"";"";"";"";"";"";"";"";""
"11688312173";"47.2385773";"9.5959314";"charging_station";"Politischer Bezirk Feldkirch";"Austria";"Vorarlberg";"N/A";"N/A";"";"";"";"";"";"";"";"";"";"";"";"";"";"";"";"";"";"";"";""
"11907205102";"47.1524631";"9.50608";"charging_station";"";"Liechtenstein";"Schaan";"N/A";"N/A";"";"";"";"no";"";"";"";"";"";"";"";"";"";"";"";"";"";"";"";""
"12050219259";"47.2370741";"9.5813665";"charging_station";"Politischer Bezirk Feldkirch";"Austria";"Vorarlberg";"N/A";"N/A";"";"2";"";"";"";"";"";"";"";"";"";"";"";"";"";"";"";"";"";""
"12142182977";"47.1520086";"9.5117489";"charging_station";"";"Liechtenstein";"Schaan";"N/A";"N/A";"";"6";"";"yes";"GOFAST";"Q130426825";"";"";"";"";"";"";"";"";"";"";"GOFAST";"";"fixme";"no"
"12288157497";"47.181562";"9.5229242";"charging_station";"";"Liechtenstein";"Planken";"N/A";"N/A";"";"2";"";"yes";"";"";"";"";"";"";"";"";"";"";"";"";"";"";"";"yes"
"12385135559";"47.2666735";"9.6136752";"charging_station";"Politischer Bezirk Feldkirch";"Austria";"Vorarlberg";"N/A";"N/A";"";"";"";"";"";"";"";"";"";"";"";"";"";"";"";"";"";"";"";""
"12518736581";"47.066385";"9.5023176";"charging_station";"";"Liechtenstein";"Balzers";"N/A";"N/A";"";"4";"";"";"LKW";"";"";"";"";"";"";"";"";"";"";"";"";"";"";""
"12798384215";"47.2544175";"9.5783551";"charging_station";"Politischer Bezirk Feldkirch";"Austria";"Vorarlberg";"N/A";"N/A";"";"";"";"";"";"";"";"";"";"";"";"";"";"";"";"";"Tesla, Inc.";"";"";""
"12895253800";"47.178507";"9.5186509";"charging_station";"";"Liechtenstein";"Schaan";"N/A";"N/A";"";"1";"";"";"LKW";"";"";"";"";"";"";"";"";"";"";"";"";"";"";""
"12895380487";"47.178488";"9.5186218";"charging_station";"";"Liechtenstein";"Schaan";"N/A";"N/A";"";"1";"";"";"LKW";"";"";"";"";"";"";"";"";"";"";"";"";"";"";""
"1355090083";"";"";"charging_station";"N/A";"N/A";"N/A";"N/A";"N/A";"";"2";"";"";"Ost-mobil";"";"";"";"";"";"";"";"";"";"";"";"";"";"";""
"1389321718";"";"";"charging_station";"N/A";"N/A";"N/A";"N/A";"N/A";"";"10";"";"";"Tesla";"Q478214";"";"";"";"";"";"";"";"7";"Steckergass";"";"Tesla Supercharger";"";"24/7";"yes"
"8610273909";"47.1667526";"9.4744719";"";"Wahlkreis Werdenberg";"Switzerland";"Saint Gallen";"N/A";"N/A";"";"";"";"";"";"";"";"";"";"";"";"";"";"";"";"";"";"";"";""
"8610273912";"47.1667094";"9.4744928";"";"Wahlkreis Werdenberg";"Switzerland";"Saint Gallen";"N/A";"N/A";"";"";"";"";"";"";"";"";"";"";"";"";"";"";"";"";"";"";"";""
"12540872361";"47.1667681";"9.4745433";"";"Wahlkreis Werdenberg";"Switzerland";"Saint Gallen";"N/A";"N/A";"";"";"";"";"";"";"";"";"";"";"";"";"";"";"";"";"";"";"";""
"12540872362";"47.1667243";"9.4745643";"";"Wahlkreis Werdenberg";"Switzerland";"Saint Gallen";"N/A";"N/A";"";"";"";"";"";"";"";"";"";"";"";"";"";"";"";"";"";"";"";""
"12860902315";"47.1652709";"9.5075496";"";"";"Liechtenstein";"Schaan";"N/A";"N/A";"";"";"";"";"";"";"";"";"";"";"";"";"";"";"";"";"";"";"";""
"12860902316";"47.1651778";"9.5075179";"";"";"Liechtenstein";"Schaan";"N/A";"N/A";"";"";"";"";"";"";"";"";"";"";"";"";"";"";"";"";"";"";"";""
"12860902317";"47.1651383";"9.5077449";"";"";"Liechtenstein";"Schaan";"N/A";"N/A";"";"";"";"";"";"";"";"";"";"";"";"";"";"";"";"";"";"";"";""
"12860902318";"47.1652312";"9.5077741";"";"";"Liechtenstein";"Schaan";"N/A";"N/A";"";"";"";"";"";"";"";"";"";"";"";"";"";"";"";"";"";"";"";""
"12860902376";"47.1652268";"9.5075396";"";"";"Liechtenstein";"Schaan";"N/A";"N/A";"";"";"";"";"";"";"";"";"";"";"";"";"";"";"";"";"";"";"";""
"12860902377";"47.1652289";"9.5075316";"";"";"Liechtenstein";"Schaan";"N/A";"N/A";"";"";"";"";"";"";"";"";"";"";"";"";"";"";"";"";"";"";"";""
