"id";"lat";"lon";"amenity";"city";"state";"country";"scraped_country_code";"scraped_country_name";"authentication:nfc";"capacity";"capacity:car";"motorcar";"operator";"operator:wikidata";"socket:schuko";"socket:schuko:current";"socket:schuko:voltage";"socket:type2";"socket:type2:current";"socket:type2:voltage";"ref";"addr:housenumber";"addr:street";"addr:postcode";"brand";"charge";"opening_hours";"fee"
"4554309891";"-33.6089708";"-71.6227765";"charging_station";"San Antonio Province";"Chile";"Valparaiso";"N/A";"N/A";"";"";"";"";"Copec";"";"";"";"";"";"";"";"";"";"";"";"";"";"";""
"6802782413";"-33.6467108";"-71.6246068";"charging_station";"San Antonio Province";"Chile";"Valparaiso";"N/A";"N/A";"";"2";"";"";"Copec";"Q1130956";"";"";"";"";"";"";"";"";"";"";"";"";"24/7";""
"3487504389";"-33.4423388";"-70.6551213";"charging_station";"Provincia de Santiago";"Chile";"Santiago Metropolitan";"N/A";"N/A";"";"2";"";"yes";"Enel X";"Q5376815";"";"";"";"1";"";"";"";"";"";"";"Enel X";"";"";""
"4538667989";"-33.4743188";"-70.6827737";"charging_station";"Provincia de Santiago";"Chile";"Santiago Metropolitan";"N/A";"N/A";"";"";"";"";"Socosur";"";"";"";"";"";"";"";"";"";"";"";"";"";"";""
"5010217227";"-33.3987354";"-70.5870519";"charging_station";"Provincia de Santiago";"Chile";"Santiago Metropolitan";"N/A";"N/A";"";"";"";"";"Enel X";"Q5376815";"";"";"";"";"";"";"";"";"";"";"Enel X";"";"";""
"6802777813";"-33.3824903";"-70.5893849";"charging_station";"Provincia de Santiago";"Chile";"Santiago Metropolitan";"N/A";"N/A";"";"1";"";"";"Copec";"Q1130956";"";"";"";"";"";"";"";"";"";"";"";"";"24/7";""
"6802780224";"-33.4341101";"-70.8102774";"charging_station";"Provincia de Santiago";"Chile";"Santiago Metropolitan";"N/A";"N/A";"";"1";"";"";"Copec";"Q1130956";"";"";"";"1";"";"";"";"";"";"";"";"";"24/7";""
"6804236557";"-33.4090127";"-70.5452215";"charging_station";"Provincia de Santiago";"Chile";"Santiago Metropolitan";"N/A";"N/A";"";"1";"";"";"Shell";"Q110716465";"";"";"";"";"";"";"";"";"";"";"";"";"";""
"6804262033";"-33.4551327";"-70.8031015";"charging_station";"Provincia de Santiago";"Chile";"Santiago Metropolitan";"N/A";"N/A";"";"2";"";"";"Enel X";"Q5376815";"";"";"";"2";"";"";"";"";"";"";"Enel X";"";"";""
"6804275675";"-33.5000716";"-70.616603";"charging_station";"Provincia de Santiago";"Chile";"Santiago Metropolitan";"N/A";"N/A";"";"2";"";"";"Enel X";"Q5376815";"";"";"";"2";"";"";"";"";"";"";"Enel X";"";"";""
"6804299856";"-33.4378594";"-70.6471922";"charging_station";"Provincia de Santiago";"Chile";"Santiago Metropolitan";"N/A";"N/A";"";"2";"";"";"Enel X";"Q5376815";"";"";"";"1";"";"";"";"";"";"";"Enel X";"";"24/7";""
"6804301032";"-33.4138014";"-70.6204146";"charging_station";"Provincia de Santiago";"Chile";"Santiago Metropolitan";"N/A";"N/A";"";"2";"";"";"Enel X";"Q5376815";"";"";"";"2";"";"";"";"";"";"";"Enel X";"";"";""
"6804364644";"-33.3702064";"-70.6639075";"charging_station";"Provincia de Chacabuco";"Chile";"Santiago Metropolitan";"N/A";"N/A";"";"2";"";"";"";"";"";"";"";"8";"";"";"";"";"";"";"";"";"";""
"6806718722";"-33.5113018";"-70.8041633";"charging_station";"Provincia de Santiago";"Chile";"Santiago Metropolitan";"N/A";"N/A";"";"37";"";"";"";"";"";"";"";"";"";"";"";"";"";"";"";"";"";""
"8439408942";"-33.4151093";"-70.6173708";"charging_station";"Provincia de Santiago";"Chile";"Santiago Metropolitan";"N/A";"N/A";"";"2";"";"";"Enel X";"Q5376815";"";"";"";"";"";"";"";"";"";"";"Enel X";"";"";""
"8842344364";"-33.4943584";"-70.7055131";"charging_station";"Provincia de Santiago";"Chile";"Santiago Metropolitan";"N/A";"N/A";"";"1";"";"yes";"Copec";"Q1130956";"";"";"";"";"";"";"";"";"";"";"";"";"";""
"9121457466";"-33.6301107";"-70.7615711";"charging_station";"Provincia de Maipo";"Chile";"Santiago Metropolitan";"N/A";"N/A";"";"1";"";"";"Copec";"Q1130956";"";"";"";"";"";"";"";"";"";"";"";"";"";""
"9644692982";"-33.3987146";"-70.7948344";"charging_station";"Provincia de Santiago";"Chile";"Santiago Metropolitan";"N/A";"N/A";"";"6";"";"";"Enel X";"Q5376815";"";"";"";"";"";"";"";"";"";"";"Enel X";"";"";""
"9892721223";"-33.4299311";"-70.7377712";"charging_station";"Provincia de Santiago";"Chile";"Santiago Metropolitan";"N/A";"N/A";"";"1";"";"";"Copec Voltex";"";"";"";"";"";"";"";"";"";"";"";"";"";"";"yes"
"10724347848";"-33.5224707";"-70.8038876";"charging_station";"Provincia de Santiago";"Chile";"Santiago Metropolitan";"N/A";"N/A";"";"110";"";"";"Copec";"Q1130956";"";"";"";"";"";"";"";"";"";"";"";"";"";""
"10733536818";"-33.4438285";"-70.7769004";"charging_station";"Provincia de Santiago";"Chile";"Santiago Metropolitan";"N/A";"N/A";"";"";"";"";"Enel X";"Q5376815";"";"";"";"";"";"";"";"";"";"";"Enel X";"";"";""
"10733536819";"-33.4297228";"-70.7836864";"charging_station";"Provincia de Santiago";"Chile";"Santiago Metropolitan";"N/A";"N/A";"";"";"";"";"Enel X";"Q5376815";"";"";"";"";"";"";"";"";"";"";"Enel X";"";"";"yes"
"10733636653";"-33.4030266";"-70.7312256";"charging_station";"Provincia de Santiago";"Chile";"Santiago Metropolitan";"N/A";"N/A";"";"17";"";"";"Copec";"Q1130956";"";"";"";"";"";"";"";"";"";"";"Enel X";"";"";""
"10735958230";"-33.6081581";"-70.6314064";"charging_station";"Provincia de Santiago";"Chile";"Santiago Metropolitan";"N/A";"N/A";"";"";"";"";"Enel X";"Q5376815";"";"";"";"";"";"";"";"";"";"";"Enel X";"";"";""
"10742142662";"-33.6331772";"-70.6106722";"charging_station";"Provincia de Cordillera";"Chile";"Santiago Metropolitan";"N/A";"N/A";"";"13";"";"";"STP Santiago";"";"";"";"";"";"";"";"";"";"";"";"Engie";"";"";""
"10778532248";"-33.4033333";"-70.5787666";"charging_station";"Provincia de Santiago";"Chile";"Santiago Metropolitan";"N/A";"N/A";"";"170";"";"";"Enel X";"Q5376815";"";"";"";"";"";"";"";"5413";"Avenida Presidente Kennedy";"";"Enel X";"";"";""
"10822802787";"-33.4542123";"-70.6865034";"charging_station";"Provincia de Santiago";"Chile";"Santiago Metropolitan";"N/A";"N/A";"";"";"";"";"Copec";"Q1130956";"";"";"";"";"";"";"";"";"";"";"Copec Voltex";"";"";""
"10823517346";"-33.4900762";"-70.5937147";"charging_station";"Provincia de Santiago";"Chile";"Santiago Metropolitan";"N/A";"N/A";"";"";"";"";"Copec";"Q1130956";"";"";"";"";"";"";"";"";"";"";"";"";"";""
"10825572257";"-33.3801621";"-70.5852148";"charging_station";"Provincia de Santiago";"Chile";"Santiago Metropolitan";"N/A";"N/A";"";"2";"";"";"Enel X";"Q5376815";"";"";"";"";"";"";"";"";"";"";"Enel X";"";"";""
"11045612754";"-33.3750917";"-70.5320812";"charging_station";"Provincia de Santiago";"Chile";"Santiago Metropolitan";"N/A";"N/A";"";"4";"";"";"Copec";"Q1130956";"";"";"";"";"";"";"";"";"";"";"Voltex";"";"";"yes"
"11173349323";"-33.512128";"-70.6569316";"charging_station";"Provincia de Santiago";"Chile";"Santiago Metropolitan";"N/A";"N/A";"";"";"";"";"Enel X";"Q5376815";"";"";"";"";"";"";"";"";"";"";"Enel X";"";"";""
"11558524380";"-33.5956321";"-70.7077351";"charging_station";"Provincia de Maipo";"Chile";"Santiago Metropolitan";"N/A";"N/A";"";"1";"";"";"";"";"";"";"";"";"";"";"";"";"";"";"Temob";"";"";"no"
"11831525684";"-33.4042602";"-70.5799754";"charging_station";"Provincia de Santiago";"Chile";"Santiago Metropolitan";"N/A";"N/A";"";"";"";"";"Enel X";"Q5376815";"";"";"";"";"";"";"";"";"";"";"Enel X";"";"";""
"11949130888";"-33.4560614";"-70.7052042";"charging_station";"Provincia de Santiago";"Chile";"Santiago Metropolitan";"N/A";"N/A";"";"103";"";"";"Enel X";"Q5376815";"";"";"";"";"";"";"";"";"";"";"Enel X";"";"";""
"12089310043";"-33.417353";"-70.6073318";"charging_station";"Provincia de Santiago";"Chile";"Santiago Metropolitan";"N/A";"N/A";"";"";"";"";"Enel X";"Q5376815";"";"";"";"";"";"";"";"";"";"";"Enel X";"";"";""
"12089840965";"-33.4034351";"-70.5724252";"charging_station";"Provincia de Santiago";"Chile";"Santiago Metropolitan";"N/A";"N/A";"";"10";"";"";"Enel X";"Q5376815";"";"";"";"";"";"";"";"";"";"";"Enel X";"";"";""
"12170483150";"-33.3896163";"-70.5700283";"charging_station";"Provincia de Santiago";"Chile";"Santiago Metropolitan";"N/A";"N/A";"";"";"";"";"Tesla";"";"";"";"";"";"";"";"";"";"";"";"";"";"";""
"12170505585";"-33.3866467";"-70.567688";"charging_station";"Provincia de Santiago";"Chile";"Santiago Metropolitan";"N/A";"N/A";"";"";"";"";"Enelx";"";"";"";"";"";"";"";"";"";"";"";"";"";"";""
"12374984799";"-33.2789315";"-70.6285136";"charging_station";"Provincia de Chacabuco";"Chile";"Santiago Metropolitan";"N/A";"N/A";"";"";"";"";"Enel X";"Q5376815";"";"";"";"";"";"";"";"";"";"";"Enel X";"";"";""
"12518950344";"-33.3886408";"-70.5394702";"charging_station";"Provincia de Santiago";"Chile";"Santiago Metropolitan";"N/A";"N/A";"";"";"";"";"Enel X";"Q5376815";"";"";"";"";"";"";"";"";"";"";"Enel X";"";"";""
"12550233695";"-33.539589";"-70.6656643";"charging_station";"Provincia de Santiago";"Chile";"Santiago Metropolitan";"N/A";"N/A";"";"";"";"";"Enel X";"Q5376815";"";"";"";"";"";"";"";"";"";"";"Enel X";"";"";""
"12550253877";"-33.3821231";"-70.5895621";"charging_station";"Provincia de Santiago";"Chile";"Santiago Metropolitan";"N/A";"N/A";"";"6";"";"";"Copec";"Q1130956";"";"";"";"";"";"";"";"";"";"";"";"";"";"yes"
"12550253878";"-33.394275";"-70.6207967";"charging_station";"Provincia de Santiago";"Chile";"Santiago Metropolitan";"N/A";"N/A";"";"2";"";"";"Enel X";"Q5376815";"";"";"";"";"";"";"";"";"";"";"Enel X";"";"";""
"12554862198";"-33.330896";"-70.7032255";"charging_station";"Provincia de Chacabuco";"Chile";"Santiago Metropolitan";"N/A";"N/A";"";"4";"";"";"Tesla, Inc.";"Q478214";"";"";"";"";"";"";"";"500";"San Ignacio";"";"Tesla Supercharger";"";"";"yes"
"12554887525";"-33.285891";"-70.6763459";"charging_station";"Provincia de Chacabuco";"Chile";"Santiago Metropolitan";"N/A";"N/A";"";"1";"";"";"Copec";"Q1130956";"";"";"";"";"";"";"";"";"";"";"";"";"";""
"12554887527";"-33.2856526";"-70.6775673";"charging_station";"Provincia de Chacabuco";"Chile";"Santiago Metropolitan";"N/A";"N/A";"";"";"";"";"Enel X";"Q5376815";"";"";"";"";"";"";"";"";"";"";"Enel X";"";"";""
"12557424702";"-33.306853";"-70.663361";"charging_station";"Provincia de Chacabuco";"Chile";"Santiago Metropolitan";"N/A";"N/A";"";"1";"";"";"Copec";"Q1130956";"";"";"";"";"";"";"";"";"";"";"";"";"";""
"12585954983";"-33.417288";"-70.6003513";"charging_station";"Provincia de Santiago";"Chile";"Santiago Metropolitan";"N/A";"N/A";"";"";"";"";"Enel X";"Q5376815";"";"";"";"";"";"";"";"";"";"";"Enel X";"";"";""
"12673045694";"-33.6860468";"-70.7260726";"charging_station";"Provincia de Maipo";"Chile";"Santiago Metropolitan";"N/A";"N/A";"";"1";"";"";"Shell";"Q110716465";"";"";"";"";"";"";"";"";"";"";"";"";"";""
"12673045695";"-33.6819773";"-70.726579";"charging_station";"Provincia de Maipo";"Chile";"Santiago Metropolitan";"N/A";"N/A";"";"1";"";"";"Shell";"Q110716465";"";"";"";"";"";"";"";"";"";"";"";"";"";""
"12673540393";"-33.4064545";"-70.7005387";"charging_station";"Provincia de Santiago";"Chile";"Santiago Metropolitan";"N/A";"N/A";"";"3";"";"";"Enel X";"Q5376815";"";"";"";"";"";"";"";"";"";"";"Enel X";"";"";""
"12723432011";"-33.4742127";"-70.7403208";"charging_station";"Provincia de Santiago";"Chile";"Santiago Metropolitan";"N/A";"N/A";"";"2";"";"";"Copec";"Q1130956";"";"";"";"";"";"";"";"";"";"";"";"";"";""
"12723647958";"-33.6330177";"-70.7141404";"charging_station";"Provincia de Maipo";"Chile";"Santiago Metropolitan";"N/A";"N/A";"";"";"";"";"Copec";"Q1130956";"";"";"";"";"";"";"";"";"";"";"";"";"";""
"12796258202";"-33.4863097";"-70.5587902";"charging_station";"Provincia de Santiago";"Chile";"Santiago Metropolitan";"N/A";"N/A";"";"";"";"";"Enel X";"Q5376815";"";"";"";"";"";"";"";"";"";"";"Enel X";"";"";""
"12798020726";"-33.5701968";"-70.5829418";"charging_station";"Provincia de Cordillera";"Chile";"Santiago Metropolitan";"N/A";"N/A";"";"2";"";"";"Copec";"Q1130956";"";"";"";"";"";"";"";"";"";"";"";"";"";""
"12805210131";"-33.3770109";"-70.5713851";"charging_station";"Provincia de Santiago";"Chile";"Santiago Metropolitan";"N/A";"N/A";"";"2";"";"";"Enel X";"Q5376815";"";"";"";"";"";"";"";"";"";"";"Enel X";"";"";""
"12805210132";"-33.3799708";"-70.5697682";"charging_station";"Provincia de Santiago";"Chile";"Santiago Metropolitan";"N/A";"N/A";"";"3";"";"";"Enel X";"Q5376815";"";"";"";"";"";"";"";"";"";"";"Enel X";"";"";""
"1169229741";"";"";"charging_station";"N/A";"N/A";"N/A";"N/A";"N/A";"";"74";"";"";"Enel";"";"";"";"";"";"";"";"";"";"";"";"";"";"";""
"1169230524";"";"";"charging_station";"N/A";"N/A";"N/A";"N/A";"N/A";"";"18";"";"";"Enel X";"Q5376815";"";"";"";"36";"";"";"";"";"";"";"Enel X";"";"";""
"1169230525";"";"";"charging_station";"N/A";"N/A";"N/A";"N/A";"N/A";"";"24";"";"";"Enel X";"Q5376815";"";"";"";"48";"";"";"";"";"";"";"Enel X";"";"";""
"1169230526";"";"";"charging_station";"N/A";"N/A";"N/A";"N/A";"N/A";"";"13";"";"";"Enel X";"Q5376815";"";"";"";"26";"";"";"";"";"";"";"Enel X";"";"";""
"10872710072";"-33.4710512";"-70.76397";"";"Provincia de Santiago";"Chile";"Santiago Metropolitan";"N/A";"N/A";"";"";"";"";"";"";"";"";"";"";"";"";"";"";"";"";"";"";"";""
"10872710073";"-33.4711721";"-70.7638949";"";"Provincia de Santiago";"Chile";"Santiago Metropolitan";"N/A";"N/A";"";"";"";"";"";"";"";"";"";"";"";"";"";"";"";"";"";"";"";""
"10872710074";"-33.4705892";"-70.762598";"";"Provincia de Santiago";"Chile";"Santiago Metropolitan";"N/A";"N/A";"";"";"";"";"";"";"";"";"";"";"";"";"";"";"";"";"";"";"";""
"10872710075";"-33.4704583";"-70.7626839";"";"Provincia de Santiago";"Chile";"Santiago Metropolitan";"N/A";"N/A";"";"";"";"";"";"";"";"";"";"";"";"";"";"";"";"";"";"";"";""
"10872738411";"-33.4858908";"-70.5220712";"";"Provincia de Santiago";"Chile";"Santiago Metropolitan";"N/A";"N/A";"";"";"";"";"";"";"";"";"";"";"";"";"";"";"";"";"";"";"";""
"10872738416";"-33.4857614";"-70.5222264";"";"Provincia de Santiago";"Chile";"Santiago Metropolitan";"N/A";"N/A";"";"";"";"";"";"";"";"";"";"";"";"";"";"";"";"";"";"";"";""
"10872738417";"-33.4858736";"-70.5221678";"";"Provincia de Santiago";"Chile";"Santiago Metropolitan";"N/A";"N/A";"";"";"";"";"";"";"";"";"";"";"";"";"";"";"";"";"";"";"";""
"10872738418";"-33.4859357";"-70.5220728";"";"Provincia de Santiago";"Chile";"Santiago Metropolitan";"N/A";"N/A";"";"";"";"";"";"";"";"";"";"";"";"";"";"";"";"";"";"";"";""
"10872738419";"-33.4857349";"-70.5223975";"";"Provincia de Santiago";"Chile";"Santiago Metropolitan";"N/A";"N/A";"";"";"";"";"";"";"";"";"";"";"";"";"";"";"";"";"";"";"";""
"10872738420";"-33.4856927";"-70.5223151";"";"Provincia de Santiago";"Chile";"Santiago Metropolitan";"N/A";"N/A";"";"";"";"";"";"";"";"";"";"";"";"";"";"";"";"";"";"";"";""
"10872738429";"-33.4856927";"-70.5225955";"";"Provincia de Santiago";"Chile";"Santiago Metropolitan";"N/A";"N/A";"";"";"";"";"";"";"";"";"";"";"";"";"";"";"";"";"";"";"";""
"10872738430";"-33.4857508";"-70.5224545";"";"Provincia de Santiago";"Chile";"Santiago Metropolitan";"N/A";"N/A";"";"";"";"";"";"";"";"";"";"";"";"";"";"";"";"";"";"";"";""
"10872738412";"-33.4852224";"-70.5221076";"";"Provincia de Santiago";"Chile";"Santiago Metropolitan";"N/A";"N/A";"";"";"";"";"";"";"";"";"";"";"";"";"";"";"";"";"";"";"";""
"10872738413";"-33.4849529";"-70.5221298";"";"Provincia de Santiago";"Chile";"Santiago Metropolitan";"N/A";"N/A";"";"";"";"";"";"";"";"";"";"";"";"";"";"";"";"";"";"";"";""
"10872738414";"-33.4848327";"-70.5223151";"";"Provincia de Santiago";"Chile";"Santiago Metropolitan";"N/A";"N/A";"";"";"";"";"";"";"";"";"";"";"";"";"";"";"";"";"";"";"";""
"10872738415";"-33.485159";"-70.522293";"";"Provincia de Santiago";"Chile";"Santiago Metropolitan";"N/A";"N/A";"";"";"";"";"";"";"";"";"";"";"";"";"";"";"";"";"";"";"";""
"10872738421";"-33.4855738";"-70.5223199";"";"Provincia de Santiago";"Chile";"Santiago Metropolitan";"N/A";"N/A";"";"";"";"";"";"";"";"";"";"";"";"";"";"";"";"";"";"";"";""
"10872738422";"-33.4850428";"-70.5223848";"";"Provincia de Santiago";"Chile";"Santiago Metropolitan";"N/A";"N/A";"";"";"";"";"";"";"";"";"";"";"";"";"";"";"";"";"";"";"";""
"10872738423";"-33.4849701";"-70.522426";"";"Provincia de Santiago";"Chile";"Santiago Metropolitan";"N/A";"N/A";"";"";"";"";"";"";"";"";"";"";"";"";"";"";"";"";"";"";"";""
"10872738424";"-33.4849186";"-70.5225099";"";"Provincia de Santiago";"Chile";"Santiago Metropolitan";"N/A";"N/A";"";"";"";"";"";"";"";"";"";"";"";"";"";"";"";"";"";"";"";""
"10872738425";"-33.4849899";"-70.5225986";"";"Provincia de Santiago";"Chile";"Santiago Metropolitan";"N/A";"N/A";"";"";"";"";"";"";"";"";"";"";"";"";"";"";"";"";"";"";"";""
"10872738426";"-33.4850824";"-70.5226762";"";"Provincia de Santiago";"Chile";"Santiago Metropolitan";"N/A";"N/A";"";"";"";"";"";"";"";"";"";"";"";"";"";"";"";"";"";"";"";""
"10872738427";"-33.4852026";"-70.5226335";"";"Provincia de Santiago";"Chile";"Santiago Metropolitan";"N/A";"N/A";"";"";"";"";"";"";"";"";"";"";"";"";"";"";"";"";"";"";"";""
"10872738428";"-33.4855289";"-70.5226129";"";"Provincia de Santiago";"Chile";"Santiago Metropolitan";"N/A";"N/A";"";"";"";"";"";"";"";"";"";"";"";"";"";"";"";"";"";"";"";""
"10872738431";"-33.4855091";"-70.5229091";"";"Provincia de Santiago";"Chile";"Santiago Metropolitan";"N/A";"N/A";"";"";"";"";"";"";"";"";"";"";"";"";"";"";"";"";"";"";"";""
"10872738432";"-33.4853849";"-70.5230817";"";"Provincia de Santiago";"Chile";"Santiago Metropolitan";"N/A";"N/A";"";"";"";"";"";"";"";"";"";"";"";"";"";"";"";"";"";"";"";""
"10872738433";"-33.4853505";"-70.5231102";"";"Provincia de Santiago";"Chile";"Santiago Metropolitan";"N/A";"N/A";"";"";"";"";"";"";"";"";"";"";"";"";"";"";"";"";"";"";"";""
"10872738434";"-33.4849107";"-70.523134";"";"Provincia de Santiago";"Chile";"Santiago Metropolitan";"N/A";"N/A";"";"";"";"";"";"";"";"";"";"";"";"";"";"";"";"";"";"";"";""
"10872738435";"-33.4849067";"-70.5229613";"";"Provincia de Santiago";"Chile";"Santiago Metropolitan";"N/A";"N/A";"";"";"";"";"";"";"";"";"";"";"";"";"";"";"";"";"";"";"";""
"10872738436";"-33.4852753";"-70.5229518";"";"Provincia de Santiago";"Chile";"Santiago Metropolitan";"N/A";"N/A";"";"";"";"";"";"";"";"";"";"";"";"";"";"";"";"";"";"";"";""
"10872738437";"-33.4853334";"-70.5229392";"";"Provincia de Santiago";"Chile";"Santiago Metropolitan";"N/A";"N/A";"";"";"";"";"";"";"";"";"";"";"";"";"";"";"";"";"";"";"";""
"10872738438";"-33.4854087";"-70.5228188";"";"Provincia de Santiago";"Chile";"Santiago Metropolitan";"N/A";"N/A";"";"";"";"";"";"";"";"";"";"";"";"";"";"";"";"";"";"";"";""
"6802785314";"-33.1285861";"-71.5625856";"charging_station";"Provincia de Valparaiso";"Chile";"Valparaiso";"N/A";"N/A";"";"2";"";"";"Copec";"";"";"";"";"";"";"";"";"";"";"";"";"";"24/7";""
"6804220830";"-33.017065";"-71.5507183";"charging_station";"Provincia de Valparaiso";"Chile";"Valparaiso";"N/A";"N/A";"";"1";"";"";"Copec";"Q1130956";"";"";"";"";"";"";"";"";"";"";"";"";"";""
"9958063488";"-33.0137979";"-71.5498929";"charging_station";"Provincia de Valparaiso";"Chile";"Valparaiso";"N/A";"N/A";"";"";"";"";"";"";"";"";"";"";"";"";"";"";"";"";"";"";"";""
"10582285056";"-32.9507136";"-71.5376798";"charging_station";"Provincia de Valparaiso";"Chile";"Valparaiso";"N/A";"N/A";"";"";"";"";"Shell";"";"";"";"";"1";"";"";"";"";"";"";"";"";"";""
"12036883732";"-32.9660815";"-71.5294166";"charging_station";"Provincia de Valparaiso";"Chile";"Valparaiso";"N/A";"N/A";"";"";"";"";"Enel X";"Q5376815";"";"";"";"";"";"";"";"80";"Dublé Almeyda";"";"Enel X";"";"";""
"12398476918";"-33.1326198";"-71.5641351";"charging_station";"Provincia de Valparaiso";"Chile";"Valparaiso";"N/A";"N/A";"";"4";"";"";"Tesla, Inc.";"Q478214";"";"";"";"";"";"";"";"4650";"Avenida Lomas de la Luz";"";"Tesla Supercharger";"";"";""
"573378580";"";"";"charging_station";"N/A";"N/A";"N/A";"N/A";"N/A";"";"";"";"";"";"";"";"";"";"";"";"";"";"";"";"";"";"";"";""
"5507118484";"-33.042577";"-71.6048219";"";"Provincia de Valparaiso";"Chile";"Valparaiso";"N/A";"N/A";"";"";"";"";"";"";"";"";"";"";"";"";"";"";"";"";"";"";"";""
"5507118485";"-33.0425825";"-71.6047703";"";"Provincia de Valparaiso";"Chile";"Valparaiso";"N/A";"N/A";"";"";"";"";"";"";"";"";"";"";"";"";"";"";"";"";"";"";"";""
"5507118486";"-33.0426545";"-71.6047843";"";"Provincia de Valparaiso";"Chile";"Valparaiso";"N/A";"N/A";"";"";"";"";"";"";"";"";"";"";"";"";"";"";"";"";"";"";"";""
"5507118487";"-33.0426491";"-71.6048348";"";"Provincia de Valparaiso";"Chile";"Valparaiso";"N/A";"N/A";"";"";"";"";"";"";"";"";"";"";"";"";"";"";"";"";"";"";"";""
"6450901117";"-33.0448935";"-71.4223767";"charging_station";"Provincia de Marga Marga";"Chile";"Valparaiso";"N/A";"N/A";"";"";"";"";"";"";"";"";"";"";"";"";"";"";"";"";"";"";"";""
"6804185467";"-32.8420136";"-71.0027314";"charging_station";"Provincia de San Felipe";"Chile";"Valparaiso";"N/A";"N/A";"";"1";"";"";"Copec";"Q1130956";"";"";"";"";"";"";"";"";"";"";"";"";"";""
"6804219233";"-32.8271962";"-71.131096";"charging_station";"Provincia de Quillota";"Chile";"Valparaiso";"N/A";"N/A";"";"1";"";"";"Copec";"";"";"";"";"";"";"";"";"";"";"";"";"";"";""
"6928326692";"-32.8782127";"-71.2470847";"charging_station";"Provincia de Quillota";"Chile";"Valparaiso";"N/A";"N/A";"";"";"";"";"Chilquínta";"";"";"";"";"";"";"";"";"";"";"";"";"";"";""
"9234022820";"-33.0452371";"-71.4381264";"charging_station";"Provincia de Marga Marga";"Chile";"Valparaiso";"N/A";"N/A";"";"1";"";"";"Chilquinta";"";"";"";"";"";"";"";"";"";"";"";"";"";"";""
"6802767546";"-33.2162585";"-70.7669532";"charging_station";"Provincia de Chacabuco";"Chile";"Santiago Metropolitan";"N/A";"N/A";"";"2";"";"";"Copec";"";"";"";"";"";"";"";"";"";"";"";"";"";"24/7";""
"12537865986";"-33.2368372";"-70.7587981";"charging_station";"Provincia de Chacabuco";"Chile";"Santiago Metropolitan";"N/A";"N/A";"";"3";"";"";"Enel X";"Q5376815";"";"";"";"";"";"";"";"";"";"";"Enel X";"";"";"yes"
"12890184603";"-32.8350063";"-70.604244";"charging_station";"Provincia de Los Andes";"Chile";"Valparaiso";"N/A";"N/A";"";"2";"";"";"Enel X";"Q5376815";"";"";"";"";"";"";"";"";"";"";"Enel X";"";"";""
"8980776203";"-32.933966";"-60.820158";"charging_station";"";"Argentina";"Santa Fe";"N/A";"N/A";"";"2";"";"yes";"Shell Recharge Solutions";"Q105883058";"";"";"";"1";"";"";"";"";"";"";"Shell";"";"24/7";"yes"
"9045751925";"-32.922512";"-60.8031729";"charging_station";"";"Argentina";"Santa Fe";"N/A";"N/A";"";"1";"";"yes";"Sux Solar SRL";"";"";"";"";"1";"";"";"";"";"";"";"";"";"24/7";"no"
"11240085828";"-32.929367";"-60.8051285";"charging_station";"";"Argentina";"Santa Fe";"N/A";"N/A";"";"3";"";"yes";"YPF";"";"";"";"";"1";"";"";"";"";"";"";"";"";"24/7";"yes"
"11705763078";"-32.9301509";"-60.7270598";"charging_station";"";"Argentina";"Santa Fe";"N/A";"N/A";"";"2";"";"yes";"YPF";"";"";"";"";"1";"";"";"33";"";"";"";"";"";"";"yes"
"12557855202";"-32.9498938";"-60.6556917";"charging_station";"Departamento de Rosario";"Argentina";"Santa Fe";"N/A";"N/A";"";"1";"";"yes";"Empresa Provincial de la Energía de Santa Fe";"";"";"";"";"2";"";"";"01";"";"";"";"";"";"24/7";"yes"
"5361135021";"-33.1345786";"-59.3336463";"charging_station";"Departamento de Gualeguay";"Argentina";"Entre Rios";"N/A";"N/A";"";"";"";"";"Estacion transfo. Enersa";"";"";"";"";"";"";"";"";"";"";"";"";"";"";""
"9221586613";"-33.0173636";"-58.5234897";"charging_station";"";"Argentina";"Entre Rios";"N/A";"N/A";"";"";"";"";"";"";"";"";"";"";"";"";"";"";"";"";"";"";"";""
"9221467062";"-32.4112588";"-63.2472756";"charging_station";"";"Argentina";"Cordoba";"N/A";"N/A";"";"";"";"";"";"";"";"";"";"";"";"";"";"";"";"";"";"";"";"no"
"12198858177";"-32.6949773";"-62.1083494";"charging_station";"";"Argentina";"Cordoba";"N/A";"N/A";"";"";"";"";"Renault";"Q6686";"";"";"";"";"";"";"";"";"";"";"Renault";"";"";""
"12605544202";"-32.6589848";"-62.123644";"charging_station";"";"Argentina";"Cordoba";"N/A";"N/A";"";"";"";"";"";"";"";"";"";"";"";"";"";"";"";"";"";"";"";""
"6497633653";"-32.6524744";"-60.8227326";"charging_station";"Departamento de San Lorenzo";"Argentina";"Santa Fe";"N/A";"N/A";"";"1";"";"";"Empresa Provincial de la Energía Santa Fe";"";"";"";"";"";"";"";"02";"";"";"";"";"";"";"no"
"9221569897";"-31.4203914";"-64.4971298";"charging_station";"";"Argentina";"Cordoba";"N/A";"N/A";"";"";"";"";"";"";"";"";"";"";"";"";"";"";"";"";"";"";"";""
"12913455425";"-31.4085309";"-64.4898577";"charging_station";"";"Argentina";"Cordoba";"N/A";"N/A";"";"";"";"";"";"";"";"";"";"";"";"";"";"";"";"";"";"";"";"no"
"9221599702";"-31.4073481";"-64.1861195";"charging_station";"Departamento de Capital";"Argentina";"Cordoba";"N/A";"N/A";"";"";"";"";"EPEC";"";"";"";"";"";"";"";"";"";"";"";"";"";"";""
"10051001539";"-31.6590059";"-64.4289847";"charging_station";"";"Argentina";"Cordoba";"N/A";"N/A";"";"";"";"";"";"";"";"";"";"";"";"";"";"";"";"";"";"";"";""
"1267820867";"";"";"charging_station";"N/A";"N/A";"N/A";"N/A";"N/A";"";"";"";"";"Las Delicias";"";"";"";"";"";"";"";"";"";"";"";"Estacionamiento Carros de Golf";"";"";""
"11774697787";"-31.3644289";"-64.2989673";"";"";"Argentina";"Cordoba";"N/A";"N/A";"";"";"";"";"";"";"";"";"";"";"";"";"";"";"";"";"";"";"";""
"11774697788";"-31.364308";"-64.2990323";"";"";"Argentina";"Cordoba";"N/A";"N/A";"";"";"";"";"";"";"";"";"";"";"";"";"";"";"";"";"";"";"";""
"11774697789";"-31.3642881";"-64.2990274";"";"";"Argentina";"Cordoba";"N/A";"N/A";"";"";"";"";"";"";"";"";"";"";"";"";"";"";"";"";"";"";"";""
"11774697790";"-31.3642699";"-64.299009";"";"";"Argentina";"Cordoba";"N/A";"N/A";"";"";"";"";"";"";"";"";"";"";"";"";"";"";"";"";"";"";"";""
"11774697791";"-31.3642318";"-64.2988878";"";"";"Argentina";"Cordoba";"N/A";"N/A";"";"";"";"";"";"";"";"";"";"";"";"";"";"";"";"";"";"";"";""
"11774697792";"-31.3642285";"-64.2988607";"";"";"Argentina";"Cordoba";"N/A";"N/A";"";"";"";"";"";"";"";"";"";"";"";"";"";"";"";"";"";"";"";""
"11774697793";"-31.3642343";"-64.2988267";"";"";"Argentina";"Cordoba";"N/A";"N/A";"";"";"";"";"";"";"";"";"";"";"";"";"";"";"";"";"";"";"";""
"11774697794";"-31.3642567";"-64.2988083";"";"";"Argentina";"Cordoba";"N/A";"N/A";"";"";"";"";"";"";"";"";"";"";"";"";"";"";"";"";"";"";"";""
"11774697795";"-31.3643544";"-64.2987569";"";"";"Argentina";"Cordoba";"N/A";"N/A";"";"";"";"";"";"";"";"";"";"";"";"";"";"";"";"";"";"";"";""
"10242331797";"-31.3356719";"-54.104769";"charging_station";"Bage";"Brazil";"Rio Grande do Sul";"N/A";"N/A";"";"";"";"";"UNICRED";"";"";"";"";"";"";"";"";"";"";"";"";"";"";""
"8629552750";"-30.7628762";"-57.9826124";"charging_station";"";"Argentina";"Entre Rios";"N/A";"N/A";"";"1";"";"";"ENERSA";"";"";"";"";"1";"";"";"";"";"";"";"";"";"";"yes"
"10537868804";"-30.9808984";"-57.9236344";"charging_station";"";"Argentina";"Entre Rios";"N/A";"N/A";"";"1";"";"";"Enersa";"";"";"";"";"";"";"";"";"";"";"";"";"";"";""
"10607159268";"-30.9832749";"-54.6765582";"charging_station";"Dom Pedrito";"Brazil";"Rio Grande do Sul";"N/A";"N/A";"";"";"";"";"";"";"";"";"";"";"";"";"";"";"";"";"";"";"";""
"4992393221";"-30.7167524";"-71.492675";"charging_station";"Provincia de Limari";"Chile";"Coquimbo";"N/A";"N/A";"";"";"";"";"copec";"";"";"";"";"";"";"";"";"";"";"";"";"";"";""
"4735586927";"-30.3764126";"-56.4522907";"charging_station";"Quarai";"Brazil";"Rio Grande do Sul";"N/A";"N/A";"";"";"";"";"Ipiranga";"";"";"";"";"";"";"";"";"";"";"";"";"";"";""
"4735586928";"-30.3855634";"-56.4401337";"charging_station";"Quarai";"Brazil";"Rio Grande do Sul";"N/A";"N/A";"";"";"";"";"";"";"";"";"";"";"";"";"";"";"";"";"";"";"";""
"10656423569";"-29.9415773";"-71.280347";"charging_station";"Provincia de Elqui";"Chile";"Coquimbo";"N/A";"N/A";"";"5";"";"";"Copec";"Q1130956";"";"";"";"";"";"";"";"";"";"";"";"";"";""
"12111591141";"-29.9051305";"-71.2537047";"charging_station";"Provincia de Elqui";"Chile";"Coquimbo";"N/A";"N/A";"";"2";"";"";"Enel X";"Q5376815";"";"";"";"";"";"";"";"";"";"";"Enel X";"";"";""
"12599780217";"-29.9078954";"-71.2567114";"charging_station";"Provincia de Elqui";"Chile";"Coquimbo";"N/A";"N/A";"";"";"";"";"Enel X";"Q5376815";"";"";"";"";"";"";"";"";"";"";"Enel X";"";"";""
"12599872118";"-29.9670292";"-71.321942";"charging_station";"Provincia de Elqui";"Chile";"Coquimbo";"N/A";"N/A";"";"2";"";"";"Enel X";"Q5376815";"";"";"";"";"";"";"";"";"";"";"Enel X";"";"";""
"12599891629";"-30.00328";"-71.3257179";"charging_station";"Provincia de Elqui";"Chile";"Coquimbo";"N/A";"N/A";"";"";"";"";"Enel X";"Q5376815";"";"";"";"";"";"";"";"";"";"";"Enel X";"";"";""
"4664191294";"-29.7593053";"-57.0656058";"charging_station";"Uruguaiana";"Brazil";"Rio Grande do Sul";"N/A";"N/A";"";"";"";"";"ipiringa";"";"";"";"";"";"";"";"";"";"";"";"";"";"";""
"4406374089";"-29.8487759";"-51.1418072";"charging_station";"Sapucaia Do Sul";"Brazil";"Rio Grande do Sul";"N/A";"N/A";"";"";"";"";"Petrobrás";"";"";"";"";"";"";"";"";"";"";"";"BR";"";"";""
"7052772385";"-30.1958095";"-50.6568395";"charging_station";"Palmares Do Sul";"Brazil";"Rio Grande do Sul";"N/A";"N/A";"";"";"";"";"";"";"";"";"";"";"";"";"";"";"";"";"";"";"";""
"4653450999";"-29.8901003";"-50.275825";"charging_station";"Osorio";"Brazil";"Rio Grande do Sul";"N/A";"N/A";"";"";"";"";"Megapetro";"";"";"";"";"";"";"";"";"";"";"";"";"";"";""
"4958910124";"-29.8883758";"-50.2672948";"charging_station";"Osorio";"Brazil";"Rio Grande do Sul";"N/A";"N/A";"";"";"";"";"walmor Rodrigues";"";"";"";"";"";"";"";"";"";"";"";"";"";"";""
"8122125803";"-29.6892348";"-53.7930779";"charging_station";"Santa Maria";"Brazil";"Rio Grande do Sul";"N/A";"N/A";"";"1";"";"";"Parceria Solar";"";"";"";"";"";"";"";"";"";"";"";"";"";"";"no"
"10876231596";"-29.4506024";"-51.9847566";"charging_station";"Lajeado";"Brazil";"Rio Grande do Sul";"N/A";"N/A";"";"1";"";"no";"Certel";"";"";"";"";"";"";"";"";"";"";"";"";"";"24/7";"no"
"12829452596";"-29.3609372";"-50.8531997";"charging_station";"Canela";"Brazil";"Rio Grande do Sul";"N/A";"N/A";"";"";"";"";"";"";"";"";"";"";"";"";"";"";"";"";"";"";"";""
"9225529282";"-29.2681815";"-50.3026039";"charging_station";"Sao Francisco De Paula";"Brazil";"Rio Grande do Sul";"N/A";"N/A";"";"";"";"";"";"";"";"";"";"";"";"";"";"";"";"";"";"";"";""
"9531180579";"-29.2721497";"-50.3216061";"charging_station";"Sao Francisco De Paula";"Brazil";"Rio Grande do Sul";"N/A";"N/A";"";"";"";"";"";"";"";"";"";"";"";"";"";"";"";"";"";"";"";""
"4584855597";"-29.3353583";"-49.73252";"charging_station";"Torres";"Brazil";"Rio Grande do Sul";"N/A";"N/A";"";"";"";"";"";"";"";"";"";"";"";"";"";"";"";"";"";"";"";""
"11186080609";"-29.3265909";"-49.7149949";"charging_station";"Torres";"Brazil";"Rio Grande do Sul";"N/A";"N/A";"";"1";"";"yes";"";"";"";"";"";"";"";"";"";"";"";"";"";"";"";""
"9531242015";"-29.1720797";"-51.1755064";"charging_station";"Caxias Do Sul";"Brazil";"Rio Grande do Sul";"N/A";"N/A";"";"";"";"";"";"";"";"";"";"";"";"";"";"";"";"";"";"";"";""
"4556211697";"-28.6356251";"-53.610052";"charging_station";"Cruz Alta";"Brazil";"Rio Grande do Sul";"N/A";"N/A";"";"";"";"";"Posto Shell";"";"";"";"";"";"";"";"";"";"";"";"";"";"";""
"4556251493";"-28.6531775";"-53.5892539";"charging_station";"Cruz Alta";"Brazil";"Rio Grande do Sul";"N/A";"N/A";"";"";"";"";"Posto Ipiranga";"";"";"";"";"";"";"";"";"";"";"";"";"";"";""
"4557762766";"-28.6468323";"-53.5852484";"charging_station";"Cruz Alta";"Brazil";"Rio Grande do Sul";"N/A";"N/A";"";"";"";"";"";"";"";"";"";"";"";"";"";"";"";"";"";"";"";""
"4557938491";"-28.6461669";"-53.5962822";"charging_station";"Cruz Alta";"Brazil";"Rio Grande do Sul";"N/A";"N/A";"";"";"";"";"";"";"";"";"";"";"";"";"";"";"";"";"";"";"";""
"4584108395";"-28.5865236";"-52.2039698";"charging_station";"Marau";"Brazil";"Rio Grande do Sul";"N/A";"N/A";"";"";"";"";"";"";"";"";"";"";"";"";"";"";"";"";"";"";"";""
"4584746891";"-27.8640926";"-54.4852278";"charging_station";"Santa Rosa";"Brazil";"Rio Grande do Sul";"N/A";"N/A";"";"";"";"";"chell";"";"";"";"";"";"";"";"";"";"";"";"";"";"";""
"4790962823";"-28.173459";"-53.4732253";"charging_station";"Panambi";"Brazil";"Rio Grande do Sul";"N/A";"N/A";"";"";"";"";"";"";"";"";"";"";"";"";"";"";"";"";"";"";"";""
"8843546330";"-27.7940994";"-50.2838641";"charging_station";"Lages";"Brazil";"Santa Catarina";"N/A";"N/A";"";"2";"";"";"";"";"";"";"";"";"";"";"";"";"";"";"";"";"";""
"10692094359";"-27.8150697";"-50.3248606";"charging_station";"Lages";"Brazil";"Santa Catarina";"N/A";"N/A";"";"2";"";"yes";"Restaurante Cansian Zamban";"";"";"";"";"";"";"";"";"";"";"";"";"";"";""
"6804338616";"-27.3608696";"-70.3387569";"charging_station";"Provincia de Copiapo";"Chile";"Atacama";"N/A";"N/A";"";"2";"";"";"CGE";"";"";"";"";"1";"";"";"";"";"";"";"";"";"";""
"9221547195";"-27.3734748";"-55.8989211";"charging_station";"Departamento de Capital";"Argentina";"Misiones";"N/A";"N/A";"";"";"";"";"Electro Misiones";"";"";"";"";"";"";"";"";"";"";"";"";"";"";""
"11039645607";"-27.3696239";"-55.9414671";"charging_station";"Departamento de Capital";"Argentina";"Misiones";"N/A";"N/A";"";"";"";"";"";"";"";"";"";"";"";"";"";"";"";"";"";"";"";""
"11512434387";"-27.7201556";"-48.5635222";"charging_station";"Florianopolis";"Brazil";"Santa Catarina";"N/A";"N/A";"";"1";"";"";"Ostradamus";"";"";"";"";"";"";"";"";"";"";"";"";"";"";"yes"
"1045130108";"";"";"charging_station";"N/A";"N/A";"N/A";"N/A";"N/A";"";"";"";"";"UFSC";"";"";"";"";"";"";"";"";"";"";"";"";"";"";""
"1045130109";"";"";"charging_station";"N/A";"N/A";"N/A";"N/A";"N/A";"";"1";"";"";"Fundação CERTI";"";"";"";"";"";"";"";"";"";"";"";"";"";"";""
"9615997075";"-27.6019769";"-48.5204276";"";"Florianopolis";"Brazil";"Santa Catarina";"N/A";"N/A";"";"";"";"";"";"";"";"";"";"";"";"";"";"";"";"";"";"";"";""
"9615997076";"-27.6019838";"-48.520294";"";"Florianopolis";"Brazil";"Santa Catarina";"N/A";"N/A";"";"";"";"";"";"";"";"";"";"";"";"";"";"";"";"";"";"";"";""
"9615997077";"-27.6020177";"-48.5202963";"";"Florianopolis";"Brazil";"Santa Catarina";"N/A";"N/A";"";"";"";"";"";"";"";"";"";"";"";"";"";"";"";"";"";"";"";""
"9615997078";"-27.6020108";"-48.5204298";"";"Florianopolis";"Brazil";"Santa Catarina";"N/A";"N/A";"";"";"";"";"";"";"";"";"";"";"";"";"";"";"";"";"";"";"";""
"9615997079";"-27.6020648";"-48.5190586";"";"Florianopolis";"Brazil";"Santa Catarina";"N/A";"N/A";"";"";"";"";"";"";"";"";"";"";"";"";"";"";"";"";"";"";"";""
"9615997080";"-27.6020681";"-48.5189896";"";"Florianopolis";"Brazil";"Santa Catarina";"N/A";"N/A";"";"";"";"";"";"";"";"";"";"";"";"";"";"";"";"";"";"";"";""
"9615997081";"-27.602125";"-48.5189931";"";"Florianopolis";"Brazil";"Santa Catarina";"N/A";"N/A";"";"";"";"";"";"";"";"";"";"";"";"";"";"";"";"";"";"";"";""
"9615997082";"-27.6021217";"-48.519062";"";"Florianopolis";"Brazil";"Santa Catarina";"N/A";"N/A";"";"";"";"";"";"";"";"";"";"";"";"";"";"";"";"";"";"";"";""
"8793186704";"-27.0703977";"-52.626905";"charging_station";"Chapeco";"Brazil";"Santa Catarina";"N/A";"N/A";"";"2";"";"yes";"Pátio Shopping";"";"";"";"";"";"";"";"";"";"";"";"";"";"Mo-Sa 08:00-08:30, 22:30-23:00; Su 11:00-11:30, 20:30-21:00";""
"9136401881";"-26.8636876";"-49.0934814";"charging_station";"Blumenau";"Brazil";"Santa Catarina";"N/A";"N/A";"";"2";"";"yes";"Blumenau Norte Shopping";"";"";"";"";"2";"";"";"";"";"";"";"";"";"Mo-Su,PH 10:00-22:00";"no"
"9136401882";"-26.92017";"-49.0698469";"charging_station";"Blumenau";"Brazil";"Santa Catarina";"N/A";"N/A";"";"2";"";"yes";"Shopping Neumarkt";"";"";"";"";"2";"";"";"";"";"";"";"";"";"Mo-Su,PH 10:00-22:00";"no"
"12098687902";"-26.8052885";"-49.1655732";"charging_station";"Pomerode";"Brazil";"Santa Catarina";"N/A";"N/A";"";"1";"";"yes";"Restaurante Wunderwald";"";"";"";"";"1";"";"";"";"";"";"";"";"";"24/7";""
"12254080440";"-26.914711";"-49.0696802";"charging_station";"Blumenau";"Brazil";"Santa Catarina";"N/A";"N/A";"";"2";"";"yes";"";"";"";"";"";"1";"";"";"";"";"";"";"";"";"24/7";""
"12482436120";"-26.9809194";"-48.9284431";"charging_station";"Gaspar";"Brazil";"Santa Catarina";"N/A";"N/A";"";"2";"";"yes";"";"";"";"";"";"1";"";"";"";"";"";"";"";"";"";""
"11178979747";"-26.7365722";"-49.1786547";"charging_station";"Pomerode";"Brazil";"Santa Catarina";"N/A";"N/A";"";"1";"";"yes";"Marco Imóveis";"";"";"";"";"1";"";"";"";"";"";"";"";"";"24/7";"no"
"12030154393";"-26.7346049";"-49.1747571";"charging_station";"Pomerode";"Brazil";"Santa Catarina";"N/A";"N/A";"";"2";"";"yes";"Auto Posto Pomerode";"";"";"";"";"1";"";"";"";"";"";"";"";"";"";""
"4585513103";"-25.7541848";"-56.4359154";"charging_station";"";"Paraguay";"Guaira";"N/A";"N/A";"";"";"";"";"copetrol";"";"";"";"";"";"";"";"";"";"";"";"";"";"";""
"4397963791";"-25.8425951";"-54.9726704";"charging_station";"";"Paraguay";"Alto Parana";"N/A";"N/A";"";"";"";"";"Cooperativa Union Curupayty Ltda";"";"";"";"";"";"";"";"";"";"";"";"";"";"";""
"6302105785";"-26.035058";"-51.1920765";"charging_station";"Uniao Da Vitoria";"Brazil";"Parana";"N/A";"N/A";"";"";"";"";"Usina hidrelétrica Salto do Vau";"";"";"";"";"";"";"";"";"";"";"";"";"";"";""
"3666118685";"-25.2887822";"-57.6252826";"charging_station";"";"Paraguay";"Asuncion";"N/A";"N/A";"";"";"";"";"";"";"";"";"";"";"";"";"";"";"";"";"";"";"";""
"4106910089";"-25.3545204";"-57.6103482";"charging_station";"";"Paraguay";"Central";"N/A";"N/A";"";"";"";"";"Petropar";"";"";"";"";"";"";"";"";"";"";"";"";"";"";""
"4256138892";"-25.3206187";"-57.540752";"charging_station";"";"Paraguay";"Central";"N/A";"N/A";"";"";"";"";"";"";"";"";"";"";"";"";"";"";"";"";"";"";"";""
"6852508285";"-25.2862724";"-57.6389885";"charging_station";"";"Paraguay";"Asuncion";"N/A";"N/A";"";"";"";"";"Petropar";"";"";"";"";"";"";"";"";"";"";"";"";"";"";""
"8849314037";"-25.2887857";"-57.5895901";"charging_station";"";"Paraguay";"Asuncion";"N/A";"N/A";"";"";"";"";"";"";"";"";"";"";"";"";"";"";"";"";"BMW";"";"";""
"11352751839";"-25.2939427";"-57.5806878";"charging_station";"";"Paraguay";"Asuncion";"N/A";"N/A";"";"1";"";"";"";"";"";"";"";"";"";"";"";"";"";"";"Punto de Recarga Vehículos eléctricos";"";"";""
"11476760059";"-25.2914315";"-57.5744217";"charging_station";"";"Paraguay";"Asuncion";"N/A";"N/A";"";"2";"";"";"";"";"";"";"";"";"";"";"";"";"";"";"EYD Evinka (EN IEC 62196-2)";"";"";""
"1216659105";"";"";"charging_station";"N/A";"N/A";"N/A";"N/A";"N/A";"";"2";"";"";"(CCS) (CHAdeMO)";"";"";"";"";"";"";"";"";"";"";"";"Shell Recharge (CCS) (CHAdeMO)";"";"";""
"10040917040";"-25.2865671";"-57.5709795";"";"";"Paraguay";"Asuncion";"N/A";"N/A";"";"";"";"";"";"";"";"";"";"";"";"";"";"";"";"";"";"";"";""
"11273327048";"-25.2864655";"-57.57099";"";"";"Paraguay";"Asuncion";"N/A";"N/A";"";"";"";"";"";"";"";"";"";"";"";"";"";"";"";"";"";"";"";""
"11273327049";"-25.286487";"-57.5709419";"";"";"Paraguay";"Asuncion";"N/A";"N/A";"";"";"";"";"";"";"";"";"";"";"";"";"";"";"";"";"";"";"";""
"11273327051";"-25.2865456";"-57.5710332";"";"";"Paraguay";"Asuncion";"N/A";"N/A";"";"";"";"";"";"";"";"";"";"";"";"";"";"";"";"";"";"";"";""
"7108223385";"-25.3058607";"-57.2860101";"charging_station";"";"Paraguay";"Cordillera";"N/A";"N/A";"";"";"";"";"SB6";"";"";"";"";"";"";"";"";"";"";"";"";"";"";""
"5925317785";"-25.4619065";"-56.4474657";"charging_station";"";"Paraguay";"Caaguazu";"N/A";"N/A";"";"";"";"";"Extintores San José";"";"";"";"";"";"";"";"";"";"";"";"";"";"";""
"3632925510";"-25.3274237";"-55.399342";"charging_station";"";"Paraguay";"Alto Parana";"N/A";"N/A";"";"";"";"";"";"";"";"";"";"";"";"";"";"";"";"";"";"";"";""
"4379246093";"-25.5137676";"-54.6110843";"charging_station";"";"Paraguay";"Alto Parana";"N/A";"N/A";"";"";"";"";"";"";"";"";"";"";"";"";"";"";"";"";"";"";"";""
"7174911428";"-25.4593899";"-51.9513483";"charging_station";"Pinhao";"Brazil";"Parana";"N/A";"N/A";"";"";"";"";"Copel";"";"";"";"";"1";"";"";"";"";"";"";"Copel;ABB";"";"";"no"
"11266520418";"-25.4184653";"-50.7609022";"charging_station";"Irati";"Brazil";"Parana";"N/A";"N/A";"";"";"";"";"Copel";"";"";"";"";"";"";"";"";"";"";"";"";"";"";""
"1249452241";"";"";"charging_station";"N/A";"N/A";"N/A";"N/A";"N/A";"";"";"";"";"";"";"";"";"";"";"";"";"";"";"";"";"";"";"";""
"11613149064";"-25.4184248";"-50.7609214";"";"Irati";"Brazil";"Parana";"N/A";"N/A";"";"";"";"";"";"";"";"";"";"";"";"";"";"";"";"";"";"";"";""
"11613149065";"-25.4184527";"-50.7608642";"";"Irati";"Brazil";"Parana";"N/A";"N/A";"";"";"";"";"";"";"";"";"";"";"";"";"";"";"";"";"";"";"";""
"11613149066";"-25.4184867";"-50.7608847";"";"Irati";"Brazil";"Parana";"N/A";"N/A";"";"";"";"";"";"";"";"";"";"";"";"";"";"";"";"";"";"";"";""
"11613149067";"-25.4184593";"-50.7609424";"";"Irati";"Brazil";"Parana";"N/A";"N/A";"";"";"";"";"";"";"";"";"";"";"";"";"";"";"";"";"";"";"";""
"5000975722";"-25.4189072";"-49.9969186";"charging_station";"Palmeira";"Brazil";"Parana";"N/A";"N/A";"";"";"";"";"Petrobras";"";"";"";"";"";"";"";"";"";"";"";"";"";"";""
"4592819489";"-25.4424143";"-49.241076";"charging_station";"Curitiba";"Brazil";"Parana";"N/A";"N/A";"";"";"";"";"Curitiba Eco Elétrico";"";"";"";"";"";"";"";"";"";"";"";"";"";"";""
"4649312895";"-25.4588262";"-49.2619757";"charging_station";"Curitiba";"Brazil";"Parana";"N/A";"N/A";"";"";"";"";"Posto Bolinha";"";"";"";"";"";"";"";"";"";"";"";"";"";"";""
"10970973175";"-25.4360275";"-49.2570994";"charging_station";"Curitiba";"Brazil";"Parana";"N/A";"N/A";"";"";"";"";"";"";"";"";"";"";"";"";"";"";"";"";"";"";"";""
"10970973176";"-25.4360729";"-49.2571122";"charging_station";"Curitiba";"Brazil";"Parana";"N/A";"N/A";"";"";"";"";"";"";"";"";"";"";"";"";"";"";"";"";"";"";"";""
"12574503669";"-25.4298313";"-49.2780987";"charging_station";"Curitiba";"Brazil";"Parana";"N/A";"N/A";"";"";"";"";"";"";"";"";"";"";"";"";"";"";"";"";"";"";"";""
"12650382737";"-25.426782";"-49.3084772";"charging_station";"Curitiba";"Brazil";"Parana";"N/A";"N/A";"";"";"";"";"Curitiba e Copel";"Q5176149";"";"";"";"";"";"";"";"";"";"";"Eletroposto";"";"";"yes"
"1049788965";"";"";"charging_station";"N/A";"N/A";"N/A";"N/A";"N/A";"";"";"";"";"";"";"";"";"";"";"";"";"";"";"";"";"";"";"";""
"1049788966";"";"";"charging_station";"N/A";"N/A";"N/A";"N/A";"N/A";"";"";"";"";"";"";"";"";"";"";"";"";"";"";"";"";"";"";"";""
"1049788967";"";"";"charging_station";"N/A";"N/A";"N/A";"N/A";"N/A";"";"";"";"";"";"";"";"";"";"";"";"";"";"";"";"";"";"";"";""
"9647374040";"-25.4461718";"-49.2447021";"";"Curitiba";"Brazil";"Parana";"N/A";"N/A";"";"";"";"";"";"";"";"";"";"";"";"";"";"";"";"";"";"";"";""
"9647374041";"-25.4461226";"-49.2446874";"";"Curitiba";"Brazil";"Parana";"N/A";"N/A";"";"";"";"";"";"";"";"";"";"";"";"";"";"";"";"";"";"";"";""
"9647374042";"-25.4461447";"-49.2446005";"";"Curitiba";"Brazil";"Parana";"N/A";"N/A";"";"";"";"";"";"";"";"";"";"";"";"";"";"";"";"";"";"";"";""
"9647374043";"-25.4461934";"-49.2446116";"";"Curitiba";"Brazil";"Parana";"N/A";"N/A";"";"";"";"";"";"";"";"";"";"";"";"";"";"";"";"";"";"";"";""
"9647374044";"-25.4477188";"-49.2432066";"";"Curitiba";"Brazil";"Parana";"N/A";"N/A";"";"";"";"";"";"";"";"";"";"";"";"";"";"";"";"";"";"";"";""
"9647374045";"-25.4477408";"-49.243198";"";"Curitiba";"Brazil";"Parana";"N/A";"N/A";"";"";"";"";"";"";"";"";"";"";"";"";"";"";"";"";"";"";"";""
"9647374046";"-25.4477225";"-49.2431487";"";"Curitiba";"Brazil";"Parana";"N/A";"N/A";"";"";"";"";"";"";"";"";"";"";"";"";"";"";"";"";"";"";"";""
"9647374047";"-25.4477027";"-49.2431588";"";"Curitiba";"Brazil";"Parana";"N/A";"N/A";"";"";"";"";"";"";"";"";"";"";"";"";"";"";"";"";"";"";"";""
"9647374050";"-25.446917";"-49.242921";"";"Curitiba";"Brazil";"Parana";"N/A";"N/A";"";"";"";"";"";"";"";"";"";"";"";"";"";"";"";"";"";"";"";""
"9647374051";"-25.4469233";"-49.2428985";"";"Curitiba";"Brazil";"Parana";"N/A";"N/A";"";"";"";"";"";"";"";"";"";"";"";"";"";"";"";"";"";"";"";""
"9647374052";"-25.4469706";"-49.2429173";"";"Curitiba";"Brazil";"Parana";"N/A";"N/A";"";"";"";"";"";"";"";"";"";"";"";"";"";"";"";"";"";"";"";""
"9647374053";"-25.446966";"-49.2429398";"";"Curitiba";"Brazil";"Parana";"N/A";"N/A";"";"";"";"";"";"";"";"";"";"";"";"";"";"";"";"";"";"";"";""
"11750441370";"-24.6815878";"-56.4677562";"charging_station";"";"Paraguay";"San Pedro";"N/A";"N/A";"";"2";"";"";"";"";"";"";"";"";"";"";"";"";"";"";"";"";"";""
"12889983089";"-23.5655381";"-70.3986675";"charging_station";"Provincia de Antofagasta";"Chile";"Antofagasta";"N/A";"N/A";"";"";"";"";"Copec";"Q1130956";"";"";"";"";"";"";"";"";"";"";"";"";"";""
"4614878389";"-23.5466205";"-51.451983";"charging_station";"Apucarana";"Brazil";"Parana";"N/A";"N/A";"";"";"";"";"";"";"";"";"";"";"";"";"";"";"";"";"";"";"";""
"4840101722";"-23.2798452";"-50.0554445";"charging_station";"Santo Antonio Da Platina";"Brazil";"Parana";"N/A";"N/A";"";"";"";"";"Ipiranga";"";"";"";"";"";"";"";"";"";"";"";"";"";"";""
"10991138819";"-23.5804177";"-48.029594";"charging_station";"Itapetininga";"Brazil";"Sao Paulo";"N/A";"N/A";"";"2";"";"";"Cofesa Max";"";"";"";"";"";"";"";"";"";"";"";"";"";"";"no"
"12909344207";"-23.5778329";"-48.0387729";"charging_station";"Itapetininga";"Brazil";"Sao Paulo";"N/A";"N/A";"";"4";"";"";"Itapê Shopping";"";"";"";"";"";"";"";"";"";"";"";"";"";"";""
"12909344208";"-23.6091247";"-48.0621767";"charging_station";"Itapetininga";"Brazil";"Sao Paulo";"N/A";"N/A";"";"";"";"";"";"";"";"";"";"";"";"";"";"";"";"";"Cervejaria RT166";"";"";""
"12909344209";"-23.5792973";"-48.0294035";"charging_station";"Itapetininga";"Brazil";"Sao Paulo";"N/A";"N/A";"";"1";"";"";"";"";"";"";"";"";"";"";"";"";"";"";"BYD";"";"";""
"12909344218";"-23.5903158";"-48.0493273";"charging_station";"Itapetininga";"Brazil";"Sao Paulo";"N/A";"N/A";"";"";"";"";"Hotel Universitário";"";"";"";"";"";"";"";"";"";"";"";"";"";"";""
"5649812371";"-23.5220436";"-46.6017625";"charging_station";"Sao Paulo";"Brazil";"Sao Paulo";"N/A";"N/A";"";"";"";"";"";"";"";"";"";"";"";"";"";"";"";"";"";"";"";""
"6361077255";"-23.5720384";"-46.6965196";"charging_station";"Sao Paulo";"Brazil";"Sao Paulo";"N/A";"N/A";"";"";"";"";"";"";"";"";"";"";"";"";"";"";"";"";"";"";"";"no"
"7098550069";"-23.5015679";"-46.733278";"charging_station";"Osasco";"Brazil";"Sao Paulo";"N/A";"N/A";"";"";"";"";"ABB BRasil";"";"";"";"";"";"";"";"";"";"";"";"";"";"";"no"
"9543449499";"-23.349863";"-46.5569984";"charging_station";"Mairipora";"Brazil";"Sao Paulo";"N/A";"N/A";"";"1";"";"";"";"";"";"";"";"";"";"";"";"";"";"";"ABB";"";"";"no"
"12190026409";"-23.524961";"-46.6670982";"charging_station";"Sao Paulo";"Brazil";"Sao Paulo";"N/A";"N/A";"";"";"";"";"ChargePoint";"Q5176149";"";"";"";"";"";"";"";"";"";"";"ChargePoint";"";"";""
"12474286528";"-23.5258218";"-46.7326867";"charging_station";"Osasco";"Brazil";"Sao Paulo";"N/A";"N/A";"";"";"";"";"";"";"";"";"";"";"";"";"";"";"";"";"";"";"";"no"
"12474324132";"-23.5179967";"-46.7270876";"charging_station";"Osasco";"Brazil";"Sao Paulo";"N/A";"N/A";"";"";"";"";"";"";"";"";"";"";"";"";"";"";"";"";"";"";"";"no"
"371432992";"";"";"charging_station";"N/A";"N/A";"N/A";"N/A";"N/A";"";"8";"";"";"";"";"";"";"";"";"";"";"";"360";"Avenida Dom Pedro I";"01552-000";"Go Eletric";"R$ 2,20 Kw hora";"24/7";"yes"
"909127223";"";"";"charging_station";"N/A";"N/A";"N/A";"N/A";"N/A";"";"";"";"";"";"";"";"";"";"";"";"";"";"292";"Avenida Marechal Mário Guedes";"05348-010";"Enel";"";"";""
"1329773740";"";"";"charging_station";"N/A";"N/A";"N/A";"N/A";"N/A";"";"60";"";"";"EvoltBR";"";"";"";"";"";"";"";"";"";"";"";"EvoltBR";"1.80 BRL";"";"yes"
"1349984736";"";"";"charging_station";"N/A";"N/A";"N/A";"N/A";"N/A";"";"2";"";"yes";"BR Properties";"";"";"";"";"2";"";"";"000039";"";"";"";"AES Brasil";"";"";""
"12488402488";"-23.6082868";"-46.696406";"";"Sao Paulo";"Brazil";"Sao Paulo";"N/A";"N/A";"";"";"";"";"";"";"";"";"";"";"";"";"";"";"";"";"";"";"";""
"12488402489";"-23.6082997";"-46.6964349";"";"Sao Paulo";"Brazil";"Sao Paulo";"N/A";"N/A";"";"";"";"";"";"";"";"";"";"";"";"";"";"";"";"";"";"";"";""
"12488402490";"-23.6083519";"-46.6964081";"";"Sao Paulo";"Brazil";"Sao Paulo";"N/A";"N/A";"";"";"";"";"";"";"";"";"";"";"";"";"";"";"";"";"";"";"";""
"12488402491";"-23.6083384";"-46.6963786";"";"Sao Paulo";"Brazil";"Sao Paulo";"N/A";"N/A";"";"";"";"";"";"";"";"";"";"";"";"";"";"";"";"";"";"";"";""
"12303196068";"-23.6189267";"-46.6021668";"";"Sao Caetano Do Sul";"Brazil";"Sao Paulo";"N/A";"N/A";"";"";"";"";"";"";"";"";"";"";"";"";"";"";"";"";"";"";"";""
"12303196069";"-23.6189277";"-46.6022127";"";"Sao Caetano Do Sul";"Brazil";"Sao Paulo";"N/A";"N/A";"";"";"";"";"";"";"";"";"";"";"";"";"";"";"";"";"";"";"";""
"12303196070";"-23.6188825";"-46.6022081";"";"Sao Caetano Do Sul";"Brazil";"Sao Paulo";"N/A";"N/A";"";"";"";"";"";"";"";"";"";"";"";"";"";"";"";"";"";"";"";""
"12303196071";"-23.6188846";"-46.6021633";"";"Sao Caetano Do Sul";"Brazil";"Sao Paulo";"N/A";"N/A";"";"";"";"";"";"";"";"";"";"";"";"";"";"";"";"";"";"";"";""
"8441248119";"-23.5483578";"-46.736432";"";"Osasco";"Brazil";"Sao Paulo";"N/A";"N/A";"";"";"";"";"";"";"";"";"";"";"";"";"";"";"";"";"";"";"";""
"8441248122";"-23.5480829";"-46.7356897";"";"Osasco";"Brazil";"Sao Paulo";"N/A";"N/A";"";"";"";"";"";"";"";"";"";"";"";"";"";"";"";"";"";"";"";""
"8441248123";"-23.5483196";"-46.7354051";"";"Osasco";"Brazil";"Sao Paulo";"N/A";"N/A";"";"";"";"";"";"";"";"";"";"";"";"";"";"";"";"";"";"";"";""
"8441248124";"-23.5487216";"-46.7358343";"";"Osasco";"Brazil";"Sao Paulo";"N/A";"N/A";"";"";"";"";"";"";"";"";"";"";"";"";"";"";"";"";"";"";"";""
"8441248125";"-23.5488484";"-46.7356966";"";"Osasco";"Brazil";"Sao Paulo";"N/A";"N/A";"";"";"";"";"";"";"";"";"";"";"";"";"";"";"";"";"";"";"";""
"8441248126";"-23.5482793";"-46.7363138";"";"Osasco";"Brazil";"Sao Paulo";"N/A";"N/A";"";"";"";"";"";"";"";"";"";"";"";"";"";"";"";"";"";"";"";""
"8441248127";"-23.5484693";"-46.7361095";"";"Osasco";"Brazil";"Sao Paulo";"N/A";"N/A";"";"";"";"";"";"";"";"";"";"";"";"";"";"";"";"";"";"";"";""
"8441248145";"-23.5489435";"-46.7357751";"";"Osasco";"Brazil";"Sao Paulo";"N/A";"N/A";"";"";"";"";"";"";"";"";"";"";"";"";"";"";"";"";"";"";"";""
"3749916622";"-23.5683787";"-46.6118728";"";"Sao Paulo";"Brazil";"Sao Paulo";"N/A";"N/A";"";"";"";"";"";"";"";"";"";"";"";"";"";"";"";"";"";"";"";""
"3749916623";"-23.5684602";"-46.6118653";"";"Sao Paulo";"Brazil";"Sao Paulo";"N/A";"N/A";"";"";"";"";"";"";"";"";"";"";"";"";"";"";"";"";"";"";"";""
"3749916624";"-23.5684389";"-46.6115876";"";"Sao Paulo";"Brazil";"Sao Paulo";"N/A";"N/A";"";"";"";"";"";"";"";"";"";"";"";"";"";"";"";"";"";"";"";""
"3749935325";"-23.5683574";"-46.611595";"";"Sao Paulo";"Brazil";"Sao Paulo";"N/A";"N/A";"";"";"";"";"";"";"";"";"";"";"";"";"";"";"";"";"";"";"";""
"1364932977";"";"";"charging_station";"N/A";"N/A";"N/A";"N/A";"N/A";"";"";"";"";"";"";"";"";"";"";"";"";"";"";"";"";"";"";"";""
"12640120945";"-23.4691028";"-46.4092418";"";"Itaquaquecetuba";"Brazil";"Sao Paulo";"N/A";"N/A";"";"";"";"";"";"";"";"";"";"";"";"";"";"";"";"";"";"";"";""
"12640120946";"-23.4691405";"-46.4090572";"";"Itaquaquecetuba";"Brazil";"Sao Paulo";"N/A";"N/A";"";"";"";"";"";"";"";"";"";"";"";"";"";"";"";"";"";"";"";""
"12640120947";"-23.4691798";"-46.4090667";"";"Itaquaquecetuba";"Brazil";"Sao Paulo";"N/A";"N/A";"";"";"";"";"";"";"";"";"";"";"";"";"";"";"";"";"";"";"";""
"12640120948";"-23.4691421";"-46.4092513";"";"Itaquaquecetuba";"Brazil";"Sao Paulo";"N/A";"N/A";"";"";"";"";"";"";"";"";"";"";"";"";"";"";"";"";"";"";"";""
"11159495258";"-23.2769738";"-45.8450227";"charging_station";"Sao Jose Dos Campos";"Brazil";"Sao Paulo";"N/A";"N/A";"";"3";"";"";"";"";"";"";"";"";"";"";"";"";"";"";"";"";"";""
"10007641358";"-23.449359";"-45.066307";"charging_station";"Ubatuba";"Brazil";"Sao Paulo";"N/A";"N/A";"";"1";"";"";"atmosfera";"";"";"";"";"";"";"";"";"";"";"";"";"";"";""
"12516403708";"-22.9144395";"-68.1911959";"charging_station";"Provincia de El Loa";"Chile";"Antofagasta";"N/A";"N/A";"";"";"";"yes";"Copec";"";"";"";"";"";"";"";"";"";"";"";"";"";"24/7";"yes"
"4219999491";"-22.7893656";"-59.6155354";"charging_station";"";"Paraguay";"Boqueron";"N/A";"N/A";"";"";"";"";"";"";"";"";"";"";"";"";"";"";"";"";"";"";"";""
"4978088229";"-23.1974233";"-49.7563619";"charging_station";"Chavantes";"Brazil";"Sao Paulo";"N/A";"N/A";"";"";"";"";"Ipiranga Chammas";"";"";"";"";"";"";"";"";"";"";"";"";"";"";""
"4978099823";"-23.1941597";"-49.7568671";"charging_station";"Chavantes";"Brazil";"Sao Paulo";"N/A";"N/A";"";"";"";"";"Maneiro auto posto";"";"";"";"";"";"";"";"";"";"";"";"";"";"";""
"4978101624";"-23.1928969";"-49.7570822";"charging_station";"Chavantes";"Brazil";"Sao Paulo";"N/A";"N/A";"";"";"";"";"Chammas";"";"";"";"";"";"";"";"";"";"";"";"";"";"";""
"4978121522";"-23.191972";"-49.7573221";"charging_station";"Chavantes";"Brazil";"Sao Paulo";"N/A";"N/A";"";"";"";"";"Posto Combustível Chammas";"";"";"";"";"";"";"";"";"";"";"";"";"";"";""
"11509303840";"-22.8159597";"-47.0725375";"charging_station";"Campinas";"Brazil";"Sao Paulo";"N/A";"N/A";"";"";"";"";"CPFL";"";"";"";"";"";"";"";"";"";"";"";"";"";"";""
"11509303841";"-22.823067";"-47.0689188";"charging_station";"Campinas";"Brazil";"Sao Paulo";"N/A";"N/A";"";"";"";"";"CPFL";"";"";"";"";"";"";"";"";"";"";"";"";"";"";""
"11509303842";"-22.8846111";"-47.0078098";"charging_station";"Campinas";"Brazil";"Sao Paulo";"N/A";"N/A";"";"";"";"";"CPFL";"";"";"";"";"";"";"";"";"";"";"";"";"";"";""
"9556554164";"-23.2054704";"-45.9078728";"charging_station";"Sao Jose Dos Campos";"Brazil";"Sao Paulo";"N/A";"N/A";"";"1";"";"";"ABB";"Q52825";"";"";"";"";"";"";"";"";"";"";"ABB";"";"";"no"
"9575141392";"-23.1992486";"-45.8816864";"charging_station";"Sao Jose Dos Campos";"Brazil";"Sao Paulo";"N/A";"N/A";"";"1";"";"";"ABB";"Q52825";"";"";"";"";"";"";"";"";"";"";"ABB";"";"";"no"
"9575141393";"-23.2170792";"-45.8901769";"charging_station";"Sao Jose Dos Campos";"Brazil";"Sao Paulo";"N/A";"N/A";"";"1";"";"";"ABB";"Q52825";"";"";"";"";"";"";"";"";"";"";"ABB";"";"";"no"
"10035080438";"-23.2182454";"-45.9174641";"charging_station";"Sao Jose Dos Campos";"Brazil";"Sao Paulo";"N/A";"N/A";"";"1";"";"";"";"";"";"";"";"";"";"";"";"";"";"";"";"";"";"no"
"10035080439";"-23.2189317";"-45.9176975";"charging_station";"Sao Jose Dos Campos";"Brazil";"Sao Paulo";"N/A";"N/A";"";"1";"";"";"";"";"";"";"";"";"";"";"";"";"";"";"";"";"";"no"
"10035080440";"-23.2188921";"-45.9177136";"charging_station";"Sao Jose Dos Campos";"Brazil";"Sao Paulo";"N/A";"N/A";"";"";"";"";"";"";"";"";"";"";"";"";"";"";"";"";"";"";"";"no"
"10785433203";"-23.0381823";"-45.5798308";"charging_station";"Taubate";"Brazil";"Sao Paulo";"N/A";"N/A";"";"1";"";"";"";"";"";"";"";"";"";"";"";"";"";"";"";"";"";""
"11769426400";"-23.0233484";"-45.5817961";"charging_station";"Taubate";"Brazil";"Sao Paulo";"N/A";"N/A";"";"";"";"";"";"";"";"";"";"";"";"";"";"";"";"";"";"";"";""
"11766684441";"-22.8532612";"-45.2341682";"charging_station";"Aparecida";"Brazil";"Sao Paulo";"N/A";"N/A";"";"2";"";"";"";"";"";"";"";"";"";"";"";"";"";"";"";"";"";""
"11766684442";"-22.8528905";"-45.2344847";"charging_station";"Aparecida";"Brazil";"Sao Paulo";"N/A";"N/A";"";"2";"";"";"";"";"";"";"";"";"";"";"";"";"";"";"";"";"";""
"4572010593";"-22.9469499";"-43.0574955";"charging_station";"Niteroi";"Brazil";"Rio de Janeiro";"N/A";"N/A";"";"";"";"";"auto pisto mar- alegre BR";"";"";"";"";"";"";"";"";"";"";"";"";"";"";""
"10916942983";"-22.9404863";"-43.0560672";"charging_station";"Niteroi";"Brazil";"Rio de Janeiro";"N/A";"N/A";"";"2";"";"";"";"";"";"";"";"";"";"";"";"";"";"";"Volvo";"";"";""
"11423691566";"-22.9366901";"-43.062011";"charging_station";"Niteroi";"Brazil";"Rio de Janeiro";"N/A";"N/A";"";"2";"";"";"Dr. Energia";"";"";"";"";"";"";"";"";"";"";"";"";"1,50 BRL";"";"yes"
"316883334";"";"";"charging_station";"N/A";"N/A";"N/A";"N/A";"N/A";"";"";"";"";"BR";"";"";"";"";"";"";"";"";"";"";"";"";"";"";"yes"
"684814865";"";"";"charging_station";"N/A";"N/A";"N/A";"N/A";"N/A";"";"";"";"";"";"";"";"";"";"";"";"";"";"";"";"";"Enel";"";"";""
"3229166475";"-23.0007936";"-43.3516312";"";"Rio De Janeiro";"Brazil";"Rio de Janeiro";"N/A";"N/A";"";"";"";"";"";"";"";"";"";"";"";"";"";"";"";"";"";"";"";""
"3230697529";"-23.0008085";"-43.351667";"";"Rio De Janeiro";"Brazil";"Rio de Janeiro";"N/A";"N/A";"";"";"";"";"";"";"";"";"";"";"";"";"";"";"";"";"";"";"";""
"3230697531";"-23.0008634";"-43.3515968";"";"Rio De Janeiro";"Brazil";"Rio de Janeiro";"N/A";"N/A";"";"";"";"";"";"";"";"";"";"";"";"";"";"";"";"";"";"";"";""
"3230697532";"-23.0008783";"-43.3516326";"";"Rio De Janeiro";"Brazil";"Rio de Janeiro";"N/A";"N/A";"";"";"";"";"";"";"";"";"";"";"";"";"";"";"";"";"";"";"";""
"2162035838";"-22.7997586";"-42.9817601";"";"Sao Goncalo";"Brazil";"Rio de Janeiro";"N/A";"N/A";"";"";"";"";"";"";"";"";"";"";"";"";"";"";"";"";"";"";"";""
"2162035844";"-22.8000084";"-42.9824311";"";"Sao Goncalo";"Brazil";"Rio de Janeiro";"N/A";"N/A";"";"";"";"";"";"";"";"";"";"";"";"";"";"";"";"";"";"";"";""
"2162035849";"-22.8001838";"-42.9821088";"";"Sao Goncalo";"Brazil";"Rio de Janeiro";"N/A";"N/A";"";"";"";"";"";"";"";"";"";"";"";"";"";"";"";"";"";"";"";""
"6416471583";"-22.8001107";"-42.9822614";"";"Sao Goncalo";"Brazil";"Rio de Janeiro";"N/A";"N/A";"";"";"";"";"";"";"";"";"";"";"";"";"";"";"";"";"";"";"";""
"6416480985";"-22.7992116";"-42.9829681";"";"Sao Goncalo";"Brazil";"Rio de Janeiro";"N/A";"N/A";"";"";"";"";"";"";"";"";"";"";"";"";"";"";"";"";"";"";"";""
"6416480986";"-22.7994862";"-42.9823991";"";"Sao Goncalo";"Brazil";"Rio de Janeiro";"N/A";"N/A";"";"";"";"";"";"";"";"";"";"";"";"";"";"";"";"";"";"";"";""
"6416480987";"-22.7994885";"-42.9822721";"";"Sao Goncalo";"Brazil";"Rio de Janeiro";"N/A";"N/A";"";"";"";"";"";"";"";"";"";"";"";"";"";"";"";"";"";"";"";""
"6416480988";"-22.7995515";"-42.982067";"";"Sao Goncalo";"Brazil";"Rio de Janeiro";"N/A";"N/A";"";"";"";"";"";"";"";"";"";"";"";"";"";"";"";"";"";"";"";""
"6416480989";"-22.7995808";"-42.9819962";"";"Sao Goncalo";"Brazil";"Rio de Janeiro";"N/A";"N/A";"";"";"";"";"";"";"";"";"";"";"";"";"";"";"";"";"";"";"";""
"6416480990";"-22.7996294";"-42.9820182";"";"Sao Goncalo";"Brazil";"Rio de Janeiro";"N/A";"N/A";"";"";"";"";"";"";"";"";"";"";"";"";"";"";"";"";"";"";"";""
"6416480991";"-22.8000895";"-42.9825358";"";"Sao Goncalo";"Brazil";"Rio de Janeiro";"N/A";"N/A";"";"";"";"";"";"";"";"";"";"";"";"";"";"";"";"";"";"";"";""
"6416480992";"-22.8001345";"-42.9826482";"";"Sao Goncalo";"Brazil";"Rio de Janeiro";"N/A";"N/A";"";"";"";"";"";"";"";"";"";"";"";"";"";"";"";"";"";"";"";""
"6416480993";"-22.7995875";"-42.9828533";"";"Sao Goncalo";"Brazil";"Rio de Janeiro";"N/A";"N/A";"";"";"";"";"";"";"";"";"";"";"";"";"";"";"";"";"";"";"";""
"12748215721";"-22.8702082";"-42.3313273";"charging_station";"Araruama";"Brazil";"Rio de Janeiro";"N/A";"N/A";"";"";"";"";"";"";"";"";"";"";"";"";"";"";"";"";"";"";"";""
"12748227923";"-22.8702544";"-42.3310323";"charging_station";"Araruama";"Brazil";"Rio de Janeiro";"N/A";"N/A";"";"";"";"";"";"";"";"";"";"";"";"";"";"";"";"";"";"";"";""
"4936168324";"-22.273609";"-44.8764036";"charging_station";"Itanhandu";"Brazil";"Minas Gerais";"N/A";"N/A";"";"";"";"";"Posto Terras Altas";"";"";"";"";"";"";"";"";"";"";"";"";"";"";""
"12741539017";"-22.4843572";"-44.5473651";"charging_station";"Itatiaia";"Brazil";"Rio de Janeiro";"N/A";"N/A";"";"22kw";"";"";"Eletrograal";"";"";"";"";"";"";"";"";"";"";"";"";"1,6 BRL";"";"yes"
"12741539018";"-22.4843871";"-44.5473597";"charging_station";"Itatiaia";"Brazil";"Rio de Janeiro";"N/A";"N/A";"";"120kw";"";"";"Eletrograal";"";"";"";"";"";"";"";"";"";"";"";"";"2,2 BRL";"";"yes"
"12741512739";"-22.4210617";"-44.3051398";"charging_station";"Porto Real";"Brazil";"Rio de Janeiro";"N/A";"N/A";"";"7kw";"";"";"";"";"";"";"";"";"";"";"";"";"";"";"BYD";"";"";""
"12741512740";"-22.454522";"-44.3894839";"charging_station";"Resende";"Brazil";"Rio de Janeiro";"N/A";"N/A";"";"120kw";"";"";"Eletrograal";"";"";"";"";"";"";"";"";"";"";"";"";"2,2 BRL";"";"yes"
"12741512741";"-22.4545194";"-44.3894589";"charging_station";"Resende";"Brazil";"Rio de Janeiro";"N/A";"N/A";"";"22kw";"";"";"Eletrograal";"";"";"";"";"";"";"";"";"";"";"";"";"2,2BRL";"";"yes"
"12741515734";"-22.4574155";"-44.4237011";"charging_station";"Resende";"Brazil";"Rio de Janeiro";"N/A";"N/A";"";"150kw";"";"";"Shell Recharge";"";"";"";"";"";"";"";"";"";"";"";"";"2,9 BRL";"";"yes"
"11173226868";"-21.9082817";"-48.052922";"charging_station";"Ibate";"Brazil";"Sao Paulo";"N/A";"N/A";"";"";"";"";"";"";"";"";"";"";"";"";"";"";"";"";"";"";"";""
"11371485834";"-22.2356973";"-47.3905387";"charging_station";"Leme";"Brazil";"Sao Paulo";"N/A";"N/A";"";"2";"";"";"Zletric";"";"";"";"";"2";"";"";"";"";"";"";"Zletric";"1.99BRL/kWh";"";"yes"
"4856083921";"-21.7369309";"-43.4424209";"charging_station";"Juiz De Fora";"Brazil";"Minas Gerais";"N/A";"N/A";"";"";"";"";"Líder";"";"";"";"";"";"";"";"";"";"";"";"";"";"";""
"4616238990";"-21.7059385";"-41.0404375";"charging_station";"Sao Joao Da Barra";"Brazil";"Rio de Janeiro";"N/A";"N/A";"";"";"";"";"Posto Toledo";"";"";"";"";"";"";"";"";"";"";"";"";"";"";""
"4616238991";"-21.7030023";"-41.0362613";"charging_station";"Sao Joao Da Barra";"Brazil";"Rio de Janeiro";"N/A";"N/A";"";"";"";"";"Posto Graffite";"";"";"";"";"";"";"";"";"";"";"";"";"";"";""
