"id";"lat";"lon";"amenity";"city";"state";"country";"scraped_country_code";"scraped_country_name";"authentication:nfc";"capacity";"capacity:car";"motorcar";"operator";"operator:wikidata";"socket:schuko";"socket:schuko:current";"socket:schuko:voltage";"socket:type2";"socket:type2:current";"socket:type2:voltage";"ref";"addr:housenumber";"addr:street";"addr:postcode";"brand";"charge";"opening_hours";"fee"
"9117081871";"29.5656767";"34.9605712";"charging_station";"";"Israel";"Southern District";"N/A";"N/A";"";"6";"";"";"Tesla";"Q478214";"";"";"";"";"";"";"";"";"";"";"Tesla Supercharger";"";"";""
"11224589073";"29.5540588";"34.9666576";"charging_station";"";"Israel";"Southern District";"N/A";"N/A";"";"8";"";"";"Tesla";"Q478214";"";"";"";"";"";"";"";"";"";"";"Tesla Supercharger";"";"";"yes"
"1391023457";"";"";"charging_station";"N/A";"N/A";"N/A";"N/A";"N/A";"";"4";"";"";"Tesla";"Q478214";"";"";"";"";"";"";"";"";"";"";"Tesla Supercharger";"";"";"yes"
"12875908305";"29.5992907";"35.0275913";"";"";"Jordan";"Aqaba";"N/A";"N/A";"";"";"";"";"";"";"";"";"";"";"";"";"";"";"";"";"";"";"";""
"12875908306";"29.5992366";"35.0278158";"";"";"Jordan";"Aqaba";"N/A";"N/A";"";"";"";"";"";"";"";"";"";"";"";"";"";"";"";"";"";"";"";""
"12875908307";"29.5993325";"35.0278464";"";"";"Jordan";"Aqaba";"N/A";"N/A";"";"";"";"";"";"";"";"";"";"";"";"";"";"";"";"";"";"";"";""
"12875908304";"29.5993866";"35.0276218";"";"";"Jordan";"Aqaba";"N/A";"N/A";"";"";"";"";"";"";"";"";"";"";"";"";"";"";"";"";"";"";"";""
"1391023790";"";"";"charging_station";"N/A";"N/A";"N/A";"N/A";"N/A";"";"2";"";"";"Tesla";"Q478214";"";"";"";"";"";"";"";"";"";"";"Tesla Supercharger";"";"";"yes"
"4260043821";"29.825644";"35.3324813";"";"";"Jordan";"Ma'an";"N/A";"N/A";"";"";"";"";"";"";"";"";"";"";"";"";"";"";"";"";"";"";"";""
"4260043825";"29.8257757";"35.3323811";"";"";"Jordan";"Ma'an";"N/A";"N/A";"";"";"";"";"";"";"";"";"";"";"";"";"";"";"";"";"";"";"";""
"12875888470";"29.8257294";"35.3323002";"";"";"Jordan";"Ma'an";"N/A";"N/A";"";"";"";"";"";"";"";"";"";"";"";"";"";"";"";"";"";"";"";""
"12875888471";"29.8255977";"35.3324004";"";"";"Jordan";"Ma'an";"N/A";"N/A";"";"";"";"";"";"";"";"";"";"";"";"";"";"";"";"";"";"";"";""
"9171745719";"30.6743324";"35.6088022";"charging_station";"";"Jordan";"Tafielah";"N/A";"N/A";"";"";"";"";"";"";"";"";"";"";"";"";"";"";"";"";"";"";"";""
"9171745720";"30.6743442";"35.6088637";"charging_station";"";"Jordan";"Tafielah";"N/A";"N/A";"";"";"";"";"";"";"";"";"";"";"";"";"";"";"";"";"";"";"";""
"10031830069";"31.1991058";"35.3634442";"charging_station";"";"Israel";"Southern District";"N/A";"N/A";"";"8";"";"";"Tesla";"Q478214";"";"";"";"";"";"";"";"";"";"";"Tesla Supercharger";"";"";"yes"
"10771538519";"31.3051992";"35.2687878";"charging_station";"";"Israel";"Southern District";"N/A";"N/A";"";"2";"";"";"Kfar Hanokdim";"";"";"";"";"";"";"";"";"";"";"";"";"";"";""
"10771538520";"31.3052299";"35.268791";"charging_station";"";"Israel";"Southern District";"N/A";"N/A";"";"2";"";"";"Kfar Hanokdim";"";"";"";"";"";"";"";"";"";"";"";"";"";"";""
"6574950561";"31.2764442";"36.0546318";"charging_station";"";"Jordan";"Karak";"N/A";"N/A";"";"4";"";"";"Tesla, Inc.";"Q478214";"";"";"";"";"";"";"";"";"Queen Alia Airport Road";"";"Tesla Supercharger";"";"24/7";"yes"
"11443450192";"31.669472";"38.6743051";"charging_station";"";"Saudi Arabia";"Northern Borders";"N/A";"N/A";"";"";"";"";"Electromin";"";"";"";"";"";"";"";"";"";"";"";"";"";"Fr 17:00-21:00; Mo-Th,Sa-Su 09:00-22:00";""
"5866120344";"31.7739838";"35.2043729";"charging_station";"";"Israel";"Jerusalem";"N/A";"N/A";"";"";"";"";"";"";"";"";"";"";"";"";"";"";"";"";"";"";"";""
"9158588346";"31.8893843";"34.966019";"charging_station";"";"Israel";"";"N/A";"N/A";"";"6";"";"";"Tesla";"Q478214";"";"";"";"";"";"";"";"";"";"";"Tesla Supercharger";"";"";"yes"
"9967237823";"32.1011162";"35.1708928";"charging_station";"";"Israel";"Jerusalem";"N/A";"N/A";"";"2";"";"";"אפקון";"";"";"";"";"2";"";"";"7000229421000019";"";"";"";"";"";"24/7";"yes"
"10031913593";"31.8062102";"35.1220234";"charging_station";"";"Israel";"Jerusalem";"N/A";"N/A";"";"";"";"";"";"";"";"";"";"";"";"";"";"";"";"";"Tesla, Inc.";"";"";""
"10031913594";"31.8061897";"35.1220335";"charging_station";"";"Israel";"Jerusalem";"N/A";"N/A";"";"";"";"";"";"";"";"";"";"";"";"";"";"";"";"";"Tesla, Inc.";"";"";""
"10902344217";"31.8005064";"35.149279";"charging_station";"";"Palestine";"West Bank";"N/A";"N/A";"";"8";"";"";"Tesla";"Q478214";"";"";"";"";"";"";"";"";"";"";"Tesla Supercharger";"";"";"yes"
"11118538653";"32.1003763";"35.1705911";"charging_station";"";"Israel";"Jerusalem";"N/A";"N/A";"";"2";"";"";"אפקון";"";"";"";"";"2";"";"";"7000230821000006";"";"";"";"";"";"24/7";"yes"
"11224577293";"31.8997169";"35.0089969";"charging_station";"";"Israel";"Central District";"N/A";"N/A";"";"8";"";"";"Tesla";"Q478214";"";"";"";"";"";"";"";"";"";"";"Tesla Supercharger";"";"";"yes"
"11578452593";"31.9188348";"34.9780194";"charging_station";"";"Palestine";"West Bank";"N/A";"N/A";"";"";"";"";"";"";"";"";"";"";"";"";"";"";"";"";"";"";"";""
"11578452594";"31.9024259";"35.0031741";"charging_station";"";"Israel";"Central District";"N/A";"N/A";"";"4";"";"";"אפקון";"";"";"";"";"";"";"";"";"";"";"";"";"";"";""
"11578452595";"31.9084271";"35.0075867";"charging_station";"";"Israel";"Central District";"N/A";"N/A";"";"";"";"";"";"";"";"";"";"";"";"";"";"";"";"";"";"";"";""
"11578452596";"31.8982552";"35.0081678";"charging_station";"";"Israel";"Central District";"N/A";"N/A";"";"";"";"";"";"";"";"";"";"";"";"";"";"";"";"";"";"";"";""
"12875965233";"31.7522318";"35.1876735";"charging_station";"";"Palestine";"";"N/A";"N/A";"";"12";"";"";"Tesla";"Q478214";"";"";"";"";"";"";"";"";"";"";"Tesla Supercharger";"";"";"yes"
"4579056995";"32.4865132";"35.2315645";"charging_station";"";"Palestine";"West Bank";"N/A";"N/A";"";"";"";"";"";"";"";"";"";"";"";"";"";"";"";"";"";"";"";""
"4588215690";"32.3377721";"35.0322545";"charging_station";"";"Palestine";"West Bank";"N/A";"N/A";"";"";"";"";"مركز شحن الكهرباء";"";"";"";"";"";"";"";"";"";"";"";"";"";"";""
"4721050689";"32.3181202";"35.0858607";"charging_station";"";"Palestine";"West Bank";"N/A";"N/A";"";"";"";"";"JSC";"";"";"";"";"";"";"";"";"";"";"";"";"";"";""
"6612543086";"32.2409976";"35.2016759";"charging_station";"";"Palestine";"West Bank";"N/A";"N/A";"";"";"";"";"باطون مواسي";"";"";"";"";"";"";"";"";"";"";"";"";"";"";""
"9117081868";"32.6056254";"35.2930876";"charging_station";"";"Israel";"Northern District";"N/A";"N/A";"";"6";"";"";"Tesla";"Q478214";"";"";"";"";"";"";"";"";"";"";"Tesla Supercharger";"";"";"yes"
"1391017489";"";"";"charging_station";"N/A";"N/A";"N/A";"N/A";"N/A";"";"4";"";"";"Tesla";"Q478214";"";"";"";"";"";"";"";"";"";"";"Tesla Supercharger";"";"";"yes"
"12875870059";"32.423842";"35.9498226";"";"";"Jordan";"Irbid";"N/A";"N/A";"";"";"";"";"";"";"";"";"";"";"";"";"";"";"";"";"";"";"";""
"12875870060";"32.4237444";"35.9498271";"";"";"Jordan";"Irbid";"N/A";"N/A";"";"";"";"";"";"";"";"";"";"";"";"";"";"";"";"";"";"";"";""
"12875870061";"32.4237444";"35.9501038";"";"";"Jordan";"Irbid";"N/A";"N/A";"";"";"";"";"";"";"";"";"";"";"";"";"";"";"";"";"";"";"";""
"12875870062";"32.4238429";"35.9501072";"";"";"Jordan";"Irbid";"N/A";"N/A";"";"";"";"";"";"";"";"";"";"";"";"";"";"";"";"";"";"";"";""
"11443450196";"31.3184707";"37.3304486";"charging_station";"";"Saudi Arabia";"Al Jawf";"N/A";"N/A";"";"";"";"";"Electromin";"";"";"";"";"";"";"";"";"";"";"";"";"";"Fr 17:00-21:00; Mo-Th,Sa-Su 09:00-22:00";""
"8575646318";"32.8241193";"35.0800385";"charging_station";"";"Israel";"Haifa";"N/A";"N/A";"";"";"";"";"Greenspot";"Q79752075";"";"";"";"";"";"";"";"";"";"";"";"";"";""
"9117081869";"32.7893647";"34.964761";"charging_station";"";"Israel";"Haifa";"N/A";"N/A";"";"6";"";"";"Tesla";"Q478214";"";"";"";"";"";"";"";"";"";"";"Tesla Supercharger";"";"";"yes"
"10031892984";"32.7026419";"35.3116174";"charging_station";"";"Israel";"Northern District";"N/A";"N/A";"";"";"";"";"";"";"";"";"";"";"";"";"";"";"";"";"Tesla, Inc.";"";"";""
"10031892985";"32.7026138";"35.3116016";"charging_station";"";"Israel";"Northern District";"N/A";"N/A";"";"";"";"";"";"";"";"";"";"";"";"";"";"";"";"";"Tesla, Inc.";"";"";""
"10255208883";"32.9896841";"35.0893995";"charging_station";"";"Israel";"Northern District";"N/A";"N/A";"";"2";"";"";"אפקון";"";"";"";"";"2";"";"";"";"";"";"";"";"";"";""
"10255208884";"32.9900154";"35.0836916";"charging_station";"";"Israel";"Northern District";"N/A";"N/A";"";"4";"";"";"אפקון";"";"";"";"";"4";"";"";"";"";"";"";"";"";"";""
"10726388112";"32.8077323";"35.0757674";"charging_station";"";"Israel";"Haifa";"N/A";"N/A";"";"8";"";"";"Tesla";"Q478214";"";"";"";"";"";"";"";"";"";"";"Tesla Supercharger";"";"";""
"11280625848";"32.9956216";"35.2662153";"charging_station";"";"Israel";"Northern District";"N/A";"N/A";"";"";"";"";"";"";"";"";"";"";"";"";"";"";"";"";"";"";"";""
"12215524702";"32.7642537";"35.244621";"charging_station";"";"Israel";"Northern District";"N/A";"N/A";"";"";"";"";"";"";"";"";"";"";"";"";"";"";"";"";"פז";"";"";""
"12878724570";"32.6869066";"35.0660191";"charging_station";"";"Israel";"Haifa";"N/A";"N/A";"";"";"";"yes";"";"";"";"";"";"";"";"";"";"";"";"";"";"";"";""
"1102719290";"";"";"charging_station";"N/A";"N/A";"N/A";"N/A";"N/A";"";"6";"";"yes";"";"";"";"";"";"";"";"";"";"";"";"";"";"";"";""
"1391026958";"";"";"charging_station";"N/A";"N/A";"N/A";"N/A";"N/A";"";"12";"";"";"Tesla";"Q478214";"";"";"";"";"";"";"";"";"";"";"Tesla Supercharger";"";"";"yes"
"2715626365";"32.8098461";"35.0724121";"";"";"Israel";"Haifa";"N/A";"N/A";"";"";"";"";"";"";"";"";"";"";"";"";"";"";"";"";"";"";"";""
"10090615405";"32.8099596";"35.0723323";"";"";"Israel";"Haifa";"N/A";"N/A";"";"";"";"";"";"";"";"";"";"";"";"";"";"";"";"";"";"";"";""
"10090615543";"32.809867";"35.072438";"";"";"Israel";"Haifa";"N/A";"N/A";"";"";"";"";"";"";"";"";"";"";"";"";"";"";"";"";"";"";"";""
"10090615566";"32.8099387";"35.0723063";"";"";"Israel";"Haifa";"N/A";"N/A";"";"";"";"";"";"";"";"";"";"";"";"";"";"";"";"";"";"";"";""
"12875908332";"32.9283182";"35.3251334";"";"";"Israel";"Northern District";"N/A";"N/A";"";"";"";"";"";"";"";"";"";"";"";"";"";"";"";"";"";"";"";""
"12875908333";"32.9282789";"35.3251539";"";"";"Israel";"Northern District";"N/A";"N/A";"";"";"";"";"";"";"";"";"";"";"";"";"";"";"";"";"";"";"";""
"12875908334";"32.9281998";"35.3248942";"";"";"Israel";"Northern District";"N/A";"N/A";"";"";"";"";"";"";"";"";"";"";"";"";"";"";"";"";"";"";"";""
"12875908335";"32.9282439";"35.32488";"";"";"Israel";"Northern District";"N/A";"N/A";"";"";"";"";"";"";"";"";"";"";"";"";"";"";"";"";"";"";"";""
"9107128917";"32.9536185";"35.4921988";"charging_station";"";"Israel";"Northern District";"N/A";"N/A";"";"";"";"";"";"";"";"";"";"";"";"";"";"";"";"";"";"";"";"no"
"9489431496";"32.9693447";"35.5507569";"charging_station";"";"Israel";"Northern District";"N/A";"N/A";"";"";"";"";"";"";"";"";"";"";"";"";"";"";"";"";"";"";"";""
"9781037404";"33.1742904";"35.6122212";"charging_station";"";"Israel";"Northern District";"N/A";"N/A";"";"";"";"";"";"";"";"";"";"";"";"";"";"";"";"";"";"";"";""
"9781037405";"33.1742913";"35.61224";"charging_station";"";"Israel";"Northern District";"N/A";"N/A";"";"";"";"";"";"";"";"";"";"";"";"";"";"";"";"";"";"";"";""
"7930918979";"33.2736988";"35.2073855";"charging_station";"";"Lebanon";"Liban-Sud";"N/A";"N/A";"";"";"";"";"";"";"";"";"";"";"";"";"";"";"";"";"";"";"";""
"9739972864";"33.1925896";"35.5706594";"charging_station";"";"Israel";"Northern District";"N/A";"N/A";"";"8";"";"";"Tesla";"Q478214";"";"";"";"";"";"";"";"";"";"";"Tesla Supercharger";"";"";"yes"
