"id";"lat";"lon";"amenity";"city";"state";"country";"scraped_country_code";"scraped_country_name";"authentication:nfc";"capacity";"capacity:car";"motorcar";"operator";"operator:wikidata";"socket:schuko";"socket:schuko:current";"socket:schuko:voltage";"socket:type2";"socket:type2:current";"socket:type2:voltage";"ref";"addr:housenumber";"addr:street";"addr:postcode";"brand";"charge";"opening_hours";"fee"
"5231546821";"-3.0567684";"-60.0250796";"charging_station";"Manaus";"Brazil";"Amazonas";"N/A";"N/A";"";"";"";"";"Cigas Companhia de Gas do Amazonas";"";"";"";"";"";"";"";"";"";"";"";"";"";"";""
"804451196";"";"";"charging_station";"N/A";"N/A";"N/A";"N/A";"N/A";"";"";"";"";"";"";"";"";"";"";"";"";"";"130";"Avenida Cosme Ferreira";"69082-230";"Tipo 1 (SAE J1772)";"";"";"no"
"1810296560";"-3.0923452";"-59.9879305";"";"Manaus";"Brazil";"Amazonas";"N/A";"N/A";"";"";"";"";"";"";"";"";"";"";"";"";"";"";"";"";"";"";"";""
"7524291230";"-3.0922408";"-59.9877776";"";"Manaus";"Brazil";"Amazonas";"N/A";"N/A";"";"";"";"";"";"";"";"";"";"";"";"";"";"";"";"";"";"";"";""
"7524291231";"-3.0923452";"-59.9878071";"";"Manaus";"Brazil";"Amazonas";"N/A";"N/A";"";"";"";"";"";"";"";"";"";"";"";"";"";"";"";"";"";"";"";""
"7524291232";"-3.0923091";"-59.9879225";"";"Manaus";"Brazil";"Amazonas";"N/A";"N/A";"";"";"";"";"";"";"";"";"";"";"";"";"";"";"";"";"";"";"";""
"7524291233";"-3.0925033";"-59.9878527";"";"Manaus";"Brazil";"Amazonas";"N/A";"N/A";"";"";"";"";"";"";"";"";"";"";"";"";"";"";"";"";"";"";"";""
"7524291234";"-3.0925488";"-59.9879318";"";"Manaus";"Brazil";"Amazonas";"N/A";"N/A";"";"";"";"";"";"";"";"";"";"";"";"";"";"";"";"";"";"";"";""
"7524291235";"-3.0923479";"-59.9880244";"";"Manaus";"Brazil";"Amazonas";"N/A";"N/A";"";"";"";"";"";"";"";"";"";"";"";"";"";"";"";"";"";"";"";""
"7524291236";"-3.0921845";"-59.9879788";"";"Manaus";"Brazil";"Amazonas";"N/A";"N/A";"";"";"";"";"";"";"";"";"";"";"";"";"";"";"";"";"";"";"";""
"4606999394";"-3.1243995";"-51.7214434";"charging_station";"Altamira";"Brazil";"Para";"N/A";"N/A";"";"";"";"";"BASE SA BOMON";"";"";"";"";"";"";"";"";"";"";"";"";"";"";""
"8349395817";"-3.3295535";"17.4133925";"charging_station";"";"Congo";"Bandundu";"N/A";"N/A";"";"";"";"";"";"";"";"";"";"";"";"";"";"";"";"";"";"";"";""
"12679475713";"-3.4359801";"114.7593246";"charging_station";"";"Indonesia";"South Kalimantan";"N/A";"N/A";"";"";"";"yes";"PLN";"Q4201636";"";"";"";"";"";"";"";"";"";"";"";"";"";"yes"
"12679476427";"-3.3325223";"114.58459";"charging_station";"";"Indonesia";"South Kalimantan";"N/A";"N/A";"";"";"";"yes";"PLN";"Q4201636";"";"";"";"1";"";"";"";"";"";"";"";"";"";"yes"
"12679484836";"-3.3216094";"114.5920198";"charging_station";"";"Indonesia";"South Kalimantan";"N/A";"N/A";"";"";"";"yes";"PLN";"Q4201636";"";"";"";"1";"";"";"";"";"";"";"Autel";"";"";"yes"
"12679532481";"-3.4385993";"114.8259875";"charging_station";"";"Indonesia";"South Kalimantan";"N/A";"N/A";"";"";"";"yes";"PLN";"Q4201636";"";"";"";"1";"";"";"";"";"";"";"Delta";"";"";"yes"
"12679579527";"-3.4451615";"114.8136909";"charging_station";"";"Indonesia";"South Kalimantan";"N/A";"N/A";"";"";"";"yes";"PLN";"Q4201636";"";"";"";"1";"";"";"";"";"";"";"";"";"";"yes"
"12679579528";"-3.337709";"114.6179062";"charging_station";"";"Indonesia";"South Kalimantan";"N/A";"N/A";"";"";"";"yes";"PLN";"Q4201636";"";"";"";"1";"";"";"";"";"";"";"";"";"";"yes"
"12729410836";"-3.3378482";"114.6179708";"charging_station";"";"Indonesia";"South Kalimantan";"N/A";"N/A";"";"";"";"yes";"PLN";"Q4201636";"";"";"";"1";"";"";"";"";"";"";"";"";"";"yes"
"12679604801";"-3.4628274";"115.9970003";"charging_station";"";"Indonesia";"South Kalimantan";"N/A";"N/A";"";"";"";"yes";"PLN";"Q4201636";"";"";"";"1";"";"";"";"";"";"";"";"";"";"yes"
"9951405508";"-2.7582886";"-79.4018471";"charging_station";"";"Ecuador";"Guayas";"N/A";"N/A";"";"3";"";"";"Centro Sur";"";"";"";"";"";"";"";"";"";"";"";"";"";"";""
"1086061778";"";"";"charging_station";"N/A";"N/A";"N/A";"N/A";"N/A";"";"3";"";"";"Centro Sur";"";"";"";"";"";"";"";"";"";"";"";"";"";"";""
"9951405509";"-2.7582905";"-79.4019244";"";"";"Ecuador";"Guayas";"N/A";"N/A";"";"";"";"";"";"";"";"";"";"";"";"";"";"";"";"";"";"";"";""
"9951405510";"-2.7582282";"-79.4018918";"";"";"Ecuador";"Guayas";"N/A";"N/A";"";"";"";"";"";"";"";"";"";"";"";"";"";"";"";"";"";"";"";""
"9951405511";"-2.7582676";"-79.4018163";"";"";"Ecuador";"Guayas";"N/A";"N/A";"";"";"";"";"";"";"";"";"";"";"";"";"";"";"";"";"";"";"";""
"9951405512";"-2.7583299";"-79.4018488";"";"";"Ecuador";"Guayas";"N/A";"N/A";"";"";"";"";"";"";"";"";"";"";"";"";"";"";"";"";"";"";"";""
"6744673848";"-2.8779807";"-78.9756598";"charging_station";"";"Ecuador";"Azuay";"N/A";"N/A";"";"";"";"";"COCA COLA";"";"";"";"";"";"";"";"";"";"";"";"";"";"";""
"10022332618";"-2.9041947";"-78.9840627";"charging_station";"";"Ecuador";"Azuay";"N/A";"N/A";"";"3";"";"";"Centro sur";"";"";"";"";"";"";"";"";"";"";"";"";"";"";""
"4503244793";"-2.8616839";"-67.769798";"charging_station";"Tonantins";"Brazil";"Amazonas";"N/A";"N/A";"";"";"";"";"Pedropaulo";"";"";"";"";"";"";"";"";"";"";"";"";"";"";""
"4503280690";"-2.8605419";"-67.7703995";"charging_station";"Tonantins";"Brazil";"Amazonas";"N/A";"N/A";"";"";"";"";"Equador";"";"";"";"";"";"";"";"";"";"";"";"";"";"";""
"7072548386";"-2.6382329";"32.6561195";"charging_station";"";"Tanzania";"Mwanza";"N/A";"N/A";"";"";"";"";"S. mshandete shop";"";"";"";"";"";"";"";"";"";"";"";"";"";"";""
"9072937217";"-2.5551934";"33.0466505";"charging_station";"";"Tanzania";"Mwanza";"N/A";"N/A";"";"";"";"";"";"";"";"";"";"";"";"";"";"";"";"";"";"";"";""
"10012724217";"-2.9970086";"35.9984042";"charging_station";"";"Tanzania";"Arusha";"N/A";"N/A";"";"";"";"";"";"";"";"";"";"";"";"";"";"";"";"";"";"";"";""
"12526770958";"-2.577162";"115.3894482";"charging_station";"";"Indonesia";"South Kalimantan";"N/A";"N/A";"";"";"";"yes";"";"";"";"";"";"";"";"";"";"";"";"";"";"";"";"yes"
"4360928891";"-2.2136112";"-80.9750937";"charging_station";"Canton Salinas";"Ecuador";"Santa Elena";"N/A";"N/A";"";"";"";"";"Aeropuerto Ulpiano Paez Salinas";"";"";"";"";"";"";"";"";"";"";"";"";"";"";""
"6582698285";"-2.1557808";"-80.707938";"charging_station";"Canton Santa Elena";"Ecuador";"Santa Elena";"N/A";"N/A";"";"";"";"";"Cantera San Miguel";"";"";"";"";"";"";"";"";"";"";"";"";"";"";""
"4149452659";"-2.2402361";"-79.9108931";"charging_station";"";"Ecuador";"Guayas";"N/A";"N/A";"";"";"";"";"";"";"";"";"";"";"";"";"";"";"";"";"";"";"";""
"4149454798";"-2.2402795";"-79.9109027";"charging_station";"";"Ecuador";"Guayas";"N/A";"N/A";"";"";"";"";"";"";"";"";"";"";"";"";"";"";"";"";"";"";"";""
"4204358093";"-2.191015";"-79.8147217";"charging_station";"";"Ecuador";"Guayas";"N/A";"N/A";"";"";"";"";"";"";"";"";"";"";"";"";"";"";"";"";"";"";"";""
"4467990692";"-2.108288";"-79.929524";"charging_station";"";"Ecuador";"Guayas";"N/A";"N/A";"";"";"";"";"INATRA";"";"";"";"";"";"";"";"";"";"";"";"";"";"";""
"4750023222";"-2.2214513";"-79.8896";"charging_station";"";"Ecuador";"Guayas";"N/A";"N/A";"";"";"";"";"CNEL EP";"";"";"";"";"";"";"";"";"";"";"";"";"";"";""
"4874787122";"-2.3984898";"-80.0795938";"charging_station";"";"Ecuador";"Guayas";"N/A";"N/A";"";"";"";"";"samabasa";"";"";"";"";"";"";"";"";"";"";"";"";"";"";""
"5058371624";"-2.1741797";"-79.890968";"charging_station";"";"Ecuador";"Guayas";"N/A";"N/A";"";"";"";"";"Enetsa";"";"";"";"";"";"";"";"";"";"";"";"";"";"";""
"5064944324";"-2.1946895";"-79.9536672";"charging_station";"";"Ecuador";"Guayas";"N/A";"N/A";"";"";"";"";"electrica guayaquil";"";"";"";"";"";"";"";"";"";"";"";"";"";"";""
"6434331585";"-2.1413769";"-79.9124145";"charging_station";"";"Ecuador";"Guayas";"N/A";"N/A";"";"";"";"";"Trans Morales";"";"";"";"";"";"";"";"";"";"";"";"";"";"";""
"7107653686";"-2.0608893";"-79.941252";"charging_station";"";"Ecuador";"Guayas";"N/A";"N/A";"";"";"";"";"Pronaca";"";"";"";"";"";"";"";"";"";"";"";"";"";"";""
"8757888018";"-2.198459";"-79.8273273";"charging_station";"";"Ecuador";"Guayas";"N/A";"N/A";"";"";"";"";"";"";"";"";"";"";"";"";"";"";"";"";"";"";"";""
"1379611229";"";"";"charging_station";"N/A";"N/A";"N/A";"N/A";"N/A";"";"";"";"";"";"";"";"";"";"";"";"";"";"";"";"";"Electrolinera Guayaquil";"";"";""
"12774210173";"-2.1019158";"-79.8898874";"";"";"Ecuador";"Guayas";"N/A";"N/A";"";"";"";"";"";"";"";"";"";"";"";"";"";"";"";"";"";"";"";""
"12774210174";"-2.1027542";"-79.8895956";"";"";"Ecuador";"Guayas";"N/A";"N/A";"";"";"";"";"";"";"";"";"";"";"";"";"";"";"";"";"";"";"";""
"12774210175";"-2.1026105";"-79.8891664";"";"";"Ecuador";"Guayas";"N/A";"N/A";"";"";"";"";"";"";"";"";"";"";"";"";"";"";"";"";"";"";"";""
"12774210176";"-2.1017678";"-79.8894818";"";"";"Ecuador";"Guayas";"N/A";"N/A";"";"";"";"";"";"";"";"";"";"";"";"";"";"";"";"";"";"";"";""
"4164186890";"-2.4265106";"-79.3393074";"charging_station";"";"Ecuador";"Canar";"N/A";"N/A";"";"";"";"";"";"";"";"";"";"";"";"";"";"";"";"";"";"";"";""
"4530795289";"-2.4268394";"-79.3407012";"charging_station";"";"Ecuador";"Canar";"N/A";"N/A";"";"";"";"";"Servientrega";"";"";"";"";"";"";"";"";"";"";"";"";"";"";""
"9951464298";"-2.4127764";"-79.3525937";"charging_station";"";"Ecuador";"Canar";"N/A";"N/A";"";"3";"";"";"Centro Sur";"";"";"";"";"";"";"";"";"";"";"";"";"";"";""
"1086065633";"";"";"charging_station";"N/A";"N/A";"N/A";"N/A";"N/A";"";"3";"";"";"Centro Sur";"";"";"";"";"";"";"";"";"";"";"";"";"";"";""
"9951464299";"-2.4127682";"-79.3526466";"";"";"Ecuador";"Canar";"N/A";"N/A";"";"";"";"";"";"";"";"";"";"";"";"";"";"";"";"";"";"";"";""
"9951464300";"-2.4128178";"-79.3526019";"";"";"Ecuador";"Canar";"N/A";"N/A";"";"";"";"";"";"";"";"";"";"";"";"";"";"";"";"";"";"";"";""
"9951464301";"-2.4127535";"-79.3525305";"";"";"Ecuador";"Canar";"N/A";"N/A";"";"";"";"";"";"";"";"";"";"";"";"";"";"";"";"";"";"";"";""
"9951464302";"-2.4127039";"-79.3525753";"";"";"Ecuador";"Canar";"N/A";"N/A";"";"";"";"";"";"";"";"";"";"";"";"";"";"";"";"";"";"";"";""
"11047084702";"-2.4904847";"-44.3024485";"charging_station";"Sao Luis";"Brazil";"Maranhao";"N/A";"N/A";"";"";"";"";"";"";"";"";"";"";"";"";"";"";"";"";"";"";"";""
"11047084703";"-2.4996608";"-44.3093862";"charging_station";"Sao Luis";"Brazil";"Maranhao";"N/A";"N/A";"";"";"";"";"";"";"";"";"";"";"";"";"";"";"";"";"";"";"";""
"11047084704";"-2.5094902";"-44.2425175";"charging_station";"Sao Luis";"Brazil";"Maranhao";"N/A";"N/A";"";"";"";"";"";"";"";"";"";"";"";"";"";"";"";"";"";"";"";""
"11047095114";"-2.5274601";"-44.2555793";"charging_station";"Sao Luis";"Brazil";"Maranhao";"N/A";"N/A";"";"";"";"";"";"";"";"";"";"";"";"";"";"";"";"";"";"";"";""
"1189724320";"";"";"charging_station";"N/A";"N/A";"N/A";"N/A";"N/A";"";"";"";"";"";"";"";"";"";"";"";"";"";"";"";"";"";"";"";""
"9037513496";"-2.4955159";"-44.2618436";"";"Sao Luis";"Brazil";"Maranhao";"N/A";"N/A";"";"";"";"";"";"";"";"";"";"";"";"";"";"";"";"";"";"";"";""
"11047095110";"-2.4955136";"-44.2618869";"";"Sao Luis";"Brazil";"Maranhao";"N/A";"N/A";"";"";"";"";"";"";"";"";"";"";"";"";"";"";"";"";"";"";"";""
"11047095111";"-2.4954632";"-44.2618878";"";"Sao Luis";"Brazil";"Maranhao";"N/A";"N/A";"";"";"";"";"";"";"";"";"";"";"";"";"";"";"";"";"";"";"";""
"11047095112";"-2.4954641";"-44.2618011";"";"Sao Luis";"Brazil";"Maranhao";"N/A";"N/A";"";"";"";"";"";"";"";"";"";"";"";"";"";"";"";"";"";"";"";""
"11047095113";"-2.4955181";"-44.2618022";"";"Sao Luis";"Brazil";"Maranhao";"N/A";"N/A";"";"";"";"";"";"";"";"";"";"";"";"";"";"";"";"";"";"";"";""
"9893319308";"-2.5274253";"33.0280719";"charging_station";"";"Tanzania";"Mwanza";"N/A";"N/A";"";"";"";"";"";"";"";"";"";"";"";"";"";"";"";"";"";"";"";""
