"id";"lat";"lon";"amenity";"city";"state";"country";"scraped_country_code";"scraped_country_name";"authentication:nfc";"capacity";"capacity:car";"motorcar";"operator";"operator:wikidata";"socket:schuko";"socket:schuko:current";"socket:schuko:voltage";"socket:type2";"socket:type2:current";"socket:type2:voltage";"ref";"addr:housenumber";"addr:street";"addr:postcode";"brand";"charge";"opening_hours";"fee"
"10774440098";"61.1949954";"-149.9347894";"charging_station";"Anchorage Municipality";"United States";"Alaska";"N/A";"N/A";"";"";"";"";"ChargePoint";"Q5176149";"";"";"";"";"";"";"";"";"";"";"ChargePoint";"$1.75 / hour";"";"yes"
"10989980427";"61.1203519";"-149.8663199";"charging_station";"Anchorage Municipality";"United States";"Alaska";"N/A";"N/A";"";"4";"";"";"";"";"";"";"";"";"";"";"";"";"";"";"EV Connect";"";"";"yes"
"11168145418";"61.1737393";"-149.952801";"charging_station";"Anchorage Municipality";"United States";"Alaska";"N/A";"N/A";"";"";"";"";"";"";"";"";"";"";"";"";"";"";"";"";"";"";"";""
"11310814993";"61.1897521";"-149.8760143";"charging_station";"Anchorage Municipality";"United States";"Alaska";"N/A";"N/A";"";"2";"";"";"ChargePoint";"Q5176149";"";"";"";"";"";"";"";"";"";"";"ChargePoint";"$0.16 / kWh";"";"yes"
"11369871897";"61.2157598";"-149.8958372";"charging_station";"Anchorage Municipality";"United States";"Alaska";"N/A";"N/A";"";"";"";"";"EasyPark";"";"";"";"";"";"";"";"";"";"";"";"";"";"";""
"11735238797";"61.1693813";"-149.91118";"charging_station";"Anchorage Municipality";"United States";"Alaska";"N/A";"N/A";"";"2";"";"";"ChargePoint";"Q5176149";"";"";"";"";"";"";"";"";"";"";"ChargePoint";"";"";"no"
"11735238798";"61.2213449";"-149.86262";"charging_station";"Anchorage Municipality";"United States";"Alaska";"N/A";"N/A";"";"2";"";"";"ChargePoint";"Q5176149";"";"";"";"";"";"";"";"";"";"";"ChargePoint";"";"";"no"
"11735238799";"61.14322";"-149.8714561";"charging_station";"Anchorage Municipality";"United States";"Alaska";"N/A";"N/A";"";"2";"";"";"ChargePoint";"Q5176149";"";"";"";"";"";"";"";"";"";"";"ChargePoint";"$0.40 / kWh";"";"yes"
"11735238800";"61.1426504";"-149.8660676";"charging_station";"Anchorage Municipality";"United States";"Alaska";"N/A";"N/A";"";"2";"";"";"ChargePoint";"Q5176149";"";"";"";"";"";"";"";"";"";"";"ChargePoint";"$0.40 / kWh";"";"yes"
"11741538867";"61.2194049";"-149.8916031";"charging_station";"Anchorage Municipality";"United States";"Alaska";"N/A";"N/A";"";"1";"";"";"";"";"";"";"";"";"";"";"";"";"";"";"ClipperCreek";"";"";""
"11735238801";"60.9715283";"-149.0986847";"charging_station";"Anchorage Municipality";"United States";"Alaska";"N/A";"N/A";"";"2";"";"";"ChargePoint";"Q5176149";"";"";"";"";"";"";"";"";"";"";"ChargePoint";"";"";"no"
"12392120501";"61.3512329";"-138.996715";"charging_station";"";"Canada";"Yukon";"N/A";"N/A";"";"";"";"";"FLO";"";"";"";"";"";"";"";"";"";"";"";"";"";"";""
"9922737394";"61.346938";"5.0644567";"charging_station";"Askvoll";"Norway";"Sogn og Fjordane";"N/A";"N/A";"";"4";"";"";"";"";"";"";"";"1";"";"";"";"";"";"";"Eviny";"";"";""
"11169096648";"61.0716536";"4.8401628";"charging_station";"Solund";"Norway";"Sogn og Fjordane";"N/A";"N/A";"";"4";"";"";"";"";"";"";"";"2";"";"";"";"";"";"";"Eviny";"";"";""
"11211808179";"61.3454617";"5.0628036";"charging_station";"Askvoll";"Norway";"Sogn og Fjordane";"N/A";"N/A";"";"2";"";"";"Lade i Norge";"";"";"";"";"2";"";"";"";"";"";"";"";"";"";""
"11211808180";"61.349901";"5.076421";"charging_station";"Askvoll";"Norway";"Sogn og Fjordane";"N/A";"N/A";"";"4";"";"";"Lade i Norge";"";"";"";"";"4";"";"";"";"";"";"";"";"";"";""
"11211808181";"61.3485922";"5.0739214";"charging_station";"Askvoll";"Norway";"Sogn og Fjordane";"N/A";"N/A";"";"6";"";"";"Askvoll kommune";"";"";"";"";"6";"";"";"";"";"";"";"";"";"";""
"12776873491";"60.979762";"5.078568";"charging_station";"Gulen";"Norway";"Sogn og Fjordane";"N/A";"N/A";"";"4";"";"";"";"";"";"";"";"1";"";"";"";"";"";"";"Eviny";"";"";""
"1770689903";"60.8746196";"5.5889058";"charging_station";"Modalen";"Norway";"Hordaland";"N/A";"N/A";"";"3";"";"";"";"";"";"";"";"3";"";"";"";"";"";"";"";"";"";""
"4348284272";"61.0543655";"5.5083597";"charging_station";"Hyllestad";"Norway";"Sogn og Fjordane";"N/A";"N/A";"";"6";"";"";"";"";"";"";"";"2";"";"";"";"";"";"";"Eviny";"";"";""
"5660819787";"61.103261";"5.51236";"charging_station";"Hyllestad";"Norway";"Sogn og Fjordane";"N/A";"N/A";"";"3";"";"";"";"";"";"";"";"2";"";"";"";"";"";"";"Mer";"";"24/7";""
"5660819788";"61.103699";"5.512982";"charging_station";"Hyllestad";"Norway";"Sogn og Fjordane";"N/A";"N/A";"";"10";"";"";"";"";"";"";"";"";"";"";"";"";"";"";"Tesla";"";"";""
"6034292894";"60.8972812";"5.5197544";"charging_station";"Masfjorden";"Norway";"Hordaland";"N/A";"N/A";"";"3";"";"";"";"";"";"";"";"2";"";"";"";"";"";"";"Mer";"";"";""
"9922737396";"61.1366899";"5.3470813";"charging_station";"Hyllestad";"Norway";"Sogn og Fjordane";"N/A";"N/A";"";"4";"";"";"";"";"";"";"";"";"";"";"";"";"";"";"Eviny";"";"";""
"11211808178";"61.170955";"5.2940288";"charging_station";"Hyllestad";"Norway";"Sogn og Fjordane";"N/A";"N/A";"";"2";"";"";"EasyPark";"";"";"";"";"2";"";"";"";"";"";"";"";"";"";""
"11211808190";"61.3545769";"5.4015881";"charging_station";"Fjaler";"Norway";"Sogn og Fjordane";"N/A";"N/A";"";"4";"";"";"";"";"";"";"";"4";"";"";"";"";"";"";"Kople";"";"";""
"1770690924";"61.3262848";"5.7954121";"charging_station";"Gaular";"Norway";"Sogn og Fjordane";"N/A";"N/A";"";"2";"";"";"Current";"";"";"";"";"2";"";"";"";"";"";"";"";"";"";""
"5965252468";"61.3215217";"5.7779758";"charging_station";"Gaular";"Norway";"Sogn og Fjordane";"N/A";"N/A";"";"2";"";"";"Circle K";"Q3268010";"";"";"";"";"";"";"";"";"";"";"Circle K";"";"";""
"5965254775";"61.218602";"6.0738364";"charging_station";"Hoyanger";"Norway";"Sogn og Fjordane";"N/A";"N/A";"";"3";"";"";"";"";"";"";"";"2";"";"";"";"";"";"";"Mer";"";"24/7";""
"11169096670";"61.209029";"5.8217119";"charging_station";"Gaular";"Norway";"Sogn og Fjordane";"N/A";"N/A";"";"5";"";"";"";"";"";"";"";"1";"";"";"";"";"";"";"Eviny";"";"";""
"11169096672";"61.3492989";"6.1186069";"charging_station";"Hoyanger";"Norway";"Sogn og Fjordane";"N/A";"N/A";"";"6";"";"";"";"";"";"";"";"2";"";"";"";"";"";"";"Eviny";"";"";""
"11211808124";"61.3274769";"5.7962054";"charging_station";"Gaular";"Norway";"Sogn og Fjordane";"N/A";"N/A";"";"6";"";"";"";"";"";"";"";"6";"";"";"";"";"";"";"Kople";"";"";""
"7079348107";"61.0858381";"6.5809833";"charging_station";"Vik";"Norway";"Sogn og Fjordane";"N/A";"N/A";"";"4";"";"";"";"";"";"";"";"2";"";"";"";"";"";"";"Mer";"";"";""
"11169096668";"61.2101513";"6.5326521";"charging_station";"Balestrand";"Norway";"Sogn og Fjordane";"N/A";"N/A";"";"6";"";"";"";"";"";"";"";"2";"";"";"";"";"";"";"Eviny";"";"";""
"11211784325";"61.2090672";"6.5374848";"charging_station";"Balestrand";"Norway";"Sogn og Fjordane";"N/A";"N/A";"";"6";"";"";"EasyPark";"";"";"";"";"6";"";"";"";"";"";"";"";"";"";""
"11211808043";"61.086824";"6.5814295";"charging_station";"Vik";"Norway";"Sogn og Fjordane";"N/A";"N/A";"";"2";"";"";"EasyPark";"";"";"";"";"2";"";"";"";"";"";"";"";"";"";""
"2871099861";"60.898695";"7.211273";"charging_station";"Aurland";"Norway";"Sogn og Fjordane";"N/A";"N/A";"";"6";"";"";"";"";"";"";"";"";"";"";"";"";"";"";"Tesla";"";"";""
"5645111085";"61.2320865";"7.1045093";"charging_station";"Sogndal";"Norway";"Sogn og Fjordane";"N/A";"N/A";"";"4";"";"";"";"";"";"";"";"2";"";"";"";"";"";"";"Mer";"";"";""
"5757276365";"61.1830135";"6.8523071";"charging_station";"Leikanger";"Norway";"Sogn og Fjordane";"N/A";"N/A";"";"4";"";"";"";"";"";"";"";"2";"";"";"";"";"";"";"Mer";"";"24/7";""
"6047204620";"60.8985356";"7.2115746";"charging_station";"Aurland";"Norway";"Sogn og Fjordane";"N/A";"N/A";"";"12";"";"";"";"";"";"";"";"1";"";"";"";"";"";"";"Eviny";"";"";""
"6047204621";"60.87896";"6.84296";"charging_station";"Leikanger";"Norway";"Sogn og Fjordane";"N/A";"N/A";"";"18";"";"";"";"";"";"";"";"3";"";"";"";"";"";"";"Eviny";"";"24/7";""
"6047204634";"61.2264568";"7.1017285";"charging_station";"Sogndal";"Norway";"Sogn og Fjordane";"N/A";"N/A";"";"6";"";"";"";"";"";"";"";"";"";"";"";"";"";"";"Eviny";"";"";""
"6695778867";"61.2116732";"7.1207724";"charging_station";"Sogndal";"Norway";"Sogn og Fjordane";"N/A";"N/A";"";"";"";"";"";"";"";"";"";"";"";"";"";"";"";"";"";"";"";""
"6775535720";"60.8994048";"7.2100799";"charging_station";"Aurland";"Norway";"Sogn og Fjordane";"N/A";"N/A";"";"6";"";"";"";"Q42717773";"";"";"";"";"";"";"";"";"";"";"Ionity";"";"24/7";""
"11082829484";"60.8639445";"7.1091249";"charging_station";"Aurland";"Norway";"Sogn og Fjordane";"N/A";"N/A";"";"4";"";"";"";"";"";"";"";"";"";"";"";"";"";"";"";"";"";""
"11096542812";"61.307452";"7.2146755";"charging_station";"Luster";"Norway";"Sogn og Fjordane";"N/A";"N/A";"";"2";"";"";"Lyngmo Camping";"";"";"";"";"";"";"";"";"";"";"";"";"";"";""
"11131997784";"60.8795939";"6.8456049";"charging_station";"Leikanger";"Norway";"Sogn og Fjordane";"N/A";"N/A";"";"12";"";"";"";"";"";"";"";"";"";"";"";"";"";"";"Tesla";"";"";""
"11172580267";"61.1924497";"7.2202411";"charging_station";"Sogndal";"Norway";"Sogn og Fjordane";"N/A";"N/A";"";"4";"";"";"";"";"";"";"";"";"";"";"";"";"";"";"Recharge";"";"";""
"11172580268";"61.1936552";"7.2229971";"charging_station";"Sogndal";"Norway";"Sogn og Fjordane";"N/A";"N/A";"";"4";"";"";"";"";"";"";"";"";"";"";"";"";"";"";"Recharge";"";"";""
"12742501413";"60.8621976";"7.110421";"charging_station";"Aurland";"Norway";"Sogn og Fjordane";"N/A";"N/A";"";"12";"";"";"Flåm AS";"";"";"";"";"12";"";"";"";"";"";"";"";"";"";""
"12914358709";"61.3021385";"7.2084224";"charging_station";"Sogndal";"Norway";"Sogn og Fjordane";"N/A";"N/A";"";"6";"";"";"Tesla";"Q478214";"";"";"";"";"";"";"";"";"";"";"Tesla Supercharger";"";"";"yes"
"4504539589";"61.0519618";"7.5804082";"charging_station";"Laerdal";"Norway";"Sogn og Fjordane";"N/A";"N/A";"";"2";"";"";"Lade i Norge";"";"";"";"";"2";"";"";"";"";"";"";"";"";"24/7";""
"5757276332";"61.0646805";"7.5101525";"charging_station";"Laerdal";"Norway";"Sogn og Fjordane";"N/A";"N/A";"";"4";"";"";"";"";"";"";"";"2";"";"";"";"";"";"";"Recharge";"";"24/7";""
"5757276349";"61.2350525";"7.7017285";"charging_station";"Ardal";"Norway";"Sogn og Fjordane";"N/A";"N/A";"";"3";"";"";"";"";"";"";"";"2";"";"";"";"";"";"";"Recharge";"";"24/7";""
"7004520232";"61.0646844";"7.5107361";"charging_station";"Laerdal";"Norway";"Sogn og Fjordane";"N/A";"N/A";"";"16";"";"";"";"";"";"";"";"";"";"";"";"";"";"";"Tesla";"";"";""
"11105528463";"61.3018182";"7.2471093";"charging_station";"Luster";"Norway";"Sogn og Fjordane";"N/A";"N/A";"";"";"";"";"";"";"";"";"";"";"";"";"";"";"";"";"";"";"";""
"11169096667";"61.0982228";"7.473702";"charging_station";"Laerdal";"Norway";"Sogn og Fjordane";"N/A";"N/A";"";"6";"";"";"";"";"";"";"";"";"";"";"";"";"";"";"Eviny";"";"";""
"11445920096";"61.0645658";"7.5085142";"charging_station";"Laerdal";"Norway";"Sogn og Fjordane";"N/A";"N/A";"";"12";"";"";"Ionity";"";"";"";"";"";"";"";"";"";"";"";"Ionity";"";"24/7";"yes"
"12824153369";"61.0458351";"7.6220875";"charging_station";"Laerdal";"Norway";"Sogn og Fjordane";"N/A";"N/A";"";"6";"";"";"";"";"";"";"";"";"";"";"";"";"";"";"Kople";"";"";""
"5757276331";"61.0801445";"7.8486902";"charging_station";"Ardal";"Norway";"Sogn og Fjordane";"N/A";"N/A";"";"4";"";"";"";"";"";"";"";"2";"";"";"";"";"";"";"Recharge";"";"24/7";""
"5757276334";"61.30957";"7.80705";"charging_station";"Ardal";"Norway";"Sogn og Fjordane";"N/A";"N/A";"";"3";"";"";"";"";"";"";"";"2";"";"";"";"";"";"";"Recharge";"";"24/7";""
"6025956801";"61.203201";"8.235148";"charging_station";"Vang";"Norway";"Oppland";"N/A";"N/A";"";"4";"";"";"";"";"";"";"";"2";"";"";"";"";"";"";"Recharge";"";"";""
"9165350392";"61.3430622";"7.8780019";"charging_station";"Ardal";"Norway";"Sogn og Fjordane";"N/A";"N/A";"";"4";"";"yes";"BlueTec Vest";"";"";"";"";"";"";"";"";"";"";"";"";"";"";""
"12773980021";"61.3094653";"7.806794";"charging_station";"Ardal";"Norway";"Sogn og Fjordane";"N/A";"N/A";"";"8";"";"";"";"";"";"";"";"";"";"";"";"";"";"";"Tesla";"";"";""
"6024217331";"60.8620787";"8.5543262";"charging_station";"Hemsedal";"Norway";"Buskerud";"N/A";"N/A";"";"3";"";"";"";"";"";"";"";"";"";"";"";"";"";"";"Mer";"";"";""
"6024217359";"60.86277";"8.51567";"charging_station";"Hemsedal";"Norway";"Buskerud";"N/A";"N/A";"";"4";"";"";"Lade i Norge";"";"";"";"";"4";"";"";"";"";"";"";"";"";"24/7";""
"6025956836";"61.13063";"8.54457";"charging_station";"Vang";"Norway";"Oppland";"N/A";"N/A";"";"1";"";"";"Bøflaten Camping";"";"";"";"";"";"";"";"";"";"";"";"";"";"24/7";""
"10951510108";"61.1302139";"8.5424991";"charging_station";"Vang";"Norway";"Oppland";"N/A";"N/A";"";"4";"";"";"Powered by E.ON Drive & Clever";"";"";"";"";"";"";"";"";"";"";"";"E.ON";"";"";"yes"
"12063712693";"61.1258613";"8.5723561";"charging_station";"Vang";"Norway";"Oppland";"N/A";"N/A";"";"4";"";"yes";"";"";"";"";"";"";"";"";"";"";"";"";"";"";"";"yes"
"12734696141";"60.8624173";"8.5554475";"charging_station";"Hemsedal";"Norway";"Buskerud";"N/A";"N/A";"";"11";"";"";"";"";"";"";"";"";"";"";"";"";"";"";"Tesla";"";"";""
"12812257605";"61.12629";"8.57827";"charging_station";"Vang";"Norway";"Oppland";"N/A";"N/A";"";"2";"";"";"";"";"";"";"";"";"";"";"";"";"";"";"Mer";"";"";""
"5808132255";"61.242718";"8.9214273";"charging_station";"Vestre Slidre";"Norway";"Oppland";"N/A";"N/A";"";"3";"";"";"";"";"";"";"";"2";"";"";"";"";"";"";"Recharge";"";"24/7";""
"6025956788";"61.0333115";"9.0548556";"charging_station";"Vestre Slidre";"Norway";"Oppland";"N/A";"N/A";"";"2";"";"";"Kiwi";"";"";"";"";"2";"";"";"";"";"";"";"";"";"24/7";""
"6025956800";"61.2477452";"8.9085876";"charging_station";"Vestre Slidre";"Norway";"Oppland";"N/A";"N/A";"";"2";"";"";"ValdresEnergi";"";"";"";"";"2";"";"";"";"";"";"";"";"";"24/7";""
"6025956835";"61.0334537";"9.0544769";"charging_station";"Vestre Slidre";"Norway";"Oppland";"N/A";"N/A";"";"4";"";"";"";"";"";"";"";"2";"";"";"";"";"";"";"Recharge";"";"24/7";""
"6025956839";"60.99643";"8.98973";"charging_station";"Vestre Slidre";"Norway";"Oppland";"N/A";"N/A";"";"4";"";"";"";"";"";"";"";"2";"";"";"";"";"";"";"Kople";"";"24/7";""
"7684706255";"60.984809";"9.245498";"charging_station";"Nord-Aurdal";"Norway";"Oppland";"N/A";"N/A";"";"5";"";"";"";"";"";"";"";"1";"";"";"";"";"";"";"Recharge";"";"";""
"8822656958";"61.2485941";"8.9087199";"charging_station";"Vestre Slidre";"Norway";"Oppland";"N/A";"N/A";"";"8";"";"";"";"";"";"";"";"4";"";"";"";"";"";"";"Kople";"";"";"yes"
"11169096646";"60.9865295";"9.2381367";"charging_station";"Nord-Aurdal";"Norway";"Oppland";"N/A";"N/A";"";"8";"";"";"";"";"";"";"";"3";"";"";"";"";"";"";"Eviny";"";"";""
"11185853245";"60.9848409";"9.2312488";"charging_station";"Nord-Aurdal";"Norway";"Oppland";"N/A";"N/A";"";"15";"";"";"";"";"";"";"";"10";"";"";"";"";"";"";"Kople";"";"";""
"12824137563";"61.2484226";"8.9105487";"charging_station";"Vestre Slidre";"Norway";"Oppland";"N/A";"N/A";"";"4";"";"";"";"";"";"";"";"";"";"";"";"";"";"";"Kople";"";"";""
"12840630109";"61.2485642";"8.9015031";"charging_station";"Vestre Slidre";"Norway";"Oppland";"N/A";"N/A";"";"8";"";"";"";"";"";"";"";"";"";"";"";"";"";"";"Tesla";"";"";""
"6025956819";"60.9195047";"9.4222955";"charging_station";"Sor-Aurdal";"Norway";"Oppland";"N/A";"N/A";"";"2";"";"";"";"";"";"";"";"1";"";"";"";"";"";"";"Recharge";"";"24/7";""
"8567570562";"60.9691432";"9.2913155";"charging_station";"Nord-Aurdal";"Norway";"Oppland";"N/A";"N/A";"";"16";"";"";"";"";"";"";"";"";"";"";"";"";"";"";"Tesla";"";"";""
"8627880815";"60.9708579";"9.2915717";"charging_station";"Nord-Aurdal";"Norway";"Oppland";"N/A";"N/A";"";"5";"";"";"";"";"";"";"";"1";"";"";"";"";"";"";"Eviny";"";"";""
"8627918161";"60.9697394";"9.2920835";"charging_station";"Nord-Aurdal";"Norway";"Oppland";"N/A";"N/A";"";"8";"";"";"";"";"";"";"";"";"";"";"";"";"";"";"Recharge";"";"";""
"8998955036";"60.9704384";"9.2884103";"charging_station";"Nord-Aurdal";"Norway";"Oppland";"N/A";"N/A";"";"4";"";"";"";"";"";"";"";"";"";"";"";"";"";"";"Mer";"";"";""
"12811999415";"60.9709066";"9.2912868";"charging_station";"Nord-Aurdal";"Norway";"Oppland";"N/A";"N/A";"";"6";"";"";"";"";"";"";"";"";"";"";"";"";"";"";"Uno-X";"";"";""
"12812257604";"60.9716516";"9.2874864";"charging_station";"Nord-Aurdal";"Norway";"Oppland";"N/A";"N/A";"";"6";"";"";"";"";"";"";"";"";"";"";"";"";"";"";"Mer";"";"";""
"12824221547";"60.93358";"9.63345";"charging_station";"Etnedal";"Norway";"Oppland";"N/A";"N/A";"";"5";"";"";"";"";"";"";"";"2";"";"";"";"";"";"";"Kople";"";"";""
"6025956813";"61.01601";"9.90659";"charging_station";"Nordre Land";"Norway";"Oppland";"N/A";"N/A";"";"1";"";"";"Nørstelien Landhandleri";"";"";"";"";"1";"";"";"";"";"";"";"";"";"24/7";""
"11185853253";"61.2258979";"10.22376";"charging_station";"Gausdal";"Norway";"Oppland";"N/A";"N/A";"";"3";"";"";"";"";"";"";"";"";"";"";"";"";"";"";"Kople";"";"";""
"12776823567";"61.227676";"10.220729";"charging_station";"Gausdal";"Norway";"Oppland";"N/A";"N/A";"";"4";"";"";"";"";"";"";"";"";"";"";"";"";"";"";"Circle K";"";"";""
"1770691950";"61.11473";"10.46781";"charging_station";"Lillehammer";"Norway";"Oppland";"N/A";"N/A";"";"4";"";"";"";"";"";"";"";"4";"";"";"";"";"";"";"Mer";"";"24/7";""
"2871087177";"61.130461";"10.434631";"charging_station";"Lillehammer";"Norway";"Oppland";"N/A";"N/A";"";"10";"";"";"";"";"";"";"";"";"";"";"";"";"";"";"Tesla";"";"";""
"5346495926";"61.1153636";"10.4484613";"charging_station";"Lillehammer";"Norway";"Oppland";"N/A";"N/A";"";"2";"";"";"";"";"";"";"";"";"";"";"";"";"";"";"Recharge";"";"24/7";""
"5808132454";"61.2436919";"10.4374591";"charging_station";"Lillehammer";"Norway";"Oppland";"N/A";"N/A";"";"3";"";"";"";"";"";"";"";"1";"";"";"";"";"";"";"Recharge";"";"24/7";""
"6025956785";"61.2402282";"10.4375885";"charging_station";"Lillehammer";"Norway";"Oppland";"N/A";"N/A";"";"2";"";"";"Lade i Norge";"";"";"";"";"2";"";"";"";"";"";"";"";"";"24/7";""
"6025956802";"61.11285";"10.4657";"charging_station";"Lillehammer";"Norway";"Oppland";"N/A";"N/A";"";"4";"";"";"";"";"";"";"";"4";"";"";"";"";"";"";"Mer";"";"24/7";""
"6025956803";"61.1158457";"10.4673075";"charging_station";"Lillehammer";"Norway";"Oppland";"N/A";"N/A";"";"6";"";"";"";"";"";"";"";"6";"";"";"";"";"";"";"Recharge";"";"24/7";""
"6025956807";"61.1299408";"10.4355298";"charging_station";"Lillehammer";"Norway";"Oppland";"N/A";"N/A";"";"8";"";"";"";"";"";"";"";"";"";"";"";"";"";"";"Mer";"";"";""
"6025956820";"61.1186251";"10.4651126";"charging_station";"Lillehammer";"Norway";"Oppland";"N/A";"N/A";"";"4";"";"";"Lillehammer kommune";"";"";"";"";"4";"";"";"";"";"";"";"";"";"24/7";""
"6025956824";"61.106438";"10.4439154";"charging_station";"Lillehammer";"Norway";"Oppland";"N/A";"N/A";"";"4";"";"";"";"";"";"";"";"2";"";"";"";"";"";"";"Recharge";"";"24/7";""
"6025956833";"61.11694";"10.46176";"charging_station";"Lillehammer";"Norway";"Oppland";"N/A";"N/A";"";"6";"";"";"Øya Parkering AS";"";"";"";"";"6";"";"";"";"";"";"";"";"";"24/7";""
"6037457141";"61.152254";"10.6912111";"charging_station";"Ringsaker";"Norway";"Hedmark";"N/A";"N/A";"";"4";"";"";"";"";"";"";"";"2";"";"";"";"";"";"";"Recharge";"";"24/7";""
"6110032278";"61.1290528";"10.4362594";"charging_station";"Lillehammer";"Norway";"Oppland";"N/A";"N/A";"";"";"";"";"";"";"";"";"";"";"";"";"";"";"";"";"";"";"";""
"6557167244";"61.1209146";"10.5065951";"charging_station";"Lillehammer";"Norway";"Oppland";"N/A";"N/A";"";"2";"";"";"VIKØrstra";"";"";"";"";"";"";"";"";"";"";"";"";"";"";""
"6771439328";"61.1483596";"10.4155963";"charging_station";"Lillehammer";"Norway";"Oppland";"N/A";"N/A";"";"4";"";"";"";"";"";"";"";"2";"";"";"";"";"";"";"Mer";"";"";""
"7004520231";"61.243385";"10.43448";"charging_station";"Lillehammer";"Norway";"Oppland";"N/A";"N/A";"";"20";"";"";"";"";"";"";"";"";"";"";"";"";"";"";"Tesla";"";"";""
"7618226729";"61.226406";"10.5458095";"charging_station";"Lillehammer";"Norway";"Oppland";"N/A";"N/A";"";"";"";"";"";"";"";"";"";"";"";"";"";"";"";"";"";"";"";""
"7618226730";"61.2263672";"10.545778";"charging_station";"Lillehammer";"Norway";"Oppland";"N/A";"N/A";"";"";"";"";"";"";"";"";"";"";"";"";"";"";"";"";"";"";"";""
"7618226731";"61.226333";"10.5457357";"charging_station";"Lillehammer";"Norway";"Oppland";"N/A";"N/A";"";"";"";"";"";"";"";"";"";"";"";"";"";"";"";"";"";"";"";""
"8983039071";"61.112651";"10.4692478";"charging_station";"Lillehammer";"Norway";"Oppland";"N/A";"N/A";"";"2";"";"";"Lillehammer kommune";"";"";"";"";"";"";"";"";"";"";"";"";"";"";""
"8999215403";"61.2431697";"10.4348116";"charging_station";"Lillehammer";"Norway";"Oppland";"N/A";"N/A";"";"6";"";"";"";"";"";"";"";"";"";"";"";"";"";"";"Ionity";"";"";""
"9476587321";"61.1145951";"10.4471889";"charging_station";"Lillehammer";"Norway";"Oppland";"N/A";"N/A";"";"20";"";"yes";"";"";"";"";"";"";"";"";"";"";"";"";"Tesla";"";"24/7";""
"10799731063";"61.2437788";"10.4387479";"charging_station";"Lillehammer";"Norway";"Oppland";"N/A";"N/A";"";"";"";"no";"";"";"";"";"";"";"";"";"";"";"";"";"";"";"";""
"11169096641";"60.8804424";"10.3871495";"charging_station";"Sondre Land";"Norway";"Oppland";"N/A";"N/A";"";"3";"";"";"";"";"";"";"";"";"";"";"";"";"";"";"Eviny";"";"";""
"11169096647";"61.1143866";"10.447298";"charging_station";"Lillehammer";"Norway";"Oppland";"N/A";"N/A";"";"14";"";"";"";"";"";"";"";"";"";"";"";"";"";"";"Eviny";"";"";""
"11172580069";"60.9184509";"10.7039063";"charging_station";"Ringsaker";"Norway";"Hedmark";"N/A";"N/A";"";"9";"";"";"";"";"";"";"";"";"";"";"";"";"";"";"Recharge";"";"";""
"11172580070";"61.130886";"10.4337736";"charging_station";"Lillehammer";"Norway";"Oppland";"N/A";"N/A";"";"9";"";"";"";"";"";"";"";"1";"";"";"";"";"";"";"Recharge";"";"";""
"11185853258";"61.2427067";"10.4396262";"charging_station";"Lillehammer";"Norway";"Oppland";"N/A";"N/A";"";"6";"";"";"";"";"";"";"";"";"";"";"";"";"";"";"Kople";"";"";""
"12139433905";"61.1131099";"10.4654684";"charging_station";"Lillehammer";"Norway";"Oppland";"N/A";"N/A";"";"6";"";"";"Lillehammer kommune";"";"";"";"";"";"";"";"";"";"";"";"";"";"";""
"12165328878";"61.2237105";"10.4370124";"charging_station";"Lillehammer";"Norway";"Oppland";"N/A";"N/A";"";"7";"";"";"";"";"";"";"";"";"";"";"";"";"";"";"Apcoa Parkering";"";"";""
"12165388631";"61.2236845";"10.4370793";"charging_station";"Lillehammer";"Norway";"Oppland";"N/A";"N/A";"";"7";"";"";"";"";"";"";"";"";"";"";"";"";"";"";"Apcoa Parkering";"";"";""
"12165388632";"61.2236615";"10.437132";"charging_station";"Lillehammer";"Norway";"Oppland";"N/A";"N/A";"";"7";"";"";"";"";"";"";"";"";"";"";"";"";"";"";"Apcoa Parkering";"";"";""
"12165388633";"61.2236264";"10.4371919";"charging_station";"Lillehammer";"Norway";"Oppland";"N/A";"N/A";"";"7";"";"";"";"";"";"";"";"";"";"";"";"";"";"";"Apcoa Parkering";"";"";""
"12165388634";"61.223595";"10.4372478";"charging_station";"Lillehammer";"Norway";"Oppland";"N/A";"N/A";"";"7";"";"";"";"";"";"";"";"";"";"";"";"";"";"";"Apcoa Parkering";"";"";""
"12736743712";"61.1274971";"10.4514204";"charging_station";"Lillehammer";"Norway";"Oppland";"N/A";"N/A";"";"12";"";"";"";"";"";"";"";"";"";"";"";"";"";"";"Tesla";"";"";""
"12776823566";"61.115916";"10.447648";"charging_station";"Lillehammer";"Norway";"Oppland";"N/A";"N/A";"";"12";"";"";"";"";"";"";"";"";"";"";"";"";"";"";"Circle K";"";"";""
"12810046422";"60.957428";"10.620603";"charging_station";"Ringsaker";"Norway";"Hedmark";"N/A";"N/A";"";"4";"";"";"";"";"";"";"";"";"";"";"";"";"";"";"Uno-X";"";"";""
"12824245632";"60.9570293";"10.6219825";"charging_station";"Ringsaker";"Norway";"Hedmark";"N/A";"N/A";"";"8";"";"";"";"";"";"";"";"";"";"";"";"";"";"";"Kople";"";"";""
"12824245634";"60.9234751";"10.7012449";"charging_station";"Ringsaker";"Norway";"Hedmark";"N/A";"N/A";"";"4";"";"";"";"";"";"";"";"";"";"";"";"";"";"";"Kople";"";"";""
"6037457104";"60.9132";"10.79531";"charging_station";"Ringsaker";"Norway";"Hedmark";"N/A";"N/A";"";"2";"";"";"Ringsaker kommune";"";"";"";"";"2";"";"";"";"";"";"";"";"";"24/7";""
"6037457117";"60.8803968";"10.9321867";"charging_station";"Ringsaker";"Norway";"Hedmark";"N/A";"N/A";"";"8";"";"";"";"";"";"";"";"";"";"";"";"";"";"";"Recharge";"";"24/7";""
"6037457121";"60.9085686";"10.8174933";"charging_station";"Ringsaker";"Norway";"Hedmark";"N/A";"N/A";"";"4";"";"";"";"";"";"";"";"4";"";"";"";"";"";"";"Mer";"";"24/7";""
"6763239310";"60.8781567";"10.9298629";"charging_station";"Ringsaker";"Norway";"Hedmark";"N/A";"N/A";"";"20";"";"";"";"";"";"";"";"20";"";"";"";"";"";"";"Recharge";"";"";""
"7004520233";"60.878178";"10.929593";"charging_station";"Ringsaker";"Norway";"Hedmark";"N/A";"N/A";"";"20";"";"";"";"";"";"";"";"";"";"";"";"";"";"";"Tesla";"";"";""
"9476587319";"60.9102816";"10.8117153";"charging_station";"Ringsaker";"Norway";"Hedmark";"N/A";"N/A";"";"24";"";"";"";"";"";"";"";"";"";"";"";"";"";"";"Tesla";"";"";""
"11146764728";"60.91036";"10.81237";"charging_station";"Ringsaker";"Norway";"Hedmark";"N/A";"N/A";"";"8";"";"";"";"";"";"";"";"";"";"";"";"";"";"";"Mer";"";"";""
"11169096643";"60.9118691";"10.8131915";"charging_station";"Ringsaker";"Norway";"Hedmark";"N/A";"N/A";"";"12";"";"";"";"";"";"";"";"";"";"";"";"";"";"";"Eviny";"";"";""
"11172580046";"60.8804417";"10.9278104";"charging_station";"Ringsaker";"Norway";"Hedmark";"N/A";"N/A";"";"16";"";"";"";"";"";"";"";"";"";"";"";"";"";"";"Recharge";"";"";""
"11188024344";"60.8849001";"10.9452474";"charging_station";"Ringsaker";"Norway";"Hedmark";"N/A";"N/A";"";"5";"";"";"";"";"";"";"";"";"";"";"";"";"";"";"Kople";"";"";""
"11188024357";"60.8874041";"10.933441";"charging_station";"Ringsaker";"Norway";"Hedmark";"N/A";"N/A";"";"3";"";"";"";"";"";"";"";"";"";"";"";"";"";"";"Kople";"";"";""
"11188024358";"60.9103819";"10.8119135";"charging_station";"Ringsaker";"Norway";"Hedmark";"N/A";"N/A";"";"22";"";"";"";"";"";"";"";"6";"";"";"";"";"";"";"Kople";"";"";""
"11193540557";"60.9104484";"10.8121267";"charging_station";"Ringsaker";"Norway";"Hedmark";"N/A";"N/A";"";"6";"";"";"";"";"";"";"";"";"";"";"";"";"";"";"E.ON";"";"";""
"11344976516";"60.8801968";"10.926977";"charging_station";"Ringsaker";"Norway";"Hedmark";"N/A";"N/A";"";"4";"";"";"Recharge";"";"";"";"";"";"";"";"";"";"";"";"";"";"";""
"12064490289";"60.9094738";"10.8126079";"charging_station";"Ringsaker";"Norway";"Hedmark";"N/A";"N/A";"";"8";"";"";"Ionity";"";"";"";"";"";"";"";"";"";"";"";"Ionity";"";"24/7";"yes"
"12810059815";"60.911581";"10.812887";"charging_station";"Ringsaker";"Norway";"Hedmark";"N/A";"N/A";"";"4";"";"";"";"";"";"";"";"";"";"";"";"";"";"";"Uno-X";"";"";""
"3174755444";"60.883982";"11.541332";"charging_station";"Elverum";"Norway";"Hedmark";"N/A";"N/A";"";"8";"";"";"";"";"";"";"";"";"";"";"";"";"";"";"Tesla";"";"";""
"4408910119";"61.136023";"11.3751842";"charging_station";"Amot";"Norway";"Hedmark";"N/A";"N/A";"";"4";"";"";"Lade i Norge";"";"";"";"";"4";"";"";"";"";"";"";"";"";"24/7";""
"5645685222";"61.132388";"11.368916";"charging_station";"Amot";"Norway";"Hedmark";"N/A";"N/A";"";"4";"";"";"";"";"";"";"";"2";"";"";"";"";"";"";"Recharge";"";"24/7";""
"6037455983";"60.8838387";"11.5362683";"charging_station";"Elverum";"Norway";"Hedmark";"N/A";"N/A";"";"2";"";"";"Biltema Elverum";"";"";"";"";"2";"";"";"";"";"";"";"";"";"24/7";""
"6037457091";"60.8864773";"11.5591602";"charging_station";"Elverum";"Norway";"Hedmark";"N/A";"N/A";"";"4";"";"";"Elverum kommune";"";"";"";"";"4";"";"";"";"";"";"";"";"";"24/7";""
"6037457095";"60.8949276";"11.581985";"charging_station";"Elverum";"Norway";"Hedmark";"N/A";"N/A";"";"4";"";"";"";"";"";"";"";"2";"";"";"";"";"";"";"Recharge";"";"24/7";""
"6037457109";"60.8740233";"11.5768957";"charging_station";"Elverum";"Norway";"Hedmark";"N/A";"N/A";"";"2";"";"";"";"";"";"";"";"1";"";"";"";"";"";"";"Recharge";"";"24/7";""
"6037457114";"60.8832274";"11.5597623";"charging_station";"Elverum";"Norway";"Hedmark";"N/A";"N/A";"";"2";"";"";"";"";"";"";"";"1";"";"";"";"";"";"";"Recharge";"";"24/7";""
"6037457116";"60.8825551";"11.5357729";"charging_station";"Elverum";"Norway";"Hedmark";"N/A";"N/A";"";"1";"";"";"";"";"";"";"";"";"";"";"";"";"";"";"Mer";"";"24/7";""
"6976302029";"60.88537";"11.5616";"charging_station";"Elverum";"Norway";"Hedmark";"N/A";"N/A";"";"8";"";"";"";"";"";"";"";"2";"";"";"";"";"";"";"Mer";"";"";""
"7686823308";"60.8803362";"11.5493758";"charging_station";"Elverum";"Norway";"Hedmark";"N/A";"N/A";"";"6";"";"";"";"";"";"";"";"";"";"";"";"";"";"";"Ionity";"";"24/7";""
"10738043935";"60.9331877";"11.6762862";"charging_station";"Elverum";"Norway";"Hedmark";"N/A";"N/A";"";"16";"";"";"";"";"";"";"";"";"";"";"";"";"";"";"Tesla";"";"";""
"11031927901";"60.8847507";"11.5274457";"charging_station";"Elverum";"Norway";"Hedmark";"N/A";"N/A";"";"8";"";"";"";"";"";"";"";"";"";"";"";"";"";"";"Uno-X";"";"";"yes"
"11146764726";"60.884799";"11.5282685";"charging_station";"Elverum";"Norway";"Hedmark";"N/A";"N/A";"";"6";"";"";"";"";"";"";"";"";"";"";"";"";"";"";"Mer";"";"";""
"11169096645";"60.896157";"11.58388";"charging_station";"Elverum";"Norway";"Hedmark";"N/A";"N/A";"";"4";"";"";"";"";"";"";"";"";"";"";"";"";"";"";"Eviny";"";"";""
"11172580042";"60.8803497";"11.5633511";"charging_station";"Elverum";"Norway";"Hedmark";"N/A";"N/A";"";"4";"";"";"";"";"";"";"";"";"";"";"";"";"";"";"Recharge";"";"";""
"11175130406";"60.8878074";"11.5154568";"charging_station";"Elverum";"Norway";"Hedmark";"N/A";"N/A";"";"6";"";"";"Kople";"";"";"";"";"";"";"";"";"";"";"";"Kople";"";"";""
"11188024333";"60.8875989";"11.5155146";"charging_station";"Elverum";"Norway";"Hedmark";"N/A";"N/A";"";"28";"";"";"";"";"";"";"";"";"";"";"";"";"";"";"Tesla";"";"";""
"12749714985";"60.8803781";"11.5493284";"charging_station";"Elverum";"Norway";"Hedmark";"N/A";"N/A";"";"6";"";"";"";"";"";"";"";"";"";"";"";"";"";"";"Ionity";"";"24/7";""
"12749714986";"60.8804793";"11.549183";"charging_station";"Elverum";"Norway";"Hedmark";"N/A";"N/A";"";"6";"";"";"";"";"";"";"";"";"";"";"";"";"";"";"Ionity";"";"24/7";""
"12749714987";"60.8804561";"11.5492122";"charging_station";"Elverum";"Norway";"Hedmark";"N/A";"N/A";"";"6";"";"";"";"";"";"";"";"";"";"";"";"";"";"";"Ionity";"";"24/7";""
"12812244575";"60.880531";"11.550541";"charging_station";"Elverum";"Norway";"Hedmark";"N/A";"N/A";"";"6";"";"";"";"";"";"";"";"";"";"";"";"";"";"";"Circle K";"";"";""
"12824261974";"61.1313286";"11.3699827";"charging_station";"Amot";"Norway";"Hedmark";"N/A";"N/A";"";"6";"";"";"";"";"";"";"";"";"";"";"";"";"";"";"Kople";"";"";""
"12840594746";"61.1307448";"11.375298";"charging_station";"Amot";"Norway";"Hedmark";"N/A";"N/A";"";"20";"";"";"";"";"";"";"";"";"";"";"";"";"";"";"Tesla";"";"";""
"1205941113";"";"";"charging_station";"N/A";"N/A";"N/A";"N/A";"N/A";"";"6";"";"";"";"";"";"";"";"";"";"";"";"";"";"";"Recharge";"";"";""
"11172580043";"60.8871032";"11.5149798";"";"Elverum";"Norway";"Hedmark";"N/A";"N/A";"";"";"";"";"";"";"";"";"";"";"";"";"";"";"";"";"";"";"";""
"11175130399";"60.8871201";"11.5148819";"";"Elverum";"Norway";"Hedmark";"N/A";"N/A";"";"";"";"";"";"";"";"";"";"";"";"";"";"";"";"";"";"";"";""
"11175130400";"60.8872578";"11.5149824";"";"Elverum";"Norway";"Hedmark";"N/A";"N/A";"";"";"";"";"";"";"";"";"";"";"";"";"";"";"";"";"";"";"";""
"11175130401";"60.8872409";"11.5150803";"";"Elverum";"Norway";"Hedmark";"N/A";"N/A";"";"";"";"";"";"";"";"";"";"";"";"";"";"";"";"";"";"";"";""
"6037455981";"61.3240034";"12.1552404";"charging_station";"Trysil";"Norway";"Hedmark";"N/A";"N/A";"";"10";"";"";"Mer";"";"";"";"";"10";"";"";"";"";"";"";"";"";"24/7";"yes"
"6037457100";"61.3290462";"12.163688";"charging_station";"Trysil";"Norway";"Hedmark";"N/A";"N/A";"";"21";"";"";"Mer";"";"";"";"";"21";"";"";"";"";"";"";"";"";"24/7";"yes"
"6037457138";"61.3064182";"12.2439964";"charging_station";"Trysil";"Norway";"Hedmark";"N/A";"N/A";"";"4";"";"";"Lade i Norge";"";"";"";"";"4";"";"";"";"";"";"";"";"";"24/7";""
"10593859692";"61.3070581";"12.2434059";"charging_station";"Trysil";"Norway";"Hedmark";"N/A";"N/A";"";"";"";"";"";"";"";"";"";"";"";"";"";"";"";"";"";"";"";""
"12824261973";"61.3012234";"11.7646717";"charging_station";"Amot";"Norway";"Hedmark";"N/A";"N/A";"";"5";"";"";"";"";"";"";"";"2";"";"";"";"";"";"";"Kople";"";"";""
"6037457086";"61.3149671";"12.2614921";"charging_station";"Trysil";"Norway";"Hedmark";"N/A";"N/A";"";"20";"";"";"";"";"";"";"";"20";"";"";"";"";"";"";"Mer";"";"24/7";""
"10742041184";"61.04579";"12.59307";"charging_station";"Trysil";"Norway";"Hedmark";"N/A";"N/A";"";"2";"";"";"";"";"";"";"";"2";"";"";"";"";"";"";"Recharge";"";"";""
"12755217973";"61.3154";"12.26179";"charging_station";"Trysil";"Norway";"Hedmark";"N/A";"N/A";"";"10";"";"";"";"";"";"";"";"";"";"";"";"";"";"";"Ragde Charge";"";"";""
"12755217980";"61.31436";"12.25588";"charging_station";"Trysil";"Norway";"Hedmark";"N/A";"N/A";"";"6";"";"";"";"";"";"";"";"";"";"";"";"";"";"";"Ragde Charge";"";"";""
"12776982872";"61.2946494";"12.2712979";"charging_station";"Trysil";"Norway";"Hedmark";"N/A";"N/A";"";"6";"";"";"";"";"";"";"";"";"";"";"";"";"";"";"St1 Charge";"";"";""
"12840620148";"61.3160696";"12.2644802";"charging_station";"Trysil";"Norway";"Hedmark";"N/A";"N/A";"";"10";"";"";"Tesla";"Q478214";"";"";"";"";"";"";"";"";"";"";"Tesla Supercharger";"";"";"yes"
"9138053800";"61.1575981";"13.20414";"charging_station";"Malung-Saelens kommun";"Sweden";"Dalarna";"N/A";"N/A";"";"4";"";"";"Eways";"";"";"";"";"";"";"";"";"";"";"";"";"";"";""
"9355843024";"61.1639807";"13.2028074";"charging_station";"Malung-Saelens kommun";"Sweden";"Dalarna";"N/A";"N/A";"";"8";"";"";"";"";"";"";"";"";"";"";"";"";"";"780 67";"Tesla";"";"";""
"10742263738";"61.1647993";"13.2043146";"charging_station";"Malung-Saelens kommun";"Sweden";"Dalarna";"N/A";"N/A";"";"6";"";"";"";"";"";"";"";"4";"";"";"";"";"";"";"InCharge";"";"";""
"10742263741";"61.1661";"13.17507";"charging_station";"Malung-Saelens kommun";"Sweden";"Dalarna";"N/A";"N/A";"";"2";"";"";"Volvofinans Bank";"";"";"";"";"";"";"";"";"";"";"";"";"";"";""
"10742263755";"61.15688";"13.20673";"charging_station";"Malung-Saelens kommun";"Sweden";"Dalarna";"N/A";"N/A";"";"8";"";"";"Dalakraft";"";"";"";"";"8";"";"";"";"";"";"";"";"";"";""
"10742263777";"61.1583";"13.19659";"charging_station";"Malung-Saelens kommun";"Sweden";"Dalarna";"N/A";"N/A";"";"20";"";"";"Blå Byn";"";"";"";"";"20";"";"";"";"";"";"";"";"";"";""
"10742263780";"61.26697";"12.88877";"charging_station";"Trysil";"Norway";"Hedmark";"N/A";"N/A";"";"4";"";"";"Dalakraft";"";"";"";"";"4";"";"";"";"";"";"";"";"";"";""
"10742263787";"61.1643767";"13.187837";"charging_station";"Malung-Saelens kommun";"Sweden";"Dalarna";"N/A";"N/A";"";"2";"";"";"Skistar";"";"";"";"";"2";"";"";"";"";"";"";"";"";"";""
"10742263789";"61.15718";"13.11842";"charging_station";"Malung-Saelens kommun";"Sweden";"Dalarna";"N/A";"N/A";"";"4";"";"";"Scandinavian Resort";"";"";"";"";"4";"";"";"";"";"";"";"";"";"";""
"10742263795";"61.17807";"12.96679";"charging_station";"Trysil";"Norway";"Hedmark";"N/A";"N/A";"";"10";"";"";"Skistar";"";"";"";"";"10";"";"";"";"";"";"";"";"";"";""
"10742267208";"61.17482";"12.99874";"charging_station";"Trysil";"Norway";"Hedmark";"N/A";"N/A";"";"2";"";"";"Skistar";"";"";"";"";"2";"";"";"";"";"";"";"";"";"";""
"10742267211";"61.15899";"13.13338";"charging_station";"Malung-Saelens kommun";"Sweden";"Dalarna";"N/A";"N/A";"";"2";"";"";"Scandinavian Resort";"";"";"";"";"2";"";"";"";"";"";"";"";"";"";""
"10742267219";"61.2671";"12.88804";"charging_station";"Trysil";"Norway";"Hedmark";"N/A";"N/A";"";"4";"";"";"Stöten i Sälen AB";"";"";"";"";"4";"";"";"";"";"";"";"";"";"";""
"10742267221";"61.16406";"13.18931";"charging_station";"Malung-Saelens kommun";"Sweden";"Dalarna";"N/A";"N/A";"";"12";"";"";"Skistar";"";"";"";"";"12";"";"";"";"";"";"";"";"";"";""
"10742267236";"61.1575833";"13.2037843";"charging_station";"Malung-Saelens kommun";"Sweden";"Dalarna";"N/A";"N/A";"";"2";"";"";"Skilodge Lindvallen";"";"2";"";"";"";"";"";"";"";"";"";"";"";"";""
"5368031248";"60.8983587";"13.3877179";"charging_station";"Malung-Saelens kommun";"Sweden";"Dalarna";"N/A";"N/A";"";"2";"";"";"Malungs Elnät";"";"";"";"";"2";"";"";"";"";"";"";"";"";"";""
"10742263751";"61.03132";"13.34065";"charging_station";"Malung-Saelens kommun";"Sweden";"Dalarna";"N/A";"N/A";"";"2";"";"";"Kläppen Ski Resort";"";"";"";"";"2";"";"";"";"";"";"";"";"";"";""
"10742263801";"61.15666";"13.26603";"charging_station";"Malung-Saelens kommun";"Sweden";"Dalarna";"N/A";"N/A";"";"3";"";"";"";"";"";"";"";"2";"";"";"";"";"";"";"Mer";"";"";""
"10742263803";"61.15702";"13.26583";"charging_station";"Malung-Saelens kommun";"Sweden";"Dalarna";"N/A";"N/A";"";"2";"";"";"ICA Nära Sälen";"";"";"";"";"2";"";"";"";"";"";"";"";"";"";""
"10742267222";"61.161405";"13.2629444";"charging_station";"Malung-Saelens kommun";"Sweden";"Dalarna";"N/A";"N/A";"";"10";"";"";"Skistar";"";"";"";"";"10";"";"";"";"";"";"";"";"";"";""
"10742267234";"61.03571";"13.3461";"charging_station";"Malung-Saelens kommun";"Sweden";"Dalarna";"N/A";"N/A";"";"4";"";"";"Dalakraft AB";"";"";"";"";"4";"";"";"";"";"";"";"";"";"";"yes"
"11734015526";"61.0340715";"13.3443707";"charging_station";"Malung-Saelens kommun";"Sweden";"Dalarna";"N/A";"N/A";"";"24";"";"yes";"Easypark";"";"";"";"";"24";"";"";"";"";"";"";"";"";"24/7";"yes"
"12163752911";"61.1576136";"13.2650443";"charging_station";"Malung-Saelens kommun";"Sweden";"Dalarna";"N/A";"N/A";"";"2";"";"";"";"";"";"";"";"";"";"";"";"";"";"";"evniy";"";"";"yes"
"12163752912";"61.1576542";"13.2650214";"charging_station";"Malung-Saelens kommun";"Sweden";"Dalarna";"N/A";"N/A";"";"2";"";"";"";"";"";"";"";"";"";"";"";"";"";"";"eviny";"";"";"yes"
"8149214481";"61.2292498";"14.037221";"charging_station";"Alvdalens Kommun";"Sweden";"Dalarna";"N/A";"N/A";"";"3";"";"";"";"";"";"";"";"2";"";"";"";"";"";"";"Mer";"";"";""
"4269616302";"61.005931";"14.543889";"charging_station";"Mora Kommun";"Sweden";"Dalarna";"N/A";"N/A";"";"20";"";"";"";"";"";"";"";"";"";"";"";"8";"Strandgatan";"79230";"Tesla";"";"";""
"6990838157";"61.1196102";"14.6209492";"charging_station";"Orsa Kommun";"Sweden";"Dalarna";"N/A";"N/A";"";"2";"";"";"Orsa kommun";"";"";"";"";"2";"";"";"";"";"";"";"";"";"";"no"
"10742263722";"61.00761";"14.59346";"charging_station";"Mora Kommun";"Sweden";"Dalarna";"N/A";"N/A";"";"3";"";"";"Dalakraft AB";"";"";"";"";"1";"";"";"";"";"";"";"";"";"";""
"10742263752";"61.00843";"14.59393";"charging_station";"Mora Kommun";"Sweden";"Dalarna";"N/A";"N/A";"";"6";"";"";"Bilmetro AB";"";"";"";"";"";"";"";"";"";"";"";"";"";"";""
"10742263767";"60.98869";"14.53163";"charging_station";"Mora Kommun";"Sweden";"Dalarna";"N/A";"N/A";"";"3";"";"";"eleqtroPoint";"";"";"";"";"3";"";"";"";"";"";"";"";"";"";""
"10742263773";"61.0068945";"14.5962482";"charging_station";"Mora Kommun";"Sweden";"Dalarna";"N/A";"N/A";"";"12";"";"";"";"";"";"";"";"4";"";"";"";"";"";"";"Eviny";"";"";""
"10742263781";"61.122969";"14.619106";"charging_station";"Orsa Kommun";"Sweden";"Dalarna";"N/A";"N/A";"";"1";"";"";"Hotell Strandvillan i Orsa";"";"";"";"";"1";"";"";"";"";"";"";"";"";"";""
"10742263782";"61.019842";"14.534526";"charging_station";"Mora Kommun";"Sweden";"Dalarna";"N/A";"N/A";"";"2";"";"";"Next Green AB";"";"";"";"";"2";"";"";"";"";"";"";"";"";"";""
"10742263786";"61.21251";"14.53497";"charging_station";"Orsa Kommun";"Sweden";"Dalarna";"N/A";"N/A";"";"4";"";"";"Haksun AB";"";"";"";"";"4";"";"";"";"";"";"";"";"";"";""
"10742263792";"61.00626";"14.6013";"charging_station";"Mora Kommun";"Sweden";"Dalarna";"N/A";"N/A";"";"3";"";"";"Dalakraft AB";"";"";"";"";"1";"";"";"";"";"";"";"";"";"";""
"10742267214";"61.20808";"14.53754";"charging_station";"Orsa Kommun";"Sweden";"Dalarna";"N/A";"N/A";"";"4";"";"";"Haksun AB";"";"";"";"";"4";"";"";"";"";"";"";"";"";"";""
"10742267235";"60.99978";"14.53913";"charging_station";"Mora Kommun";"Sweden";"Dalarna";"N/A";"N/A";"";"4";"";"";"Näsgårdarna AB";"";"";"";"";"4";"";"";"";"";"";"";"";"";"";""
"12783588937";"61.005773";"14.5438088";"charging_station";"Mora Kommun";"Sweden";"Dalarna";"N/A";"N/A";"";"7";"";"";"";"";"";"";"";"";"";"";"";"8";"Strandgatan";"79230";"Ionity";"";"";""
"5528704847";"60.885758";"15.115707";"charging_station";"Rattviks Kommun";"Sweden";"Dalarna";"N/A";"N/A";"";"2";"";"";"DalaEnergi";"";"2";"";"";"";"";"";"";"";"";"";"";"";"";""
"9921659957";"60.9126082";"15.027191";"charging_station";"Rattviks Kommun";"Sweden";"Dalarna";"N/A";"N/A";"";"1";"";"";"Mer";"";"";"";"";"";"";"";"";"";"";"";"Mer";"";"";"yes"
"10742263724";"61.16843";"15.13946";"charging_station";"Rattviks Kommun";"Sweden";"Dalarna";"N/A";"N/A";"";"3";"";"";"Ore Energi AB";"";"";"";"";"1";"";"";"";"";"";"";"";"";"";""
"10742263739";"60.88171";"15.11899";"charging_station";"Rattviks Kommun";"Sweden";"Dalarna";"N/A";"N/A";"";"3";"";"";"";"";"";"";"";"1";"";"";"";"";"";"";"Mer";"";"";""
"10742263757";"60.87781";"15.12554";"charging_station";"Rattviks Kommun";"Sweden";"Dalarna";"N/A";"N/A";"";"4";"";"";"Elisabeth Willner Perez AB";"";"";"";"";"4";"";"";"";"";"";"";"";"";"";""
"10742263778";"60.8829754";"15.1213215";"charging_station";"Rattviks Kommun";"Sweden";"Dalarna";"N/A";"N/A";"";"2";"";"";"Rättviks kommun";"";"2";"";"";"";"";"";"";"";"";"";"";"";"";""
"11081393205";"60.8894029";"15.1121373";"charging_station";"Rattviks Kommun";"Sweden";"Dalarna";"N/A";"N/A";"";"";"";"";"";"";"";"";"";"";"";"";"";"";"";"";"";"";"";""
"7083784116";"61.3494358";"16.095";"charging_station";"Ovanakers Kommun";"Sweden";"Gaevleborg";"N/A";"N/A";"";"2";"";"";"";"";"";"";"";"";"";"";"";"";"";"";"";"";"";"no"
"10742263677";"61.3460309";"16.3917035";"charging_station";"Bollnas Kommun";"Sweden";"Gaevleborg";"N/A";"N/A";"";"4";"";"";"";"";"";"";"";"3";"";"";"";"";"";"";"Recharge";"";"";""
"10742263685";"60.8917288";"16.7175651";"charging_station";"Ockelbo Kommun";"Sweden";"Gaevleborg";"N/A";"N/A";"";"2";"";"";"";"";"";"";"";"1";"";"";"";"";"";"";"Recharge";"";"";""
"10742263688";"60.8872612";"16.7032689";"charging_station";"Ockelbo Kommun";"Sweden";"Gaevleborg";"N/A";"N/A";"";"2";"";"";"";"";"";"";"";"2";"";"";"";"";"";"";"Recharge";"";"";""
"10742263690";"61.35089";"16.40008";"charging_station";"Bollnas Kommun";"Sweden";"Gaevleborg";"N/A";"N/A";"";"6";"";"";"";"";"";"";"";"6";"";"";"";"";"";"";"Mer";"";"";""
"10742263693";"60.89186";"16.72057";"charging_station";"Ockelbo Kommun";"Sweden";"Gaevleborg";"N/A";"N/A";"";"10";"";"";"Ockelbo Kommun";"";"10";"";"";"";"";"";"";"";"";"";"";"";"";""
"10742321919";"61.35057";"16.39522";"charging_station";"Bollnas Kommun";"Sweden";"Gaevleborg";"N/A";"N/A";"";"2";"";"";"Bollnäs Kommun, Fastighetsgruppen";"";"";"";"";"2";"";"";"";"";"";"";"";"";"";""
"10742321926";"61.23068";"16.56972";"charging_station";"Bollnas Kommun";"Sweden";"Gaevleborg";"N/A";"N/A";"";"6";"";"";"Laddkoll";"";"";"";"";"6";"";"";"";"";"";"";"";"";"";""
"10742321936";"61.3401179";"16.3352813";"charging_station";"Bollnas Kommun";"Sweden";"Gaevleborg";"N/A";"N/A";"";"8";"";"";"Bollnästravet";"";"";"";"";"8";"";"";"";"";"";"";"";"";"";""
"10742321945";"60.8900412";"16.7148813";"charging_station";"Ockelbo Kommun";"Sweden";"Gaevleborg";"N/A";"N/A";"";"4";"";"";"";"";"";"";"";"4";"";"";"";"";"";"";"Recharge";"";"";""
"10742321949";"60.8743002";"16.7011929";"charging_station";"Ockelbo Kommun";"Sweden";"Gaevleborg";"N/A";"N/A";"";"2";"";"";"";"";"";"";"";"2";"";"";"";"";"";"";"Recharge";"";"";""
"10742321952";"60.89148";"16.71748";"charging_station";"Ockelbo Kommun";"Sweden";"Gaevleborg";"N/A";"N/A";"";"2";"";"";"Ockelbo kommun";"";"";"";"";"1";"";"";"";"";"";"";"";"";"";""
"10742321964";"61.04522";"16.67486";"charging_station";"Ockelbo Kommun";"Sweden";"Gaevleborg";"N/A";"N/A";"";"16";"";"";"Ockelbo Kommun";"";"16";"";"";"";"";"";"";"";"";"";"";"";"";""
"12278765909";"61.3385055";"16.3962531";"charging_station";"Bollnas Kommun";"Sweden";"Gaevleborg";"N/A";"N/A";"";"";"";"";"Vattenfall InCharge";"Q71041027";"";"";"";"";"";"";"";"";"";"";"Vattenfall InCharge";"";"";""
"12278839695";"61.338646";"16.3960547";"charging_station";"Bollnas Kommun";"Sweden";"Gaevleborg";"N/A";"N/A";"";"";"";"";"";"";"";"";"";"";"";"";"";"";"";"";"";"";"";""
"9502975310";"61.294919";"17.0209945";"charging_station";"Soderhamns Kommun";"Sweden";"Gaevleborg";"N/A";"N/A";"";"20";"";"";"";"";"";"";"";"";"";"";"";"5";"Stickvägen";"826 40";"Tesla, Inc.";"";"";""
"10742263678";"60.94031";"17.04811";"charging_station";"Gavle Kommun";"Sweden";"Gaevleborg";"N/A";"N/A";"";"2";"";"";"Hedenstugan Bed and breakfast Hotel";"";"";"";"";"2";"";"";"";"";"";"";"";"";"";""
"10742321928";"61.30073";"17.03835";"charging_station";"Soderhamns Kommun";"Sweden";"Gaevleborg";"N/A";"N/A";"";"2";"";"";"";"";"";"";"";"1";"";"";"";"";"";"";"Mer";"";"";""
"10742321941";"61.30415";"17.06093";"charging_station";"Soderhamns Kommun";"Sweden";"Gaevleborg";"N/A";"N/A";"";"6";"";"";"Söderhamns kommun";"";"";"";"";"6";"";"";"";"";"";"";"";"";"";""
"10742321969";"61.298449";"17.027779";"charging_station";"Soderhamns Kommun";"Sweden";"Gaevleborg";"N/A";"N/A";"";"2";"";"";"Recharge";"";"";"";"";"";"";"";"";"";"";"";"Recharge";"";"";""
"11189349620";"61.3008167";"17.0359878";"charging_station";"Soderhamns Kommun";"Sweden";"Gaevleborg";"N/A";"N/A";"";"";"";"";"";"";"";"";"";"";"";"";"";"";"";"";"";"";"";""
"11189349621";"61.2983881";"17.0292606";"charging_station";"Soderhamns Kommun";"Sweden";"Gaevleborg";"N/A";"N/A";"";"";"";"";"";"";"";"";"";"";"";"";"";"";"";"";"";"";"";""
"11557623954";"61.0724736";"16.9664612";"charging_station";"Gavle Kommun";"Sweden";"Gaevleborg";"N/A";"N/A";"";"4";"";"";"E.ON";"Q270223";"";"";"";"";"";"";"";"";"";"";"";"";"";""
"3357747282";"61.0990579";"21.5044711";"charging_station";"Rauma";"Finland";"Satakunta";"N/A";"N/A";"";"";"";"";"";"";"";"";"";"";"";"";"";"";"";"";"";"";"";""
"4864485363";"61.1339779";"21.5238824";"charging_station";"Rauma";"Finland";"Satakunta";"N/A";"N/A";"";"";"";"";"";"";"";"";"";"";"";"";"";"";"";"";"";"";"";""
"6959646141";"61.1187633";"21.5283085";"charging_station";"Rauma";"Finland";"Satakunta";"N/A";"N/A";"";"1";"";"";"";"";"";"";"";"";"";"";"";"";"Tarvolantie";"26660";"Paroalhon";"";"";""
"7079770658";"61.1330651";"21.5078499";"charging_station";"Rauma";"Finland";"Satakunta";"N/A";"N/A";"yes";"8";"";"";"K-Lataus";"Q116172072";"";"";"";"4";"";"";"";"";"Karjalankatu";"26100";"";"Peruslataus 0,19€/h - 0,20€/h, suurteholataus 0,29€/h - 0,33€/h";"24/7";"yes"
"9047976012";"61.131044";"21.5108908";"charging_station";"Rauma";"Finland";"Satakunta";"N/A";"N/A";"";"2";"";"";"Rauman Energia";"";"";"";"";"";"";"";"";"";"";"";"";"";"";""
"9784015796";"60.8761112";"21.6982116";"charging_station";"Vakka-Suomi";"Finland";"Varsinais-Suomi";"N/A";"N/A";"";"2";"";"";"Virta";"";"";"";"";"2";"";"";"";"";"";"";"";"";"";"yes"
"9889953128";"61.2038326";"21.7401413";"charging_station";"Rauma";"Finland";"Satakunta";"N/A";"N/A";"";"2";"";"yes";"Paneliankosken voima";"";"";"";"";"2";"";"";"";"";"";"";"";"0.20 €/kWh";"";"yes"
"977838869";"";"";"charging_station";"N/A";"N/A";"N/A";"N/A";"N/A";"";"8";"";"";"ABC";"Q10397504";"";"";"";"4";"";"";"";"";"";"";"ABC lataus";"";"";"yes"
"9047983219";"61.1312797";"21.5106432";"";"Rauma";"Finland";"Satakunta";"N/A";"N/A";"";"";"";"";"";"";"";"";"";"";"";"";"";"";"";"";"";"";"";""
"9047983220";"61.1313382";"21.5109587";"";"Rauma";"Finland";"Satakunta";"N/A";"N/A";"";"";"";"";"";"";"";"";"";"";"";"";"";"";"";"";"";"";"";""
"9047983221";"61.1313749";"21.5109295";"";"Rauma";"Finland";"Satakunta";"N/A";"N/A";"";"";"";"";"";"";"";"";"";"";"";"";"";"";"";"";"";"";"";""
"9047983222";"61.1313164";"21.510614";"";"Rauma";"Finland";"Satakunta";"N/A";"N/A";"";"";"";"";"";"";"";"";"";"";"";"";"";"";"";"";"";"";"";""
"9355620881";"61.1677964";"22.6796356";"charging_station";"Pori";"Finland";"Satakunta";"N/A";"N/A";"";"";"";"";"";"";"";"";"";"";"";"";"";"";"";"";"";"";"";""
"9355620901";"61.168407";"22.6801559";"charging_station";"Pori";"Finland";"Satakunta";"N/A";"N/A";"";"6";"";"";"Tesla, Inc.";"Q478214";"";"";"";"";"";"";"";"89";"Loimijoentie";"32700";"Tesla, Inc.";"";"24/7";"yes"
"10586173965";"61.3326591";"22.9255007";"charging_station";"Lounais-Pirkanmaa";"Finland";"Pirkanmaa";"N/A";"N/A";"";"";"";"";"";"";"";"";"";"";"";"";"";"";"";"";"";"";"";"yes"
"5676194521";"61.0815023";"23.550114";"charging_station";"Etelae-Pirkanmaa";"Finland";"Pirkanmaa";"N/A";"N/A";"";"2";"";"";"";"";"";"";"";"";"";"";"";"";"";"";"";"";"";""
"3866946463";"61.1811396";"23.8851303";"charging_station";"Etelae-Pirkanmaa";"Finland";"Pirkanmaa";"N/A";"N/A";"";"8";"";"yes";"Tesla, Inc.";"";"";"";"";"";"";"";"";"43";"Satamatie";"37800";"Tesla Supercharger";"";"24/7";"yes"
"9452210140";"61.1680431";"23.8657985";"charging_station";"Etelae-Pirkanmaa";"Finland";"Pirkanmaa";"N/A";"N/A";"";"";"";"";"Recharge Finland Oy";"";"";"";"";"";"";"";"";"";"";"";"";"0.40€/kWh";"";"yes"
"11098916620";"61.3084069";"23.7518155";"charging_station";"Tampere";"Finland";"Pirkanmaa";"N/A";"N/A";"";"";"";"";"VIRTA";"Q97205884";"";"";"";"";"";"";"";"";"";"";"VIRTA";"";"";""
"11399245725";"61.181266";"23.8848925";"charging_station";"Etelae-Pirkanmaa";"Finland";"Pirkanmaa";"N/A";"N/A";"";"4";"";"";"ABC latauspiste";"";"";"";"";"";"";"";"";"";"";"";"ABC latauspiste";"";"";"yes"
"5570651886";"60.9918985";"24.465854";"charging_station";"Haemeenlinna";"Finland";"Haeme";"N/A";"N/A";"";"2";"";"";"";"";"";"";"";"";"";"";"";"";"";"";"";"";"";""
"6025629840";"60.9951869";"24.4624555";"charging_station";"Haemeenlinna";"Finland";"Haeme";"N/A";"N/A";"";"2";"";"";"";"";"";"";"";"2";"";"";"";"";"";"";"";"";"";"no"
"6368539449";"60.9937908";"24.4590637";"charging_station";"Haemeenlinna";"Finland";"Haeme";"N/A";"N/A";"";"1";"";"";"Nobil Charging Station";"";"1";"";"";"";"";"";"";"25";"Palokunnankatu";"13100";"";"";"";"yes"
"8094667502";"61.0024896";"24.4759085";"charging_station";"Haemeenlinna";"Finland";"Haeme";"N/A";"N/A";"";"6";"";"";"Hämeenlinnan Pysäköinti Oy";"";"";"";"";"";"";"";"";"";"";"";"";"";"";"yes"
"8393973247";"60.9754603";"24.4780576";"charging_station";"Haemeenlinna";"Finland";"Haeme";"N/A";"N/A";"";"4";"";"";"Innopark";"";"";"";"";"4";"";"";"";"";"";"";"";"";"";"yes"
"8393973261";"60.9764591";"24.4800079";"charging_station";"Haemeenlinna";"Finland";"Haeme";"N/A";"N/A";"";"2";"";"";"HAMK";"";"";"";"";"2";"";"";"";"";"";"";"";"";"";"yes"
"9105140989";"61.3392302";"24.491588";"charging_station";"Tampere";"Finland";"Pirkanmaa";"N/A";"N/A";"";"1";"";"yes";"Anssin Kauppa";"";"";"";"";"";"";"";"";"";"";"";"";"1.00 EUR/hour";"";"yes"
"9221700857";"60.9269748";"24.6416369";"charging_station";"Haemeenlinna";"Finland";"Haeme";"N/A";"N/A";"";"";"";"";"";"";"";"";"";"";"";"";"";"";"";"";"";"";"";""
"9338700716";"60.9200459";"24.6386542";"charging_station";"Haemeenlinna";"Finland";"Haeme";"N/A";"N/A";"";"2";"";"";"";"";"";"";"";"";"";"";"";"";"";"";"";"";"";""
"9452473049";"61.0134975";"24.4172545";"charging_station";"Haemeenlinna";"Finland";"Haeme";"N/A";"N/A";"";"26";"";"";"";"";"";"";"";"";"";"";"";"";"";"";"ABC lataus";"";"24/7";"yes"
"9452788882";"61.3472551";"24.2569074";"charging_station";"Tampere";"Finland";"Pirkanmaa";"N/A";"N/A";"";"4";"";"";"Recharge Finland Oy";"";"";"";"";"";"";"";"";"";"";"";"";"0.25€/min";"";"yes"
"10998249236";"61.0087071";"24.4197746";"charging_station";"Haemeenlinna";"Finland";"Haeme";"N/A";"N/A";"";"6";"";"";"Ionity";"";"";"";"";"";"";"";"";"";"";"";"Ionity";"";"24/7";"yes"
"11225601097";"60.9953408";"24.449233";"charging_station";"Haemeenlinna";"Finland";"Haeme";"N/A";"N/A";"";"2";"";"";"VIRTA";"Q97205884";"";"";"";"";"";"";"";"";"";"";"VIRTA";"";"";"yes"
"11225602852";"61.002652";"24.3894876";"charging_station";"Haemeenlinna";"Finland";"Haeme";"N/A";"N/A";"";"2";"";"";"VIRTA";"Q97205884";"";"";"";"";"";"";"";"";"";"";"VIRTA";"";"";"yes"
"11739460883";"60.9221698";"24.6481137";"charging_station";"Haemeenlinna";"Finland";"Haeme";"N/A";"N/A";"";"4";"";"";"";"";"";"";"";"";"";"";"";"";"";"";"";"";"";""
"1685782496";"60.9900462";"25.663491";"charging_station";"Lahti";"Finland";"Paijanne Tavastia";"N/A";"N/A";"";"";"";"";"Lahti Energia Oy";"";"";"";"";"";"";"";"";"";"";"";"";"";"";"no"
"4047432871";"60.9821952";"25.7353883";"charging_station";"Lahti";"Finland";"Paijanne Tavastia";"N/A";"N/A";"";"8";"";"";"";"";"";"";"";"";"";"";"";"";"";"";"";"";"";"yes"
"6594504204";"61.0060651";"25.6670719";"charging_station";"Lahti";"Finland";"Paijanne Tavastia";"N/A";"N/A";"";"2";"";"yes";"VIRTA";"Q97205884";"";"";"";"";"";"";"";"";"";"";"VIRTA";"";"";""
"6594504205";"61.0060638";"25.6669673";"charging_station";"Lahti";"Finland";"Paijanne Tavastia";"N/A";"N/A";"";"2";"";"yes";"VIRTA";"Q97205884";"";"";"";"";"";"";"";"";"";"";"VIRTA";"";"";""
"6594504206";"61.0054313";"25.6631251";"charging_station";"Lahti";"Finland";"Paijanne Tavastia";"N/A";"N/A";"";"2";"";"yes";"VIRTA";"Q97205884";"";"";"";"";"";"";"";"";"";"";"VIRTA";"";"";""
"6594504207";"61.0054102";"25.6631126";"charging_station";"Lahti";"Finland";"Paijanne Tavastia";"N/A";"N/A";"";"2";"";"yes";"VIRTA";"Q97205884";"";"";"";"";"";"";"";"";"";"";"VIRTA";"";"";""
"6594504208";"61.0053864";"25.6630986";"charging_station";"Lahti";"Finland";"Paijanne Tavastia";"N/A";"N/A";"";"2";"";"yes";"VIRTA";"Q97205884";"";"";"";"";"";"";"";"";"";"";"VIRTA";"";"";""
"6594504209";"61.005366";"25.6630866";"charging_station";"Lahti";"Finland";"Paijanne Tavastia";"N/A";"N/A";"";"2";"";"yes";"VIRTA";"Q97205884";"";"";"";"";"";"";"";"";"";"";"VIRTA";"";"";""
"6594504210";"61.0053449";"25.6630741";"charging_station";"Lahti";"Finland";"Paijanne Tavastia";"N/A";"N/A";"";"2";"";"yes";"VIRTA";"Q97205884";"";"";"";"";"";"";"";"";"";"";"VIRTA";"";"";""
"6594504211";"61.0053221";"25.6630607";"charging_station";"Lahti";"Finland";"Paijanne Tavastia";"N/A";"N/A";"";"2";"";"yes";"VIRTA";"Q97205884";"";"";"";"";"";"";"";"";"";"";"VIRTA";"";"";""
"7064866775";"60.9833502";"25.7361615";"charging_station";"Lahti";"Finland";"Paijanne Tavastia";"N/A";"N/A";"";"6";"";"";"Ionity";"";"";"";"";"";"";"";"";"";"";"";"Ionity";"";"24/7";"yes"
"9138380057";"60.9892528";"25.3909412";"charging_station";"Lahti";"Finland";"Paijanne Tavastia";"N/A";"N/A";"";"";"";"";"";"";"";"";"";"";"";"";"";"";"";"";"";"";"";""
"10308603709";"61.0074534";"25.6779807";"charging_station";"Lahti";"Finland";"Paijanne Tavastia";"N/A";"N/A";"";"6";"";"";"VIRTA";"Q97205884";"";"";"";"6";"";"";"";"4";"Johanneksenkatu";"15240";"VIRTA";"";"";"yes"
"10886748780";"61.1720568";"25.5380535";"charging_station";"Lahti";"Finland";"Paijanne Tavastia";"N/A";"N/A";"";"2";"";"no";"Asikkalan kunta";"";"";"";"";"";"";"";"";"";"";"";"";"";"";""
"10889746514";"61.1791104";"25.5234297";"charging_station";"Lahti";"Finland";"Paijanne Tavastia";"N/A";"N/A";"";"2";"";"";"Asikkalan kunta";"";"";"";"";"";"";"";"";"";"Asikkalantie";"17200";"";"";"";""
"10889831706";"61.172268";"25.5527332";"charging_station";"Lahti";"Finland";"Paijanne Tavastia";"N/A";"N/A";"";"4";"";"";"ABC";"Q10397504";"";"";"";"";"";"";"";"";"Koulumestarintie";"";"ABC";"";"";"yes"
"10904718954";"61.1721329";"25.549259";"charging_station";"Lahti";"Finland";"Paijanne Tavastia";"N/A";"N/A";"";"4";"";"";"Asikkalan kunta";"";"";"";"";"";"";"";"";"";"";"";"Unified Chargers";"0.25 EUR / kWh";"";"yes"
"10956810577";"61.1600497";"25.5742415";"charging_station";"Lahti";"Finland";"Paijanne Tavastia";"N/A";"N/A";"";"2";"";"";"";"";"";"";"";"";"";"";"";"";"";"";"eChargie";"0,21€/kW/h";"";"yes"
"10964962272";"61.1709451";"25.5523666";"charging_station";"Lahti";"Finland";"Paijanne Tavastia";"N/A";"N/A";"";"2";"";"";"";"";"";"";"";"2";"";"";"";"";"";"";"";"";"";""
"10976863912";"61.1615059";"25.5794782";"charging_station";"Lahti";"Finland";"Paijanne Tavastia";"N/A";"N/A";"";"6";"";"";"";"";"";"";"";"";"";"";"";"";"";"";"Helen";"";"";""
"11011175225";"61.1724322";"25.5490134";"charging_station";"Lahti";"Finland";"Paijanne Tavastia";"N/A";"N/A";"";"1";"";"";"Asikkalan kunta";"";"";"";"";"";"";"";"";"";"";"";"";"";"";""
"11025980544";"61.1780162";"25.5355461";"charging_station";"Lahti";"Finland";"Paijanne Tavastia";"N/A";"N/A";"";"2";"";"no";"Asikkalan kunta";"";"";"";"";"";"";"";"";"";"";"";"";"";"";"no"
"11048143123";"61.1795627";"25.5447117";"charging_station";"Lahti";"Finland";"Paijanne Tavastia";"N/A";"N/A";"";"2";"";"no";"Asikkalan kunta";"";"";"";"";"";"";"";"";"";"";"";"";"";"";""
"11135970878";"61.1745827";"25.5356878";"charging_station";"Lahti";"Finland";"Paijanne Tavastia";"N/A";"N/A";"";"1";"";"";"Asikkalan seurakunta";"";"";"";"";"";"";"";"";"";"";"";"";"";"";""
"11192908591";"61.1725997";"25.546164";"charging_station";"Lahti";"Finland";"Paijanne Tavastia";"N/A";"N/A";"";"8";"";"";"K-Lataus";"Q116172072";"";"";"";"";"";"";"";"";"";"";"K-lataus";"";"";""
"11232479543";"61.1725356";"25.5800239";"charging_station";"Lahti";"Finland";"Paijanne Tavastia";"N/A";"N/A";"";"2";"";"";"Asikkalan kunta";"";"";"";"";"";"";"";"kuoven03;kuoven04";"";"";"";"Defa";"";"";""
"11232479544";"61.1725015";"25.5798777";"charging_station";"Lahti";"Finland";"Paijanne Tavastia";"N/A";"N/A";"";"2";"";"";"Asikkalan kunta";"";"";"";"";"";"";"";"kuoven01;kuoven02";"";"";"";"Defa";"";"";""
"11393973719";"61.1787488";"25.5241304";"charging_station";"Lahti";"Finland";"Paijanne Tavastia";"N/A";"N/A";"";"2";"";"";"";"";"";"";"";"";"";"";"";"";"";"";"Enersense";"";"";""
"11393973720";"61.1787911";"25.5239835";"charging_station";"Lahti";"Finland";"Paijanne Tavastia";"N/A";"N/A";"";"2";"";"";"";"";"";"";"";"";"";"";"";"";"";"";"Enersense";"";"";""
"11506678529";"60.9930511";"25.5719488";"charging_station";"Lahti";"Finland";"Paijanne Tavastia";"N/A";"N/A";"";"";"";"";"";"";"";"";"";"";"";"";"";"";"";"";"";"";"";"yes"
"11559428378";"61.1724121";"25.5557673";"charging_station";"Lahti";"Finland";"Paijanne Tavastia";"N/A";"N/A";"";"";"";"";"";"";"";"";"";"";"";"";"";"";"";"";"";"";"";""
"12112316687";"61.1721718";"25.5492866";"charging_station";"Lahti";"Finland";"Paijanne Tavastia";"N/A";"N/A";"";"2";"";"";"Asikkalan kunta";"";"";"";"";"2";"";"";"";"";"";"";"Unified Chargers";"0.20 EUR / kWh";"";"yes"
"12160518134";"61.1298224";"25.6602336";"charging_station";"Lahti";"Finland";"Paijanne Tavastia";"N/A";"N/A";"";"2";"";"";"";"";"";"";"";"";"";"";"";"";"";"";"Enersense";"";"";""
"12160518135";"61.1298303";"25.6603424";"charging_station";"Lahti";"Finland";"Paijanne Tavastia";"N/A";"N/A";"";"2";"";"";"";"";"";"";"";"";"";"";"";"";"";"";"Enersense";"";"";""
"12297612534";"60.8654031";"25.2619393";"charging_station";"Lahti";"Finland";"Paijanne Tavastia";"N/A";"N/A";"";"6";"";"";"";"";"";"";"";"";"";"";"";"";"";"";"";"";"";"yes"
"12809825334";"60.9839353";"25.6373291";"charging_station";"Lahti";"Finland";"Paijanne Tavastia";"N/A";"N/A";"";"4";"";"yes";"Virta";"";"";"";"";"4";"";"";"";"";"";"";"Virta";"";"24/7";"yes"
"12809837001";"60.9777389";"25.6604479";"charging_station";"Lahti";"Finland";"Paijanne Tavastia";"N/A";"N/A";"";"4";"";"yes";"Helen";"";"";"";"";"";"";"";"";"";"";"";"Helen";"";"24/7";"yes"
"12809855306";"60.9654913";"25.6564085";"charging_station";"Lahti";"Finland";"Paijanne Tavastia";"N/A";"N/A";"";"10";"";"yes";"K-lataus";"";"";"";"";"6";"";"";"";"";"";"";"K-lataus";"";"24/7";"yes"
"12809902486";"60.9605668";"25.6559728";"charging_station";"Lahti";"Finland";"Paijanne Tavastia";"N/A";"N/A";"";"8";"";"yes";"ABC-lataus";"";"";"";"";"";"";"";"";"";"";"";"ABC-lataus";"";"07:00-23:00";"yes"
"978741750";"";"";"charging_station";"N/A";"N/A";"N/A";"N/A";"N/A";"";"";"";"";"NESTE MY Renewable Charge";"";"";"";"";"";"";"";"";"";"";"";"NESTE";"";"";"yes"
"9056204990";"60.9828641";"25.4930487";"";"Lahti";"Finland";"Paijanne Tavastia";"N/A";"N/A";"";"";"";"";"";"";"";"";"";"";"";"";"";"";"";"";"";"";"";""
"9056204991";"60.9829125";"25.4929878";"";"Lahti";"Finland";"Paijanne Tavastia";"N/A";"N/A";"";"";"";"";"";"";"";"";"";"";"";"";"";"";"";"";"";"";"";""
"9056204988";"60.9830674";"25.4935108";"";"Lahti";"Finland";"Paijanne Tavastia";"N/A";"N/A";"";"";"";"";"";"";"";"";"";"";"";"";"";"";"";"";"";"";"";""
"9056204989";"60.9830189";"25.4935718";"";"Lahti";"Finland";"Paijanne Tavastia";"N/A";"N/A";"";"";"";"";"";"";"";"";"";"";"";"";"";"";"";"";"";"";"";""
"4269917819";"61.112392";"25.9298334";"charging_station";"Lahti";"Finland";"Paijanne Tavastia";"N/A";"N/A";"";"8";"";"yes";"Tesla, Inc.";"Q478214";"";"";"";"";"";"";"";"1";"Tervalammentie";"19110";"Tesla Supercharger";"";"24/7";"yes"
"9743325010";"61.1126898";"25.926937";"charging_station";"Lahti";"Finland";"Paijanne Tavastia";"N/A";"N/A";"";"";"";"";"";"";"";"";"";"";"";"";"";"";"";"";"";"";"";""
"11243597043";"61.1928523";"26.0005232";"charging_station";"Lahti";"Finland";"Paijanne Tavastia";"N/A";"N/A";"";"";"";"";"";"";"";"";"";"";"";"";"";"";"";"";"";"";"";""
"11537566953";"61.2048174";"26.0383431";"charging_station";"Lahti";"Finland";"Paijanne Tavastia";"N/A";"N/A";"";"3";"";"";"";"";"";"";"";"";"";"";"";"";"";"";"";"";"";"no"
"1373744864";"";"";"charging_station";"N/A";"N/A";"N/A";"N/A";"N/A";"";"6";"";"";"";"";"";"";"";"";"";"";"";"";"";"";"Neste";"";"";"yes"
"11337205034";"61.1117919";"25.9287047";"";"Lahti";"Finland";"Paijanne Tavastia";"N/A";"N/A";"";"";"";"";"";"";"";"";"";"";"";"";"";"";"";"";"";"";"";""
"12718915918";"61.1118943";"25.9286334";"";"Lahti";"Finland";"Paijanne Tavastia";"N/A";"N/A";"";"";"";"";"";"";"";"";"";"";"";"";"";"";"";"";"";"";"";""
"12718915919";"61.1119717";"25.9291098";"";"Lahti";"Finland";"Paijanne Tavastia";"N/A";"N/A";"";"";"";"";"";"";"";"";"";"";"";"";"";"";"";"";"";"";"";""
"12718915920";"61.1118693";"25.9291811";"";"Lahti";"Finland";"Paijanne Tavastia";"N/A";"N/A";"";"";"";"";"";"";"";"";"";"";"";"";"";"";"";"";"";"";"";""
"5777534969";"60.8762222";"26.7330608";"charging_station";"Kouvola";"Finland";"Kymenlaakso";"N/A";"N/A";"";"2";"";"";"Lidl";"Q151954";"";"";"";"";"";"";"";"";"";"";"";"";"";"no"
"7044281056";"60.8734853";"26.6793283";"charging_station";"Kouvola";"Finland";"Kymenlaakso";"N/A";"N/A";"";"2";"";"";"KSSe";"";"";"";"";"";"";"";"";"";"";"";"";"";"";"yes"
"7044290028";"60.8697405";"26.7056152";"charging_station";"Kouvola";"Finland";"Kymenlaakso";"N/A";"N/A";"";"2";"";"";"KSSe";"";"";"";"";"";"";"";"";"";"";"";"";"";"";"yes"
"7044290029";"60.8719435";"26.701545";"charging_station";"Kouvola";"Finland";"Kymenlaakso";"N/A";"N/A";"";"2";"";"";"KSSe";"";"";"";"";"";"";"";"";"";"";"";"";"";"";""
"7044290030";"60.8647138";"26.7087858";"charging_station";"Kouvola";"Finland";"Kymenlaakso";"N/A";"N/A";"";"2";"";"";"KSSe";"";"";"";"";"";"";"";"";"";"";"";"";"";"";"yes"
"7044311140";"60.8762334";"26.6532252";"charging_station";"Kouvola";"Finland";"Kymenlaakso";"N/A";"N/A";"";"8";"";"";"";"";"";"";"";"";"";"";"";"";"";"";"";"";"";"yes"
"7044338027";"60.9257599";"26.6597602";"charging_station";"Kouvola";"Finland";"Kymenlaakso";"N/A";"N/A";"";"2";"";"";"KSSe";"";"";"";"";"";"";"";"";"";"";"";"";"";"";"yes"
"7239374769";"61.0626109";"26.6381406";"charging_station";"Kouvola";"Finland";"Kymenlaakso";"N/A";"N/A";"";"2";"";"";"";"";"";"";"";"";"";"";"";"";"";"";"";"";"";"yes"
"7239374774";"60.8680128";"26.598734";"charging_station";"Kouvola";"Finland";"Kymenlaakso";"N/A";"N/A";"";"1";"";"";"";"";"";"";"";"";"";"";"";"";"";"";"";"";"";"yes"
"9918951371";"60.8888505";"26.3407929";"charging_station";"Kouvola";"Finland";"Kymenlaakso";"N/A";"N/A";"";"8";"";"";"Kymen Seudun Osuuskauppa";"";"";"";"";"2";"";"";"";"";"";"";"ABC-lataus";"";"";"yes"
"9928648224";"60.9267388";"26.3877002";"charging_station";"Kouvola";"Finland";"Kymenlaakso";"N/A";"N/A";"";"1";"";"";"Virta";"";"";"";"";"1";"";"";"";"";"";"";"";"";"";""
"9928693059";"60.9107398";"26.2754672";"charging_station";"Kouvola";"Finland";"Kymenlaakso";"N/A";"N/A";"";"2";"";"";"KSS Energia";"";"";"";"";"2";"";"";"";"";"";"";"";"";"";"yes"
"10152142585";"60.8757358";"26.7402167";"charging_station";"Kouvola";"Finland";"Kymenlaakso";"N/A";"N/A";"";"2";"";"";"";"";"";"";"";"";"";"";"";"";"";"";"";"";"";"yes"
"10152142586";"60.8757162";"26.7401675";"charging_station";"Kouvola";"Finland";"Kymenlaakso";"N/A";"N/A";"";"2";"";"";"";"";"";"";"";"";"";"";"";"";"";"";"";"";"";"yes"
"10152142587";"60.8756794";"26.7403395";"charging_station";"Kouvola";"Finland";"Kymenlaakso";"N/A";"N/A";"";"2";"";"";"";"";"";"";"";"";"";"";"";"";"";"";"";"";"";"yes"
"10152142588";"60.8756555";"26.7402939";"charging_station";"Kouvola";"Finland";"Kymenlaakso";"N/A";"N/A";"";"2";"";"";"";"";"";"";"";"";"";"";"";"";"";"";"";"";"";"yes"
"10285674008";"60.8940184";"26.3362425";"charging_station";"Kouvola";"Finland";"Kymenlaakso";"N/A";"N/A";"";"6";"";"";"Kymen Seudun Osuuskauppa";"";"";"";"";"2";"";"";"";"";"";"";"ABC-lataus";"";"";"yes"
"11451897757";"61.0626986";"26.637246";"charging_station";"Kouvola";"Finland";"Kymenlaakso";"N/A";"N/A";"";"";"";"";"";"";"";"";"";"";"";"";"";"";"";"";"";"";"";""
"11482358742";"61.0489749";"26.4843835";"charging_station";"Kouvola";"Finland";"Kymenlaakso";"N/A";"N/A";"";"";"";"";"";"";"";"";"";"";"";"";"";"";"";"";"";"";"";""
"11994864783";"60.9074069";"26.624027";"charging_station";"Kouvola";"Finland";"Kymenlaakso";"N/A";"N/A";"";"3";"";"";"";"";"";"";"";"";"";"";"";"";"";"";"";"";"";"yes"
"12536736647";"60.8748428";"26.741838";"charging_station";"Kouvola";"Finland";"Kymenlaakso";"N/A";"N/A";"";"4";"";"";"K-Lataus";"Q116172072";"";"";"";"";"";"";"";"";"";"";"K-Lataus";"";"";"yes"
"1082293851";"";"";"charging_station";"N/A";"N/A";"N/A";"N/A";"N/A";"";"";"";"";"";"";"";"";"";"";"";"";"";"";"";"";"";"";"";""
"9918930536";"60.8887813";"26.340652";"";"Kouvola";"Finland";"Kymenlaakso";"N/A";"N/A";"";"";"";"";"";"";"";"";"";"";"";"";"";"";"";"";"";"";"";""
"9918930537";"60.888822";"26.3406009";"";"Kouvola";"Finland";"Kymenlaakso";"N/A";"N/A";"";"";"";"";"";"";"";"";"";"";"";"";"";"";"";"";"";"";"";""
"9918930538";"60.8889198";"26.3409302";"";"Kouvola";"Finland";"Kymenlaakso";"N/A";"N/A";"";"";"";"";"";"";"";"";"";"";"";"";"";"";"";"";"";"";"";""
"9918930539";"60.888879";"26.3409814";"";"Kouvola";"Finland";"Kymenlaakso";"N/A";"N/A";"";"";"";"";"";"";"";"";"";"";"";"";"";"";"";"";"";"";"";""
"7044311141";"60.8832408";"26.7741883";"charging_station";"Kouvola";"Finland";"Kymenlaakso";"N/A";"N/A";"";"4";"";"";"KSSe";"";"";"";"";"";"";"";"";"";"";"";"";"";"";"yes"
"7280526002";"60.8943331";"26.9103026";"charging_station";"Kouvola";"Finland";"Kymenlaakso";"N/A";"N/A";"";"2";"";"";"ABC Lataus";"";"";"";"";"";"";"";"";"";"";"";"";"";"";"yes"
"9793398090";"60.888081";"26.7773386";"charging_station";"Kouvola";"Finland";"Kymenlaakso";"N/A";"N/A";"";"";"";"yes";"";"";"";"";"";"";"";"";"";"";"";"";"";"";"";"yes"
"10010079141";"61.0913314";"27.0681855";"charging_station";"Mikkeli";"Finland";"Southern Savonia";"N/A";"N/A";"";"";"";"";"";"";"";"";"";"";"";"";"";"";"";"";"";"";"";""
"11001910215";"60.8871055";"26.7728104";"charging_station";"Kouvola";"Finland";"Kymenlaakso";"N/A";"N/A";"";"";"";"";"";"";"";"";"";"";"";"";"";"";"";"";"";"";"";"yes"
"11001910216";"60.8870602";"26.772722";"charging_station";"Kouvola";"Finland";"Kymenlaakso";"N/A";"N/A";"";"";"";"";"";"";"";"";"";"";"";"";"";"";"";"";"";"";"";"yes"
"11001910217";"60.8870088";"26.772621";"charging_station";"Kouvola";"Finland";"Kymenlaakso";"N/A";"N/A";"";"";"";"";"";"";"";"";"";"";"";"";"";"";"";"";"";"";"";"yes"
"11001910218";"60.8869613";"26.7725234";"charging_station";"Kouvola";"Finland";"Kymenlaakso";"N/A";"N/A";"";"";"";"";"";"";"";"";"";"";"";"";"";"";"";"";"";"";"";"yes"
"11001910219";"60.8870703";"26.7722639";"charging_station";"Kouvola";"Finland";"Kymenlaakso";"N/A";"N/A";"";"";"";"";"";"";"";"";"";"";"";"";"";"";"";"";"";"";"";"yes"
"11001910220";"60.8871094";"26.7723373";"charging_station";"Kouvola";"Finland";"Kymenlaakso";"N/A";"N/A";"";"";"";"";"";"";"";"";"";"";"";"";"";"";"";"";"";"";"";"yes"
"11001910221";"60.8871507";"26.7724143";"charging_station";"Kouvola";"Finland";"Kymenlaakso";"N/A";"N/A";"";"";"";"";"";"";"";"";"";"";"";"";"";"";"";"";"";"";"";"yes"
"11001910222";"60.8872038";"26.7725222";"charging_station";"Kouvola";"Finland";"Kymenlaakso";"N/A";"N/A";"";"";"";"";"";"";"";"";"";"";"";"";"";"";"";"";"";"";"";"yes"
"11361418662";"61.1937036";"27.6975902";"charging_station";"Lappeenranta";"Finland";"South Karelia";"N/A";"N/A";"";"2";"";"";"VIRTA";"Q97205884";"";"";"";"";"";"";"";"";"";"";"VIRTA";"";"";""
"7064893277";"61.0448318";"28.2021302";"charging_station";"Lappeenranta";"Finland";"South Karelia";"N/A";"N/A";"";"8";"";"";"K-Lataus";"Q116172072";"";"";"";"";"";"";"";"";"";"";"";"";"";"yes"
"7064894134";"61.0444046";"28.179993";"charging_station";"Lappeenranta";"Finland";"South Karelia";"N/A";"N/A";"";"2";"";"";"";"";"";"";"";"";"";"";"";"";"";"";"";"";"";"yes"
"7064915234";"61.0571622";"28.1845398";"charging_station";"Lappeenranta";"Finland";"South Karelia";"N/A";"N/A";"";"3";"";"";"K-Lataus";"Q116172072";"";"";"";"";"";"";"";"";"";"";"";"";"";"yes"
"12025404626";"61.0590934";"28.1842795";"charging_station";"Lappeenranta";"Finland";"South Karelia";"N/A";"N/A";"";"";"";"";"VIRTA";"Q97205884";"";"";"";"";"";"";"";"";"";"";"VIRTA";"";"";""
"12037933651";"61.0442836";"28.2154342";"charging_station";"Lappeenranta";"Finland";"South Karelia";"N/A";"N/A";"";"";"";"yes";"";"";"";"";"";"";"";"";"";"";"";"";"";"";"";"yes"
"1343432456";"";"";"charging_station";"N/A";"N/A";"N/A";"N/A";"N/A";"";"";"";"";"ABC";"Q10397504";"";"";"";"";"";"";"";"";"";"";"";"";"";""
"12430375321";"61.0513577";"28.1813384";"";"Lappeenranta";"Finland";"South Karelia";"N/A";"N/A";"";"";"";"";"";"";"";"";"";"";"";"";"";"";"";"";"";"";"";""
"12430375322";"61.0514112";"28.1814821";"";"Lappeenranta";"Finland";"South Karelia";"N/A";"N/A";"";"";"";"";"";"";"";"";"";"";"";"";"";"";"";"";"";"";"";""
"12430375323";"61.0515492";"28.1812628";"";"Lappeenranta";"Finland";"South Karelia";"N/A";"N/A";"";"";"";"";"";"";"";"";"";"";"";"";"";"";"";"";"";"";"";""
"12430375324";"61.0514957";"28.1811191";"";"Lappeenranta";"Finland";"South Karelia";"N/A";"N/A";"";"";"";"";"";"";"";"";"";"";"";"";"";"";"";"";"";"";"";""
"7064907673";"61.1866434";"28.7439319";"charging_station";"Imatra";"Finland";"South Karelia";"N/A";"N/A";"";"2";"";"";"";"";"";"";"";"";"";"";"";"";"";"";"";"";"";"yes"
"9355659367";"61.0526763";"28.2611489";"charging_station";"Lappeenranta";"Finland";"South Karelia";"N/A";"N/A";"";"4";"";"";"Tesla, Inc.";"";"";"";"";"";"";"";"";"1";"Hirsimäenkatu";"53500";"Tesla Supercharger";"";"24/7";"yes"
"11107438061";"61.0237152";"33.0144844";"charging_station";"";"Russian Federation";"Republic of Karelia";"N/A";"N/A";"";"";"";"";"";"";"";"";"";"";"";"";"";"";"";"";"";"";"";""
"9277952516";"61.2446611";"73.4132449";"charging_station";"";"Russian Federation";"Khanty-Mansiyskiy Avtonomnyy Okrug";"N/A";"N/A";"";"";"";"yes";"";"";"";"";"";"";"";"";"";"";"";"";"";"";"";""
"9442092289";"61.2372873";"73.3742282";"charging_station";"";"Russian Federation";"Khanty-Mansiyskiy Avtonomnyy Okrug";"N/A";"N/A";"";"";"";"";"";"";"";"";"";"";"";"";"";"";"";"";"";"";"";""
"11182395286";"61.40346";"-149.46797";"charging_station";"Anchorage Municipality";"United States";"Alaska";"N/A";"N/A";"";"8";"";"designated";"Tesla, Inc.";"Q478214";"";"";"";"";"";"";"";"22211";"Birchwood Loop Road";"99567";"Tesla Supercharger";"";"24/7";"yes"
"12874350340";"61.5803495";"-149.6071376";"charging_station";"Matanuska-Susitna Borough";"United States";"Alaska";"N/A";"N/A";"";"2";"";"";"";"";"";"";"";"";"";"";"";"";"";"";"";"";"";""
"12472001193";"61.5551234";"-6.8116372";"charging_station";"";"Faroe Islands";"Suduroy";"N/A";"N/A";"";"";"";"";"";"";"";"";"";"";"";"";"";"";"";"";"";"";"";""
"6047204633";"61.6003258";"5.044261";"charging_station";"Flora";"Norway";"Sogn og Fjordane";"N/A";"N/A";"";"1";"";"";"Kiwi";"";"";"";"";"1";"";"";"";"";"";"";"";"";"24/7";""
"7685310035";"61.6016681";"5.0378399";"charging_station";"Flora";"Norway";"Sogn og Fjordane";"N/A";"N/A";"";"4";"";"";"";"";"";"";"";"";"";"";"";"";"";"";"Mer";"";"";""
"11169096715";"61.5993209";"5.0647636";"charging_station";"Flora";"Norway";"Sogn og Fjordane";"N/A";"N/A";"";"3";"";"";"";"";"";"";"";"2";"";"";"";"";"";"";"Eviny";"";"";""
"11169096716";"61.5989761";"5.0477095";"charging_station";"Flora";"Norway";"Sogn og Fjordane";"N/A";"N/A";"";"5";"";"";"";"";"";"";"";"1";"";"";"";"";"";"";"Eviny";"";"";""
"1770690925";"61.3634826";"5.3981505";"charging_station";"Fjaler";"Norway";"Sogn og Fjordane";"N/A";"N/A";"";"4";"";"";"";"";"";"";"";"4";"";"";"";"";"";"";"Kople";"";"";""
"6047204632";"61.5083826";"5.7182879";"charging_station";"Naustdal";"Norway";"Sogn og Fjordane";"N/A";"N/A";"";"4";"";"";"";"";"";"";"";"2";"";"";"";"";"";"";"Mer";"";"24/7";""
"11169096671";"61.3643804";"5.40123";"charging_station";"Fjaler";"Norway";"Sogn og Fjordane";"N/A";"N/A";"";"5";"";"";"";"";"";"";"";"1";"";"";"";"";"";"";"Eviny";"";"";""
"11169096717";"61.7683856";"5.2921526";"charging_station";"Bremanger";"Norway";"Sogn og Fjordane";"N/A";"N/A";"";"4";"";"";"";"";"";"";"";"2";"";"";"";"";"";"";"Eviny";"";"";""
"11211808189";"61.3630211";"5.3935582";"charging_station";"Fjaler";"Norway";"Sogn og Fjordane";"N/A";"N/A";"";"1";"";"";"";"";"";"";"";"1";"";"";"";"";"";"";"Kople";"";"";""
"11211808195";"61.3626136";"5.3893458";"charging_station";"Fjaler";"Norway";"Sogn og Fjordane";"N/A";"N/A";"";"4";"";"";"";"";"";"";"";"4";"";"";"";"";"";"";"Kople";"";"";""
"11211808196";"61.3660758";"5.4041885";"charging_station";"Fjaler";"Norway";"Sogn og Fjordane";"N/A";"N/A";"";"4";"";"";"";"";"";"";"";"4";"";"";"";"";"";"";"Kople";"";"";""
"1770690001";"61.4487642";"5.8869076";"charging_station";"Forde";"Norway";"Sogn og Fjordane";"N/A";"N/A";"";"4";"";"";"";"";"";"";"";"2";"";"";"";"";"";"";"Mer";"";"24/7";""
"3046946764";"61.778011";"6.21327";"charging_station";"Gloppen";"Norway";"Sogn og Fjordane";"N/A";"N/A";"";"6";"";"";"";"";"";"";"";"";"";"";"";"";"";"";"Tesla";"";"";""
"11169096673";"61.4494516";"5.8720717";"charging_station";"Forde";"Norway";"Sogn og Fjordane";"N/A";"N/A";"";"6";"";"";"";"";"";"";"";"1";"";"";"";"";"";"";"Eviny";"";"";""
"11169096674";"61.4512866";"5.8494325";"charging_station";"Forde";"Norway";"Sogn og Fjordane";"N/A";"N/A";"";"12";"";"";"";"";"";"";"";"10";"";"";"";"";"";"";"Eviny";"";"";""
"11169096675";"61.4577047";"5.8495264";"charging_station";"Forde";"Norway";"Sogn og Fjordane";"N/A";"N/A";"";"4";"";"";"";"";"";"";"";"";"";"";"";"";"";"";"Eviny";"";"";""
"11169096676";"61.4880232";"6.0812474";"charging_station";"Forde";"Norway";"Sogn og Fjordane";"N/A";"N/A";"";"8";"";"";"";"";"";"";"";"1";"";"";"";"";"";"";"Eviny";"";"";""
"11169096718";"61.7778683";"6.2133063";"charging_station";"Gloppen";"Norway";"Sogn og Fjordane";"N/A";"N/A";"";"3";"";"";"";"";"";"";"";"2";"";"";"";"";"";"";"Eviny";"";"";""
"11211332226";"61.4582693";"5.8879718";"charging_station";"Forde";"Norway";"Sogn og Fjordane";"N/A";"N/A";"";"10";"";"";"Førde Sentralsjukehus";"";"";"";"";"10";"";"";"";"";"";"";"Energiplan";"";"";"yes"
"12144434834";"61.4618456";"5.8884747";"charging_station";"Forde";"Norway";"Sogn og Fjordane";"N/A";"N/A";"";"2";"";"yes";"Plugpay";"";"";"";"";"2";"";"";"6516;6531";"";"";"";"";"";"";"yes"
"12144434835";"61.4618543";"5.8885955";"charging_station";"Forde";"Norway";"Sogn og Fjordane";"N/A";"N/A";"";"2";"";"yes";"Plugpay";"";"";"";"";"2";"";"";"6526;6521";"";"";"";"";"";"";"yes"
"12149641915";"61.4340181";"5.9866531";"charging_station";"Forde";"Norway";"Sogn og Fjordane";"N/A";"N/A";"";"2";"";"yes";"Kople";"";"";"";"";"2";"";"";"5662;5663";"";"";"";"Kople";"";"";"yes"
"12149641916";"61.4339839";"5.9866028";"charging_station";"Forde";"Norway";"Sogn og Fjordane";"N/A";"N/A";"";"2";"";"yes";"Kople";"";"";"";"";"2";"";"";"5741;5742";"";"";"";"Kople";"";"";"yes"
"12149641917";"61.4339465";"5.9865515";"charging_station";"Forde";"Norway";"Sogn og Fjordane";"N/A";"N/A";"";"2";"";"yes";"Kople";"";"";"";"";"2";"";"";"5743;574433";"";"";"";"Kople";"";"";"yes"
"12773980020";"61.4485962";"5.8863806";"charging_station";"Forde";"Norway";"Sogn og Fjordane";"N/A";"N/A";"";"16";"";"";"";"";"";"";"";"";"";"";"";"";"";"";"Tesla";"";"";""
"12776873490";"61.453011";"5.851308";"charging_station";"Forde";"Norway";"Sogn og Fjordane";"N/A";"N/A";"";"6";"";"";"";"";"";"";"";"";"";"";"";"";"";"";"Eviny";"";"";""
"1770693004";"61.5724087";"6.4807607";"charging_station";"Jolster";"Norway";"Sogn og Fjordane";"N/A";"N/A";"";"4";"";"";"";"";"";"";"";"2";"";"";"";"";"";"";"Mer";"";"24/7";""
"6047204628";"61.7334694";"6.5064515";"charging_station";"Jolster";"Norway";"Sogn og Fjordane";"N/A";"N/A";"";"4";"";"";"";"";"";"";"";"2";"";"";"";"";"";"";"Mer";"";"24/7";""
"7058633613";"61.575496";"6.483437";"charging_station";"Jolster";"Norway";"Sogn og Fjordane";"N/A";"N/A";"";"16";"";"";"";"";"";"";"";"";"";"";"";"";"";"";"Tesla";"";"";""
"8999215402";"61.5753096";"6.48368";"charging_station";"Jolster";"Norway";"Sogn og Fjordane";"N/A";"N/A";"";"6";"";"";"";"";"";"";"";"";"";"";"";"";"";"";"Ionity";"";"";""
"11032990199";"61.7322577";"6.5067254";"charging_station";"Jolster";"Norway";"Sogn og Fjordane";"N/A";"N/A";"";"8";"";"";"";"";"";"";"";"";"";"";"";"";"";"";"Kople";"";"24/7";"yes"
"12081675596";"61.7655913";"6.5038529";"charging_station";"Jolster";"Norway";"Sogn og Fjordane";"N/A";"N/A";"";"";"";"";"";"";"2";"";"";"";"";"";"";"";"";"";"";"";"";""
"12081675597";"61.7655225";"6.5038538";"charging_station";"Jolster";"Norway";"Sogn og Fjordane";"N/A";"N/A";"";"";"";"";"";"";"2";"";"";"";"";"";"";"";"";"";"";"";"";""
"12081675598";"61.7654389";"6.5038451";"charging_station";"Jolster";"Norway";"Sogn og Fjordane";"N/A";"N/A";"";"";"";"";"";"";"2";"";"";"";"";"";"";"";"";"";"";"";"";""
"12081675599";"61.7656421";"6.5038577";"charging_station";"Jolster";"Norway";"Sogn og Fjordane";"N/A";"N/A";"";"";"";"";"";"";"2";"";"";"";"";"";"";"";"";"";"";"";"";""
"5757276333";"61.4230975";"6.7610644";"charging_station";"Leikanger";"Norway";"Sogn og Fjordane";"N/A";"N/A";"";"4";"";"";"";"";"";"";"";"2";"";"";"";"";"";"";"Mer";"";"24/7";""
"10075788783";"61.6630438";"6.8227726";"charging_station";"Stryn";"Norway";"Sogn og Fjordane";"N/A";"N/A";"";"2";"";"";"DEFA CloudCharge";"";"";"";"";"";"";"";"";"";"";"";"";"";"";"yes"
"5757276351";"61.4028117";"7.2942208";"charging_station";"Luster";"Norway";"Sogn og Fjordane";"N/A";"N/A";"";"4";"";"";"";"";"";"";"";"2";"";"";"";"";"";"";"Mer";"";"24/7";""
"6047204624";"61.4041316";"7.2961269";"charging_station";"Luster";"Norway";"Sogn og Fjordane";"N/A";"N/A";"";"2";"";"";"Pyramiden senter";"";"";"";"";"2";"";"";"";"";"";"";"";"";"24/7";""
"6828662123";"61.8089492";"7.7105811";"charging_station";"Ardal";"Norway";"Sogn og Fjordane";"N/A";"N/A";"";"4";"";"";"";"";"";"";"";"";"";"";"";"";"";"";"";"";"";""
"11172580151";"61.4892336";"7.6809722";"charging_station";"Ardal";"Norway";"Sogn og Fjordane";"N/A";"N/A";"";"4";"";"";"";"";"";"";"";"1";"";"";"";"";"";"";"Recharge";"";"";""
"6025956799";"61.8362021";"8.5673524";"charging_station";"Lom";"Norway";"Oppland";"N/A";"N/A";"";"16";"";"";"";"";"";"";"";"";"";"";"";"";"";"";"Eviny";"";"";""
"11172580269";"61.8385064";"8.570561";"charging_station";"Lom";"Norway";"Oppland";"N/A";"N/A";"";"6";"";"";"";"";"";"";"";"";"";"";"";"";"";"";"Recharge";"";"";""
"11185853261";"61.8411827";"8.5749491";"charging_station";"Lom";"Norway";"Oppland";"N/A";"N/A";"";"4";"";"";"";"";"";"";"";"";"";"";"";"";"";"";"Kople";"";"";""
"6025956821";"61.4933283";"8.8137333";"charging_station";"Lom";"Norway";"Oppland";"N/A";"N/A";"";"6";"";"";"Gjendesheim Turisthytte";"";"";"";"";"6";"";"";"";"";"";"";"";"";"24/7";""
"7768317237";"61.3895552";"8.8113383";"charging_station";"Vestre Slidre";"Norway";"Oppland";"N/A";"N/A";"";"2";"";"yes";"Ringeriks-Kraft";"";"";"";"";"2";"";"";"";"";"";"";"";"";"24/7";"yes"
"1770694026";"61.5977534";"9.733368";"charging_station";"Nord-Fron";"Norway";"Oppland";"N/A";"N/A";"";"4";"";"";"Vinstra vidaregåande skule";"";"";"";"";"";"";"";"";"";"";"";"";"";"24/7";""
"4769721500";"61.590477";"9.721481";"charging_station";"Nord-Fron";"Norway";"Oppland";"N/A";"N/A";"";"12";"";"";"";"";"";"";"";"";"";"";"";"";"";"";"Tesla";"";"";""
"5562864397";"61.5906744";"9.7209383";"charging_station";"Nord-Fron";"Norway";"Oppland";"N/A";"N/A";"";"6";"";"";"";"";"";"";"";"4";"";"";"";"";"";"";"Recharge";"";"24/7";""
"5562864398";"61.5920492";"9.7231418";"charging_station";"Nord-Fron";"Norway";"Oppland";"N/A";"N/A";"";"8";"";"";"Circle K";"Q3268010";"";"";"";"";"";"";"";"";"";"";"Circle K";"";"";""
"5808132164";"61.7730496";"9.5399496";"charging_station";"Sel";"Norway";"Oppland";"N/A";"N/A";"";"2";"";"";"";"";"";"";"";"1";"";"";"";"";"";"";"Recharge";"";"";""
"6025956806";"61.7588579";"9.2858393";"charging_station";"Vaga";"Norway";"Oppland";"N/A";"N/A";"";"4";"";"";"";"";"";"";"";"2";"";"";"";"";"";"";"Recharge";"";"24/7";""
"6025956827";"61.73209";"9.36912";"charging_station";"Sel";"Norway";"Oppland";"N/A";"N/A";"";"3";"";"";"Nordre Ekre gardshotell";"";"";"";"";"3";"";"";"";"";"";"";"";"";"24/7";""
"6025956831";"61.6659693";"9.7017343";"charging_station";"Nord-Fron";"Norway";"Oppland";"N/A";"N/A";"";"1";"";"";"Kople AS";"";"";"";"";"";"";"";"";"";"";"";"";"";"";""
"9932787713";"61.5945417";"9.7265558";"charging_station";"Nord-Fron";"Norway";"Oppland";"N/A";"N/A";"";"20";"";"";"";"";"";"";"";"";"";"";"";"";"";"";"Tesla";"";"";""
"11146764729";"61.5941844";"9.7238522";"charging_station";"Nord-Fron";"Norway";"Oppland";"N/A";"N/A";"";"8";"";"";"";"";"";"";"";"";"";"";"";"";"";"";"Mer";"";"";""
"11173760419";"61.7714324";"9.5431253";"charging_station";"Sel";"Norway";"Oppland";"N/A";"N/A";"";"10";"";"";"Circle K";"Q3268010";"";"";"";"";"";"";"";"";"";"";"Circle K";"";"";""
"11214406653";"61.5948111";"9.7325845";"charging_station";"Nord-Fron";"Norway";"Oppland";"N/A";"N/A";"";"6";"";"";"";"";"";"";"";"";"";"";"";"";"";"";"Uno-X";"";"";""
"12776899392";"61.757647";"9.292771";"charging_station";"Vaga";"Norway";"Oppland";"N/A";"N/A";"";"6";"";"";"";"";"";"";"";"";"";"";"";"";"";"";"Eviny";"";"";""
"12798499391";"61.591731";"9.722639";"charging_station";"Nord-Fron";"Norway";"Oppland";"N/A";"N/A";"";"3";"";"";"";"";"";"";"";"2";"";"";"";"";"";"";"Recharge";"";"";""
"12798540245";"61.7725544";"9.5401713";"charging_station";"Sel";"Norway";"Oppland";"N/A";"N/A";"";"4";"";"";"";"";"";"";"";"";"";"";"";"";"";"";"Recharge";"";"";""
"12823927904";"61.591688";"9.723764";"charging_station";"Nord-Fron";"Norway";"Oppland";"N/A";"N/A";"";"4";"";"";"";"";"";"";"";"";"";"";"";"";"";"";"Circle K";"";"";""
"6025956789";"61.4545343";"10.1919692";"charging_station";"Ringebu";"Norway";"Oppland";"N/A";"N/A";"";"5";"";"";"";"";"";"";"";"3";"";"";"";"";"";"";"Recharge";"";"24/7";""
"6025956822";"61.4996422";"9.789098";"charging_station";"Nord-Fron";"Norway";"Oppland";"N/A";"N/A";"";"2";"";"";"Wadahl Høgfjellshotell";"";"";"";"";"2";"";"";"";"";"";"";"";"";"24/7";""
"6025956838";"61.5292866";"10.1425286";"charging_station";"Ringebu";"Norway";"Oppland";"N/A";"N/A";"";"4";"";"";"";"";"";"";"";"2";"";"";"";"";"";"";"Recharge";"";"24/7";""
"9464240594";"61.4544042";"10.1890865";"charging_station";"Ringebu";"Norway";"Oppland";"N/A";"N/A";"";"16";"";"";"";"";"";"";"";"";"";"";"";"";"";"";"Tesla";"";"";""
"10799854400";"61.5300481";"10.1372936";"charging_station";"Ringebu";"Norway";"Oppland";"N/A";"N/A";"";"6";"";"";"Kople AS";"";"";"";"";"";"";"";"";"";"";"";"";"";"";""
"11169096653";"61.4541751";"10.1893741";"charging_station";"Ringebu";"Norway";"Oppland";"N/A";"N/A";"";"20";"";"";"";"";"";"";"";"4";"";"";"";"";"";"";"Eviny";"";"";""
"11193540558";"61.453981";"10.189102";"charging_station";"Ringebu";"Norway";"Oppland";"N/A";"N/A";"";"6";"";"";"E.ON";"Q270223";"";"";"";"";"";"";"";"";"";"";"E.ON";"";"";""
"11203129196";"61.5955907";"9.7493966";"charging_station";"Nord-Fron";"Norway";"Oppland";"N/A";"N/A";"";"4";"";"";"";"";"";"";"";"4";"";"";"";"";"";"";"Mer";"";"";""
"12739474508";"61.5892016";"9.7667899";"charging_station";"Nord-Fron";"Norway";"Oppland";"N/A";"N/A";"";"12";"";"";"";"";"";"";"";"";"";"";"";"";"";"";"Ionity";"";"";""
"12755217979";"61.529713";"10.1462505";"charging_station";"Ringebu";"Norway";"Oppland";"N/A";"N/A";"";"4";"";"";"";"";"";"";"";"";"";"";"";"";"";"";"Ragde Charge";"";"";""
"5641328423";"61.4254665";"11.0797729";"charging_station";"Stor-Elvdal";"Norway";"Hedmark";"N/A";"N/A";"";"4";"";"";"";"";"";"";"";"2";"";"";"";"";"";"";"Recharge";"";"24/7";""
"6037455984";"61.42538";"11.07836";"charging_station";"Stor-Elvdal";"Norway";"Hedmark";"N/A";"N/A";"";"4";"";"";"Lade i Norge";"";"";"";"";"4";"";"";"";"";"";"";"";"";"24/7";""
"6037457098";"61.8349096";"10.8856741";"charging_station";"Rendalen";"Norway";"Hedmark";"N/A";"N/A";"";"4";"";"";"";"";"";"";"";"2";"";"";"";"";"";"";"Recharge";"";"24/7";""
"6037457106";"61.588478";"10.9954248";"charging_station";"Stor-Elvdal";"Norway";"Hedmark";"N/A";"N/A";"";"8";"";"";"";"";"";"";"";"";"";"";"";"";"";"";"Recharge";"";"";""
"11169096654";"61.5701253";"11.0496229";"charging_station";"Stor-Elvdal";"Norway";"Hedmark";"N/A";"N/A";"";"5";"";"";"";"";"";"";"";"1";"";"";"";"";"";"";"Eviny";"";"";""
"11185853274";"61.6950133";"11.2139082";"charging_station";"Stor-Elvdal";"Norway";"Hedmark";"N/A";"N/A";"";"6";"";"";"";"";"";"";"";"2";"";"";"";"";"";"";"Kople";"";"";""
"6762237202";"61.7573585";"11.9611864";"charging_station";"Engerdal";"Norway";"Hedmark";"N/A";"N/A";"";"4";"";"";"";"";"";"";"";"2";"";"";"";"";"";"";"Recharge";"";"";""
"10742263720";"61.85793";"12.72587";"charging_station";"Trysil";"Norway";"Hedmark";"N/A";"N/A";"";"8";"";"";"Idre Himmelfjäll Resort AB";"";"";"";"";"8";"";"";"";"";"";"";"";"";"";""
"10742263802";"61.85815";"12.72097";"charging_station";"Trysil";"Norway";"Hedmark";"N/A";"N/A";"";"4";"";"";"";"";"";"";"";"2";"";"";"";"";"";"";"";"";"";""
"10742267223";"61.858124";"12.7229493";"charging_station";"Trysil";"Norway";"Hedmark";"N/A";"N/A";"";"4";"";"";"Idre Petroleum AB";"";"";"";"";"";"";"";"";"";"";"";"";"";"";""
"12081704612";"61.6484163";"12.7421622";"charging_station";"Trysil";"Norway";"Hedmark";"N/A";"N/A";"";"4";"";"";"";"";"";"";"";"";"";"";"";"";"";"";"";"";"";"yes"
"10742263760";"61.69345";"13.14142";"charging_station";"Trysil";"Norway";"Hedmark";"N/A";"N/A";"";"3";"";"";"";"";"";"";"";"2";"";"";"";"";"";"";"Mer";"";"";""
"10742263745";"61.49387";"14.84802";"charging_station";"Orsa Kommun";"Sweden";"Dalarna";"N/A";"N/A";"";"3";"";"";"";"";"";"";"";"2";"";"";"";"";"";"";"Mer";"";"";""
"6990873723";"61.8235027";"16.1095699";"charging_station";"Ljusdals Kommun";"Sweden";"Gaevleborg";"N/A";"N/A";"";"3";"";"";"Ljusdal Energi";"";"";"";"";"2";"";"";"";"";"";"";"";"";"";"no"
"10742321937";"61.7238";"16.15331";"charging_station";"Ljusdals Kommun";"Sweden";"Gaevleborg";"N/A";"N/A";"";"1";"";"";"Järvsöbacken AB";"";"";"";"";"1";"";"";"";"";"";"";"";"";"";""
"10742321954";"61.360064";"15.905522";"charging_station";"Ovanakers Kommun";"Sweden";"Gaevleborg";"N/A";"N/A";"";"1";"";"";"";"";"";"";"";"1";"";"";"";"";"";"";"";"";"";""
"10742321965";"61.71187";"16.16153";"charging_station";"Ljusdals Kommun";"Sweden";"Gaevleborg";"N/A";"N/A";"";"2";"";"";"Bergshotellet";"";"";"";"";"1";"";"";"";"";"";"";"";"";"";""
"10742321974";"61.37644";"15.81835";"charging_station";"Ovanakers Kommun";"Sweden";"Gaevleborg";"N/A";"N/A";"";"2";"";"";"Ovanåkers Kommun";"";"";"";"";"2";"";"";"";"";"";"";"";"";"";""
"11199491763";"61.8276168";"16.0948891";"charging_station";"Ljusdals Kommun";"Sweden";"Gaevleborg";"N/A";"N/A";"";"12";"";"";"";"";"";"";"";"";"";"";"";"36";"Norra Järnvägsgatan";"82732";"Tesla, Inc.";"";"";""
"6990863255";"61.7982007";"16.5539127";"charging_station";"Hudiksvalls Kommun";"Sweden";"Gaevleborg";"N/A";"N/A";"";"2";"";"";"Charge & Drive";"";"";"";"";"1";"";"";"";"";"";"";"";"";"";"yes"
"10742263703";"61.7983";"16.55075";"charging_station";"Hudiksvalls Kommun";"Sweden";"Gaevleborg";"N/A";"N/A";"";"1";"";"";"";"";"";"";"";"1";"";"";"";"";"";"";"InCharge";"";"";""
"10742321920";"61.518429";"16.367156";"charging_station";"Bollnas Kommun";"Sweden";"Gaevleborg";"N/A";"N/A";"";"10";"";"";"Vallsta";"";"";"";"";"10";"";"";"";"";"";"";"";"";"";""
"10742321973";"61.47003";"16.37917";"charging_station";"Bollnas Kommun";"Sweden";"Gaevleborg";"N/A";"N/A";"";"16";"";"";"ARbrå";"";"";"";"";"16";"";"";"";"";"";"";"";"";"";""
"9355732327";"61.7149198";"17.0428058";"charging_station";"Hudiksvalls Kommun";"Sweden";"Gaevleborg";"N/A";"N/A";"";"16";"";"";"";"";"";"";"";"";"";"";"";"5";"Medskog Norra";"82440";"Tesla";"";"";""
"9373952099";"61.7136858";"17.0453557";"charging_station";"Hudiksvalls Kommun";"Sweden";"Gaevleborg";"N/A";"N/A";"";"6";"";"";"Virta";"";"";"";"";"2";"";"";"";"";"";"";"";"";"";"no"
"10742321914";"61.74111";"17.08592";"charging_station";"Hudiksvalls Kommun";"Sweden";"Gaevleborg";"N/A";"N/A";"";"1";"";"";"";"";"";"";"";"1";"";"";"";"";"";"";"";"";"";""
"10742321917";"61.74256";"17.07785";"charging_station";"Hudiksvalls Kommun";"Sweden";"Gaevleborg";"N/A";"N/A";"";"2";"";"";"";"";"";"";"";"1";"";"";"";"";"";"";"Mer";"";"";""
"10742321948";"61.72785";"17.10183";"charging_station";"Hudiksvalls Kommun";"Sweden";"Gaevleborg";"N/A";"N/A";"";"2";"";"";"Hudiksvalls kommun";"";"";"";"";"2";"";"";"";"";"";"";"";"";"";""
"10742321950";"61.72597";"17.09836";"charging_station";"Hudiksvalls Kommun";"Sweden";"Gaevleborg";"N/A";"N/A";"";"1";"";"";"";"";"";"";"";"1";"";"";"";"";"";"";"InCharge";"";"";""
"10742321963";"61.7142108";"17.0417449";"charging_station";"Hudiksvalls Kommun";"Sweden";"Gaevleborg";"N/A";"N/A";"";"3";"";"";"Bilmetro AB";"";"";"";"";"1";"";"";"";"";"";"";"";"";"";""
"12146663245";"61.7256762";"17.1096325";"charging_station";"Hudiksvalls Kommun";"Sweden";"Gaevleborg";"N/A";"N/A";"";"4";"";"yes";"";"";"";"";"";"";"";"";"";"";"";"";"";"";"";"yes"
"8875022801";"61.4954156";"21.7990374";"charging_station";"Pori";"Finland";"Satakunta";"N/A";"N/A";"";"8";"";"";"VIRTA";"Q97205884";"";"";"";"8";"";"";"";"";"";"";"VIRTA";"";"";"yes"
"9559155988";"61.484796";"21.7987358";"charging_station";"Pori";"Finland";"Satakunta";"N/A";"N/A";"";"1";"";"";"VIRTA";"Q97205884";"";"";"";"";"";"";"";"";"";"";"VIRTA";"";"";"yes"
"9559192168";"61.4781429";"21.7576425";"charging_station";"Pori";"Finland";"Satakunta";"N/A";"N/A";"";"8";"";"";"ABC";"Q10397504";"";"";"";"4";"";"";"";"";"";"";"ABC lataus";"";"";"yes"
"11069658420";"61.4266437";"21.8694277";"charging_station";"Pori";"Finland";"Satakunta";"N/A";"N/A";"";"8";"";"";"S-market";"";"";"";"";"";"";"";"";"";"";"";"";"";"";"yes"
"11069658421";"61.4258674";"21.8710591";"charging_station";"Pori";"Finland";"Satakunta";"N/A";"N/A";"";"2";"";"";"ABC-lataus";"Q116172128";"";"";"";"";"";"";"";"";"";"";"ABC lataus";"";"";"yes"
"11336228413";"61.4516752";"21.8361599";"charging_station";"Pori";"Finland";"Satakunta";"N/A";"N/A";"";"6";"";"";"Ionity";"";"";"";"";"";"";"";"";"";"";"";"Ionity";"";"24/7";"yes"
"397420854";"";"";"charging_station";"N/A";"N/A";"N/A";"N/A";"N/A";"";"";"";"";"";"";"";"";"";"";"";"";"";"";"";"";"";"";"";""
"4002164431";"61.5127716";"21.8045358";"";"Pori";"Finland";"Satakunta";"N/A";"N/A";"";"";"";"";"";"";"";"";"";"";"";"";"";"";"";"";"";"";"";""
"4002164432";"61.5123251";"21.8045439";"";"Pori";"Finland";"Satakunta";"N/A";"N/A";"";"";"";"";"";"";"";"";"";"";"";"";"";"";"";"";"";"";"";""
"4002164433";"61.5123238";"21.8052895";"";"Pori";"Finland";"Satakunta";"N/A";"N/A";"";"";"";"";"";"";"";"";"";"";"";"";"";"";"";"";"";"";"";""
"4002164434";"61.512627";"21.80526";"";"Pori";"Finland";"Satakunta";"N/A";"N/A";"";"";"";"";"";"";"";"";"";"";"";"";"";"";"";"";"";"";"";""
"4002164435";"61.5126948";"21.8048872";"";"Pori";"Finland";"Satakunta";"N/A";"N/A";"";"";"";"";"";"";"";"";"";"";"";"";"";"";"";"";"";"";"";""
"4002164436";"61.5127742";"21.8048818";"";"Pori";"Finland";"Satakunta";"N/A";"N/A";"";"";"";"";"";"";"";"";"";"";"";"";"";"";"";"";"";"";"";""
"9462459542";"61.5007179";"23.090739";"charging_station";"Lounais-Pirkanmaa";"Finland";"Pirkanmaa";"N/A";"N/A";"";"";"";"";"";"";"";"";"";"";"";"";"";"";"";"";"";"";"";""
"10226509584";"61.755717";"23.0667394";"charging_station";"Luoteis-Pirkanmaa";"Finland";"Pirkanmaa";"N/A";"N/A";"";"";"";"yes";"";"";"";"";"";"";"";"";"";"";"";"";"";"";"";""
"10226509585";"61.7563317";"23.0623647";"charging_station";"Luoteis-Pirkanmaa";"Finland";"Pirkanmaa";"N/A";"N/A";"";"";"";"yes";"";"";"";"";"";"";"";"";"";"";"";"";"";"";"";""
"11668814507";"61.6578544";"23.1808858";"charging_station";"Tampere";"Finland";"Pirkanmaa";"N/A";"N/A";"";"6";"";"";"ABC";"Q10397504";"";"";"";"2";"";"";"";"";"";"";"ABC Lataus";"";"";"yes"
"12330298322";"61.6377218";"23.1956801";"charging_station";"Tampere";"Finland";"Pirkanmaa";"N/A";"N/A";"";"";"";"";"Plugit";"";"";"";"";"";"";"";"";"";"";"";"Plugit";"";"";""
"5335649201";"61.5154941";"23.6666302";"charging_station";"Tampere";"Finland";"Pirkanmaa";"N/A";"N/A";"yes";"4";"";"";"";"";"";"";"";"4";"";"";"";"";"";"";"";"";"";"yes"
"6026908755";"61.4661237";"23.6447512";"charging_station";"Tampere";"Finland";"Pirkanmaa";"N/A";"N/A";"";"2";"";"";"VIRTA";"Q97205884";"";"";"";"2";"";"";"";"";"";"";"VIRTA";"";"24/7";"no"
"7066563463";"61.4637887";"23.7299419";"charging_station";"Tampere";"Finland";"Pirkanmaa";"N/A";"N/A";"";"2";"";"";"VIRTA";"Q97205884";"";"";"";"2";"";"";"";"";"";"";"VIRTA";"";"";"yes"
"7075671702";"61.4662941";"23.7221319";"charging_station";"Tampere";"Finland";"Pirkanmaa";"N/A";"N/A";"yes";"8";"";"";"K-Lataus";"Q116172072";"";"";"";"4";"";"";"";"";"";"";"";"";"24/7";"yes"
"7105336975";"61.4213061";"23.6131836";"charging_station";"Tampere";"Finland";"Pirkanmaa";"N/A";"N/A";"";"2";"";"";"Virta";"";"";"";"";"2";"";"";"";"";"";"";"";"";"";"yes"
"7105420315";"61.4984775";"23.7456152";"charging_station";"Tampere";"Finland";"Pirkanmaa";"N/A";"N/A";"";"2";"";"";"VIRTA";"Q97205884";"";"";"";"2";"";"";"";"";"";"";"VIRTA";"";"";"yes"
"8379715757";"61.5052721";"23.6291807";"charging_station";"Tampere";"Finland";"Pirkanmaa";"N/A";"N/A";"yes";"8";"";"";"";"";"";"";"";"4";"";"";"";"";"";"";"";"";"24/7";"yes"
"8379715758";"61.4665609";"23.5097761";"charging_station";"Tampere";"Finland";"Pirkanmaa";"N/A";"N/A";"yes";"4";"";"";"";"";"";"";"";"4";"";"";"";"";"";"";"";"";"24/7";"yes"
"8603280752";"61.466202";"23.5049385";"charging_station";"Tampere";"Finland";"Pirkanmaa";"N/A";"N/A";"";"4";"";"";"Lidl";"Q151954";"";"";"";"";"";"";"";"";"";"";"";"22 kW";"";"no"
"8982202274";"61.4674432";"23.6323144";"charging_station";"Tampere";"Finland";"Pirkanmaa";"N/A";"N/A";"";"2";"";"";"VIRTA";"Q97205884";"";"";"";"2";"";"";"";"";"";"";"VIRTA";"";"";"no"
"9455301186";"61.5021912";"23.5678965";"charging_station";"Tampere";"Finland";"Pirkanmaa";"N/A";"N/A";"";"4";"";"";"Recharge Finland Oy";"";"";"";"";"2";"";"";"";"";"";"";"";"";"";"yes"
"10651563612";"61.4689287";"23.7175941";"charging_station";"Tampere";"Finland";"Pirkanmaa";"N/A";"N/A";"";"";"";"";"";"";"";"";"";"";"";"";"";"";"";"";"";"";"";""
"10651563613";"61.4689519";"23.7175854";"charging_station";"Tampere";"Finland";"Pirkanmaa";"N/A";"N/A";"";"";"";"";"";"";"";"";"";"";"";"";"";"";"";"";"";"";"";""
"10651563614";"61.4689751";"23.7175767";"charging_station";"Tampere";"Finland";"Pirkanmaa";"N/A";"N/A";"";"";"";"";"";"";"";"";"";"";"";"";"";"";"";"";"";"";"";""
"10651563615";"61.4689984";"23.717568";"charging_station";"Tampere";"Finland";"Pirkanmaa";"N/A";"N/A";"";"";"";"";"";"";"";"";"";"";"";"";"";"";"";"";"";"";"";""
"10651563616";"61.4690216";"23.7175593";"charging_station";"Tampere";"Finland";"Pirkanmaa";"N/A";"N/A";"";"";"";"";"";"";"";"";"";"";"";"";"";"";"";"";"";"";"";""
"11274033921";"61.4664095";"23.6483543";"charging_station";"Tampere";"Finland";"Pirkanmaa";"N/A";"N/A";"";"6";"";"";"";"";"";"";"";"";"";"";"";"";"";"";"K-Lataus";"";"";""
"11663855093";"61.5564402";"23.5621008";"charging_station";"Tampere";"Finland";"Pirkanmaa";"N/A";"N/A";"";"4";"";"";"Recharge";"";"";"";"";"";"";"";"";"";"";"";"Recharge";"";"";"yes"
"11663855094";"61.5559519";"23.5640934";"charging_station";"Tampere";"Finland";"Pirkanmaa";"N/A";"N/A";"";"4";"";"";"Leppäkoski";"";"";"";"";"4";"";"";"";"";"";"";"Leppäkoski";"";"";"yes"
"11663855095";"61.5562595";"23.5619223";"charging_station";"Tampere";"Finland";"Pirkanmaa";"N/A";"N/A";"";"2";"";"";"Juustoportti";"";"";"";"";"2";"";"";"";"";"";"";"Juustoportti";"";"";"yes"
"11663855096";"61.5567343";"23.5624384";"charging_station";"Tampere";"Finland";"Pirkanmaa";"N/A";"N/A";"";"12";"";"";"Tesla";"";"";"";"";"";"";"";"";"";"";"";"Tesla, Inc.";"";"";"yes"
"11833708483";"61.5191943";"23.6658173";"charging_station";"Tampere";"Finland";"Pirkanmaa";"N/A";"N/A";"";"6";"";"";"ABC";"";"";"";"";"";"";"";"";"";"";"";"ABC-lataus";"";"";"yes"
"12023018970";"61.5327528";"23.632772";"charging_station";"Tampere";"Finland";"Pirkanmaa";"N/A";"N/A";"";"";"";"";"";"";"";"";"";"";"";"";"";"";"";"";"ABC-lataus";"";"";"yes"
"1138118230";"";"";"charging_station";"N/A";"N/A";"N/A";"N/A";"N/A";"";"";"";"";"";"";"";"";"";"";"";"";"";"";"";"";"";"";"";""
"1380028020";"";"";"charging_station";"N/A";"N/A";"N/A";"N/A";"N/A";"";"12";"";"";"";"";"";"";"";"";"";"";"";"";"";"";"ABC-lataus";"";"24/7";"yes"
"485963925";"61.4650656";"23.5061555";"";"Tampere";"Finland";"Pirkanmaa";"N/A";"N/A";"";"";"";"";"";"";"";"";"";"";"";"";"";"";"";"";"";"";"";""
"10608783928";"61.4651099";"23.5060906";"";"Tampere";"Finland";"Pirkanmaa";"N/A";"N/A";"";"";"";"";"";"";"";"";"";"";"";"";"";"";"";"";"";"";"";""
"10608783929";"61.4650494";"23.5059097";"";"Tampere";"Finland";"Pirkanmaa";"N/A";"N/A";"";"";"";"";"";"";"";"";"";"";"";"";"";"";"";"";"";"";"";""
"10608783930";"61.4650051";"23.5059747";"";"Tampere";"Finland";"Pirkanmaa";"N/A";"N/A";"";"";"";"";"";"";"";"";"";"";"";"";"";"";"";"";"";"";"";""
"12776513870";"61.5018875";"23.5677764";"";"Tampere";"Finland";"Pirkanmaa";"N/A";"N/A";"";"";"";"";"";"";"";"";"";"";"";"";"";"";"";"";"";"";"";""
"12776513871";"61.501809";"23.5684789";"";"Tampere";"Finland";"Pirkanmaa";"N/A";"N/A";"";"";"";"";"";"";"";"";"";"";"";"";"";"";"";"";"";"";"";""
"12776513872";"61.5016773";"23.5684142";"";"Tampere";"Finland";"Pirkanmaa";"N/A";"N/A";"";"";"";"";"";"";"";"";"";"";"";"";"";"";"";"";"";"";"";""
"12776513873";"61.5017494";"23.5677698";"";"Tampere";"Finland";"Pirkanmaa";"N/A";"N/A";"";"";"";"";"";"";"";"";"";"";"";"";"";"";"";"";"";"";"";""
"1685821089";"61.4991531";"23.7702711";"charging_station";"Tampere";"Finland";"Pirkanmaa";"N/A";"N/A";"";"4";"";"";"";"";"";"";"";"";"";"";"";"";"";"";"";"";"";""
"5095721779";"61.4763749";"23.8389211";"charging_station";"Tampere";"Finland";"Pirkanmaa";"N/A";"N/A";"yes";"8";"";"";"";"";"";"";"";"4";"";"";"";"";"";"";"";"";"24/7";"yes"
"5095748591";"61.4958478";"23.7801963";"charging_station";"Tampere";"Finland";"Pirkanmaa";"N/A";"N/A";"";"2";"";"";"VIRTA";"Q97205884";"";"";"";"2";"";"";"";"";"";"";"VIRTA";"";"";"yes"
"5095758401";"61.4967537";"23.7663681";"charging_station";"Tampere";"Finland";"Pirkanmaa";"N/A";"N/A";"";"2";"";"";"";"";"";"";"";"";"";"";"";"";"";"";"";"";"";""
"5095766287";"61.4908743";"23.7676201";"charging_station";"Tampere";"Finland";"Pirkanmaa";"N/A";"N/A";"";"1";"";"";"";"";"";"";"";"";"";"";"";"";"";"";"";"";"";""
"5095781409";"61.4913179";"23.8199249";"charging_station";"Tampere";"Finland";"Pirkanmaa";"N/A";"N/A";"";"2";"";"";"";"";"";"";"";"2";"";"";"";"";"";"";"";"";"";"no"
"5095781410";"61.502885";"23.8588685";"charging_station";"Tampere";"Finland";"Pirkanmaa";"N/A";"N/A";"yes";"2";"";"";"";"";"";"";"";"2";"";"";"";"";"";"";"";"";"24/7";"yes"
"5335665929";"61.4985822";"23.7708964";"charging_station";"Tampere";"Finland";"Pirkanmaa";"N/A";"N/A";"";"6";"";"";"";"";"";"";"";"6";"";"";"";"";"";"";"";"";"";"no"
"5861403385";"61.4912139";"23.7838989";"charging_station";"Tampere";"Finland";"Pirkanmaa";"N/A";"N/A";"";"2";"";"";"Recharge";"";"";"";"";"";"";"";"";"";"";"";"Recharge";"";"";""
"6154181131";"61.5084827";"23.8444567";"charging_station";"Tampere";"Finland";"Pirkanmaa";"N/A";"N/A";"";"2";"";"";"Plugit Finland Oy";"";"";"";"";"2";"";"";"";"";"";"";"";"";"24/7";"no"
"6158936876";"61.4955043";"23.7603781";"charging_station";"Tampere";"Finland";"Pirkanmaa";"N/A";"N/A";"";"3";"";"";"VIRTA";"Q97205884";"";"";"";"1";"";"";"";"";"";"";"VIRTA";"";"";"yes"
"7080368384";"61.4983242";"23.8064333";"charging_station";"Tampere";"Finland";"Pirkanmaa";"N/A";"N/A";"";"2";"";"";"VIRTA";"Q97205884";"";"";"";"2";"";"";"";"";"";"";"VIRTA";"";"";"yes"
"7086768810";"61.5031877";"23.7609157";"charging_station";"Tampere";"Finland";"Pirkanmaa";"N/A";"N/A";"";"4";"";"";"VIRTA";"Q97205884";"";"";"";"4";"";"";"";"";"";"";"VIRTA";"";"";"yes"
"7105348455";"61.4917895";"23.7521699";"charging_station";"Tampere";"Finland";"Pirkanmaa";"N/A";"N/A";"";"4";"";"";"VIRTA";"Q97205884";"";"";"";"4";"";"";"";"";"";"";"VIRTA";"";"";"yes"
"7105452866";"61.5115388";"23.7733377";"charging_station";"Tampere";"Finland";"Pirkanmaa";"N/A";"N/A";"";"4";"";"";"VIRTA";"Q97205884";"";"";"";"4";"";"";"";"";"";"";"VIRTA";"";"";"yes"
"7105452867";"61.5130008";"23.7788417";"charging_station";"Tampere";"Finland";"Pirkanmaa";"N/A";"N/A";"";"2";"";"";"VIRTA";"Q97205884";"";"";"";"2";"";"";"";"";"";"";"VIRTA";"";"";"yes"
"7105452868";"61.5107426";"23.8055822";"charging_station";"Tampere";"Finland";"Pirkanmaa";"N/A";"N/A";"";"2";"";"";"VIRTA";"Q97205884";"";"";"";"2";"";"";"";"";"";"";"VIRTA";"";"";"yes"
"7105476906";"61.4965037";"23.8227704";"charging_station";"Tampere";"Finland";"Pirkanmaa";"N/A";"N/A";"";"2";"";"";"VIRTA";"Q97205884";"";"";"";"2";"";"";"";"";"";"";"VIRTA";"";"";"yes"
"8379715756";"61.4968517";"23.8902071";"charging_station";"Tampere";"Finland";"Pirkanmaa";"N/A";"N/A";"yes";"8";"";"";"K-Lataus";"Q116172072";"";"";"";"4";"";"";"";"";"";"";"";"";"24/7";"yes"
"8750688755";"61.4685154";"23.7784512";"charging_station";"Tampere";"Finland";"Pirkanmaa";"N/A";"N/A";"";"6";"";"";"";"";"";"";"";"";"";"";"";"";"";"";"";"";"";""
"9453650030";"61.4625236";"24.0760818";"charging_station";"Tampere";"Finland";"Pirkanmaa";"N/A";"N/A";"";"2";"";"";"Recharge Finland Oy";"";"";"";"";"";"";"";"";"";"";"";"";"0.40€/kWh";"";"yes"
"10125822133";"61.4491975";"23.8569527";"charging_station";"Tampere";"Finland";"Pirkanmaa";"N/A";"N/A";"";"4";"";"";"";"";"";"";"";"";"";"";"";"";"";"";"";"";"";""
"10184075103";"61.5115407";"23.7734414";"charging_station";"Tampere";"Finland";"Pirkanmaa";"N/A";"N/A";"";"2";"";"";"";"";"";"";"";"";"";"";"";"";"";"";"Tesla, Inc.";"";"";"no"
"11245402419";"61.4520585";"23.7698484";"charging_station";"Tampere";"Finland";"Pirkanmaa";"N/A";"N/A";"";"4";"";"";"Ikea";"";"";"";"";"4";"";"";"";"";"";"";"";"";"";"yes"
"11887267769";"61.4736865";"23.873866";"charging_station";"Tampere";"Finland";"Pirkanmaa";"N/A";"N/A";"";"4";"";"";"";"";"";"";"";"2";"";"";"";"";"";"";"ABC-Lataus";"";"24/7";"yes"
"12120505287";"61.4956092";"23.782657";"charging_station";"Tampere";"Finland";"Pirkanmaa";"N/A";"N/A";"";"4";"";"";"VIRTA";"Q97205884";"";"";"";"4";"";"";"";"";"";"";"VIRTA";"";"";"yes"
"12120505288";"61.4955669";"23.7826595";"charging_station";"Tampere";"Finland";"Pirkanmaa";"N/A";"N/A";"";"4";"";"";"VIRTA";"Q97205884";"";"";"";"4";"";"";"";"";"";"";"VIRTA";"";"";"yes"
"12232466783";"61.4665209";"24.0377871";"charging_station";"Tampere";"Finland";"Pirkanmaa";"N/A";"N/A";"";"2";"";"";"https://app.virta.global/";"";"";"";"";"";"";"";"";"";"";"";"https://app.virta.global/";"";"";"yes"
"12497661469";"61.4398476";"23.8708643";"charging_station";"Tampere";"Finland";"Pirkanmaa";"N/A";"N/A";"";"1";"";"";"eParking";"";"";"";"";"";"";"";"Heittoniityn Parkki - Latauspaikka 7";"";"";"";"eParking";"4,99€ + 0,44€ / kWh";"";"yes"
"12497684403";"61.4430006";"23.8837094";"charging_station";"Tampere";"Finland";"Pirkanmaa";"N/A";"N/A";"";"4";"";"";"K-Lataus";"Q116172072";"";"";"";"";"";"";"";"";"";"";"K-Lataus";"";"";"yes"
"12648323126";"61.4745522";"23.9794019";"charging_station";"Tampere";"Finland";"Pirkanmaa";"N/A";"N/A";"";"8";"";"yes";"";"";"";"";"";"4";"";"";"";"";"";"";"";"";"24/7";"yes"
"12803683406";"61.4516599";"23.7698469";"charging_station";"Tampere";"Finland";"Pirkanmaa";"N/A";"N/A";"";"12";"";"";"Tesla, Inc.";"Q478214";"";"";"";"";"";"";"";"";"";"";"Tesla Supercharger";"";"";"yes"
"10863405803";"61.6710666";"24.2859294";"charging_station";"Tampere";"Finland";"Pirkanmaa";"N/A";"N/A";"";"5";"";"";"Recharge";"";"";"";"";"2";"";"";"";"";"";"";"Recharge latauspiste";"";"";"yes"
"12612794899";"61.6766974";"24.3520851";"charging_station";"Tampere";"Finland";"Pirkanmaa";"N/A";"N/A";"";"4+4";"";"";"K-Lataus";"Q116172072";"";"";"";"";"";"";"";"";"";"";"K-Lataus";"";"";"yes"
"12612839812";"61.6762065";"24.3516085";"charging_station";"Tampere";"Finland";"Pirkanmaa";"N/A";"N/A";"";"4";"";"";"AL-lataus Oy";"";"";"";"";"";"";"";"";"";"";"";"Autoliitto";"";"";"yes"
"1233612855";"";"";"charging_station";"N/A";"N/A";"N/A";"N/A";"N/A";"";"12";"";"yes";"eParking";"";"";"";"";"12";"";"";"";"";"";"";"";"";"";""
"11446989294";"61.38728";"24.5077555";"";"Tampere";"Finland";"Pirkanmaa";"N/A";"N/A";"";"";"";"";"";"";"";"";"";"";"";"";"";"";"";"";"";"";"";""
"11446989295";"61.3872921";"24.507864";"";"Tampere";"Finland";"Pirkanmaa";"N/A";"N/A";"";"";"";"";"";"";"";"";"";"";"";"";"";"";"";"";"";"";"";""
"11446989296";"61.3875754";"24.5077256";"";"Tampere";"Finland";"Pirkanmaa";"N/A";"N/A";"";"";"";"";"";"";"";"";"";"";"";"";"";"";"";"";"";"";"";""
"11446989297";"61.3875632";"24.5076171";"";"Tampere";"Finland";"Pirkanmaa";"N/A";"N/A";"";"";"";"";"";"";"";"";"";"";"";"";"";"";"";"";"";"";"";""
"739368291";"61.5633659";"25.1824924";"charging_station";"Jaemsae";"Finland";"Central Finland";"N/A";"N/A";"";"11";"";"";"";"";"";"";"";"";"";"";"";"51";"Toritie";"17800";"";"";"";""
"7822994690";"61.5017038";"25.6863217";"charging_station";"Lahti";"Finland";"Paijanne Tavastia";"N/A";"N/A";"";"";"";"";"";"";"";"";"";"";"";"";"";"";"";"";"";"";"";""
"7822994691";"61.5104985";"25.6835307";"charging_station";"Lahti";"Finland";"Paijanne Tavastia";"N/A";"N/A";"";"";"";"";"";"";"";"";"";"";"";"";"";"";"";"";"";"";"";""
"9585293017";"61.7141447";"26.0696711";"charging_station";"Joutsa";"Finland";"Central Finland";"N/A";"N/A";"";"4";"";"";"";"";"";"";"";"";"";"";"";"";"";"";"ABC";"";"";""
"10567917057";"61.5784665";"26.0095471";"charging_station";"Lahti";"Finland";"Paijanne Tavastia";"N/A";"N/A";"";"12";"";"";"Tesla, Inc.";"Q478214";"";"";"";"";"";"";"";"";"Yhdystie";"";"Tesla, Inc.";"";"24/7";"yes"
"11231065887";"61.414945";"26.8820614";"charging_station";"Mikkeli";"Finland";"Southern Savonia";"N/A";"N/A";"";"";"";"";"";"";"";"";"";"";"";"";"";"";"";"";"ABC!";"";"";""
"2566388124";"61.6880689";"27.2742251";"charging_station";"Mikkeli";"Finland";"Southern Savonia";"N/A";"N/A";"";"";"";"";"ESE";"";"";"";"";"";"";"";"";"";"";"";"";"";"";""
"6967660290";"61.6863234";"27.2975238";"charging_station";"Mikkeli";"Finland";"Southern Savonia";"N/A";"N/A";"";"8";"";"";"K-Lataus";"Q116172072";"";"";"";"";"";"";"";"";"";"";"";"";"";"yes"
"9898775337";"61.7156495";"27.3372883";"charging_station";"Mikkeli";"Finland";"Southern Savonia";"N/A";"N/A";"";"2";"";"";"Virta";"";"";"";"";"";"";"";"";"";"";"";"";"";"";"yes"
"11262681718";"61.686948";"27.2989198";"charging_station";"Mikkeli";"Finland";"Southern Savonia";"N/A";"N/A";"";"6";"";"";"Ionity";"";"";"";"";"";"";"";"";"";"";"";"Ionity";"";"24/7";"yes"
"11665949692";"61.6885283";"27.3000608";"charging_station";"Mikkeli";"Finland";"Southern Savonia";"N/A";"N/A";"";"4";"";"";"";"";"";"";"";"";"";"";"";"";"";"";"";"";"";""
"12046819279";"61.7694884";"27.5883204";"charging_station";"Pieksaemaeki";"Finland";"Southern Savonia";"N/A";"N/A";"";"";"";"";"";"";"";"";"";"";"";"";"";"";"";"";"";"";"";""
"12339107278";"61.6908271";"27.2686765";"charging_station";"Mikkeli";"Finland";"Southern Savonia";"N/A";"N/A";"";"";"";"";"";"";"";"";"";"";"";"";"";"";"";"";"";"";"";""
"12881063115";"61.6883849";"27.2805926";"charging_station";"Mikkeli";"Finland";"Southern Savonia";"N/A";"N/A";"";"12";"";"yes";"Tesla";"Q478214";"";"";"";"";"";"";"";"";"";"";"Tesla Supercharger";"";"24/7";"yes"
"9846711772";"61.575036";"28.1475446";"charging_station";"Mikkeli";"Finland";"Southern Savonia";"N/A";"N/A";"";"";"";"";"";"";"";"";"";"";"";"";"";"";"";"";"";"";"";""
"7095233973";"61.807493";"29.0753366";"charging_station";"Savonlinna";"Finland";"Southern Savonia";"N/A";"N/A";"";"2";"";"";"Lumme-energia";"";"";"";"";"";"";"";"";"";"";"";"";"";"";"yes"
"1057373028";"";"";"charging_station";"N/A";"N/A";"N/A";"N/A";"N/A";"";"4";"";"";"Recharge";"";"";"";"";"";"";"";"";"";"";"";"";"";"";""
"283085818";"61.8023737";"29.2943458";"";"Savonlinna";"Finland";"Southern Savonia";"N/A";"N/A";"";"";"";"";"";"";"";"";"";"";"";"";"";"";"";"";"";"";"";""
"9715732915";"61.8023703";"29.2944802";"";"Savonlinna";"Finland";"Southern Savonia";"N/A";"N/A";"";"";"";"";"";"";"";"";"";"";"";"";"";"";"";"";"";"";"";""
"9715732916";"61.8024438";"29.2944776";"";"Savonlinna";"Finland";"Southern Savonia";"N/A";"N/A";"";"";"";"";"";"";"";"";"";"";"";"";"";"";"";"";"";"";"";""
"9715738917";"61.8024478";"29.2943491";"";"Savonlinna";"Finland";"Southern Savonia";"N/A";"N/A";"";"";"";"";"";"";"";"";"";"";"";"";"";"";"";"";"";"";"";""
"11228396988";"62.3137549";"-150.2320943";"charging_station";"Matanuska-Susitna Borough";"United States";"Alaska";"N/A";"N/A";"";"6";"";"";"EV Gateway";"";"";"";"";"2";"";"";"";"";"";"";"";"";"";"yes"
"12874278956";"62.1614112";"-150.0297151";"charging_station";"Matanuska-Susitna Borough";"United States";"Alaska";"N/A";"N/A";"";"2";"";"";"";"";"";"";"";"";"";"";"";"";"";"";"";"";"";""
"11905513106";"62.1070644";"-145.5276886";"charging_station";"Valdez-Cordova Census Area";"United States";"Alaska";"N/A";"N/A";"";"2";"";"";"";"";"";"";"";"";"";"";"";"";"";"";"";"";"";"yes"
"12392196901";"62.2299046";"-133.3552094";"charging_station";"";"Canada";"Yukon";"N/A";"N/A";"";"";"";"";"FLO";"";"";"";"";"";"";"";"";"";"";"";"";"";"";""
"12392120502";"61.9794418";"-132.4538382";"charging_station";"";"Canada";"Yukon";"N/A";"N/A";"";"";"";"";"FLO";"";"";"";"";"";"";"";"";"";"";"";"";"";"";""
"11999939154";"62.0684356";"-7.277042";"charging_station";"";"Faroe Islands";"Vagar";"N/A";"N/A";"";"4";"";"";"";"";"";"";"";"3";"";"";"";"";"";"";"";"";"";"yes"
"4922017396";"62.0084613";"-6.7758998";"charging_station";"Torshavn";"Faroe Islands";"Streymoy";"N/A";"N/A";"";"2";"";"";"SEV";"";"";"";"";"";"";"";"";"";"";"";"";"";"";""
"6512245661";"62.2088653";"-6.9989953";"charging_station";"Eidi";"Faroe Islands";"Eysturoy";"N/A";"N/A";"";"";"";"";"";"";"";"";"";"";"";"";"";"";"";"";"";"";"";""
"9053595421";"62.0130457";"-6.7755921";"charging_station";"Torshavn";"Faroe Islands";"Streymoy";"N/A";"N/A";"";"2";"";"";"ChargePoint";"Q5176149";"";"";"";"2";"";"";"";"";"";"";"ChargePoint";"";"";""
"9132586686";"62.0085116";"-6.7759402";"charging_station";"Torshavn";"Faroe Islands";"Streymoy";"N/A";"N/A";"";"2";"";"";"SEV";"";"";"";"";"";"";"";"";"";"";"";"";"";"";""
"9132586687";"62.008427";"-6.7758609";"charging_station";"Torshavn";"Faroe Islands";"Streymoy";"N/A";"N/A";"";"2";"";"";"SEV";"";"";"";"";"2";"";"";"";"";"";"";"";"";"";""
"9132586688";"62.0083847";"-6.7758301";"charging_station";"Torshavn";"Faroe Islands";"Streymoy";"N/A";"N/A";"";"2";"";"";"SEV";"";"";"";"";"2";"";"";"";"";"";"";"";"";"";""
"10174721833";"62.0125622";"-6.8015892";"charging_station";"";"Faroe Islands";"Streymoy";"N/A";"N/A";"";"22kW";"";"";"";"";"";"";"";"";"";"";"";"";"";"";"";"";"";""
"10174721834";"62.0124918";"-6.8018376";"charging_station";"";"Faroe Islands";"Streymoy";"N/A";"N/A";"";"22kW";"";"";"";"";"";"";"";"";"";"";"";"";"";"";"";"";"";""
"10174721835";"62.0125162";"-6.8017507";"charging_station";"";"Faroe Islands";"Streymoy";"N/A";"N/A";"";"22kW";"";"";"";"";"";"";"";"";"";"";"";"";"";"";"";"";"";""
"10174721836";"62.0125378";"-6.8016735";"charging_station";"";"Faroe Islands";"Streymoy";"N/A";"N/A";"";"22kW";"";"";"";"";"";"";"";"";"";"";"";"";"";"";"";"";"";""
"11064773796";"62.0099709";"-6.7738753";"charging_station";"Torshavn";"Faroe Islands";"Streymoy";"N/A";"N/A";"";"2";"";"";"";"";"";"";"";"";"";"";"";"";"";"";"";"";"";""
"11987797283";"61.9969335";"-6.7823363";"charging_station";"";"Faroe Islands";"Streymoy";"N/A";"N/A";"";"4";"";"";"";"";"";"";"";"4";"";"";"";"";"";"";"";"";"";""
"11989002013";"62.02035";"-6.7647912";"charging_station";"Torshavn";"Faroe Islands";"Streymoy";"N/A";"N/A";"";"2";"";"";"";"";"";"";"";"2";"";"";"";"";"";"";"";"";"";""
"11989029043";"62.0203035";"-6.7648139";"charging_station";"Torshavn";"Faroe Islands";"Streymoy";"N/A";"N/A";"";"1";"";"";"";"";"";"";"";"1";"";"";"";"";"";"";"";"";"";""
"12013308347";"62.1526942";"-7.148582";"charging_station";"";"Faroe Islands";"Streymoy";"N/A";"N/A";"";"2";"";"";"SEV";"";"";"";"";"1";"";"";"";"";"";"";"";"";"";"yes"
"12058132181";"62.1737856";"-6.9762797";"charging_station";"";"Faroe Islands";"Streymoy";"N/A";"N/A";"";"2";"";"";"";"";"";"";"";"";"";"";"";"";"";"";"";"";"";""
"6047204630";"61.9249887";"5.1478122";"charging_station";"Vagsoy";"Norway";"Sogn og Fjordane";"N/A";"N/A";"";"4";"";"";"";"";"";"";"";"2";"";"";"";"";"";"";"Mer";"";"24/7";""
"6068802270";"62.0995431";"5.5574607";"charging_station";"Vanylven";"Norway";"More og Romsdal";"N/A";"N/A";"";"1";"";"";"";"";"";"";"";"";"";"";"";"";"";"";"Recharge";"";"24/7";""
"6068802283";"62.333606";"5.6406511";"charging_station";"Heroy";"Norway";"More og Romsdal";"N/A";"N/A";"";"3";"";"";"";"";"";"";"";"2";"";"";"";"";"";"";"Recharge";"";"24/7";""
"6068812212";"62.3406793";"5.6367297";"charging_station";"Heroy";"Norway";"More og Romsdal";"N/A";"N/A";"";"8";"";"";"Lade i Norge";"";"";"";"";"7";"";"";"";"";"";"";"";"";"24/7";""
"6772591655";"62.04526";"5.34509";"charging_station";"Selje";"Norway";"Sogn og Fjordane";"N/A";"N/A";"";"3";"";"";"";"";"";"";"";"2";"";"";"";"";"";"";"Mer";"";"";""
"7685310032";"62.1200861";"5.3168856";"charging_station";"Selje";"Norway";"Sogn og Fjordane";"N/A";"N/A";"";"1";"";"";"";"";"";"";"";"";"";"";"";"";"";"";"Mer";"";"";""
"12824063956";"62.2057486";"5.5729033";"charging_station";"Sande";"Norway";"More og Romsdal";"N/A";"N/A";"";"6";"";"";"";"";"";"";"";"2";"";"";"";"";"";"";"Kople";"";"";""
"1770689869";"61.90563";"5.98906";"charging_station";"Eid";"Norway";"Sogn og Fjordane";"N/A";"N/A";"";"2";"";"";"Eid kommune";"";"";"";"";"2";"";"";"";"";"";"";"";"";"24/7";""
"1770690072";"61.9126447";"5.9868659";"charging_station";"Eid";"Norway";"Sogn og Fjordane";"N/A";"N/A";"";"2";"";"";"Eid kommune";"";"";"";"";"2";"";"";"";"";"";"";"";"";"24/7";""
"1770690074";"61.9068904";"5.9934314";"charging_station";"Eid";"Norway";"Sogn og Fjordane";"N/A";"N/A";"";"6";"";"";"Eid kommune";"";"";"";"";"6";"";"";"";"";"";"";"";"";"24/7";""
"1770690078";"61.9122474";"5.992317";"charging_station";"Eid";"Norway";"Sogn og Fjordane";"N/A";"N/A";"";"2";"";"";"Eid kommune";"";"";"";"";"2";"";"";"";"";"";"";"";"";"24/7";""
"5948816684";"61.9089371";"5.9855156";"charging_station";"Eid";"Norway";"Sogn og Fjordane";"N/A";"N/A";"";"7";"";"";"Eviny";"";"";"";"";"2";"";"";"";"";"";"";"Eviny";"";"";"yes"
"6047204619";"61.9118885";"5.9955319";"charging_station";"Eid";"Norway";"Sogn og Fjordane";"N/A";"N/A";"";"2";"";"";"Eid kommune";"";"";"";"";"2";"";"";"";"";"";"";"";"";"24/7";""
"6047204626";"61.9126391";"5.9968518";"charging_station";"Eid";"Norway";"Sogn og Fjordane";"N/A";"N/A";"";"2";"";"";"Eid kommune";"";"";"";"";"2";"";"";"";"";"";"";"";"";"24/7";""
"6068802278";"62.172433";"6.04507";"charging_station";"Volda";"Norway";"More og Romsdal";"N/A";"N/A";"";"4";"";"";"";"";"";"";"";"2";"";"";"";"";"";"";"Mer";"";"";""
"6068812226";"62.2770391";"5.8044159";"charging_station";"";"Norway";"More og Romsdal";"N/A";"N/A";"";"2";"";"";"";"";"";"";"";"2";"";"";"";"";"";"";"Recharge";"";"24/7";""
"6762237236";"62.3442629";"5.8496317";"charging_station";"Ulstein";"Norway";"More og Romsdal";"N/A";"N/A";"";"6";"";"";"";"";"";"";"";"4";"";"";"";"";"";"";"Recharge";"";"";""
"10738043939";"62.140422";"6.090191";"charging_station";"Volda";"Norway";"More og Romsdal";"N/A";"N/A";"";"8";"";"";"";"";"";"";"";"";"";"";"";"";"";"";"Tesla";"";"";""
"11169096719";"61.9097612";"6.0034436";"charging_station";"Eid";"Norway";"Sogn og Fjordane";"N/A";"N/A";"";"6";"";"";"";"";"";"";"";"2";"";"";"";"";"";"";"Eviny";"";"";""
"11169096721";"62.1927845";"6.1245614";"charging_station";"Orsta";"Norway";"More og Romsdal";"N/A";"N/A";"";"6";"";"";"";"";"";"";"";"1";"";"";"";"";"";"";"Eviny";"";"";""
"11169096722";"62.140648";"6.090002";"charging_station";"Volda";"Norway";"More og Romsdal";"N/A";"N/A";"";"10";"";"";"";"";"";"";"";"";"";"";"";"";"";"";"Eviny";"";"";""
"11169096723";"62.1985841";"6.1241537";"charging_station";"Orsta";"Norway";"More og Romsdal";"N/A";"N/A";"";"12";"";"";"";"";"";"";"";"4";"";"";"";"";"";"";"Eviny";"";"";""
"11169096724";"62.3379251";"5.8527866";"charging_station";"Ulstein";"Norway";"More og Romsdal";"N/A";"N/A";"";"4";"";"";"";"";"";"";"";"1";"";"";"";"";"";"";"Eviny";"";"";""
"11172580270";"62.1962615";"6.1274663";"charging_station";"Orsta";"Norway";"More og Romsdal";"N/A";"N/A";"";"6";"";"";"";"";"";"";"";"";"";"";"";"";"";"";"Recharge";"";"";""
"12773980009";"61.9124979";"5.9802908";"charging_station";"Eid";"Norway";"Sogn og Fjordane";"N/A";"N/A";"";"12";"";"";"";"";"";"";"";"";"";"";"";"";"";"";"Tesla";"";"";""
"12776873492";"61.915963";"5.980042";"charging_station";"Eid";"Norway";"Sogn og Fjordane";"N/A";"N/A";"";"11";"";"";"";"";"";"";"";"5";"";"";"";"";"";"";"Eviny";"";"";""
"12798433922";"62.146855";"6.088733";"charging_station";"Volda";"Norway";"More og Romsdal";"N/A";"N/A";"";"6";"";"";"";"";"";"";"";"";"";"";"";"";"";"";"Recharge";"";"";""
"6047204618";"61.9025597";"6.7149852";"charging_station";"Stryn";"Norway";"Sogn og Fjordane";"N/A";"N/A";"";"4";"";"";"";"";"";"";"";"2";"";"";"";"";"";"";"Mer";"";"24/7";""
"6047204622";"61.969196";"6.5259";"charging_station";"Hornindal";"Norway";"Sogn og Fjordane";"N/A";"N/A";"";"4";"";"";"";"";"";"";"";"2";"";"";"";"";"";"";"Mer";"";"24/7";""
"6047204625";"61.9037792";"6.7180789";"charging_station";"Stryn";"Norway";"Sogn og Fjordane";"N/A";"N/A";"";"2";"";"";"TOCN - Stryn Torg";"";"";"";"";"2";"";"";"";"";"";"";"";"";"24/7";""
"9476587320";"61.904626";"6.725761";"charging_station";"Stryn";"Norway";"Sogn og Fjordane";"N/A";"N/A";"";"12";"";"";"";"";"";"";"";"";"";"";"";"";"";"";"Tesla";"";"";""
"10075846608";"61.9007655";"6.7161655";"charging_station";"Stryn";"Norway";"Sogn og Fjordane";"N/A";"N/A";"";"6";"";"";"";"";"";"";"";"";"";"";"";"";"";"";"Recharge";"";"";"yes"
"5273347295";"62.0950245";"7.2112124";"charging_station";"Norddal";"Norway";"More og Romsdal";"N/A";"N/A";"";"3";"";"";"";"";"";"";"";"2";"";"";"";"";"";"";"Recharge";"";"24/7";""
"6047204629";"61.9186879";"7.1692688";"charging_station";"Norddal";"Norway";"More og Romsdal";"N/A";"N/A";"";"4";"";"";"";"";"";"";"";"2";"";"";"";"";"";"";"Mer";"";"24/7";""
"6068802284";"62.0952605";"7.210853";"charging_station";"Norddal";"Norway";"More og Romsdal";"N/A";"N/A";"";"30";"";"";"Norsk Fjordsenter";"";"";"";"";"30";"";"";"";"";"";"";"";"";"24/7";""
"6068812224";"62.09638";"7.2107338";"charging_station";"Norddal";"Norway";"More og Romsdal";"N/A";"N/A";"";"3";"";"";"Hotel Union";"";"";"";"";"3";"";"";"";"";"";"";"";"";"24/7";""
"11114085563";"62.1008192";"7.2164334";"charging_station";"Norddal";"Norway";"More og Romsdal";"N/A";"N/A";"";"3";"";"";"GARO";"";"";"";"";"";"";"";"";"";"";"";"";"";"";""
"11169096720";"61.8716216";"6.848601";"charging_station";"Stryn";"Norway";"Sogn og Fjordane";"N/A";"N/A";"";"4";"";"";"";"";"";"";"";"";"";"";"";"";"";"";"Eviny";"";"";""
"11169096726";"62.307454";"6.945529";"charging_station";"Stranda";"Norway";"More og Romsdal";"N/A";"N/A";"";"5";"";"";"";"";"";"";"";"1";"";"";"";"";"";"";"Eviny";"";"";""
"5808132168";"62.2983312";"7.2553324";"charging_station";"Norddal";"Norway";"More og Romsdal";"N/A";"N/A";"";"3";"";"";"";"";"";"";"";"2";"";"";"";"";"";"";"Mer";"";"24/7";""
"5808132257";"62.0137564";"7.6305641";"charging_station";"Norddal";"Norway";"More og Romsdal";"N/A";"N/A";"";"4";"";"";"";"";"";"";"";"2";"";"";"";"";"";"";"Mer";"";"24/7";""
"6068802272";"62.3172493";"7.2944937";"charging_station";"Norddal";"Norway";"More og Romsdal";"N/A";"N/A";"";"2";"";"";"Valldal Camping";"";"";"";"";"";"";"";"";"";"";"";"";"";"24/7";""
"6025956830";"62.2589474";"8.2080457";"charging_station";"Skjak";"Norway";"Oppland";"N/A";"N/A";"";"4";"";"";"";"";"";"";"";"1";"";"";"";"";"";"";"Eviny";"";"";""
"6025956786";"62.1932356";"8.5365184";"charging_station";"Lesja";"Norway";"Oppland";"N/A";"N/A";"";"4";"";"";"";"";"";"";"";"2";"";"";"";"";"";"";"Mer";"";"24/7";""
"6025956787";"61.884392";"8.263938";"charging_station";"Skjak";"Norway";"Oppland";"N/A";"N/A";"";"4";"";"";"Mer";"";"";"";"";"2";"";"";"";"";"";"";"Mer";"";"24/7";"yes"
"6025956809";"61.883142";"8.267024";"charging_station";"Skjak";"Norway";"Oppland";"N/A";"N/A";"";"18";"";"";"";"";"";"";"";"";"";"";"";"";"";"";"Tesla";"";"";""
"9867476881";"61.8725702";"8.3117453";"charging_station";"Skjak";"Norway";"Oppland";"N/A";"N/A";"";"2";"";"";"";"";"";"";"";"";"";"";"";"";"";"";"";"";"";""
"11423193361";"61.8825441";"8.2683554";"charging_station";"Skjak";"Norway";"Oppland";"N/A";"N/A";"";"12";"";"";"Ionity";"";"";"";"";"";"";"";"";"";"";"";"Ionity";"";"24/7";"yes"
"2871059176";"62.0746972";"9.1278992";"charging_station";"Dovre";"Norway";"Oppland";"N/A";"N/A";"";"23";"";"";"";"";"";"";"";"";"";"";"";"";"";"";"Tesla";"";"";""
"6025956829";"61.8767646";"9.0990092";"charging_station";"Vaga";"Norway";"Oppland";"N/A";"N/A";"";"2";"";"";"";"";"";"";"";"";"";"";"";"";"";"";"Circle K";"";"";""
"6025956841";"62.0747894";"9.128177";"charging_station";"Dovre";"Norway";"Oppland";"N/A";"N/A";"";"14";"";"";"";"";"";"";"";"";"";"";"";"";"";"";"Eviny";"";"";""
"6775535699";"62.0745005";"9.1251098";"charging_station";"Dovre";"Norway";"Oppland";"N/A";"N/A";"";"6";"";"";"";"";"";"";"";"";"";"";"";"";"";"";"Ionity";"";"24/7";""
"11193540634";"62.0749138";"9.1282164";"charging_station";"Dovre";"Norway";"Oppland";"N/A";"N/A";"";"3";"";"";"E.ON";"Q270223";"";"";"";"";"";"";"28458.1;28458.2;28459.1;28459.2;28455.1;28455.2";"";"";"";"E.ON";"";"";""
"12811999416";"62.012342";"9.207972";"charging_station";"Dovre";"Norway";"Oppland";"N/A";"N/A";"";"4";"";"";"";"";"";"";"";"";"";"";"";"";"";"";"Uno-X";"";"";""
"12840632082";"61.8699177";"9.1036155";"charging_station";"Vaga";"Norway";"Oppland";"N/A";"N/A";"";"12";"";"";"Tesla";"Q478214";"";"";"";"";"";"";"";"";"";"";"Tesla";"";"";"yes"
"5808132256";"62.2213375";"9.5445085";"charging_station";"Dovre";"Norway";"Oppland";"N/A";"N/A";"";"6";"";"";"";"";"";"";"";"1";"";"";"";"";"";"";"Eviny";"";"";""
"6025956828";"62.17455";"9.4285273";"charging_station";"Dovre";"Norway";"Oppland";"N/A";"N/A";"";"3";"";"";"Dovregubbens hall";"";"";"";"";"3";"";"";"";"";"";"";"";"";"24/7";""
"11197209569";"62.221127";"9.545076";"charging_station";"Dovre";"Norway";"Oppland";"N/A";"N/A";"";"12";"";"";"Tesla";"Q478214";"";"";"";"";"";"";"";"";"";"";"Tesla";"";"";"yes"
"6037457094";"62.1554464";"10.1716836";"charging_station";"Folldal";"Norway";"Hedmark";"N/A";"N/A";"";"1";"";"";"Grimsbu Turistsenter";"";"";"";"";"1";"";"";"";"";"";"";"";"";"24/7";""
"6037457108";"62.1347353";"9.9936437";"charging_station";"Folldal";"Norway";"Hedmark";"N/A";"N/A";"";"3";"";"";"";"";"";"";"";"1";"";"";"";"";"";"";"Recharge";"";"24/7";""
"3093767759";"62.1146865";"10.6163123";"charging_station";"Alvdal";"Norway";"Hedmark";"N/A";"N/A";"";"36";"";"";"";"";"";"";"";"";"";"";"";"";"";"";"Tesla";"";"";""
"5036234234";"62.1109385";"10.6271673";"charging_station";"Alvdal";"Norway";"Hedmark";"N/A";"N/A";"";"3";"";"";"";"";"";"";"";"";"";"";"";"";"";"";"Recharge";"";"24/7";""
"8999215401";"62.1189746";"10.6133649";"charging_station";"Alvdal";"Norway";"Hedmark";"N/A";"N/A";"";"6";"";"";"";"";"";"";"";"";"";"";"";"";"";"";"Ionity";"";"";""
"11169096660";"62.1149778";"10.6161229";"charging_station";"Alvdal";"Norway";"Hedmark";"N/A";"N/A";"";"16";"";"";"";"";"";"";"";"";"";"";"";"";"";"";"Eviny";"";"";""
"12776821014";"62.118164";"10.614046";"charging_station";"Alvdal";"Norway";"Hedmark";"N/A";"N/A";"";"10";"";"";"";"";"";"";"";"";"";"";"";"";"";"";"Circle K";"";"";""
"6037455982";"62.275153";"10.776063";"charging_station";"Tynset";"Norway";"Hedmark";"N/A";"N/A";"";"2";"";"";"";"";"";"";"";"2";"";"";"";"";"";"";"Mer";"";"24/7";""
"6037457120";"62.2746937";"10.7790808";"charging_station";"Tynset";"Norway";"Hedmark";"N/A";"N/A";"";"4";"";"";"";"";"";"";"";"2";"";"";"";"";"";"";"Recharge";"";"24/7";""
"9551498918";"62.2785602";"10.7753418";"charging_station";"Tynset";"Norway";"Hedmark";"N/A";"N/A";"";"";"";"";"";"";"";"";"";"";"";"";"";"";"";"";"";"";"";""
"11146764730";"62.278223";"10.7739475";"charging_station";"Tynset";"Norway";"Hedmark";"N/A";"N/A";"";"4";"";"";"";"";"";"";"";"";"";"";"";"";"";"";"Mer";"";"";""
"11169096666";"62.2766268";"10.7785381";"charging_station";"Tynset";"Norway";"Hedmark";"N/A";"N/A";"";"10";"";"";"";"";"";"";"";"6";"";"";"";"";"";"";"Eviny";"";"";""
"11185853308";"61.8835684";"11.0830526";"charging_station";"Rendalen";"Norway";"Hedmark";"N/A";"N/A";"";"6";"";"";"";"";"";"";"";"2";"";"";"";"";"";"";"Kople";"";"";""
"3391566906";"62.0984263";"12.3121853";"charging_station";"Engerdal";"Norway";"Hedmark";"N/A";"N/A";"";"2";"";"";"Grövelsjöns Fjällstation";"";"2";"";"";"";"";"";"";"";"";"";"";"";"";""
"10742267225";"62.0696247";"12.3110654";"charging_station";"Engerdal";"Norway";"Hedmark";"N/A";"N/A";"";"2";"";"";"Storsätra Hotell";"";"";"";"";"2";"";"";"";"";"";"";"";"";"";""
"8897021911";"61.8922109";"12.8298503";"charging_station";"Trysil";"Norway";"Hedmark";"N/A";"N/A";"";"";"";"yes";"";"";"";"";"";"";"";"";"";"";"";"";"";"";"";""
"10742263740";"61.89028";"12.82948";"charging_station";"Trysil";"Norway";"Hedmark";"N/A";"N/A";"";"2";"";"";"Stiftelsen Idre Fjäll";"";"";"";"";"2";"";"";"";"";"";"";"";"";"";""
"10742263770";"61.88707";"12.83645";"charging_station";"Trysil";"Norway";"Hedmark";"N/A";"N/A";"";"10";"";"";"Idrefjäll";"";"";"";"";"10";"";"";"";"";"";"";"";"";"";""
"10742263776";"61.8846";"12.76989";"charging_station";"Trysil";"Norway";"Hedmark";"N/A";"N/A";"";"8";"";"";"Idre Himmelfjäll";"";"";"";"";"8";"";"";"";"";"";"";"";"";"";""
"10742263785";"61.88693";"12.8365";"charging_station";"Trysil";"Norway";"Hedmark";"N/A";"N/A";"";"2";"";"";"Idre Fjäll";"";"";"";"";"2";"";"";"";"";"";"";"";"";"";""
"10742263793";"61.882285";"12.849167";"charging_station";"Trysil";"Norway";"Hedmark";"N/A";"N/A";"";"2";"";"";"Idre";"";"";"";"";"2";"";"";"";"";"";"";"";"";"";""
"10742267220";"61.8894";"12.83152";"charging_station";"Trysil";"Norway";"Hedmark";"N/A";"N/A";"";"20";"";"";"Idre Fjäll";"";"";"";"";"20";"";"";"";"";"";"";"";"";"";""
"10740140784";"62.11241";"13.27421";"charging_station";"Harjedalens Kommun";"Sweden";"Jaemtland";"N/A";"N/A";"";"4";"";"";"";"";"";"";"";"2";"";"";"";"";"";"";"InCharge";"";"";""
"10740140795";"62.1138266";"13.294008";"charging_station";"Harjedalens Kommun";"Sweden";"Jaemtland";"N/A";"N/A";"";"3";"";"";"";"";"";"";"";"1";"";"";"";"";"";"";"";"";"";""
"3602708815";"62.0331465";"14.3656718";"charging_station";"Harjedalens Kommun";"Sweden";"Jaemtland";"N/A";"N/A";"";"3";"";"";"Fyrfasen Energi AB";"";"";"";"";"1";"";"";"";"";"";"";"";"";"";""
"9355825068";"62.034522";"14.366178";"charging_station";"Harjedalens Kommun";"Sweden";"Jaemtland";"N/A";"N/A";"";"12";"";"";"";"";"";"";"";"";"";"";"";"5";"Vallarvägen";"84233";"Tesla";"";"";""
"6990873724";"61.9869918";"15.3002482";"charging_station";"Ljusdals Kommun";"Sweden";"Gaevleborg";"N/A";"N/A";"";"3";"";"";"Ljusdal Energi";"";"";"";"";"2";"";"";"";"";"";"";"";"";"";"no"
"6990788863";"61.9707504";"16.3401191";"charging_station";"Hudiksvalls Kommun";"Sweden";"Gaevleborg";"N/A";"N/A";"";"3";"";"";"Charge & Drive";"";"";"";"";"2";"";"";"";"";"";"";"Fortum";"";"";"yes"
"10742310035";"62.34715";"17.01987";"charging_station";"Sundsvalls Kommun";"Sweden";"Vaesternorrland";"N/A";"N/A";"";"2";"";"";"";"";"";"";"";"1";"";"";"";"";"";"";"Mer";"";"";""
"10742321911";"61.92976";"17.21736";"charging_station";"Nordanstigs Kommun";"Sweden";"Gaevleborg";"N/A";"N/A";"";"2";"";"";"Andreas Bernmyr";"";"2";"";"";"2";"";"";"";"";"";"";"";"";"";""
"3363781576";"62.2988942";"17.3778286";"charging_station";"Sundsvalls Kommun";"Sweden";"Vaesternorrland";"N/A";"N/A";"";"5";"4";"yes";"";"";"";"";"";"2";"";"";"";"";"";"";"Mer";"";"";""
"10742321961";"62.0447328";"17.2643842";"charging_station";"Nordanstigs Kommun";"Sweden";"Gaevleborg";"N/A";"N/A";"";"2";"";"";"";"";"";"";"";"1";"";"";"";"";"";"";"Mer";"";"";""
"11583775668";"62.268595";"17.3835071";"charging_station";"Sundsvalls Kommun";"Sweden";"Vaesternorrland";"N/A";"N/A";"";"4";"";"";"";"";"";"";"";"4";"";"";"";"";"";"";"Waybler";"";"";"yes"
"11584022329";"62.2487109";"17.37389";"charging_station";"Sundsvalls Kommun";"Sweden";"Vaesternorrland";"N/A";"N/A";"";"2";"";"";"";"";"";"";"";"2";"";"";"";"";"";"";"laddkoll";"";"";"yes"
"11584022330";"62.2482057";"17.3744553";"charging_station";"Sundsvalls Kommun";"Sweden";"Vaesternorrland";"N/A";"N/A";"";"4";"";"";"";"";"";"";"";"";"";"";"";"";"";"";"Allego";"";"";"yes"
"11584086771";"62.3389471";"17.3530629";"charging_station";"Sundsvalls Kommun";"Sweden";"Vaesternorrland";"N/A";"N/A";"";"6";"";"";"Ionity";"";"";"";"";"";"";"";"";"";"";"";"Ionity";"";"";"yes"
"12135626427";"62.0453567";"17.265079";"charging_station";"Nordanstigs Kommun";"Sweden";"Gaevleborg";"N/A";"N/A";"";"3";"";"";"";"";"";"";"";"";"";"";"";"";"";"";"Cirkle-K";"";"";""
"9420283706";"62.2997961";"21.4530596";"charging_station";"Sydosterbotten";"Finland";"Ostrobothnia";"N/A";"N/A";"";"2";"";"";"Tiukka Energy";"";"";"";"";"";"";"";"";"";"";"";"";"";"";"yes"
"9420283707";"62.2617958";"21.4854479";"charging_station";"Sydosterbotten";"Finland";"Ostrobothnia";"N/A";"N/A";"";"2";"";"";"";"";"";"";"";"2";"";"";"";"";"";"";"";"";"";"yes"
"11993153917";"62.2621548";"21.483944";"charging_station";"Sydosterbotten";"Finland";"Ostrobothnia";"N/A";"N/A";"";"6";"";"";"Etelä-Pohjanmaan Osuuskauppa, Eepee";"";"";"";"";"2";"";"";"";"";"";"";"ABC lataus";"";"24/7";"yes"
"12044992527";"61.8622573";"21.6398342";"charging_station";"Pori";"Finland";"Satakunta";"N/A";"N/A";"";"2";"";"";"Autoliitto";"";"";"";"";"";"";"";"";"";"";"";"AL lataus";"";"";"yes"
"1380045588";"";"";"charging_station";"N/A";"N/A";"N/A";"N/A";"N/A";"";"6";"";"";"";"";"";"";"";"";"";"";"";"";"";"";"St1";"";"24/7";"yes"
"12776640743";"62.0059079";"23.0128091";"";"Luoteis-Pirkanmaa";"Finland";"Pirkanmaa";"N/A";"N/A";"";"";"";"";"";"";"";"";"";"";"";"";"";"";"";"";"";"";"";""
"12776640744";"62.0059146";"23.0127157";"";"Luoteis-Pirkanmaa";"Finland";"Pirkanmaa";"N/A";"N/A";"";"";"";"";"";"";"";"";"";"";"";"";"";"";"";"";"";"";"";""
"12776640745";"62.0057162";"23.012651";"";"Luoteis-Pirkanmaa";"Finland";"Pirkanmaa";"N/A";"N/A";"";"";"";"";"";"";"";"";"";"";"";"";"";"";"";"";"";"";"";""
"12776640746";"62.0057095";"23.0127444";"";"Luoteis-Pirkanmaa";"Finland";"Pirkanmaa";"N/A";"N/A";"";"";"";"";"";"";"";"";"";"";"";"";"";"";"";"";"";"";"";""
"7105541982";"62.2407504";"23.7832078";"charging_station";"Ylae-Pirkanmaa";"Finland";"Pirkanmaa";"N/A";"N/A";"";"2";"";"yes";"Tokmanni";"";"";"";"";"2";"";"";"";"";"";"";"";"";"";"no"
"7105585606";"62.2421447";"23.7738775";"charging_station";"Ylae-Pirkanmaa";"Finland";"Pirkanmaa";"N/A";"N/A";"";"2";"";"yes";"Koillis-Satakunnan Sähkö Oy";"";"";"";"";"2";"";"";"";"";"";"";"";"";"";"no"
"10113468437";"62.2494976";"23.7834898";"charging_station";"Ylae-Pirkanmaa";"Finland";"Pirkanmaa";"N/A";"N/A";"";"4";"";"";"Recharge";"";"";"";"";"";"";"";"";"";"";"";"";"";"";"yes"
"6518646956";"62.258741";"24.6960308";"charging_station";"Keuruu";"Finland";"Central Finland";"N/A";"N/A";"";"2";"";"";"Virtapiste";"";"";"";"";"";"";"";"";"";"";"";"";"";"";"yes"
"9586072544";"62.0293266";"24.6254482";"charging_station";"Ylae-Pirkanmaa";"Finland";"Pirkanmaa";"N/A";"N/A";"";"";"";"";"ABC";"Q10397504";"";"";"";"";"";"";"";"";"";"";"";"";"";""
"12809951003";"61.8664552";"25.1968471";"charging_station";"Jaemsae";"Finland";"Central Finland";"N/A";"N/A";"";"8";"";"";"ABC-lataus";"Q116172128";"";"";"";"";"";"";"";"";"";"";"";"";"";"yes"
"12809979137";"61.8706337";"25.2371274";"charging_station";"Jaemsae";"Finland";"Central Finland";"N/A";"N/A";"";"";"";"";"";"";"";"";"";"";"";"";"";"";"";"";"Ionity";"";"";""
"12809983974";"61.8699819";"25.2351521";"charging_station";"Jaemsae";"Finland";"Central Finland";"N/A";"N/A";"";"8";"";"";"Tesla";"Q478214";"";"";"";"";"";"";"";"";"";"";"Tesla Supercharger";"";"";"yes"
"6795819555";"62.2278037";"25.7448971";"charging_station";"Jyvaeskylae";"Finland";"Central Finland";"N/A";"N/A";"";"5";"";"";"Alva Oy";"";"";"";"";"";"";"";"";"";"";"";"";"";"";""
"6967642608";"62.3015487";"25.7120804";"charging_station";"Jyvaeskylae";"Finland";"Central Finland";"N/A";"N/A";"";"2";"";"";"";"";"";"";"";"";"";"";"";"";"";"";"";"";"";"yes"
"8205553645";"62.2866168";"25.7189146";"charging_station";"Jyvaeskylae";"Finland";"Central Finland";"N/A";"N/A";"";"4";"";"";"Virta";"";"";"";"";"2";"";"";"";"";"";"";"Virta";"";"";"yes"
"9403455503";"62.2884274";"25.7189013";"charging_station";"Jyvaeskylae";"Finland";"Central Finland";"N/A";"N/A";"";"12";"";"";"ABC-Lataus";"";"";"";"";"8";"";"";"";"1";"Palokanorsi";"40270";"";"";"";"yes"
"9403455504";"62.2874666";"25.7145153";"charging_station";"Jyvaeskylae";"Finland";"Central Finland";"N/A";"N/A";"";"6";"";"";"";"";"";"";"";"4";"";"";"";"";"";"";"K-Lataus";"";"";"yes"
"9403455511";"62.2900328";"25.716443";"charging_station";"Jyvaeskylae";"Finland";"Central Finland";"N/A";"N/A";"";"1";"";"";"Lidl";"Q151954";"";"";"";"1";"";"";"";"";"";"";"";"";"";""
"9714108935";"62.216188";"25.7209017";"charging_station";"Jyvaeskylae";"Finland";"Central Finland";"N/A";"N/A";"";"4";"";"yes";"";"";"";"";"";"4";"";"";"";"";"";"";"";"0,22€ / kWh";"";"yes"
"10315567023";"62.2143712";"25.7223995";"charging_station";"Jyvaeskylae";"Finland";"Central Finland";"N/A";"N/A";"";"8";"";"yes";"Tesla, Inc.";"Q478214";"";"";"";"";"";"";"";"";"";"";"Tesla Supercharger";"";"";"yes"
"11293515103";"62.2868814";"25.7150183";"charging_station";"Jyvaeskylae";"Finland";"Central Finland";"N/A";"N/A";"";"6";"";"";"Ionity";"";"";"";"";"";"";"";"";"";"";"";"Ionity";"";"24/7";"yes"
"11963030839";"62.2145545";"25.7217928";"charging_station";"Jyvaeskylae";"Finland";"Central Finland";"N/A";"N/A";"";"10";"";"yes";"K-Lataus";"";"";"";"";"6";"";"";"";"";"";"";"";"";"24/7";"yes"
"11963053610";"62.2172142";"25.7206804";"charging_station";"Jyvaeskylae";"Finland";"Central Finland";"N/A";"N/A";"";"8";"";"yes";"ABC Lataus";"";"";"";"";"2";"";"";"";"";"";"";"";"";"24/7";"yes"
"11971456250";"62.2182837";"25.7193035";"charging_station";"Jyvaeskylae";"Finland";"Central Finland";"N/A";"N/A";"";"";"";"";"";"";"";"";"";"";"";"";"";"";"";"";"";"";"";""
"1379174760";"";"";"charging_station";"N/A";"N/A";"N/A";"N/A";"N/A";"";"";"";"";"";"";"";"";"";"";"";"";"";"";"";"";"";"";"";""
"12770887099";"62.2465492";"25.6773379";"";"Jyvaeskylae";"Finland";"Central Finland";"N/A";"N/A";"";"";"";"";"";"";"";"";"";"";"";"";"";"";"";"";"";"";"";""
"12770903131";"62.2465746";"25.6771209";"";"Jyvaeskylae";"Finland";"Central Finland";"N/A";"N/A";"";"";"";"";"";"";"";"";"";"";"";"";"";"";"";"";"";"";"";""
"12770903132";"62.2464116";"25.6770329";"";"Jyvaeskylae";"Finland";"Central Finland";"N/A";"N/A";"";"";"";"";"";"";"";"";"";"";"";"";"";"";"";"";"";"";"";""
"12770903133";"62.2463726";"25.6773658";"";"Jyvaeskylae";"Finland";"Central Finland";"N/A";"N/A";"";"";"";"";"";"";"";"";"";"";"";"";"";"";"";"";"";"";"";""
"12770903134";"62.2465356";"25.6774539";"";"Jyvaeskylae";"Finland";"Central Finland";"N/A";"N/A";"";"";"";"";"";"";"";"";"";"";"";"";"";"";"";"";"";"";"";""
"12770903136";"62.2463861";"25.677196";"";"Jyvaeskylae";"Finland";"Central Finland";"N/A";"N/A";"";"";"";"";"";"";"";"";"";"";"";"";"";"";"";"";"";"";"";""
"7064849008";"62.2637196";"25.7755154";"charging_station";"Jyvaeskylae";"Finland";"Central Finland";"N/A";"N/A";"";"7";"";"yes";"8";"";"";"";"";"4";"";"";"";"";"";"";"";"";"24/7";"yes"
"7152365593";"62.0987705";"26.0832227";"charging_station";"Jyvaeskylae";"Finland";"Central Finland";"N/A";"N/A";"";"";"";"";"";"";"";"";"";"";"";"";"";"";"";"";"";"";"";"yes"
"11965926306";"62.251069";"25.7686688";"charging_station";"Jyvaeskylae";"Finland";"Central Finland";"N/A";"N/A";"";"2";"";"yes";"McDonald's";"";"";"";"";"";"";"";"";"";"";"";"";"";"24/7";"yes"
"6317477476";"62.3580541";"26.5733909";"charging_station";"Jyvaeskylae";"Finland";"Central Finland";"N/A";"N/A";"";"";"";"";"Charge&Drive";"";"";"";"";"2";"";"";"";"";"";"";"";"";"";""
"12881051696";"62.3587272";"26.5709815";"charging_station";"Jyvaeskylae";"Finland";"Central Finland";"N/A";"N/A";"";"8";"";"yes";"Tesla";"Q478214";"";"";"";"";"";"";"";"";"";"";"Tesla Supercharger";"";"24/7";"yes"
"11964657709";"62.3026402";"27.1643401";"charging_station";"Pieksaemaeki";"Finland";"Southern Savonia";"N/A";"N/A";"";"";"";"";"";"";"";"";"";"";"";"";"";"";"";"";"";"";"";""
"11638742060";"62.0636261";"27.7226419";"charging_station";"Pieksaemaeki";"Finland";"Southern Savonia";"N/A";"N/A";"";"";"";"";"";"";"";"";"";"";"";"";"";"";"";"";"";"";"";""
"6298705652";"62.1762589";"27.8398579";"charging_station";"Pieksaemaeki";"Finland";"Southern Savonia";"N/A";"N/A";"";"4";"";"";"Fortum Charge&Drive";"";"";"";"";"3";"";"";"";"";"";"";"";"";"";""
"9458720777";"62.3047184";"27.8559439";"charging_station";"Varkaus";"Finland";"Northern Savo";"N/A";"N/A";"";"2";"";"";"Recharge Finland Oy";"";"";"";"";"2";"";"";"";"";"";"";"";"0.15€/kWh";"";"yes"
"9458910653";"62.3049834";"27.85596";"charging_station";"Varkaus";"Finland";"Northern Savo";"N/A";"N/A";"";"2";"";"";"Recharge Finland Oy";"";"";"";"";"";"";"";"";"";"";"";"";"0.25€/min";"";"yes"
"9458910654";"62.3048887";"27.8559439";"charging_station";"Varkaus";"Finland";"Northern Savo";"N/A";"N/A";"";"2";"";"";"Recharge Finland Oy";"";"";"";"";"";"";"";"";"";"";"";"";"0.25€/min";"";"yes"
"9458924925";"62.3138645";"27.8582483";"charging_station";"Varkaus";"Finland";"Northern Savo";"N/A";"N/A";"";"6";"";"";"Recharge Finland Oy";"";"";"";"";"6";"";"";"";"";"";"";"";"0.40€/kWh";"";"yes"
"9850613805";"61.8973321";"27.8061895";"charging_station";"Pieksaemaeki";"Finland";"Southern Savonia";"N/A";"N/A";"";"6";"";"";"";"";"";"";"";"";"";"";"";"";"";"";"";"";"";"yes"
"9850613806";"61.8973586";"27.8061251";"charging_station";"Pieksaemaeki";"Finland";"Southern Savonia";"N/A";"N/A";"";"4";"";"";"";"";"";"";"";"";"";"";"";"";"";"";"";"";"";""
"12254020572";"62.3174857";"27.8568159";"charging_station";"Varkaus";"Finland";"Northern Savo";"N/A";"N/A";"";"";"";"";"";"";"";"";"";"";"";"";"";"";"";"";"";"";"";""
"12914385025";"62.1757003";"27.8404227";"charging_station";"Pieksaemaeki";"Finland";"Southern Savonia";"N/A";"N/A";"";"6";"";"";"Tesla";"Q478214";"";"";"";"";"";"";"";"";"";"";"Tesla Supercharger";"";"";"yes"
"5583138494";"61.8660983";"28.8870627";"charging_station";"Savonlinna";"Finland";"Southern Savonia";"N/A";"N/A";"";"2";"";"";"Lumme energia";"";"";"";"";"2";"32";"";"";"";"";"";"";"";"";"no"
"5583138495";"61.868561";"28.8861349";"charging_station";"Savonlinna";"Finland";"Southern Savonia";"N/A";"N/A";"";"2";"";"";"Recharge";"";"";"";"";"2";"32";"";"";"";"";"";"Recharge";"";"";"no"
"5583138496";"61.868863";"28.8824139";"charging_station";"Savonlinna";"Finland";"Southern Savonia";"N/A";"N/A";"";"2";"";"";"Recharge";"";"";"";"";"2";"32";"";"";"";"";"";"Recharge";"";"";"no"
"5583138497";"61.8703611";"28.8801223";"charging_station";"Savonlinna";"Finland";"Southern Savonia";"N/A";"N/A";"";"2";"";"";"Recharge";"";"";"";"";"2";"32";"";"";"";"";"";"Recharge";"";"";"yes"
"11384369758";"61.8774054";"28.8282818";"charging_station";"Savonlinna";"Finland";"Southern Savonia";"N/A";"N/A";"";"";"";"";"";"";"";"";"";"";"";"";"";"";"";"";"ABC-lataus";"";"";""
"11384369759";"61.8790345";"28.8140993";"charging_station";"Savonlinna";"Finland";"Southern Savonia";"N/A";"N/A";"";"";"";"";"K-Lataus";"Q116172072";"";"";"";"";"";"";"";"";"";"";"K-lataus";"";"";""
"11384369760";"61.864771";"28.9403463";"charging_station";"Savonlinna";"Finland";"Southern Savonia";"N/A";"N/A";"";"";"";"";"";"";"";"";"";"";"";"";"";"";"";"";"K-lataus";"";"";""
"10678608730";"61.9127257";"29.2821896";"charging_station";"Savonlinna";"Finland";"Southern Savonia";"N/A";"N/A";"";"1";"";"";"Recharge";"";"";"";"";"";"";"";"";"";"";"";"";"";"24/7";"yes"
"12853390839";"62.3312961";"29.6314923";"charging_station";"Keski-Karjala";"Finland";"North Karelia";"N/A";"N/A";"";"2";"";"yes";"";"";"";"";"";"";"";"";"";"";"";"";"";"";"24/7";"yes"
"12899454067";"62.3119832";"29.5869192";"charging_station";"Keski-Karjala";"Finland";"North Karelia";"N/A";"N/A";"";"1";"";"yes";"";"";"";"";"";"1";"";"";"";"";"";"";"";"";"24/7";"no"
"11775536417";"62.0453168";"29.8983547";"charging_station";"Keski-Karjala";"Finland";"North Karelia";"N/A";"N/A";"";"2";"";"yes";"";"";"";"";"";"";"";"";"";"";"";"";"";"";"24/7";""
