"id";"lat";"lon";"amenity";"city";"state";"country";"scraped_country_code";"scraped_country_name";"authentication:nfc";"capacity";"capacity:car";"motorcar";"operator";"operator:wikidata";"socket:schuko";"socket:schuko:current";"socket:schuko:voltage";"socket:type2";"socket:type2:current";"socket:type2:voltage";"ref";"addr:housenumber";"addr:street";"addr:postcode";"brand";"charge";"opening_hours";"fee"
"12082932212";"40.2223138";"69.2597521";"charging_station";"";"Uzbekistan";"Toshkent";"N/A";"N/A";"";"6";"";"";"OOO ""TOK BOR""";"";"";"";"";"";"";"";"UZ509";"";"";"";"TOK BOR";"";"";"yes"
"12082977986";"40.236015";"69.2616293";"charging_station";"";"Uzbekistan";"Toshkent";"N/A";"N/A";"";"1";"";"";"OOO ""TOK BOR""";"";"";"";"";"";"";"";"UZ512";"";"";"";"TOK BOR";"";"";"yes"
"12486197071";"40.2973837";"69.6127341";"charging_station";"";"Tajikistan";"Viloyati Sughd";"N/A";"N/A";"";"";"";"";"";"";"";"";"";"";"";"";"";"";"";"";"";"";"";""
"12486203952";"40.2927172";"69.6361639";"charging_station";"";"Tajikistan";"Viloyati Sughd";"N/A";"N/A";"";"";"";"";"";"";"";"";"";"";"";"";"";"";"";"";"";"";"";""
"12486206834";"40.3128702";"69.6812381";"charging_station";"";"Tajikistan";"Viloyati Sughd";"N/A";"N/A";"";"";"";"";"";"";"";"";"";"";"";"";"";"";"";"";"";"";"";""
"12486217241";"40.2706222";"69.6358242";"charging_station";"";"Tajikistan";"Viloyati Sughd";"N/A";"N/A";"";"";"";"";"";"";"";"";"";"";"";"";"";"";"";"";"";"";"";""
"12486221797";"40.2746036";"69.6212943";"charging_station";"";"Tajikistan";"Viloyati Sughd";"N/A";"N/A";"";"";"";"";"";"";"";"";"";"";"";"";"";"";"";"";"";"";"";""
"12620411401";"40.2947936";"69.599973";"charging_station";"";"Tajikistan";"Viloyati Sughd";"N/A";"N/A";"";"";"";"";"";"";"";"";"";"";"";"";"";"";"";"";"";"";"";""
"1363064044";"";"";"charging_station";"N/A";"N/A";"N/A";"N/A";"N/A";"";"";"";"";"";"";"";"";"";"";"";"";"";"";"";"";"";"";"";""
"12620399761";"40.2646815";"69.6487293";"";"";"Tajikistan";"Viloyati Sughd";"N/A";"N/A";"";"";"";"";"";"";"";"";"";"";"";"";"";"";"";"";"";"";"";""
"12620399762";"40.264697";"69.6490654";"";"";"Tajikistan";"Viloyati Sughd";"N/A";"N/A";"";"";"";"";"";"";"";"";"";"";"";"";"";"";"";"";"";"";"";""
"12620399763";"40.2644909";"69.6490817";"";"";"Tajikistan";"Viloyati Sughd";"N/A";"N/A";"";"";"";"";"";"";"";"";"";"";"";"";"";"";"";"";"";"";"";""
"12620399764";"40.2644753";"69.6487456";"";"";"Tajikistan";"Viloyati Sughd";"N/A";"N/A";"";"";"";"";"";"";"";"";"";"";"";"";"";"";"";"";"";"";"";""
"11043913884";"40.5391939";"70.9461929";"charging_station";"";"Uzbekistan";"Fergana";"N/A";"N/A";"";"";"";"";"";"";"";"";"";"";"";"";"";"";"";"";"";"";"";""
"11871652743";"40.5377098";"70.9363789";"charging_station";"";"Uzbekistan";"Fergana";"N/A";"N/A";"";"2";"";"";"OOO ""TOK BOR""";"";"";"";"";"";"";"";"TokBor UZ016";"";"";"";"TOK BOR";"1950 сум/кВт*ч";"";"yes"
"11957812434";"40.6189285";"70.8963353";"charging_station";"";"Uzbekistan";"Fergana";"N/A";"N/A";"";"2";"";"";"ИП ООО ""TOSHELECTROAPPARAT""";"";"";"";"";"";"";"";"";"";"";"";"GreenTE Dang'ara";"";"";"yes"
"12070909303";"40.5441835";"70.9396031";"charging_station";"";"Uzbekistan";"Fergana";"N/A";"N/A";"";"3";"";"";"OOO ""TOK BOR""";"";"";"";"";"";"";"";"UZ080";"";"";"";"TOK BOR";"";"";"yes"
"12073216508";"40.5497416";"70.9224646";"charging_station";"";"Uzbekistan";"Fergana";"N/A";"N/A";"";"2";"";"";"OOO ""TOK BOR""";"";"";"";"";"";"";"";"UZ171";"";"";"";"TOK BOR";"";"";"yes"
"12073415076";"40.5184875";"70.935635";"charging_station";"";"Uzbekistan";"Fergana";"N/A";"N/A";"";"2";"";"";"OOO ""TOK BOR""";"";"";"";"";"";"";"";"UZ189";"";"";"";"TOK BOR";"";"";"yes"
"12073415077";"40.5184013";"70.9356301";"charging_station";"";"Uzbekistan";"Fergana";"N/A";"N/A";"";"1";"";"";"OOO ""TOK BOR""";"";"";"";"";"";"";"";"UZ385";"";"";"";"TOK BOR";"";"";"yes"
"12079565579";"40.3666835";"70.8100514";"charging_station";"";"Uzbekistan";"Fergana";"N/A";"N/A";"";"2";"";"";"OOO ""TOK BOR""";"";"";"";"";"";"";"";"UZ282";"";"";"";"TOK BOR";"";"";"yes"
"12082266607";"40.5332111";"70.9450975";"charging_station";"";"Uzbekistan";"Fergana";"N/A";"N/A";"";"2";"";"";"OOO ""TOK BOR""";"";"";"";"";"";"";"";"UZ432";"";"";"";"TOK BOR";"";"";"yes"
"12749690866";"40.5591325";"71.1398541";"charging_station";"";"Uzbekistan";"Fergana";"N/A";"N/A";"";"4";"";"";"OOO ""PRO-TOK""";"";"";"";"";"";"";"";"";"";"";"";"PRO-TOK";"";"";"yes"
"11957759054";"40.5839829";"71.3815313";"charging_station";"";"Uzbekistan";"Fergana";"N/A";"N/A";"";"2";"";"";"GreenTE";"";"";"";"";"";"";"";"";"";"";"";"GreenTE Buvayda tumani";"";"";"yes"
"12073015932";"40.4222944";"71.7160023";"charging_station";"";"Uzbekistan";"Fergana";"N/A";"N/A";"";"2";"";"";"OOO ""TOK BOR""";"";"";"";"";"";"";"";"UZ163";"";"";"";"TOK BOR";"";"";"yes"
"12082338976";"40.6519971";"71.7410876";"charging_station";"";"Uzbekistan";"Fergana";"N/A";"N/A";"";"2";"";"";"OOO ""TOK BOR""";"";"";"";"";"";"";"";"UZ434";"";"";"";"TOK BOR";"";"";"yes"
"12100427080";"40.6475223";"71.7085372";"charging_station";"";"Uzbekistan";"Fergana";"N/A";"N/A";"";"2";"";"";"OOO ""TOK BOR""";"";"";"";"";"";"";"";"UZ542";"";"";"";"TOK BOR";"";"";"yes"
"12070955822";"40.3829768";"71.7795788";"charging_station";"";"Uzbekistan";"Fergana";"N/A";"N/A";"";"2";"";"";"OOO ""TOK BOR""";"";"";"";"";"";"";"";"UZ081";"";"";"";"TOK BOR";"";"";"yes"
"12073061469";"40.3817491";"71.7823309";"charging_station";"";"Uzbekistan";"Fergana";"N/A";"N/A";"";"2";"";"";"OOO ""TOK BOR""";"";"";"";"";"";"";"";"UZ164";"";"";"";"TOK BOR";"";"";"yes"
"12079550582";"40.3424035";"71.7691886";"charging_station";"";"Uzbekistan";"Fergana";"N/A";"N/A";"";"2";"";"";"OOO ""TOK BOR""";"";"";"";"";"";"";"";"UZ281";"";"";"";"TOK BOR";"";"";"yes"
"12079662750";"40.3720364";"71.8087348";"charging_station";"";"Uzbekistan";"Fergana";"N/A";"N/A";"";"4";"";"";"OOO ""TOK BOR""";"";"";"";"";"";"";"";"UZ303";"";"";"";"TOK BOR";"";"";"yes"
"12079795842";"40.3755031";"71.8091532";"charging_station";"";"Uzbekistan";"Fergana";"N/A";"N/A";"";"2";"";"";"OOO ""TOK BOR""";"";"";"";"";"";"";"";"UZ314";"";"";"";"TOK BOR";"";"";"yes"
"12117204388";"40.5207041";"72.8022672";"charging_station";"";"Kyrgyzstan";"Osh";"N/A";"N/A";"";"";"";"";"";"";"";"";"";"";"";"";"";"";"";"";"Spark";"";"";"yes"
"12069832709";"40.9026481";"69.6424651";"charging_station";"";"Uzbekistan";"Toshkent";"N/A";"N/A";"";"2";"";"";"OOO ""TOK BOR""";"";"";"";"";"";"";"";"UZ077";"";"";"";"TOK BOR";"";"";"yes"
"12073012285";"40.9034204";"69.6448366";"charging_station";"";"Uzbekistan";"Toshkent";"N/A";"N/A";"";"2";"";"";"OOO ""TOK BOR""";"";"";"";"";"";"";"";"UZ161";"";"";"";"TOK BOR";"";"";"yes"
"12073433273";"40.860395";"69.5882256";"charging_station";"";"Uzbekistan";"Toshkent";"N/A";"N/A";"";"2";"";"";"OOO ""TOK BOR""";"";"";"";"";"";"";"";"UZ193";"";"";"";"TOK BOR";"";"";"yes"
"11487135270";"40.9945457";"70.0554678";"charging_station";"";"Uzbekistan";"Toshkent";"N/A";"N/A";"";"6";"";"";"OOO ""TOK BOR""";"";"";"";"";"";"";"";"UZ157";"";"";"";"TOK BOR";"";"";"yes"
"11740455469";"40.9069569";"69.7971525";"charging_station";"";"Uzbekistan";"Toshkent";"N/A";"N/A";"";"2";"";"";"GreenTE";"";"";"";"";"";"";"";"";"";"";"";"GreenTE Ором";"";"";"yes"
"12141255700";"40.9082544";"69.8035528";"charging_station";"";"Uzbekistan";"Toshkent";"N/A";"N/A";"";"3";"";"";"OOO ""TOK BOR""";"";"";"";"";"";"";"";"UZ555 UZ622";"";"";"";"TOK BOR";"";"";"yes"
"12069596918";"41.0270503";"70.6042939";"charging_station";"";"Tajikistan";"Viloyati Sughd";"N/A";"N/A";"";"2";"";"";"OOO TOK BOR";"";"";"";"";"";"";"";"UZ054";"";"";"";"TOK BOR";"";"";"yes"
"12069848209";"41.0328802";"70.5937791";"charging_station";"";"Tajikistan";"Viloyati Sughd";"N/A";"N/A";"";"2";"";"";"OOO ""TOK BOR""";"";"";"";"";"";"";"";"UZ078";"";"";"";"TOK BOR";"";"";"yes"
"12074638359";"41.0340984";"70.5871089";"charging_station";"";"Tajikistan";"Viloyati Sughd";"N/A";"N/A";"";"2";"";"";"OOO ""TOK BOR""";"";"";"";"";"";"";"";"UZ213";"";"";"";"TOK BOR";"";"";"yes"
"12074638360";"41.0339884";"70.5868824";"charging_station";"";"Tajikistan";"Viloyati Sughd";"N/A";"N/A";"";"1";"";"";"OOO ""TOK BOR""";"";"";"";"";"";"";"";"UZ381";"";"";"";"TOK BOR";"";"";"yes"
"12074655028";"41.0503895";"70.5688706";"charging_station";"";"Uzbekistan";"Toshkent";"N/A";"N/A";"";"2";"";"";"OOO ""TOK BOR""";"";"";"";"";"";"";"";"UZ214";"";"";"";"TOK BOR";"";"";"yes"
"12074655029";"41.0502544";"70.5689746";"charging_station";"";"Uzbekistan";"Toshkent";"N/A";"N/A";"";"1";"";"";"OOO ""TOK BOR""";"";"";"";"";"";"";"";"UZ382";"";"";"";"TOK BOR";"";"";"yes"
"12074729718";"40.9975978";"70.6333012";"charging_station";"";"Tajikistan";"Viloyati Sughd";"N/A";"N/A";"";"2";"";"";"OOO ""TOK BOR""";"";"";"";"";"";"";"";"UZ218";"";"";"";"TOK BOR";"";"";"yes"
"12074744578";"40.9975726";"70.6339569";"charging_station";"";"Tajikistan";"Viloyati Sughd";"N/A";"N/A";"";"2";"";"";"OOO ""TOK BOR""";"";"";"";"";"";"";"";"UZ219";"";"";"";"TOK BOR";"";"";"yes"
"12074744579";"40.9977289";"70.6339926";"charging_station";"";"Tajikistan";"Viloyati Sughd";"N/A";"N/A";"";"1";"";"";"OOO ""TOK BOR""";"";"";"";"";"";"";"";"UZ379";"";"";"";"TOK BOR";"";"";"yes"
"12080064281";"41.15468";"70.4462884";"charging_station";"";"Uzbekistan";"Toshkent";"N/A";"N/A";"";"6";"";"";"OOO ""TOK BOR""";"";"";"";"";"";"";"";"UZ383 UZ384";"";"";"";"TOK BOR";"";"";"yes"
"11740449369";"40.8180487";"70.7975699";"charging_station";"";"Uzbekistan";"Namangan";"N/A";"N/A";"";"2";"";"";"GreenTE";"";"";"";"";"";"";"";"";"";"";"";"GreenTE Uzbekistan";"";"";"yes"
"11876408432";"40.8746134";"70.7822669";"charging_station";"";"Uzbekistan";"Namangan";"N/A";"N/A";"";"2";"";"";"OOO ""TOK BOR""";"";"";"";"";"";"";"";"TokBor UZ313";"";"";"";"TOK BOR";"2850 сум/кВт*ч1";"";"yes"
"11876408433";"40.8746681";"70.7824561";"charging_station";"";"Uzbekistan";"Namangan";"N/A";"N/A";"";"1";"";"";"OOO ""TOK BOR""";"";"";"";"";"";"";"";"TokBor UZ370";"";"";"";"TOK BOR";"";"";"yes"
"12073219588";"40.8917874";"71.0609056";"charging_station";"";"Uzbekistan";"Namangan";"N/A";"N/A";"";"2";"";"";"OOO ""TOK BOR""";"";"";"";"";"";"";"";"UZ170";"";"";"";"TOK BOR";"";"";"yes"
"12079436929";"40.8682272";"71.1208555";"charging_station";"";"Uzbekistan";"Namangan";"N/A";"N/A";"";"2";"";"";"OOO ""TOK BOR""";"";"";"";"";"";"";"";"UZ259";"";"";"";"TOK BOR";"";"";"yes"
"12079550577";"40.9824793";"71.2429758";"charging_station";"";"Uzbekistan";"Namangan";"N/A";"N/A";"";"2";"";"";"OOO ""TOK BOR""";"";"";"";"";"";"";"";"UZ278";"";"";"";"TOK BOR";"";"";"yes"
"12082439787";"40.798854";"70.8572207";"charging_station";"";"Uzbekistan";"Namangan";"N/A";"N/A";"";"3";"";"";"OOO ""TOK BOR""";"";"";"";"";"";"";"";"UZ451";"";"";"";"TOK BOR";"";"";"yes"
"12112256282";"40.7860564";"70.8101516";"charging_station";"";"Uzbekistan";"Fergana";"N/A";"N/A";"";"3";"";"";"OOO ""TOK BOR""";"";"";"";"";"";"";"";"UZ526 UZ540";"";"";"";"TOK BOR";"";"";"yes"
"12070939941";"41.0048352";"71.6752073";"charging_station";"";"Uzbekistan";"Namangan";"N/A";"N/A";"";"2";"";"";"OOO ""TOK BOR""";"";"";"";"";"";"";"";"UZ082";"";"";"";"TOK BOR";"";"";"yes"
"12070964508";"40.9918608";"71.6484013";"charging_station";"";"Uzbekistan";"Namangan";"N/A";"N/A";"";"2";"";"";"OOO ""TOK BOR""";"";"";"";"";"";"";"";"UZ083";"";"";"";"TOK BOR";"";"";"yes"
"12073176752";"40.9955898";"71.5895044";"charging_station";"";"Uzbekistan";"Namangan";"N/A";"N/A";"";"2";"";"";"OOO ""TOK BOR""";"";"";"";"";"";"";"";"UZ167";"";"";"";"TOK BOR";"";"";"yes"
"12073209939";"40.9936896";"71.6772793";"charging_station";"";"Uzbekistan";"Namangan";"N/A";"N/A";"";"1";"";"";"OOO ""TOK BOR""";"";"";"";"";"";"";"";"UZ371";"";"";"";"TOK BOR";"";"";"yes"
"12073209940";"40.9936663";"71.6772485";"charging_station";"";"Uzbekistan";"Namangan";"N/A";"N/A";"";"2";"";"";"OOO ""TOK BOR""";"";"";"";"";"";"";"";"UZ169";"";"";"";"TOK BOR";"";"";"yes"
"12073381736";"41.0077929";"71.6276688";"charging_station";"";"Uzbekistan";"Namangan";"N/A";"N/A";"";"5";"";"";"OOO ""TOK BOR""";"";"";"";"";"";"";"";"UZ187";"";"";"";"TOK BOR";"";"";"yes"
"12073381737";"41.0077193";"71.6276635";"charging_station";"";"Uzbekistan";"Namangan";"N/A";"N/A";"";"1";"";"";"OOO ""TOK BOR""";"";"";"";"";"";"";"";"UZ380";"";"";"";"TOK BOR";"";"";"yes"
"12074632991";"40.9787297";"71.7086882";"charging_station";"";"Uzbekistan";"Namangan";"N/A";"N/A";"";"2";"";"";"OOO ""TOK BOR""";"";"";"";"";"";"";"";"UZ211";"";"";"";"TOK BOR";"";"";"yes"
"12074636094";"41.0014763";"71.6531843";"charging_station";"";"Uzbekistan";"Namangan";"N/A";"N/A";"";"2";"";"";"OOO ""TOK BOR""";"";"";"";"";"";"";"";"UZ210";"";"";"";"TOK BOR";"";"";"yes"
"12074644149";"40.9905569";"71.2558836";"charging_station";"";"Uzbekistan";"Namangan";"N/A";"N/A";"";"2";"";"";"OOO ""TOK BOR""";"";"";"";"";"";"";"";"UZ212";"";"";"";"TOK BOR";"";"";"yes"
"12079519597";"40.9895885";"71.6367836";"charging_station";"";"Uzbekistan";"Namangan";"N/A";"N/A";"";"3";"";"";"OOO ""TOK BOR""";"";"";"";"";"";"";"";"UZ272";"";"";"";"TOK BOR";"";"";"yes"
"12079963647";"40.9940493";"71.6099858";"charging_station";"";"Uzbekistan";"Namangan";"N/A";"N/A";"";"2";"";"";"OOO ""TOK BOR""";"";"";"";"";"";"";"";"UZ374 UZ375";"";"";"";"TOK BOR";"";"";"yes"
"12080061384";"40.9986309";"71.6441191";"charging_station";"";"Uzbekistan";"Namangan";"N/A";"N/A";"";"1";"";"";"OOO ""TOK BOR""";"";"";"";"";"";"";"";"UZ373";"";"";"";"TOK BOR";"";"";"yes"
"12082273284";"40.905295";"71.4640099";"charging_station";"";"Uzbekistan";"Namangan";"N/A";"N/A";"";"1";"";"";"OOO ""TOK BOR""";"";"";"";"";"";"";"";"UZ431";"";"";"";"TOK BOR";"";"";"yes"
"12234617001";"41.0000908";"71.6127601";"charging_station";"";"Uzbekistan";"Namangan";"N/A";"N/A";"";"2";"";"";"ИП ООО ""TOSHELECTROAPPARAT""";"";"";"";"";"";"";"";"";"";"";"";"GreenTE";"";"";"yes"
"12298386104";"40.8575644";"71.6860288";"charging_station";"";"Uzbekistan";"Namangan";"N/A";"N/A";"";"";"";"";"ИП ООО ""TOSHELECTROAPPARAT""";"";"";"";"";"";"";"";"";"";"";"";"GreenTE";"";"";"yes"
"12298401033";"40.7517615";"71.7051667";"charging_station";"";"Uzbekistan";"Namangan";"N/A";"N/A";"";"2";"";"";"ИП ООО ""TOSHELECTROAPPARAT""";"";"";"";"";"";"";"";"";"";"";"";"GreenTE";"";"";"yes"
"12100427081";"40.8018331";"72.9867878";"charging_station";"";"Kyrgyzstan";"Jalal-Abad";"N/A";"N/A";"";"1";"";"";"OOO ""TOK BOR""";"";"";"";"";"";"";"";"UZ543";"";"";"";"TOK BOR";"";"";"yes"
"12543173203";"40.7298593";"72.7549584";"charging_station";"";"Uzbekistan";"Andijon";"N/A";"N/A";"";"";"";"";"Tezroq";"";"";"";"";"";"";"";"";"";"";"";"Tezroq";"";"";"yes"
"4189023791";"41.4591388";"69.5379576";"charging_station";"";"Uzbekistan";"Toshkent";"N/A";"N/A";"";"";"";"";"";"";"";"";"";"";"";"";"";"";"";"";"";"";"";""
"10207954923";"41.2536173";"69.304648";"charging_station";"";"Uzbekistan";"Toshkent Shahri";"N/A";"N/A";"";"";"";"";"";"";"";"";"";"";"";"";"";"";"";"";"";"";"";""
"11051061314";"41.3120182";"69.2850859";"charging_station";"";"Uzbekistan";"Toshkent Shahri";"N/A";"N/A";"";"2";"";"";"OOO ""TOK BOR""";"";"";"";"";"";"";"";"UZ029";"";"";"";"TOK BOR";"";"";"yes"
"11740474969";"41.3082241";"69.2764508";"charging_station";"";"Uzbekistan";"Toshkent Shahri";"N/A";"N/A";"";"2";"";"";"TOSHELECTROAPPARAT";"";"";"";"";"";"";"";"";"";"";"";"GreenTE Uzautosanoat";"";"";"yes"
"11740475070";"41.3283727";"69.2850139";"charging_station";"";"Uzbekistan";"Toshkent Shahri";"N/A";"N/A";"";"2";"";"";"GreenTE";"";"";"";"";"";"";"";"";"";"";"";"GreenTE АО ""НЭС""";"";"";"yes"
"11740480369";"41.2764028";"69.3023206";"charging_station";"";"Uzbekistan";"Toshkent Shahri";"N/A";"N/A";"";"";"";"";"GreenTE";"";"";"";"";"";"";"";"";"";"";"";"GreenTE Uzelectroapparat-electroshield";"";"";"yes"
"11740483569";"41.2785841";"69.3067075";"charging_station";"";"Uzbekistan";"Toshkent Shahri";"N/A";"N/A";"";"3";"";"";"GreenTE";"";"";"";"";"";"";"";"";"";"";"";"GreenTE ""TOSHELECTROAPPARAT""";"";"";"yes"
"11868077057";"41.3129674";"69.3320907";"charging_station";"";"Uzbekistan";"Toshkent";"N/A";"N/A";"";"2";"";"";"Tok Bor";"";"";"";"";"";"";"";"UZ002";"";"";"";"TOK BOR";"";"";"yes"
"11871652734";"41.3281208";"69.2655065";"charging_station";"";"Uzbekistan";"Toshkent Shahri";"N/A";"N/A";"";"2";"";"";"OOO ""TOK BOR""";"";"";"";"";"";"";"";"UZ004";"";"";"";"TOK BOR";"";"";"yes"
"11871652735";"41.3283678";"69.2652307";"charging_station";"";"Uzbekistan";"Toshkent Shahri";"N/A";"N/A";"";"2";"";"";"OOO ""TOK BOR""";"";"";"";"";"";"";"";"UZ046";"";"";"";"TOK BOR";"";"";"yes"
"11871652736";"41.3283805";"69.2653108";"charging_station";"";"Uzbekistan";"Toshkent Shahri";"N/A";"N/A";"";"2";"";"";"OOO ""TOK BOR""";"";"";"";"";"";"";"";"UZ126";"";"";"";"TOK BOR";"";"";"yes"
"11871652737";"41.3395501";"69.254603";"charging_station";"";"Uzbekistan";"Toshkent Shahri";"N/A";"N/A";"";"2";"";"";"OOO ""TOK BOR""";"";"";"";"";"";"";"";"TokBor UZ005";"";"";"";"TOK BOR";"";"";"yes"
"11871652738";"41.3395732";"69.2545306";"charging_station";"";"Uzbekistan";"Toshkent Shahri";"N/A";"N/A";"";"7";"";"";"OOO ""TOK BOR""";"";"";"";"";"";"";"";"TokBor UZ006";"";"";"";"TOK BOR";"";"";"yes"
"11871652739";"41.3039865";"69.3221655";"charging_station";"";"Uzbekistan";"Toshkent";"N/A";"N/A";"";"2";"";"";"OOO ""TOK BOR""";"";"";"";"";"";"";"";"UZ007";"";"";"";"TOK BOR";"";"";"yes"
"11871652741";"41.3288741";"69.3133242";"charging_station";"";"Uzbekistan";"Toshkent";"N/A";"N/A";"";"1";"";"";"OOO ""TOK BOR""";"";"";"";"";"";"";"";"UZ014";"";"";"";"TOK BOR";"";"";"yes"
"11907695289";"41.3072143";"69.2956824";"charging_station";"";"Uzbekistan";"Toshkent Shahri";"N/A";"N/A";"";"3";"";"";"OOO ""TOK BOR""";"";"";"";"";"";"";"";"UZ079 UZ414";"";"";"";"TOK BOR";"";"";"yes"
"11911609934";"41.3720149";"69.2864849";"charging_station";"";"Uzbekistan";"Toshkent";"N/A";"N/A";"";"4";"";"";"OOO ""TOK BOR""";"";"";"";"";"";"";"";"UZ139, UZ419, UZ420";"";"";"";"TOK BOR";"";"";"yes"
"11957602326";"41.2440181";"69.309728";"charging_station";"";"Uzbekistan";"Toshkent Shahri";"N/A";"N/A";"";"";"";"";"";"";"";"";"";"";"";"";"";"";"";"";"";"";"";""
"11957602327";"41.2529437";"69.3125832";"charging_station";"";"Uzbekistan";"Toshkent Shahri";"N/A";"N/A";"";"";"";"yes";"";"";"";"";"";"";"";"";"";"";"";"";"";"";"";""
"11957774369";"41.3606875";"69.2868321";"charging_station";"";"Uzbekistan";"Toshkent";"N/A";"N/A";"";"2";"";"";"GreenTE";"";"";"";"";"";"";"";"";"";"";"";"GreenTE АО ""НЭС""";"";"";"yes"
"11972138047";"41.244485";"69.303744";"charging_station";"";"Uzbekistan";"Toshkent Shahri";"N/A";"N/A";"";"2";"";"";"";"";"";"";"";"";"";"";"";"";"";"";"";"";"";"yes"
"12005347701";"41.313361";"69.3312519";"charging_station";"";"Uzbekistan";"Toshkent";"N/A";"N/A";"";"3";"";"";"OOO ""TOK BOR""";"";"";"";"";"";"";"";"UZ437, UZ459";"";"";"";"TOK BOR";"";"";"yes"
"12005347702";"41.3142024";"69.328415";"charging_station";"";"Uzbekistan";"Toshkent";"N/A";"N/A";"";"2";"";"";"OOO ""TOK BOR""";"";"";"";"";"";"";"";"UZ072";"";"";"";"TOK BOR";"";"";"yes"
"12005347708";"41.3244042";"69.26677";"charging_station";"";"Uzbekistan";"Toshkent Shahri";"N/A";"N/A";"";"5";"";"";"OOO ""TOK BOR""";"";"";"";"";"";"";"";"UZ463";"";"";"";"TOK BOR";"";"";"yes"
"12025214707";"41.2662752";"69.3151367";"charging_station";"";"Uzbekistan";"Toshkent Shahri";"N/A";"N/A";"";"1";"";"";"OOO ""TOK BOR""";"";"";"";"";"";"";"";"UZ400";"";"";"";"TOK BOR";"";"";"yes"
"12025214708";"41.2735377";"69.333542";"charging_station";"";"Uzbekistan";"Toshkent Shahri";"N/A";"N/A";"";"1";"";"";"OOO ""TOK BOR""";"";"";"";"";"";"";"";"UZ504";"";"";"";"TOK BOR";"";"";"yes"
"12049415393";"41.3097663";"69.2985303";"charging_station";"";"Uzbekistan";"Toshkent Shahri";"N/A";"N/A";"";"2";"";"";"OOO ""TOK BOR""";"";"";"";"";"";"";"";"UZ031";"";"";"";"TOK BOR";"";"";"yes"
"12049415394";"41.3670975";"69.2909119";"charging_station";"";"Uzbekistan";"Toshkent";"N/A";"N/A";"";"2";"";"";"OOO ""TOK BOR""";"";"";"";"";"";"";"";"UZ032";"";"";"";"TOK BOR";"";"";"yes"
"12049415395";"41.3674342";"69.2906089";"charging_station";"";"Uzbekistan";"Toshkent";"N/A";"N/A";"";"2";"";"";"OOO ""TOK BOR""";"";"";"";"";"";"";"";"UZ128";"";"";"";"TOK BOR";"";"";"yes"
"12049415397";"41.3546225";"69.3548413";"charging_station";"";"Uzbekistan";"Toshkent";"N/A";"N/A";"";"2";"";"";"OOO ""TOK BOR""";"";"";"";"";"";"";"";"UZ037";"";"";"";"TOK BOR";"";"";"yes"
"12069628876";"41.3274934";"69.2932732";"charging_station";"";"Uzbekistan";"Toshkent";"N/A";"N/A";"";"2";"";"";"OOO ""TOK BOR""";"";"";"";"";"";"";"";"UZ051";"";"";"";"TOK BOR";"";"";"yes"
"12069628947";"41.3182468";"69.2809547";"charging_station";"";"Uzbekistan";"Toshkent Shahri";"N/A";"N/A";"";"2";"";"";"OOO ""TOK BOR""";"";"";"";"";"";"";"";"UZ057";"";"";"";"TOK BOR";"";"";"yes"
"12069632164";"41.2882115";"69.285275";"charging_station";"";"Uzbekistan";"Toshkent Shahri";"N/A";"N/A";"";"2";"";"";"OOO ""TOK BOR""";"";"";"";"";"";"";"";"UZ042";"";"";"";"TOK BOR";"";"";"yes"
"12069632165";"41.3478679";"69.2858634";"charging_station";"";"Uzbekistan";"Toshkent";"N/A";"N/A";"";"2";"";"";"OOO ""TOK BOR""";"";"";"";"";"";"";"";"UZ049";"";"";"";"TOK BOR";"";"";"yes"
"12069670485";"41.3562022";"69.33509";"charging_station";"";"Uzbekistan";"Toshkent";"N/A";"N/A";"";"2";"";"";"OOO ""TOK BOR""";"";"";"";"";"";"";"";"UZ062";"";"";"";"TOK BOR";"";"";"yes"
"12069683077";"41.3664907";"69.2862819";"charging_station";"";"Uzbekistan";"Toshkent";"N/A";"N/A";"";"2";"";"";"OOO ""TOK BOR""";"";"";"";"";"";"";"";"UZ063";"";"";"";"TOK BOR";"";"";"yes"
"12069805291";"41.3235762";"69.2831593";"charging_station";"";"Uzbekistan";"Toshkent Shahri";"N/A";"N/A";"";"2";"";"";"OOO ""TOK BOR""";"";"";"";"";"";"";"";"UZ074";"";"";"";"TOK BOR";"";"";"yes"
"12070970476";"41.3108809";"69.28276";"charging_station";"";"Uzbekistan";"Toshkent Shahri";"N/A";"N/A";"";"4";"";"";"OOO ""TOK BOR""";"";"";"";"";"";"";"";"UZ084     UZ087";"";"";"";"TOK BOR";"";"";"yes"
"12071126325";"41.3641193";"69.3333181";"charging_station";"";"Uzbekistan";"Toshkent";"N/A";"N/A";"";"2";"";"";"OOO ""TOK BOR""";"";"";"";"";"";"";"";"UZ102";"";"";"";"TOK BOR";"";"";"yes"
"12071255863";"41.2799399";"69.2690291";"charging_station";"";"Uzbekistan";"Toshkent Shahri";"N/A";"N/A";"";"4";"";"";"OOO ""TOK BOR""";"";"";"";"";"";"";"";"UZ106     UZ107";"";"";"";"TOK BOR";"";"";"yes"
"12071284786";"41.320925";"69.3633907";"charging_station";"";"Uzbekistan";"Toshkent";"N/A";"N/A";"";"4";"";"";"OOO ""TOK BOR""";"";"";"";"";"";"";"";"UZ108";"";"";"";"TOK BOR";"";"";"yes"
"12071294607";"41.3662553";"69.3166741";"charging_station";"";"Uzbekistan";"Toshkent";"N/A";"N/A";"";"2";"";"";"OOO ""TOK BOR""";"";"";"";"";"";"";"";"UZ109";"";"";"";"TOK BOR";"";"";"yes"
"12071294690";"41.3072638";"69.3519717";"charging_station";"";"Uzbekistan";"Toshkent";"N/A";"N/A";"";"2";"";"";"OOO ""TOK BOR""";"";"";"";"";"";"";"";"UZ110";"";"";"";"TOK BOR";"";"";"yes"
"12071315538";"41.3866827";"69.4583379";"charging_station";"";"Uzbekistan";"Toshkent";"N/A";"N/A";"";"2";"";"";"OOO ""TOK BOR""";"";"";"";"";"";"";"";"UZ111";"";"";"";"TOK BOR";"";"";"yes"
"12071321717";"41.3593979";"69.2782921";"charging_station";"";"Uzbekistan";"Toshkent";"N/A";"N/A";"";"2";"";"";"OOO ""TOK BOR""";"";"";"";"";"";"";"";"UZ113";"";"";"";"TOK BOR";"";"";"yes"
"12071325659";"41.3041223";"69.306612";"charging_station";"";"Uzbekistan";"Toshkent Shahri";"N/A";"N/A";"";"2";"";"";"OOO ""TOK BOR""";"";"";"";"";"";"";"";"UZ115";"";"";"";"TOK BOR";"";"";"yes"
"12071375486";"41.3050612";"69.2526558";"charging_station";"";"Uzbekistan";"Toshkent Shahri";"N/A";"N/A";"";"4";"";"";"OOO ""TOK BOR""";"";"";"";"";"";"";"";"UZ116";"";"";"";"TOK BOR";"";"";"yes"
"12072811382";"41.3309027";"69.2714633";"charging_station";"";"Uzbekistan";"Toshkent Shahri";"N/A";"N/A";"";"3";"";"";"OOO ""TOK BOR""";"";"";"";"";"";"";"";"UZ135";"";"";"";"TOK BOR";"";"";"yes"
"12072849240";"41.309847";"69.2723733";"charging_station";"";"Uzbekistan";"Toshkent Shahri";"N/A";"N/A";"";"4";"";"";"OOO ""TOK BOR""";"";"";"";"";"";"";"";"UZ138";"";"";"";"TOK BOR";"";"";"yes"
"12072939858";"41.2480117";"69.3257127";"charging_station";"";"Uzbekistan";"Toshkent Shahri";"N/A";"N/A";"";"2";"";"";"OOO ""TOK BOR""";"";"";"";"";"";"";"";"UZ147";"";"";"";"TOK BOR";"";"";"yes"
"12072973186";"41.3066377";"69.3373879";"charging_station";"";"Uzbekistan";"Toshkent";"N/A";"N/A";"";"4";"";"";"OOO ""TOK BOR""";"";"";"";"";"";"";"";"UZ151 UZ152";"";"";"";"TOK BOR";"";"";"yes"
"12072973187";"41.3063637";"69.3376861";"charging_station";"";"Uzbekistan";"Toshkent";"N/A";"N/A";"";"2";"";"";"OOO ""TOK BOR""";"";"";"";"";"";"";"";"UZ257";"";"";"";"TOK BOR";"";"";"yes"
"12072979174";"41.3105166";"69.2688758";"charging_station";"";"Uzbekistan";"Toshkent Shahri";"N/A";"N/A";"";"2";"";"";"OOO ""TOK BOR""";"";"";"";"";"";"";"";"UZ154";"";"";"";"TOK BOR";"";"";"yes"
"12073009940";"41.2719027";"69.2617028";"charging_station";"";"Uzbekistan";"Toshkent Shahri";"N/A";"N/A";"";"2";"";"";"OOO ""TOK BOR""";"";"";"";"";"";"";"";"UZ158";"";"";"";"TOK BOR";"";"";"yes"
"12073177116";"41.2049058";"69.3235191";"charging_station";"";"Uzbekistan";"Toshkent Shahri";"N/A";"N/A";"";"1";"";"";"OOO ""TOK BOR""";"";"";"";"";"";"";"";"UZ411";"";"";"";"TOK BOR";"";"";"yes"
"12073256815";"41.3255956";"69.335734";"charging_station";"";"Uzbekistan";"Toshkent";"N/A";"N/A";"";"2";"";"";"OOO ""TOK BOR""";"";"";"";"";"";"";"";"UZ175";"";"";"";"TOK BOR";"";"";"yes"
"12073278518";"41.3996134";"69.5549272";"charging_station";"";"Uzbekistan";"Toshkent";"N/A";"N/A";"";"2";"";"";"OOO ""TOK BOR""";"";"";"";"";"";"";"";"UZ176";"";"";"";"TOK BOR";"";"";"yes"
"12073314120";"41.3125689";"69.2940161";"charging_station";"";"Uzbekistan";"Toshkent Shahri";"N/A";"N/A";"";"5";"";"";"OOO ""TOK BOR""";"";"";"";"";"";"";"";"UZ178   UZ179   UZ398";"";"";"";"TOK BOR";"";"";"yes"
"12073320029";"41.2979578";"69.3116656";"charging_station";"";"Uzbekistan";"Toshkent Shahri";"N/A";"N/A";"";"2";"";"";"OOO ""TOK BOR""";"";"";"";"";"";"";"";"UZ180";"";"";"";"TOK BOR";"";"";"yes"
"12073336431";"41.328874";"69.4315966";"charging_station";"";"Uzbekistan";"Toshkent";"N/A";"N/A";"";"2";"";"";"OOO ""TOK BOR""";"";"";"";"";"";"";"";"UZ184";"";"";"";"TOK BOR";"";"";"yes"
"12073336432";"41.3287961";"69.4315322";"charging_station";"";"Uzbekistan";"Toshkent";"N/A";"N/A";"";"1";"";"";"OOO ""TOK BOR""";"";"";"";"";"";"";"";"UZ387";"";"";"";"TOK BOR";"";"";"yes"
"12073381251";"41.3120159";"69.3173134";"charging_station";"";"Uzbekistan";"Toshkent";"N/A";"N/A";"";"2";"";"";"OOO ""TOK BOR""";"";"";"";"";"";"";"";"UZ188";"";"";"";"TOK BOR";"";"";"yes"
"12073432516";"41.3242706";"69.2960818";"charging_station";"";"Uzbekistan";"Toshkent";"N/A";"N/A";"";"4";"";"";"OOO ""TOK BOR""";"";"";"";"";"";"";"";"UZ195";"";"";"";"TOK BOR";"";"";"yes"
"12074560300";"41.304015";"69.3051662";"charging_station";"";"Uzbekistan";"Toshkent Shahri";"N/A";"N/A";"";"5";"";"";"OOO ""TOK BOR""";"";"";"";"";"";"";"";"UZ198 UZ199 UZ200";"";"";"";"TOK BOR";"";"";"yes"
"12074560301";"41.3039336";"69.3053539";"charging_station";"";"Uzbekistan";"Toshkent Shahri";"N/A";"N/A";"";"1";"";"";"OOO ""TOK BOR""";"";"";"";"";"";"";"";"UZ502";"";"";"";"TOK BOR";"";"";"yes"
"12074699576";"41.3045793";"69.3036732";"charging_station";"";"Uzbekistan";"Toshkent Shahri";"N/A";"N/A";"";"2";"";"";"OOO ""TOK BOR""";"";"";"";"";"";"";"";"UZ216";"";"";"";"TOK BOR";"";"";"yes"
"12074707454";"41.2523047";"69.3222085";"charging_station";"";"Uzbekistan";"Toshkent Shahri";"N/A";"N/A";"";"2";"";"";"OOO ""TOK BOR""";"";"";"";"";"";"";"";"UZ215";"";"";"";"TOK BOR";"";"";"yes"
"12074717893";"41.2915404";"69.2845547";"charging_station";"";"Uzbekistan";"Toshkent Shahri";"N/A";"N/A";"";"2";"";"";"OOO ""TOK BOR""";"";"";"";"";"";"";"";"UZ217";"";"";"";"TOK BOR";"";"";"yes"
"12074955468";"41.2864511";"69.2742263";"charging_station";"";"Uzbekistan";"Toshkent Shahri";"N/A";"N/A";"";"2";"";"";"OOO ""TOK BOR""";"";"";"";"";"";"";"";"UZ248";"";"";"";"TOK BOR";"";"";"yes"
"12075147352";"41.2566365";"69.4316696";"charging_station";"";"Uzbekistan";"Toshkent Shahri";"N/A";"N/A";"";"3";"";"";"OOO ""TOK BOR""";"";"";"";"";"";"";"";"UZ354";"";"";"";"TOK BOR";"";"";"yes"
"12079465501";"41.3537202";"69.3469909";"charging_station";"";"Uzbekistan";"Toshkent";"N/A";"N/A";"";"3";"";"";"OOO ""TOK BOR""";"";"";"";"";"";"";"";"UZ261";"";"";"";"TOK BOR";"";"";"yes"
"12079475883";"41.3508854";"69.3313682";"charging_station";"";"Uzbekistan";"Toshkent";"N/A";"N/A";"";"2";"";"";"OOO ""TOK BOR""";"";"";"";"";"";"";"";"UZ260";"";"";"";"TOK BOR";"";"";"yes"
"12079535270";"41.3711523";"69.260818";"charging_station";"";"Uzbekistan";"Toshkent Shahri";"N/A";"N/A";"";"2";"";"";"OOO ""TOK BOR""";"";"";"";"";"";"";"";"UZ271";"";"";"";"TOK BOR";"";"";"yes"
"12079569050";"41.3076662";"69.2692254";"charging_station";"";"Uzbekistan";"Toshkent Shahri";"N/A";"N/A";"";"6";"";"";"OOO ""TOK BOR""";"";"";"";"";"";"";"";"UZ286";"";"";"";"TOK BOR";"";"";"yes"
"12079656043";"41.3556003";"69.3757679";"charging_station";"";"Uzbekistan";"Toshkent";"N/A";"N/A";"";"6";"";"";"OOO ""TOK BOR""";"";"";"";"";"";"";"";"UZ305 UZ306";"";"";"";"TOK BOR";"";"";"yes"
"12079762739";"41.3616841";"69.2894254";"charging_station";"";"Uzbekistan";"Toshkent";"N/A";"N/A";"";"2";"";"";"OOO ""TOK BOR""";"";"";"";"";"";"";"";"UZ308";"";"";"";"TOK BOR";"";"";"yes"
"12079784691";"41.3612568";"69.302134";"charging_station";"";"Uzbekistan";"Toshkent";"N/A";"N/A";"";"2";"";"";"OOO ""TOK BOR""";"";"";"";"";"";"";"";"UZ310";"";"";"";"TOK BOR";"";"";"yes"
"12079914211";"41.2511854";"69.3557501";"charging_station";"";"Uzbekistan";"Toshkent Shahri";"N/A";"N/A";"";"5";"";"";"OOO ""TOK BOR""";"";"";"";"";"";"";"";"UZ327";"";"";"";"TOK BOR";"";"";"yes"
"12079944284";"41.3582557";"69.3365934";"charging_station";"";"Uzbekistan";"Toshkent";"N/A";"N/A";"";"2";"";"";"OOO ""TOK BOR""";"";"";"";"";"";"";"";"UZ332";"";"";"";"TOK BOR";"";"";"yes"
"12079985832";"41.3273149";"69.3249303";"charging_station";"";"Uzbekistan";"Toshkent";"N/A";"N/A";"";"2";"";"";"OOO ""TOK BOR""";"";"";"";"";"";"";"";"UZ333";"";"";"";"TOK BOR";"";"";"yes"
"12079986956";"41.3217233";"69.2831198";"charging_station";"";"Uzbekistan";"Toshkent Shahri";"N/A";"N/A";"";"4";"";"";"OOO ""TOK BOR""";"";"";"";"";"";"";"";"UZ335 UZ336";"";"";"";"TOK BOR";"";"";"yes"
"12082266250";"41.333334";"69.3750066";"charging_station";"";"Uzbekistan";"Toshkent";"N/A";"N/A";"";"3";"";"";"OOO ""TOK BOR""";"";"";"";"";"";"";"";"UZ430";"";"";"";"TOK BOR";"";"";"yes"
"12082364171";"41.3675071";"69.3271093";"charging_station";"";"Uzbekistan";"Toshkent";"N/A";"N/A";"";"2";"";"";"OOO ""TOK BOR""";"";"";"";"";"";"";"";"UZ438";"";"";"";"TOK BOR";"";"";"yes"
"12082374906";"41.4932945";"69.588472";"charging_station";"";"Uzbekistan";"Toshkent";"N/A";"N/A";"";"2";"";"";"OOO ""TOK BOR""";"";"";"";"";"";"";"";"UZ446";"";"";"";"TOK BOR";"";"";"yes"
"12082384115";"41.3474676";"69.2809129";"charging_station";"";"Uzbekistan";"Toshkent";"N/A";"N/A";"";"3";"";"";"OOO ""TOK BOR""";"";"";"";"";"";"";"";"UZ448";"";"";"";"TOK BOR";"";"";"yes"
"12082598114";"41.3720579";"69.3230498";"charging_station";"";"Uzbekistan";"Toshkent";"N/A";"N/A";"";"1";"";"";"OOO ""TOK BOR""";"";"";"";"";"";"";"";"UZ460";"";"";"";"TOK BOR";"";"";"yes"
"12082761273";"41.289932";"69.3209883";"charging_station";"";"Uzbekistan";"Toshkent Shahri";"N/A";"N/A";"";"3";"";"";"OOO ""TOK BOR""";"";"";"";"";"";"";"";"UZ476";"";"";"";"TOK BOR";"";"";"yes"
"12082776092";"41.3045123";"69.2830068";"charging_station";"";"Uzbekistan";"Toshkent Shahri";"N/A";"N/A";"";"2";"";"";"OOO ""TOK BOR""";"";"";"";"";"";"";"";"UZ478";"";"";"";"TOK BOR";"";"";"yes"
"12082863153";"41.3372665";"69.3151527";"charging_station";"";"Uzbekistan";"Toshkent";"N/A";"N/A";"";"3";"";"";"OOO ""TOK BOR""";"";"";"";"";"";"";"";"UZ499";"";"";"";"TOK BOR";"";"";"yes"
"12082895118";"41.2522727";"69.2520847";"charging_station";"";"Uzbekistan";"Toshkent Shahri";"N/A";"N/A";"";"2";"";"";"OOO ""TOK BOR""";"";"";"";"";"";"";"";"UZ507";"";"";"";"TOK BOR";"";"";"yes"
"12082899747";"41.2828283";"69.3027089";"charging_station";"";"Uzbekistan";"Toshkent Shahri";"N/A";"N/A";"";"1";"";"";"OOO ""TOK BOR""";"";"";"";"";"";"";"";"UZ503";"";"";"";"TOK BOR";"";"";"yes"
"12119991360";"41.3037261";"69.3154754";"charging_station";"";"Uzbekistan";"Toshkent";"N/A";"N/A";"";"4";"";"";"OOO ""TOK BOR""";"";"";"";"";"";"";"";"UZ545";"";"";"";"TOK BOR";"";"";"yes"
"12121476693";"41.3600264";"69.2850496";"charging_station";"";"Uzbekistan";"Toshkent";"N/A";"N/A";"";"2";"";"";"TOSHELECTROAPPARAT";"";"";"";"";"";"";"";"";"";"";"";"GreenTE АО ""НЭС""";"";"";"yes"
"12121483354";"41.2939178";"69.2645549";"charging_station";"";"Uzbekistan";"Toshkent Shahri";"N/A";"N/A";"";"2";"";"";"OOO ""TOK BOR""";"";"";"";"";"";"";"";"UZ549";"";"";"";"TOK BOR";"";"";"yes"
"12121503167";"41.3665372";"69.2868364";"charging_station";"";"Uzbekistan";"Toshkent";"N/A";"N/A";"";"4";"";"";"OOO ""TOK BOR""";"";"";"";"";"";"";"";"UZ551";"";"";"";"TOK BOR";"";"";"yes"
"12125937640";"41.3123786";"69.2833726";"charging_station";"";"Uzbekistan";"Toshkent Shahri";"N/A";"N/A";"";"6";"";"";"OOO ""TOK BOR""";"";"";"";"";"";"";"";"UZ606";"";"";"";"TOK BOR";"";"";"yes"
"12137448771";"41.2868412";"69.3392981";"charging_station";"";"Uzbekistan";"Toshkent Shahri";"N/A";"N/A";"";"1";"";"";"OOO ""TOK BOR""";"";"";"";"";"";"";"";"UZ615";"";"";"";"TOK BOR";"";"";"yes"
"12137488356";"41.2636705";"69.2657676";"charging_station";"";"Uzbekistan";"Toshkent Shahri";"N/A";"N/A";"";"2";"";"";"OOO ""TOK BOR""";"";"";"";"";"";"";"";"UZ616 UZ617";"";"";"";"TOK BOR";"";"";"yes"
"12137499323";"41.2647278";"69.2674327";"charging_station";"";"Uzbekistan";"Toshkent Shahri";"N/A";"N/A";"";"2";"";"";"OOO ""TOK BOR""";"";"";"";"";"";"";"";"UZ618 UZ619";"";"";"";"TOK BOR";"";"";"yes"
"12141294360";"41.3167413";"69.356655";"charging_station";"";"Uzbekistan";"Toshkent";"N/A";"N/A";"";"2";"";"";"OOO ""TOK BOR""";"";"";"";"";"";"";"";"UZ558";"";"";"";"TOK BOR";"";"";"yes"
"12154732902";"41.2776269";"69.2745135";"charging_station";"";"Uzbekistan";"Toshkent Shahri";"N/A";"N/A";"";"2";"";"";"OOO ""TOK BOR""";"";"";"";"";"";"";"";"UZ624 UZ558";"";"";"";"TOK BOR";"";"";"yes"
"12154762672";"41.3217551";"69.2946996";"charging_station";"";"Uzbekistan";"Toshkent Shahri";"N/A";"N/A";"";"3";"";"";"OOO ""TOK BOR""";"";"";"";"";"";"";"";"";"";"";"";"TOK BOR";"";"";"yes"
"12154784492";"41.3196931";"69.3013081";"charging_station";"";"Uzbekistan";"Toshkent";"N/A";"N/A";"";"2";"";"";"OOO ""TOK BOR""";"";"";"";"";"";"";"";"UZ563";"";"";"";"TOK BOR";"";"";"yes"
"12234571861";"41.3552002";"69.3445035";"charging_station";"";"Uzbekistan";"Toshkent";"N/A";"N/A";"";"3";"";"";"ИП ""TOSHELECTROAPPARAT""";"";"";"";"";"";"";"";"";"";"";"";"Tezroq Locomotiv";"";"";"yes"
"12350528552";"41.3728376";"69.3107387";"charging_station";"";"Uzbekistan";"Toshkent";"N/A";"N/A";"";"2";"";"";"";"";"";"";"";"";"";"";"";"";"";"";"ND CHARGER";"2100 UZS";"";"yes"
"12350528553";"41.3728";"69.3107605";"charging_station";"";"Uzbekistan";"Toshkent";"N/A";"N/A";"";"2";"";"";"";"";"";"";"";"";"";"";"";"";"";"";"ND CHARGER";"2100 UZS";"";"yes"
"12749741806";"41.3416935";"69.3369718";"charging_station";"";"Uzbekistan";"Toshkent";"N/A";"N/A";"";"5";"";"";"OOO ""PRO-TOK""";"";"";"";"";"";"";"";"";"";"";"";"PRO-TOK";"";"";"yes"
"12069605254";"41.5755908";"70.0209964";"charging_station";"";"Uzbekistan";"Toshkent";"N/A";"N/A";"";"2";"";"";"OOO ""TOK BOR""";"";"";"";"";"";"";"";"UZ044";"";"";"";"TOK BOR";"";"";"yes"
"12074777756";"41.4894427";"69.9433735";"charging_station";"";"Uzbekistan";"Toshkent";"N/A";"N/A";"";"2";"";"";"OOO ""TOK BOR""";"";"";"";"";"";"";"";"UZ224";"";"";"";"TOK BOR";"";"";"yes"
"12074785920";"41.4872967";"69.9415397";"charging_station";"";"Uzbekistan";"Toshkent";"N/A";"N/A";"";"2";"";"";"OOO ""TOK BOR""";"";"";"";"";"";"";"";"UZ226";"";"";"";"TOK BOR";"";"";"yes"
"12074801938";"41.514142";"69.9481317";"charging_station";"";"Uzbekistan";"Toshkent";"N/A";"N/A";"";"8";"";"";"OOO ""TOK BOR""";"";"";"";"";"";"";"";"UZ230 UZ231 UZ232 UZ233 UZ234 UZ235";"";"";"";"TOK BOR";"";"";"yes"
"12075140533";"41.6225551";"69.9448603";"charging_station";"";"Uzbekistan";"Toshkent";"N/A";"N/A";"";"3";"";"";"OOO ""TOK BOR""";"";"";"";"";"";"";"";"UZ351 UZ339";"";"";"";"TOK BOR";"";"";"yes"
"12082232562";"41.6229067";"69.9344863";"charging_station";"";"Uzbekistan";"Toshkent";"N/A";"N/A";"";"5";"";"";"OOO ""TOK BOR""";"";"";"";"";"";"";"";"UZ422 UZ423";"";"";"";"TOK BOR";"";"";"yes"
"12082234818";"41.5921304";"70.0627685";"charging_station";"";"Uzbekistan";"Toshkent";"N/A";"N/A";"";"3";"";"";"OOO ""TOK BOR""";"";"";"";"";"";"";"";"UZ428";"";"";"";"TOK BOR";"";"";"yes"
"12082261803";"41.5500873";"70.0273527";"charging_station";"";"Uzbekistan";"Toshkent";"N/A";"N/A";"";"1";"";"";"OOO ""TOK BOR""";"";"";"";"";"";"";"";"UZ429";"";"";"";"TOK BOR";"";"";"yes"
"12082904058";"41.5323934";"70.0285184";"charging_station";"";"Uzbekistan";"Toshkent";"N/A";"N/A";"";"3";"";"";"OOO ""TOK BOR""";"";"";"";"";"";"";"";"UZ510";"";"";"";"TOK BOR";"";"";"yes"
"12082977606";"41.6384909";"69.9465018";"charging_station";"";"Uzbekistan";"Toshkent";"N/A";"N/A";"";"1";"";"";"OOO ""TOK BOR""";"";"";"";"";"";"";"";"UZ511";"";"";"";"TOK BOR";"";"";"yes"
"12084361670";"41.5192208";"69.9523904";"charging_station";"";"Uzbekistan";"Toshkent";"N/A";"N/A";"";"1";"";"";"OOO ""TOK BOR""";"";"";"";"";"";"";"";"UZ514";"";"";"";"TOK BOR";"";"";"yes"
"12084385615";"41.5154891";"69.9600237";"charging_station";"";"Uzbekistan";"Toshkent";"N/A";"N/A";"";"1";"";"";"OOO ""TOK BOR""";"";"";"";"";"";"";"";"UZ519";"";"";"";"TOK BOR";"";"";"yes"
"12084419476";"41.5721636";"69.8096238";"charging_station";"";"Uzbekistan";"Toshkent";"N/A";"N/A";"";"4";"";"";"OOO ""TOK BOR""";"";"";"";"";"";"";"";"UZ522";"";"";"";"TOK BOR";"";"";"yes"
"12120018415";"41.5596179";"69.8282016";"charging_station";"";"Uzbekistan";"Toshkent";"N/A";"N/A";"";"3";"";"";"OOO ""TOK BOR""";"";"";"";"";"";"";"";"UZ547";"";"";"";"TOK BOR";"";"";"yes"
"12137343418";"41.4868095";"69.9443802";"charging_station";"";"Uzbekistan";"Toshkent";"N/A";"N/A";"";"1";"";"";"OOO ""TOK BOR""";"";"";"";"";"";"";"";"UZ609";"";"";"";"TOK BOR";"";"";"yes"
"12137344411";"41.4870612";"69.9425184";"charging_station";"";"Uzbekistan";"Toshkent";"N/A";"N/A";"";"1";"";"";"OOO ""TOK BOR""";"";"";"";"";"";"";"";"UZ608";"";"";"";"TOK BOR";"";"";"yes"
"12137365488";"41.5143103";"69.9482274";"charging_station";"";"Uzbekistan";"Toshkent";"N/A";"N/A";"";"2";"";"";"OOO ""TOK BOR""";"";"";"";"";"";"";"";"UZ611";"";"";"";"TOK BOR";"";"";"yes"
"12079545659";"41.215786";"71.529348";"charging_station";"";"Uzbekistan";"Namangan";"N/A";"N/A";"";"2";"";"";"OOO ""TOK BOR""";"";"";"";"";"";"";"";"UZ279";"";"";"";"TOK BOR";"";"";"yes"
"12120364233";"42.5624545";"74.4830308";"charging_station";"";"Kyrgyzstan";"Chuy";"N/A";"N/A";"";"2";"";"";"ENRG";"";"";"";"";"";"";"";"";"";"";"";"";"";"";""
"10122974625";"42.6501478";"77.1237612";"charging_station";"";"Kyrgyzstan";"Ysyk-Koel";"N/A";"N/A";"";"";"";"";"Spark";"";"";"";"";"";"";"";"";"";"";"";"";"";"";""
"10934055227";"42.874353";"74.5916912";"charging_station";"";"Kyrgyzstan";"Chuy";"N/A";"N/A";"";"2";"";"";"";"";"";"";"";"";"";"";"";"";"";"";"";"";"";""
"10934055228";"42.8743511";"74.5917338";"charging_station";"";"Kyrgyzstan";"Chuy";"N/A";"N/A";"";"2";"";"";"";"";"";"";"";"";"";"";"";"";"";"";"";"";"";""
"10974320494";"42.8753999";"74.5926383";"charging_station";"";"Kyrgyzstan";"Chuy";"N/A";"N/A";"";"";"";"";"";"";"";"";"";"";"";"";"";"";"";"";"";"";"";""
"12430022553";"43.1183868";"76.9117228";"charging_station";"";"Kazakhstan";"Almaty Qalasy";"N/A";"N/A";"";"";"";"";"";"";"";"";"";"";"";"";"";"";"";"";"";"";"";""
"12655872720";"43.1633006";"77.0515052";"charging_station";"";"Kazakhstan";"Almaty Qalasy";"N/A";"N/A";"";"";"";"";"";"";"";"";"";"";"";"";"";"";"";"";"";"";"";""
"12890297978";"43.1300335";"76.9063526";"charging_station";"";"Kazakhstan";"Almaty Qalasy";"N/A";"N/A";"";"";"";"";"";"";"";"";"";"";"";"";"";"";"";"";"";"";"";""
"12890297979";"43.1300367";"76.9063242";"charging_station";"";"Kazakhstan";"Almaty Qalasy";"N/A";"N/A";"";"";"";"";"";"";"";"";"";"";"";"";"";"";"";"";"";"";"";""
"12890297980";"43.1300398";"76.9062982";"charging_station";"";"Kazakhstan";"Almaty Qalasy";"N/A";"N/A";"";"";"";"";"";"";"";"";"";"";"";"";"";"";"";"";"";"";"";""
"12890297981";"43.1300416";"76.9062655";"charging_station";"";"Kazakhstan";"Almaty Qalasy";"N/A";"N/A";"";"";"";"";"";"";"";"";"";"";"";"";"";"";"";"";"";"";"";""
"12442797599";"43.0718006";"78.4252355";"charging_station";"";"Kyrgyzstan";"Ysyk-Koel";"N/A";"N/A";"";"";"";"";"";"";"";"";"";"";"";"";"";"";"";"";"";"";"";""
"11832250081";"43.2183355";"76.9276179";"charging_station";"";"Kazakhstan";"Almaty Qalasy";"N/A";"N/A";"";"";"";"";"Tesla, Inc.";"Q478214";"";"";"";"";"";"";"";"";"";"";"Tesla Supercharger";"";"";""
"12728792032";"43.2334901";"76.9514076";"charging_station";"";"Kazakhstan";"Almaty Qalasy";"N/A";"N/A";"";"6";"";"";"";"";"";"";"";"";"";"";"";"";"";"";"Fast Charge Point";"";"";""
"12958784904";"43.2345411";"76.9561323";"charging_station";"";"Kazakhstan";"Almaty Qalasy";"N/A";"N/A";"";"2";"";"";"";"";"";"";"";"";"";"";"";"";"";"";"";"";"";"yes"
"12014293856";"40.9604434";"72.3249804";"charging_station";"";"Uzbekistan";"Andijon";"N/A";"N/A";"";"2";"";"";"OOO ""TOK BOR""";"";"";"";"";"";"";"";"UZ487";"";"";"";"TOK BOR";"";"";"yes"
"12069611620";"40.7857214";"72.3492714";"charging_station";"";"Uzbekistan";"Andijon";"N/A";"N/A";"";"2";"";"";"OOO TOK BOR";"";"";"";"";"";"";"";"UZ027";"";"";"";"TOK BOR";"";"";"yes"
"12069700157";"40.7509594";"72.36255";"charging_station";"";"Uzbekistan";"Andijon";"N/A";"N/A";"";"8";"";"";"OOO ""TOK BOR""";"";"";"";"";"";"";"";"UZ065";"";"";"";"TOK BOR";"";"";"yes"
"12069795893";"40.7857475";"72.3497953";"charging_station";"";"Uzbekistan";"Andijon";"N/A";"N/A";"";"2";"";"";"OOO ""TOK BOR""";"";"";"";"";"";"";"";"UZ073";"";"";"";"TOK BOR";"";"";"yes"
"12073075418";"40.7510534";"72.3624304";"charging_station";"";"Uzbekistan";"Andijon";"N/A";"N/A";"";"1";"";"";"OOO ""TOK BOR""";"";"";"";"";"";"";"";"UZ376";"";"";"";"TOK BOR";"";"";"yes"
"12079507731";"40.7045626";"72.478152";"charging_station";"";"Uzbekistan";"Andijon";"N/A";"N/A";"";"2";"";"";"OOO ""TOK BOR""";"";"";"";"";"";"";"";"UZ280";"";"";"";"TOK BOR";"";"";"yes"
"12082596682";"40.7133842";"72.3004172";"charging_station";"";"Uzbekistan";"Andijon";"N/A";"N/A";"";"2";"";"";"OOO ""TOK BOR""";"";"";"";"";"";"";"";"UZ454";"";"";"";"TOK BOR";"";"";"yes"
"12082864549";"40.7524898";"72.3312273";"charging_station";"";"Uzbekistan";"Andijon";"N/A";"N/A";"";"1";"";"";"OOO ""TOK BOR""";"";"";"";"";"";"";"";"UZ486";"";"";"";"TOK BOR";"";"";"yes"
