"id";"lat";"lon";"amenity";"city";"state";"country";"scraped_country_code";"scraped_country_name";"authentication:nfc";"capacity";"capacity:car";"motorcar";"operator";"operator:wikidata";"socket:schuko";"socket:schuko:current";"socket:schuko:voltage";"socket:type2";"socket:type2:current";"socket:type2:voltage";"ref";"addr:housenumber";"addr:street";"addr:postcode";"brand";"charge";"opening_hours";"fee"
"4934652824";"-1.8969121";"-79.1020384";"charging_station";"";"Ecuador";"Bolivar";"N/A";"N/A";"";"";"";"";"";"";"";"";"";"";"";"";"";"";"";"";"";"";"";""
"4305047889";"-1.9192939";"-55.5156603";"charging_station";"Obidos";"Brazil";"Para";"N/A";"N/A";"";"";"";"";"Balsa Leia";"";"";"";"";"";"";"";"";"";"";"";"";"";"";""
"10235475411";"-1.6503108";"29.1902111";"charging_station";"";"Congo";"Nord Kivu";"N/A";"N/A";"";"";"";"";"";"";"";"";"";"";"";"";"";"";"Global business Station";"";"";"";"";""
"8816058906";"-1.9561663";"30.0919582";"charging_station";"";"Rwanda";"Kigali";"N/A";"N/A";"";"";"";"";"Volkswagen";"";"";"";"";"1";"";"";"";"";"";"";"";"";"";""
"8816058907";"-1.9562391";"30.092018";"charging_station";"";"Rwanda";"Kigali";"N/A";"N/A";"";"";"";"";"Volkswagen";"";"";"";"";"1";"";"";"";"";"";"";"";"";"";""
"8816068253";"-1.9563063";"30.0920785";"charging_station";"";"Rwanda";"Kigali";"N/A";"N/A";"";"";"";"";"Volkswagen";"";"";"";"";"";"";"";"";"";"";"";"";"";"";""
"8816112276";"-1.9559235";"30.1601375";"charging_station";"";"Rwanda";"Kigali";"N/A";"N/A";"";"";"";"";"Volkswagen";"";"";"";"";"1";"";"";"";"";"";"";"";"";"";""
"11658397436";"-1.9612678";"30.119778";"charging_station";"";"Rwanda";"Kigali";"N/A";"N/A";"";"";"";"";"Ampersand Rwanda";"";"";"";"";"";"";"";"";"";"";"";"Ampersand Giporoso";"";"";""
"1254199644";"";"";"charging_station";"N/A";"N/A";"N/A";"N/A";"N/A";"";"";"";"";"";"";"";"";"";"";"";"";"";"";"";"";"";"";"";""
"11658288608";"-1.9595044";"30.1164982";"";"";"Rwanda";"Kigali";"N/A";"N/A";"";"";"";"";"";"";"";"";"";"";"";"";"";"";"";"";"";"";"";""
"11658288609";"-1.9594964";"30.1165798";"";"";"Rwanda";"Kigali";"N/A";"N/A";"";"";"";"";"";"";"";"";"";"";"";"";"";"";"";"";"";"";"";""
"11658288610";"-1.9595891";"30.1165926";"";"";"Rwanda";"Kigali";"N/A";"N/A";"";"";"";"";"";"";"";"";"";"";"";"";"";"";"";"";"";"";"";""
"11658288611";"-1.9595971";"30.116511";"";"";"Rwanda";"Kigali";"N/A";"N/A";"";"";"";"";"";"";"";"";"";"";"";"";"";"";"";"";"";"";"";""
"10792575194";"-1.8936977";"30.469785";"charging_station";"";"Rwanda";"Eastern Province";"N/A";"N/A";"";"1";"";"";"";"";"";"";"";"";"";"";"";"";"";"";"";"";"";"no"
"5298885522";"-1.6455459";"31.5893292";"charging_station";"";"Tanzania";"Kagera";"N/A";"N/A";"";"";"";"";"scarion power bust";"";"";"";"";"";"";"";"";"";"";"";"";"";"";""
"9559151618";"-1.84148";"31.6559621";"charging_station";"";"Tanzania";"Kagera";"N/A";"N/A";"";"";"";"";"";"";"";"";"";"";"";"";"";"";"";"";"";"";"";""
"9727979517";"-1.8428185";"31.6518453";"charging_station";"";"Tanzania";"Kagera";"N/A";"N/A";"";"";"";"";"";"";"";"";"";"";"";"";"";"";"";"";"";"";"";""
"9735248918";"-1.7474059";"31.701237";"charging_station";"";"Tanzania";"Kagera";"N/A";"N/A";"";"";"";"";"community";"";"";"";"";"";"";"";"";"100";"Katwerere hamlet";"";"";"";"";""
"4432596191";"-1.8381615";"34.6787887";"charging_station";"";"Tanzania";"Mara";"N/A";"N/A";"";"";"";"";"";"";"";"";"";"";"";"";"";"";"";"";"";"";"";""
"5040607021";"-1.8490425";"34.6612297";"charging_station";"";"Tanzania";"Mara";"N/A";"N/A";"";"";"";"";"";"";"";"";"";"";"";"";"";"";"";"";"";"";"";""
"6695320685";"-1.9970774";"34.3704239";"charging_station";"";"Tanzania";"Mara";"N/A";"N/A";"";"";"";"";"duka la dawa";"";"";"";"";"";"";"";"";"";"";"";"";"";"";""
"4550079690";"-1.5659275";"99.1932805";"charging_station";"";"Indonesia";"West Sumatra";"N/A";"N/A";"";"";"";"";"PLN Maileppet";"";"";"";"";"";"";"";"";"";"";"";"";"";"";""
"4394345790";"-1.1838317";"-79.5030182";"charging_station";"";"Ecuador";"Los Rios";"N/A";"N/A";"";"";"";"";"";"";"";"";"";"";"";"";"";"";"";"";"";"";"";""
"11956120670";"-1.3562976";"-78.6172625";"charging_station";"Canton Quero";"Ecuador";"Tungurahua";"N/A";"N/A";"";"";"";"";"";"";"";"";"";"";"";"";"";"";"";"";"";"";"";""
"5506587121";"-1.4976148";"-78.0631854";"charging_station";"";"Ecuador";"Pastaza";"N/A";"N/A";"";"";"";"";"Distribuidora de Gas";"";"";"";"";"";"";"";"";"";"";"";"";"";"";""
"5148630023";"-1.4650827";"-48.4937825";"charging_station";"Belem";"Brazil";"Para";"N/A";"N/A";"";"";"";"";"Ellca";"";"";"";"";"";"";"";"";"";"";"";"";"";"";""
"5261182014";"-1.3755333";"-48.4149001";"charging_station";"Ananindeua";"Brazil";"Para";"N/A";"N/A";"";"";"";"";"Posto BR";"";"";"";"";"";"";"";"";"";"";"";"";"";"";""
"5545349322";"-1.4445267";"31.4382788";"charging_station";"";"Tanzania";"Kagera";"N/A";"N/A";"";"";"";"";"JR station";"";"";"";"";"";"";"";"";"";"";"";"";"";"";""
"9890597635";"-1.3294819";"36.7159";"charging_station";"";"Kenya";"Kajiado";"N/A";"N/A";"";"";"";"";"";"";"";"";"";"";"";"";"";"";"";"";"";"";"";""
"8816120323";"-1.2196541";"36.8885534";"charging_station";"";"Kenya";"Nairobi Area";"N/A";"N/A";"";"";"";"";"NopeaRide";"";"";"";"";"1";"";"";"";"";"";"";"";"";"";""
"4776895390";"-0.996719";"-80.7093183";"charging_station";"";"Ecuador";"Manabi";"N/A";"N/A";"";"";"";"";"Tableros y herrajes Marquele";"";"";"";"";"";"";"";"";"";"";"";"";"";"";""
"5659739023";"-0.805812";"-80.2567906";"charging_station";"";"Ecuador";"Manabi";"N/A";"N/A";"";"";"";"";"";"";"";"";"";"";"";"";"";"";"";"";"";"";"";""
"9056646317";"-1.0140902";"-79.4698487";"charging_station";"";"Ecuador";"Los Rios";"N/A";"N/A";"";"";"";"";"";"";"";"";"";"";"";"";"";"";"";"";"";"";"";""
"5214722622";"-0.7083259";"-76.8867685";"charging_station";"";"Ecuador";"Orellana";"N/A";"N/A";"";"";"";"";"Estaci√≥n Sur";"";"";"";"";"";"";"";"";"";"";"";"";"";"";""
"9908889917";"-0.6112013";"37.2635452";"charging_station";"";"Kenya";"Kirinyaga";"N/A";"N/A";"";"";"";"";"";"";"";"";"";"";"";"";"";"";"";"";"";"";"";""
