"id";"lat";"lon";"amenity";"city";"state";"country";"scraped_country_code";"scraped_country_name";"authentication:nfc";"capacity";"capacity:car";"motorcar";"operator";"operator:wikidata";"socket:schuko";"socket:schuko:current";"socket:schuko:voltage";"socket:type2";"socket:type2:current";"socket:type2:voltage";"ref";"addr:housenumber";"addr:street";"addr:postcode";"brand";"charge";"opening_hours";"fee"
"11012521480";"41.0589208";"61.9785386";"charging_station";"";"Turkmenistan";"Lebap";"N/A";"N/A";"";"";"";"";"";"";"";"";"";"";"";"";"";"";"";"";"TOK BOR";"";"";"yes"
"11998483108";"40.9063382";"68.7001405";"charging_station";"";"Uzbekistan";"Sirdaryo";"N/A";"N/A";"";"1";"";"";"OOO ""TOK BOR""";"";"";"";"";"";"";"";"UZ483";"";"";"";"TOK BOR";"";"";"yes"
"12071596783";"40.7054927";"68.698791";"charging_station";"";"Uzbekistan";"Sirdaryo";"N/A";"N/A";"";"2";"";"";"OOO ""TOK BOR""";"";"";"";"";"";"";"";"UZ134";"";"";"";"TOK BOR";"";"";"yes"
"12073274966";"40.8922203";"68.6760103";"charging_station";"";"Uzbekistan";"Sirdaryo";"N/A";"N/A";"";"2";"";"";"OOO ""TOK BOR""";"";"";"";"";"";"";"";"UZ182";"";"";"";"TOK BOR";"";"";"yes"
"12073426855";"40.7992619";"68.6759204";"charging_station";"";"Uzbekistan";"Sirdaryo";"N/A";"N/A";"";"2";"";"";"OOO ""TOK BOR""";"";"";"";"";"";"";"";"UZ190";"";"";"";"TOK BOR";"";"";"yes"
"12079807930";"40.6155495";"68.7104388";"charging_station";"";"Uzbekistan";"Sirdaryo";"N/A";"N/A";"";"2";"";"";"OOO ""TOK BOR""";"";"";"";"";"";"";"";"UZ315";"";"";"";"TOK BOR";"";"";"yes"
"12079810217";"40.8491762";"68.6673571";"charging_station";"";"Uzbekistan";"Sirdaryo";"N/A";"N/A";"";"2";"";"";"OOO ""TOK BOR""";"";"";"";"";"";"";"";"UZ316";"";"";"";"TOK BOR";"";"";"yes"
"12084439142";"40.7034537";"68.6997064";"charging_station";"";"Uzbekistan";"Sirdaryo";"N/A";"N/A";"";"1";"";"";"OOO ""TOK BOR""";"";"";"";"";"";"";"";"UZ535";"";"";"";"TOK BOR";"";"";"yes"
"12234566849";"40.7050673";"68.6988793";"charging_station";"";"Uzbekistan";"Sirdaryo";"N/A";"N/A";"";"2";"";"";"ИП ООО ""TOSHELECTROAPPARAT""";"";"";"";"";"";"";"";"";"";"";"";"GreenTE";"";"";"yes"
"12073267961";"40.8171116";"69.2061482";"charging_station";"";"Uzbekistan";"Toshkent";"N/A";"N/A";"";"2";"";"";"OOO ""TOK BOR""";"";"";"";"";"";"";"";"UZ177";"";"";"";"TOK BOR";"";"";"yes"
"11740455469";"40.9069569";"69.7971525";"charging_station";"";"Uzbekistan";"Toshkent";"N/A";"N/A";"";"2";"";"";"GreenTE";"";"";"";"";"";"";"";"";"";"";"";"GreenTE Ором";"";"";"yes"
"12069832709";"40.9026481";"69.6424651";"charging_station";"";"Uzbekistan";"Toshkent";"N/A";"N/A";"";"2";"";"";"OOO ""TOK BOR""";"";"";"";"";"";"";"";"UZ077";"";"";"";"TOK BOR";"";"";"yes"
"12073012285";"40.9034204";"69.6448366";"charging_station";"";"Uzbekistan";"Toshkent";"N/A";"N/A";"";"2";"";"";"OOO ""TOK BOR""";"";"";"";"";"";"";"";"UZ161";"";"";"";"TOK BOR";"";"";"yes"
"12073433273";"40.860395";"69.5882256";"charging_station";"";"Uzbekistan";"Toshkent";"N/A";"N/A";"";"2";"";"";"OOO ""TOK BOR""";"";"";"";"";"";"";"";"UZ193";"";"";"";"TOK BOR";"";"";"yes"
"12141255700";"40.9082544";"69.8035528";"charging_station";"";"Uzbekistan";"Toshkent";"N/A";"N/A";"";"3";"";"";"OOO ""TOK BOR""";"";"";"";"";"";"";"";"UZ555 UZ622";"";"";"";"TOK BOR";"";"";"yes"
"11487135270";"40.9945457";"70.0554678";"charging_station";"";"Uzbekistan";"Toshkent";"N/A";"N/A";"";"6";"";"";"OOO ""TOK BOR""";"";"";"";"";"";"";"";"UZ157";"";"";"";"TOK BOR";"";"";"yes"
"11740449369";"40.8180487";"70.7975699";"charging_station";"";"Uzbekistan";"Namangan";"N/A";"N/A";"";"2";"";"";"GreenTE";"";"";"";"";"";"";"";"";"";"";"";"GreenTE Uzbekistan";"";"";"yes"
"11876408432";"40.8746134";"70.7822669";"charging_station";"";"Uzbekistan";"Namangan";"N/A";"N/A";"";"2";"";"";"OOO ""TOK BOR""";"";"";"";"";"";"";"";"TokBor UZ313";"";"";"";"TOK BOR";"2850 сум/кВт*ч1";"";"yes"
"11876408433";"40.8746681";"70.7824561";"charging_station";"";"Uzbekistan";"Namangan";"N/A";"N/A";"";"1";"";"";"OOO ""TOK BOR""";"";"";"";"";"";"";"";"TokBor UZ370";"";"";"";"TOK BOR";"";"";"yes"
"11957812434";"40.6189285";"70.8963353";"charging_station";"";"Uzbekistan";"Fergana";"N/A";"N/A";"";"2";"";"";"ИП ООО ""TOSHELECTROAPPARAT""";"";"";"";"";"";"";"";"";"";"";"";"GreenTE Dang'ara";"";"";"yes"
"12069596918";"41.0270503";"70.6042939";"charging_station";"";"Tajikistan";"Viloyati Sughd";"N/A";"N/A";"";"2";"";"";"OOO TOK BOR";"";"";"";"";"";"";"";"UZ054";"";"";"";"TOK BOR";"";"";"yes"
"12069848209";"41.0328802";"70.5937791";"charging_station";"";"Tajikistan";"Viloyati Sughd";"N/A";"N/A";"";"2";"";"";"OOO ""TOK BOR""";"";"";"";"";"";"";"";"UZ078";"";"";"";"TOK BOR";"";"";"yes"
"12074638359";"41.0340984";"70.5871089";"charging_station";"";"Tajikistan";"Viloyati Sughd";"N/A";"N/A";"";"2";"";"";"OOO ""TOK BOR""";"";"";"";"";"";"";"";"UZ213";"";"";"";"TOK BOR";"";"";"yes"
"12074638360";"41.0339884";"70.5868824";"charging_station";"";"Tajikistan";"Viloyati Sughd";"N/A";"N/A";"";"1";"";"";"OOO ""TOK BOR""";"";"";"";"";"";"";"";"UZ381";"";"";"";"TOK BOR";"";"";"yes"
"12074655028";"41.0503895";"70.5688706";"charging_station";"";"Uzbekistan";"Toshkent";"N/A";"N/A";"";"2";"";"";"OOO ""TOK BOR""";"";"";"";"";"";"";"";"UZ214";"";"";"";"TOK BOR";"";"";"yes"
"12074655029";"41.0502544";"70.5689746";"charging_station";"";"Uzbekistan";"Toshkent";"N/A";"N/A";"";"1";"";"";"OOO ""TOK BOR""";"";"";"";"";"";"";"";"UZ382";"";"";"";"TOK BOR";"";"";"yes"
"12074729718";"40.9975978";"70.6333012";"charging_station";"";"Tajikistan";"Viloyati Sughd";"N/A";"N/A";"";"2";"";"";"OOO ""TOK BOR""";"";"";"";"";"";"";"";"UZ218";"";"";"";"TOK BOR";"";"";"yes"
"12074744578";"40.9975726";"70.6339569";"charging_station";"";"Tajikistan";"Viloyati Sughd";"N/A";"N/A";"";"2";"";"";"OOO ""TOK BOR""";"";"";"";"";"";"";"";"UZ219";"";"";"";"TOK BOR";"";"";"yes"
"12074744579";"40.9977289";"70.6339926";"charging_station";"";"Tajikistan";"Viloyati Sughd";"N/A";"N/A";"";"1";"";"";"OOO ""TOK BOR""";"";"";"";"";"";"";"";"UZ379";"";"";"";"TOK BOR";"";"";"yes"
"12082439787";"40.798854";"70.8572207";"charging_station";"";"Uzbekistan";"Namangan";"N/A";"N/A";"";"3";"";"";"OOO ""TOK BOR""";"";"";"";"";"";"";"";"UZ451";"";"";"";"TOK BOR";"";"";"yes"
"12112256282";"40.7860564";"70.8101516";"charging_station";"";"Uzbekistan";"Fergana";"N/A";"N/A";"";"3";"";"";"OOO ""TOK BOR""";"";"";"";"";"";"";"";"UZ526 UZ540";"";"";"";"TOK BOR";"";"";"yes"
"11957759054";"40.5839829";"71.3815313";"charging_station";"";"Uzbekistan";"Fergana";"N/A";"N/A";"";"2";"";"";"GreenTE";"";"";"";"";"";"";"";"";"";"";"";"GreenTE Buvayda tumani";"";"";"yes"
"12073219588";"40.8917874";"71.0609056";"charging_station";"";"Uzbekistan";"Namangan";"N/A";"N/A";"";"2";"";"";"OOO ""TOK BOR""";"";"";"";"";"";"";"";"UZ170";"";"";"";"TOK BOR";"";"";"yes"
"12074644149";"40.9905569";"71.2558836";"charging_station";"";"Uzbekistan";"Namangan";"N/A";"N/A";"";"2";"";"";"OOO ""TOK BOR""";"";"";"";"";"";"";"";"UZ212";"";"";"";"TOK BOR";"";"";"yes"
"12079436929";"40.8682272";"71.1208555";"charging_station";"";"Uzbekistan";"Namangan";"N/A";"N/A";"";"2";"";"";"OOO ""TOK BOR""";"";"";"";"";"";"";"";"UZ259";"";"";"";"TOK BOR";"";"";"yes"
"12079550577";"40.9824793";"71.2429758";"charging_station";"";"Uzbekistan";"Namangan";"N/A";"N/A";"";"2";"";"";"OOO ""TOK BOR""";"";"";"";"";"";"";"";"UZ278";"";"";"";"TOK BOR";"";"";"yes"
"12082273284";"40.905295";"71.4640099";"charging_station";"";"Uzbekistan";"Namangan";"N/A";"N/A";"";"1";"";"";"OOO ""TOK BOR""";"";"";"";"";"";"";"";"UZ431";"";"";"";"TOK BOR";"";"";"yes"
"12070939941";"41.0048352";"71.6752073";"charging_station";"";"Uzbekistan";"Namangan";"N/A";"N/A";"";"2";"";"";"OOO ""TOK BOR""";"";"";"";"";"";"";"";"UZ082";"";"";"";"TOK BOR";"";"";"yes"
"12070964508";"40.9918608";"71.6484013";"charging_station";"";"Uzbekistan";"Namangan";"N/A";"N/A";"";"2";"";"";"OOO ""TOK BOR""";"";"";"";"";"";"";"";"UZ083";"";"";"";"TOK BOR";"";"";"yes"
"12073176752";"40.9955898";"71.5895044";"charging_station";"";"Uzbekistan";"Namangan";"N/A";"N/A";"";"2";"";"";"OOO ""TOK BOR""";"";"";"";"";"";"";"";"UZ167";"";"";"";"TOK BOR";"";"";"yes"
"12073209939";"40.9936896";"71.6772793";"charging_station";"";"Uzbekistan";"Namangan";"N/A";"N/A";"";"1";"";"";"OOO ""TOK BOR""";"";"";"";"";"";"";"";"UZ371";"";"";"";"TOK BOR";"";"";"yes"
"12073209940";"40.9936663";"71.6772485";"charging_station";"";"Uzbekistan";"Namangan";"N/A";"N/A";"";"2";"";"";"OOO ""TOK BOR""";"";"";"";"";"";"";"";"UZ169";"";"";"";"TOK BOR";"";"";"yes"
"12073381736";"41.0077929";"71.6276688";"charging_station";"";"Uzbekistan";"Namangan";"N/A";"N/A";"";"5";"";"";"OOO ""TOK BOR""";"";"";"";"";"";"";"";"UZ187";"";"";"";"TOK BOR";"";"";"yes"
"12073381737";"41.0077193";"71.6276635";"charging_station";"";"Uzbekistan";"Namangan";"N/A";"N/A";"";"1";"";"";"OOO ""TOK BOR""";"";"";"";"";"";"";"";"UZ380";"";"";"";"TOK BOR";"";"";"yes"
"12074632991";"40.9787297";"71.7086882";"charging_station";"";"Uzbekistan";"Namangan";"N/A";"N/A";"";"2";"";"";"OOO ""TOK BOR""";"";"";"";"";"";"";"";"UZ211";"";"";"";"TOK BOR";"";"";"yes"
"12074636094";"41.0014763";"71.6531843";"charging_station";"";"Uzbekistan";"Namangan";"N/A";"N/A";"";"2";"";"";"OOO ""TOK BOR""";"";"";"";"";"";"";"";"UZ210";"";"";"";"TOK BOR";"";"";"yes"
"12079519597";"40.9895885";"71.6367836";"charging_station";"";"Uzbekistan";"Namangan";"N/A";"N/A";"";"3";"";"";"OOO ""TOK BOR""";"";"";"";"";"";"";"";"UZ272";"";"";"";"TOK BOR";"";"";"yes"
"12079963647";"40.9940493";"71.6099858";"charging_station";"";"Uzbekistan";"Namangan";"N/A";"N/A";"";"2";"";"";"OOO ""TOK BOR""";"";"";"";"";"";"";"";"UZ374 UZ375";"";"";"";"TOK BOR";"";"";"yes"
"12080061384";"40.9986309";"71.6441191";"charging_station";"";"Uzbekistan";"Namangan";"N/A";"N/A";"";"1";"";"";"OOO ""TOK BOR""";"";"";"";"";"";"";"";"UZ373";"";"";"";"TOK BOR";"";"";"yes"
"12082338976";"40.6519971";"71.7410876";"charging_station";"";"Uzbekistan";"Fergana";"N/A";"N/A";"";"2";"";"";"OOO ""TOK BOR""";"";"";"";"";"";"";"";"UZ434";"";"";"";"TOK BOR";"";"";"yes"
"12100427080";"40.6475223";"71.7085372";"charging_station";"";"Uzbekistan";"Fergana";"N/A";"N/A";"";"2";"";"";"OOO ""TOK BOR""";"";"";"";"";"";"";"";"UZ542";"";"";"";"TOK BOR";"";"";"yes"
"12234617001";"41.0000908";"71.6127601";"charging_station";"";"Uzbekistan";"Namangan";"N/A";"N/A";"";"2";"";"";"ИП ООО ""TOSHELECTROAPPARAT""";"";"";"";"";"";"";"";"";"";"";"";"GreenTE";"";"";"yes"
"12298386104";"40.8575644";"71.6860288";"charging_station";"";"Uzbekistan";"Namangan";"N/A";"N/A";"";"";"";"";"ИП ООО ""TOSHELECTROAPPARAT""";"";"";"";"";"";"";"";"";"";"";"";"GreenTE";"";"";"yes"
"12298401033";"40.7517615";"71.7051667";"charging_station";"";"Uzbekistan";"Namangan";"N/A";"N/A";"";"2";"";"";"ИП ООО ""TOSHELECTROAPPARAT""";"";"";"";"";"";"";"";"";"";"";"";"GreenTE";"";"";"yes"
"12014293856";"40.9604434";"72.3249804";"charging_station";"";"Uzbekistan";"Andijon";"N/A";"N/A";"";"2";"";"";"OOO ""TOK BOR""";"";"";"";"";"";"";"";"UZ487";"";"";"";"TOK BOR";"";"";"yes"
"12069611620";"40.7857214";"72.3492714";"charging_station";"";"Uzbekistan";"Andijon";"N/A";"N/A";"";"2";"";"";"OOO TOK BOR";"";"";"";"";"";"";"";"UZ027";"";"";"";"TOK BOR";"";"";"yes"
"12069700157";"40.7509594";"72.36255";"charging_station";"";"Uzbekistan";"Andijon";"N/A";"N/A";"";"8";"";"";"OOO ""TOK BOR""";"";"";"";"";"";"";"";"UZ065";"";"";"";"TOK BOR";"";"";"yes"
"12069795893";"40.7857475";"72.3497953";"charging_station";"";"Uzbekistan";"Andijon";"N/A";"N/A";"";"2";"";"";"OOO ""TOK BOR""";"";"";"";"";"";"";"";"UZ073";"";"";"";"TOK BOR";"";"";"yes"
"12073075418";"40.7510534";"72.3624304";"charging_station";"";"Uzbekistan";"Andijon";"N/A";"N/A";"";"1";"";"";"OOO ""TOK BOR""";"";"";"";"";"";"";"";"UZ376";"";"";"";"TOK BOR";"";"";"yes"
"12079507731";"40.7045626";"72.478152";"charging_station";"";"Uzbekistan";"Andijon";"N/A";"N/A";"";"2";"";"";"OOO ""TOK BOR""";"";"";"";"";"";"";"";"UZ280";"";"";"";"TOK BOR";"";"";"yes"
"12082596682";"40.7133842";"72.3004172";"charging_station";"";"Uzbekistan";"Andijon";"N/A";"N/A";"";"2";"";"";"OOO ""TOK BOR""";"";"";"";"";"";"";"";"UZ454";"";"";"";"TOK BOR";"";"";"yes"
"12082864549";"40.7524898";"72.3312273";"charging_station";"";"Uzbekistan";"Andijon";"N/A";"N/A";"";"1";"";"";"OOO ""TOK BOR""";"";"";"";"";"";"";"";"UZ486";"";"";"";"TOK BOR";"";"";"yes"
"12100427081";"40.8018331";"72.9867878";"charging_station";"";"Kyrgyzstan";"Jalal-Abad";"N/A";"N/A";"";"1";"";"";"OOO ""TOK BOR""";"";"";"";"";"";"";"";"UZ543";"";"";"";"TOK BOR";"";"";"yes"
"12543173203";"40.7298593";"72.7549584";"charging_station";"";"Uzbekistan";"Andijon";"N/A";"N/A";"";"";"";"";"Tezroq";"";"";"";"";"";"";"";"";"";"";"";"Tezroq";"";"";"yes"
"12082623333";"41.4002692";"60.3750768";"charging_station";"";"Uzbekistan";"Xorazm";"N/A";"N/A";"";"3";"";"";"OOO ""TOK BOR""";"";"";"";"";"";"";"";"UZ470";"";"";"";"TOK BOR";"";"";"yes"
"11891324408";"41.5491222";"60.6364529";"charging_station";"";"Uzbekistan";"Xorazm";"N/A";"N/A";"";"";"";"";"";"";"";"";"";"";"";"";"";"";"";"";"Elektrazaprafka";"";"";""
"12071082165";"41.5311279";"60.6071173";"charging_station";"";"Uzbekistan";"Xorazm";"N/A";"N/A";"";"2";"";"";"OOO ""TOK BOR""";"";"";"";"";"";"";"";"UZ096";"";"";"";"TOK BOR";"";"";"yes"
"12071354909";"41.5452984";"60.6225947";"charging_station";"";"Uzbekistan";"Xorazm";"N/A";"N/A";"";"2";"";"";"OOO ""TOK BOR""";"";"";"";"";"";"";"";"UZ118";"";"";"";"TOK BOR";"";"";"yes"
"12071354910";"41.5453217";"60.6221884";"charging_station";"";"Uzbekistan";"Xorazm";"N/A";"N/A";"";"4";"";"";"OOO ""TOK BOR""";"";"";"";"";"";"";"";"UZ119 UZ366";"";"";"";"TOK BOR";"";"";"yes"
"12075219369";"41.0837588";"61.969451";"charging_station";"";"Turkmenistan";"Lebap";"N/A";"N/A";"";"6";"";"";"OOO ""TOK BOR""";"";"";"";"";"";"";"";"UZ097 UZ265 UZ267 UZ368";"";"";"";"TOK BOR";"";"";"yes"
"11012515177";"41.5689246";"64.22209";"charging_station";"";"Uzbekistan";"Navoiy";"N/A";"N/A";"";"1";"";"";"OOO ""TOK BOR""";"";"";"";"";"";"";"";"UZ101";"";"";"";"TOK BOR";"";"";"yes"
"12072939676";"41.5581655";"64.2008096";"charging_station";"";"Uzbekistan";"Navoiy";"N/A";"N/A";"";"2";"";"";"OOO ""TOK BOR""";"";"";"";"";"";"";"";"UZ146";"";"";"";"TOK BOR";"";"";"yes"
"12079948176";"41.5705526";"64.2013805";"charging_station";"";"Uzbekistan";"Navoiy";"N/A";"N/A";"";"2";"";"";"OOO ""TOK BOR""";"";"";"";"";"";"";"";"UZ329";"";"";"";"TOK BOR";"";"";"yes"
"4189023791";"41.4591388";"69.5379576";"charging_station";"";"Uzbekistan";"Toshkent";"N/A";"N/A";"";"";"";"";"";"";"";"";"";"";"";"";"";"";"";"";"";"";"";""
"12073278518";"41.3996134";"69.5549272";"charging_station";"";"Uzbekistan";"Toshkent";"N/A";"N/A";"";"2";"";"";"OOO ""TOK BOR""";"";"";"";"";"";"";"";"UZ176";"";"";"";"TOK BOR";"";"";"yes"
"12074777756";"41.4894427";"69.9433735";"charging_station";"";"Uzbekistan";"Toshkent";"N/A";"N/A";"";"2";"";"";"OOO ""TOK BOR""";"";"";"";"";"";"";"";"UZ224";"";"";"";"TOK BOR";"";"";"yes"
"12074785920";"41.4872967";"69.9415397";"charging_station";"";"Uzbekistan";"Toshkent";"N/A";"N/A";"";"2";"";"";"OOO ""TOK BOR""";"";"";"";"";"";"";"";"UZ226";"";"";"";"TOK BOR";"";"";"yes"
"12074801938";"41.514142";"69.9481317";"charging_station";"";"Uzbekistan";"Toshkent";"N/A";"N/A";"";"8";"";"";"OOO ""TOK BOR""";"";"";"";"";"";"";"";"UZ230 UZ231 UZ232 UZ233 UZ234 UZ235";"";"";"";"TOK BOR";"";"";"yes"
"12082374906";"41.4932945";"69.588472";"charging_station";"";"Uzbekistan";"Toshkent";"N/A";"N/A";"";"2";"";"";"OOO ""TOK BOR""";"";"";"";"";"";"";"";"UZ446";"";"";"";"TOK BOR";"";"";"yes"
"12084361670";"41.5192208";"69.9523904";"charging_station";"";"Uzbekistan";"Toshkent";"N/A";"N/A";"";"1";"";"";"OOO ""TOK BOR""";"";"";"";"";"";"";"";"UZ514";"";"";"";"TOK BOR";"";"";"yes"
"12084385615";"41.5154891";"69.9600237";"charging_station";"";"Uzbekistan";"Toshkent";"N/A";"N/A";"";"1";"";"";"OOO ""TOK BOR""";"";"";"";"";"";"";"";"UZ519";"";"";"";"TOK BOR";"";"";"yes"
"12120018415";"41.5596179";"69.8282016";"charging_station";"";"Uzbekistan";"Toshkent";"N/A";"N/A";"";"3";"";"";"OOO ""TOK BOR""";"";"";"";"";"";"";"";"UZ547";"";"";"";"TOK BOR";"";"";"yes"
"12137343418";"41.4868095";"69.9443802";"charging_station";"";"Uzbekistan";"Toshkent";"N/A";"N/A";"";"1";"";"";"OOO ""TOK BOR""";"";"";"";"";"";"";"";"UZ609";"";"";"";"TOK BOR";"";"";"yes"
"12137344411";"41.4870612";"69.9425184";"charging_station";"";"Uzbekistan";"Toshkent";"N/A";"N/A";"";"1";"";"";"OOO ""TOK BOR""";"";"";"";"";"";"";"";"UZ608";"";"";"";"TOK BOR";"";"";"yes"
"12137365488";"41.5143103";"69.9482274";"charging_station";"";"Uzbekistan";"Toshkent";"N/A";"N/A";"";"2";"";"";"OOO ""TOK BOR""";"";"";"";"";"";"";"";"UZ611";"";"";"";"TOK BOR";"";"";"yes"
"12080064281";"41.15468";"70.4462884";"charging_station";"";"Uzbekistan";"Toshkent";"N/A";"N/A";"";"6";"";"";"OOO ""TOK BOR""";"";"";"";"";"";"";"";"UZ383 UZ384";"";"";"";"TOK BOR";"";"";"yes"
"12082261803";"41.5500873";"70.0273527";"charging_station";"";"Uzbekistan";"Toshkent";"N/A";"N/A";"";"1";"";"";"OOO ""TOK BOR""";"";"";"";"";"";"";"";"UZ429";"";"";"";"TOK BOR";"";"";"yes"
"12082904058";"41.5323934";"70.0285184";"charging_station";"";"Uzbekistan";"Toshkent";"N/A";"N/A";"";"3";"";"";"OOO ""TOK BOR""";"";"";"";"";"";"";"";"UZ510";"";"";"";"TOK BOR";"";"";"yes"
"12079545659";"41.215786";"71.529348";"charging_station";"";"Uzbekistan";"Namangan";"N/A";"N/A";"";"2";"";"";"OOO ""TOK BOR""";"";"";"";"";"";"";"";"UZ279";"";"";"";"TOK BOR";"";"";"yes"
"11883845580";"41.5769334";"60.5762517";"charging_station";"";"Uzbekistan";"Xorazm";"N/A";"N/A";"";"";"";"";"";"";"";"";"";"";"";"";"";"";"";"";"Electric Vehicle Charging Station";"";"";""
"11898190185";"41.8233143";"60.8708918";"charging_station";"";"Uzbekistan";"Karakalpakstan";"N/A";"N/A";"";"2";"";"";"";"";"";"";"";"";"";"";"";"";"";"";"";"";"";"yes"
"12079504240";"41.5952458";"60.8781903";"charging_station";"";"Uzbekistan";"Karakalpakstan";"N/A";"N/A";"";"2";"";"";"OOO ""TOK BOR""";"";"";"";"";"";"";"";"UZ268";"";"";"";"TOK BOR";"";"";"yes"
"12079891459";"41.6125638";"60.8412267";"charging_station";"";"Uzbekistan";"Karakalpakstan";"N/A";"N/A";"";"1";"";"";"OOO ""TOK BOR""";"";"";"";"";"";"";"";"UZ325";"";"";"";"TOK BOR";"";"";"yes"
"12684603496";"41.6994199";"60.5267781";"charging_station";"";"Uzbekistan";"Xorazm";"N/A";"N/A";"";"";"";"";"tezroq";"";"";"";"";"";"";"";"+998880171088";"";"";"";"Tezroq";"";"";""
"12075140533";"41.6225551";"69.9448603";"charging_station";"";"Uzbekistan";"Toshkent";"N/A";"N/A";"";"3";"";"";"OOO ""TOK BOR""";"";"";"";"";"";"";"";"UZ351 UZ339";"";"";"";"TOK BOR";"";"";"yes"
"12082232562";"41.6229067";"69.9344863";"charging_station";"";"Uzbekistan";"Toshkent";"N/A";"N/A";"";"5";"";"";"OOO ""TOK BOR""";"";"";"";"";"";"";"";"UZ422 UZ423";"";"";"";"TOK BOR";"";"";"yes"
"12082977606";"41.6384909";"69.9465018";"charging_station";"";"Uzbekistan";"Toshkent";"N/A";"N/A";"";"1";"";"";"OOO ""TOK BOR""";"";"";"";"";"";"";"";"UZ511";"";"";"";"TOK BOR";"";"";"yes"
"12084419476";"41.5721636";"69.8096238";"charging_station";"";"Uzbekistan";"Toshkent";"N/A";"N/A";"";"4";"";"";"OOO ""TOK BOR""";"";"";"";"";"";"";"";"UZ522";"";"";"";"TOK BOR";"";"";"yes"
"12069605254";"41.5755908";"70.0209964";"charging_station";"";"Uzbekistan";"Toshkent";"N/A";"N/A";"";"2";"";"";"OOO ""TOK BOR""";"";"";"";"";"";"";"";"UZ044";"";"";"";"TOK BOR";"";"";"yes"
"12082234818";"41.5921304";"70.0627685";"charging_station";"";"Uzbekistan";"Toshkent";"N/A";"N/A";"";"3";"";"";"OOO ""TOK BOR""";"";"";"";"";"";"";"";"UZ428";"";"";"";"TOK BOR";"";"";"yes"
"10866675325";"42.4453112";"59.6288482";"charging_station";"";"Uzbekistan";"Karakalpakstan";"N/A";"N/A";"";"2";"";"";"OOO ""TOK BOR""";"";"";"";"";"";"";"";"UZ095";"";"";"";"TOK BOR";"";"";"yes"
"10873415521";"42.4667368";"59.5919243";"charging_station";"";"Uzbekistan";"Karakalpakstan";"N/A";"N/A";"";"";"";"";"";"";"";"";"";"";"";"";"";"";"";"";"Megawatt Energy";"";"";"yes"
"12119548375";"42.4257982";"59.6391964";"charging_station";"";"Uzbekistan";"Karakalpakstan";"N/A";"N/A";"";"2";"";"";"TOSHELECTROAPPARAT";"";"";"";"";"";"";"";"";"";"";"";"Tezroq NUKUSELECTROAPPARAT";"";"";"yes"
"12698745129";"42.4672409";"59.5926013";"charging_station";"";"Uzbekistan";"Karakalpakstan";"N/A";"N/A";"";"";"";"";"";"";"";"";"";"";"";"";"";"";"";"";"";"";"";""
"12739198808";"42.4719886";"59.6031126";"charging_station";"";"Uzbekistan";"Karakalpakstan";"N/A";"N/A";"";"";"";"";"";"";"";"";"";"";"";"";"";"";"";"";"Megawatt";"";"";""
"12071048546";"42.1506093";"63.5642239";"charging_station";"Uchkuduk District";"Uzbekistan";"Navoiy";"N/A";"N/A";"";"1";"";"";"OOO ""TOK BOR""";"";"";"";"";"";"";"";"UZ099";"";"";"";"TOK BOR";"";"";"yes"
"12120364233";"42.5624545";"74.4830308";"charging_station";"";"Kyrgyzstan";"Chuy";"N/A";"N/A";"";"2";"";"";"ENRG";"";"";"";"";"";"";"";"";"";"";"";"";"";"";""
"10934055227";"42.874353";"74.5916912";"charging_station";"";"Kyrgyzstan";"Chuy";"N/A";"N/A";"";"2";"";"";"";"";"";"";"";"";"";"";"";"";"";"";"";"";"";""
"10934055228";"42.8743511";"74.5917338";"charging_station";"";"Kyrgyzstan";"Chuy";"N/A";"N/A";"";"2";"";"";"";"";"";"";"";"";"";"";"";"";"";"";"";"";"";""
"10974320494";"42.8753999";"74.5926383";"charging_station";"";"Kyrgyzstan";"Chuy";"N/A";"N/A";"";"";"";"";"";"";"";"";"";"";"";"";"";"";"";"";"";"";"";""
"10122974625";"42.6501478";"77.1237612";"charging_station";"";"Kyrgyzstan";"Ysyk-Koel";"N/A";"N/A";"";"";"";"";"Spark";"";"";"";"";"";"";"";"";"";"";"";"";"";"";""
"11832250081";"43.2183355";"76.9276179";"charging_station";"";"Kazakhstan";"Almaty Qalasy";"N/A";"N/A";"";"";"";"";"Tesla, Inc.";"Q478214";"";"";"";"";"";"";"";"";"";"";"Tesla Supercharger";"";"";""
"12430022553";"43.1183868";"76.9117228";"charging_station";"";"Kazakhstan";"Almaty Qalasy";"N/A";"N/A";"";"";"";"";"";"";"";"";"";"";"";"";"";"";"";"";"";"";"";""
"12728792032";"43.2334901";"76.9514076";"charging_station";"";"Kazakhstan";"Almaty Qalasy";"N/A";"N/A";"";"6";"";"";"";"";"";"";"";"";"";"";"";"";"";"";"Fast Charge Point";"";"";""
"12890297978";"43.1300335";"76.9063526";"charging_station";"";"Kazakhstan";"Almaty Qalasy";"N/A";"N/A";"";"";"";"";"";"";"";"";"";"";"";"";"";"";"";"";"";"";"";""
"12890297979";"43.1300367";"76.9063242";"charging_station";"";"Kazakhstan";"Almaty Qalasy";"N/A";"N/A";"";"";"";"";"";"";"";"";"";"";"";"";"";"";"";"";"";"";"";""
"12890297980";"43.1300398";"76.9062982";"charging_station";"";"Kazakhstan";"Almaty Qalasy";"N/A";"N/A";"";"";"";"";"";"";"";"";"";"";"";"";"";"";"";"";"";"";"";""
"12890297981";"43.1300416";"76.9062655";"charging_station";"";"Kazakhstan";"Almaty Qalasy";"N/A";"N/A";"";"";"";"";"";"";"";"";"";"";"";"";"";"";"";"";"";"";"";""
"12958784904";"43.2345411";"76.9561323";"charging_station";"";"Kazakhstan";"Almaty Qalasy";"N/A";"N/A";"";"2";"";"";"";"";"";"";"";"";"";"";"";"";"";"";"";"";"";"yes"
"11204400838";"43.4326719";"77.0267589";"charging_station";"";"Kazakhstan";"Almaty Oblysy";"N/A";"N/A";"";"";"";"";"";"";"";"";"";"";"";"";"";"";"";"";"";"";"";""
"12211921375";"43.3229443";"77.0203274";"charging_station";"";"Kazakhstan";"Almaty Oblysy";"N/A";"N/A";"";"1";"";"";"";"";"";"";"";"";"";"";"9";"";"";"";"Газпромнефть";"";"";"yes"
"12655872720";"43.1633006";"77.0515052";"charging_station";"";"Kazakhstan";"Almaty Qalasy";"N/A";"N/A";"";"";"";"";"";"";"";"";"";"";"";"";"";"";"";"";"";"";"";""
"12442797599";"43.0718006";"78.4252355";"charging_station";"";"Kyrgyzstan";"Ysyk-Koel";"N/A";"N/A";"";"";"";"";"";"";"";"";"";"";"";"";"";"";"";"";"";"";"";""
"12001826887";"43.217343";"81.8128735";"charging_station";"";"China";"Xinjiang Uygur Zizhiqu";"N/A";"N/A";"";"";"";"yes";"";"";"";"";"";"";"";"";"";"";"";"";"";"";"";"yes"
"12001826888";"43.2177848";"81.8109289";"charging_station";"";"China";"Xinjiang Uygur Zizhiqu";"N/A";"N/A";"";"";"";"yes";"";"";"";"";"";"";"";"";"";"";"";"";"";"";"";"yes"
"10866675326";"43.7829759";"59.030146";"charging_station";"";"Uzbekistan";"Karakalpakstan";"N/A";"N/A";"";"1";"";"";"OOO ""TOK BOR""";"";"";"";"";"";"";"";"UZ094";"";"";"";"TOK BOR";"";"";"yes"
"11062649115";"44.2089336";"80.4045638";"charging_station";"";"Kazakhstan";"Almaty Oblysy";"N/A";"N/A";"";"";"";"";"";"";"";"";"";"";"";"";"";"";"";"";"NIO Power";"";"";""
"11062633858";"44.4458491";"83.9292973";"charging_station";"";"China";"Heilongjiang Sheng";"N/A";"N/A";"";"";"";"";"";"";"";"";"";"";"";"";"";"";"";"";"NIO Power";"";"";""
"11062633859";"44.4481846";"83.9304774";"charging_station";"";"China";"Heilongjiang Sheng";"N/A";"N/A";"";"";"";"";"";"";"";"";"";"";"";"";"";"";"";"";"NIO Power";"";"";""
"12101628940";"44.3705335";"84.3421456";"charging_station";"";"China";"Heilongjiang Sheng";"N/A";"N/A";"";"";"";"";"";"";"";"";"";"";"";"";"";"";"";"";"";"";"";""
"4359978291";"45.0091959";"78.3839204";"charging_station";"";"Kazakhstan";"Almaty Oblysy";"N/A";"N/A";"";"";"";"";"ТОО""РЭС""";"";"";"";"";"";"";"";"";"";"";"";"";"";"";""
"11062617465";"44.599894";"81.3907566";"charging_station";"";"China";"Xinjiang Uygur Zizhiqu";"N/A";"N/A";"";"";"";"";"";"";"";"";"";"";"";"";"";"";"";"";"NIO Power";"";"";""
"11062633817";"44.5990056";"82.8926363";"charging_station";"";"China";"Xinjiang Uygur Zizhiqu";"N/A";"N/A";"";"";"";"";"";"";"";"";"";"";"";"";"";"";"";"";"NIO Power";"";"";""
"5819478353";"46.0042585";"53.3919207";"charging_station";"";"Kazakhstan";"Atyrau";"N/A";"N/A";"";"";"";"";"Скважина Ms 55/1";"";"";"";"";"";"";"";"";"";"";"";"";"";"";""
"7497621985";"49.4009927";"62.9905238";"charging_station";"";"Kazakhstan";"Qostanay";"N/A";"N/A";"";"";"";"";"Плакат";"";"";"";"";"";"";"";"";"";"";"";"";"";"";""
"12830504859";"50.2929763";"57.1547864";"charging_station";"";"Kazakhstan";"Aqtoebe";"N/A";"N/A";"";"";"";"";"";"";"";"";"";"";"";"";"";"";"";"";"";"";"";""
"8551556653";"51.2326751";"58.4847851";"charging_station";"";"Russian Federation";"Orenburg";"N/A";"N/A";"";"";"";"yes";"ПАО ""Россети Волга""";"";"1";"";"";"1";"";"";"";"";"";"";"";"";"24/7";"no"
"11832321437";"51.1240778";"71.4312691";"charging_station";"";"Kazakhstan";"Astana Qalasy";"N/A";"N/A";"";"";"";"";"Tesla, Inc.";"Q478214";"";"";"";"";"";"";"";"";"";"";"Tesla Supercharger";"";"";""
"8545224320";"51.7738572";"55.2001555";"charging_station";"";"Russian Federation";"Orenburg";"N/A";"N/A";"";"";"";"yes";"ПАО ""Россети Волга""";"";"";"";"";"1";"";"";"";"";"";"";"";"";"24/7";"no"
"8593130534";"51.755399";"55.0931793";"charging_station";"";"Russian Federation";"Orenburg";"N/A";"N/A";"";"";"";"yes";"";"";"";"";"";"";"";"";"";"";"";"";"";"";"";""
"10207954923";"41.2536173";"69.304648";"charging_station";"";"Uzbekistan";"Toshkent Shahri";"N/A";"N/A";"";"";"";"";"";"";"";"";"";"";"";"";"";"";"";"";"";"";"";""
"11051061314";"41.3120182";"69.2850859";"charging_station";"";"Uzbekistan";"Toshkent Shahri";"N/A";"N/A";"";"2";"";"";"OOO ""TOK BOR""";"";"";"";"";"";"";"";"UZ029";"";"";"";"TOK BOR";"";"";"yes"
"11740455470";"41.3263942";"69.2115984";"charging_station";"";"Uzbekistan";"Toshkent Shahri";"N/A";"N/A";"";"1";"";"";"GreenTE";"";"";"";"";"";"";"";"";"";"";"";"GreenTE ""UZELTEXSANOAT""";"";"";"yes"
"11740468569";"41.2373221";"69.2142228";"charging_station";"";"Uzbekistan";"Toshkent Shahri";"N/A";"N/A";"";"1";"";"";"TOSHELECTROAPPARAT";"";"";"";"";"";"";"";"";"";"";"";"GreenTE JES";"";"";"yes"
"11740474969";"41.3082241";"69.2764508";"charging_station";"";"Uzbekistan";"Toshkent Shahri";"N/A";"N/A";"";"2";"";"";"TOSHELECTROAPPARAT";"";"";"";"";"";"";"";"";"";"";"";"GreenTE Uzautosanoat";"";"";"yes"
"11740475070";"41.3283727";"69.2850139";"charging_station";"";"Uzbekistan";"Toshkent Shahri";"N/A";"N/A";"";"2";"";"";"GreenTE";"";"";"";"";"";"";"";"";"";"";"";"GreenTE АО ""НЭС""";"";"";"yes"
"11740480369";"41.2764028";"69.3023206";"charging_station";"";"Uzbekistan";"Toshkent Shahri";"N/A";"N/A";"";"";"";"";"GreenTE";"";"";"";"";"";"";"";"";"";"";"";"GreenTE Uzelectroapparat-electroshield";"";"";"yes"
"11740483569";"41.2785841";"69.3067075";"charging_station";"";"Uzbekistan";"Toshkent Shahri";"N/A";"N/A";"";"3";"";"";"GreenTE";"";"";"";"";"";"";"";"";"";"";"";"GreenTE ""TOSHELECTROAPPARAT""";"";"";"yes"
"11845813269";"41.279845";"69.2186921";"charging_station";"";"Uzbekistan";"Toshkent Shahri";"N/A";"N/A";"";"2";"";"";"OOO ""TOK BOR""";"";"";"";"";"";"";"";"UZ287";"";"";"";"TOK BOR";"";"";"yes"
"11851122904";"41.2755374";"69.2237122";"charging_station";"";"Uzbekistan";"Toshkent Shahri";"N/A";"N/A";"";"2";"";"";"OOO ""TOK BOR""";"";"";"";"";"";"";"";"UZ064";"";"";"";"TOK BOR";"";"";"yes"
"11862402473";"41.2826536";"69.2224778";"charging_station";"";"Uzbekistan";"Toshkent Shahri";"N/A";"N/A";"";"2";"";"";"OOO ""TOK BOR""";"";"";"";"";"";"";"";"UZ450";"";"";"";"TOK BOR";"";"";"yes"
"11868077057";"41.3129674";"69.3320907";"charging_station";"";"Uzbekistan";"Toshkent";"N/A";"N/A";"";"2";"";"";"Tok Bor";"";"";"";"";"";"";"";"UZ002";"";"";"";"TOK BOR";"";"";"yes"
"11868077058";"41.3393251";"69.1779705";"charging_station";"";"Uzbekistan";"Toshkent Shahri";"N/A";"N/A";"";"3";"";"";"Tok Bor";"";"";"";"";"";"";"";"UZ334 UZ416";"";"";"";"TOK BOR";"";"";"yes"
"11871652734";"41.3281208";"69.2655065";"charging_station";"";"Uzbekistan";"Toshkent Shahri";"N/A";"N/A";"";"2";"";"";"OOO ""TOK BOR""";"";"";"";"";"";"";"";"UZ004";"";"";"";"TOK BOR";"";"";"yes"
"11871652735";"41.3283678";"69.2652307";"charging_station";"";"Uzbekistan";"Toshkent Shahri";"N/A";"N/A";"";"2";"";"";"OOO ""TOK BOR""";"";"";"";"";"";"";"";"UZ046";"";"";"";"TOK BOR";"";"";"yes"
"11871652736";"41.3283805";"69.2653108";"charging_station";"";"Uzbekistan";"Toshkent Shahri";"N/A";"N/A";"";"2";"";"";"OOO ""TOK BOR""";"";"";"";"";"";"";"";"UZ126";"";"";"";"TOK BOR";"";"";"yes"
"11871652737";"41.3395501";"69.254603";"charging_station";"";"Uzbekistan";"Toshkent Shahri";"N/A";"N/A";"";"2";"";"";"OOO ""TOK BOR""";"";"";"";"";"";"";"";"TokBor UZ005";"";"";"";"TOK BOR";"";"";"yes"
"11871652738";"41.3395732";"69.2545306";"charging_station";"";"Uzbekistan";"Toshkent Shahri";"N/A";"N/A";"";"7";"";"";"OOO ""TOK BOR""";"";"";"";"";"";"";"";"TokBor UZ006";"";"";"";"TOK BOR";"";"";"yes"
"11871652739";"41.3039865";"69.3221655";"charging_station";"";"Uzbekistan";"Toshkent";"N/A";"N/A";"";"2";"";"";"OOO ""TOK BOR""";"";"";"";"";"";"";"";"UZ007";"";"";"";"TOK BOR";"";"";"yes"
"11871652740";"41.3494275";"69.178046";"charging_station";"";"Uzbekistan";"Toshkent Shahri";"N/A";"N/A";"";"2";"";"";"OOO ""TOK BOR""";"";"";"";"";"";"";"";"UZ011";"";"";"";"TOK BOR";"";"";"yes"
"11871652741";"41.3288741";"69.3133242";"charging_station";"";"Uzbekistan";"Toshkent";"N/A";"N/A";"";"1";"";"";"OOO ""TOK BOR""";"";"";"";"";"";"";"";"UZ014";"";"";"";"TOK BOR";"";"";"yes"
"11871652742";"41.3560063";"69.2039676";"charging_station";"";"Uzbekistan";"Toshkent Shahri";"N/A";"N/A";"";"2";"";"";"OOO ""TOK BOR""";"";"";"";"";"";"";"";"UZ015";"";"";"";"TOK BOR";"";"";"yes"
"11876772765";"41.3491263";"69.1662375";"charging_station";"";"Uzbekistan";"Toshkent Shahri";"N/A";"N/A";"";"2";"";"";"OOO ""TO BOR""";"";"";"";"";"";"";"";"TokBor UZ390";"";"";"";"TOK BOR";"2850 сум/кВт*ч";"";"yes"
"11907695288";"41.3483374";"69.2379232";"charging_station";"";"Uzbekistan";"Toshkent Shahri";"N/A";"N/A";"";"3";"";"";"OOO ""TOK BOR""";"";"";"";"";"";"";"";"UZ174 UZ415";"";"";"";"TOK BOR";"";"";"yes"
"11907695289";"41.3072143";"69.2956824";"charging_station";"";"Uzbekistan";"Toshkent Shahri";"N/A";"N/A";"";"3";"";"";"OOO ""TOK BOR""";"";"";"";"";"";"";"";"UZ079 UZ414";"";"";"";"TOK BOR";"";"";"yes"
"11911609934";"41.3720149";"69.2864849";"charging_station";"";"Uzbekistan";"Toshkent";"N/A";"N/A";"";"4";"";"";"OOO ""TOK BOR""";"";"";"";"";"";"";"";"UZ139, UZ419, UZ420";"";"";"";"TOK BOR";"";"";"yes"
"11957602326";"41.2440181";"69.309728";"charging_station";"";"Uzbekistan";"Toshkent Shahri";"N/A";"N/A";"";"";"";"";"";"";"";"";"";"";"";"";"";"";"";"";"";"";"";""
"11957602327";"41.2529437";"69.3125832";"charging_station";"";"Uzbekistan";"Toshkent Shahri";"N/A";"N/A";"";"";"";"yes";"";"";"";"";"";"";"";"";"";"";"";"";"";"";"";""
"11957774369";"41.3606875";"69.2868321";"charging_station";"";"Uzbekistan";"Toshkent";"N/A";"N/A";"";"2";"";"";"GreenTE";"";"";"";"";"";"";"";"";"";"";"";"GreenTE АО ""НЭС""";"";"";"yes"
"11972138047";"41.244485";"69.303744";"charging_station";"";"Uzbekistan";"Toshkent Shahri";"N/A";"N/A";"";"2";"";"";"";"";"";"";"";"";"";"";"";"";"";"";"";"";"";"yes"
"12005347701";"41.313361";"69.3312519";"charging_station";"";"Uzbekistan";"Toshkent";"N/A";"N/A";"";"3";"";"";"OOO ""TOK BOR""";"";"";"";"";"";"";"";"UZ437, UZ459";"";"";"";"TOK BOR";"";"";"yes"
"12005347702";"41.3142024";"69.328415";"charging_station";"";"Uzbekistan";"Toshkent";"N/A";"N/A";"";"2";"";"";"OOO ""TOK BOR""";"";"";"";"";"";"";"";"UZ072";"";"";"";"TOK BOR";"";"";"yes"
"12005347708";"41.3244042";"69.26677";"charging_station";"";"Uzbekistan";"Toshkent Shahri";"N/A";"N/A";"";"5";"";"";"OOO ""TOK BOR""";"";"";"";"";"";"";"";"UZ463";"";"";"";"TOK BOR";"";"";"yes"
"12005347709";"41.3490317";"69.1800405";"charging_station";"";"Uzbekistan";"Toshkent Shahri";"N/A";"N/A";"";"1";"";"";"OOO ""TOK BOR""";"";"";"";"";"";"";"";"UZ345";"";"";"";"TOK BOR";"";"";"yes"
"12008940987";"41.3345314";"69.1641293";"charging_station";"";"Uzbekistan";"Toshkent Shahri";"N/A";"N/A";"";"3";"";"";"OOO ""TOK BOR""";"";"";"";"";"";"";"";"UZ255 UZ485";"";"";"";"TOK BOR";"";"";"yes"
"12025214706";"41.3300884";"69.2391214";"charging_station";"";"Uzbekistan";"Toshkent Shahri";"N/A";"N/A";"";"3";"";"";"OOO ""TOK BOR""";"";"";"";"";"";"";"";"UZ481, UZ505";"";"";"";"TOK BOR";"";"";"yes"
"12025214707";"41.2662752";"69.3151367";"charging_station";"";"Uzbekistan";"Toshkent Shahri";"N/A";"N/A";"";"1";"";"";"OOO ""TOK BOR""";"";"";"";"";"";"";"";"UZ400";"";"";"";"TOK BOR";"";"";"yes"
"12025214708";"41.2735377";"69.333542";"charging_station";"";"Uzbekistan";"Toshkent Shahri";"N/A";"N/A";"";"1";"";"";"OOO ""TOK BOR""";"";"";"";"";"";"";"";"UZ504";"";"";"";"TOK BOR";"";"";"yes"
"12049415393";"41.3097663";"69.2985303";"charging_station";"";"Uzbekistan";"Toshkent Shahri";"N/A";"N/A";"";"2";"";"";"OOO ""TOK BOR""";"";"";"";"";"";"";"";"UZ031";"";"";"";"TOK BOR";"";"";"yes"
"12049415394";"41.3670975";"69.2909119";"charging_station";"";"Uzbekistan";"Toshkent";"N/A";"N/A";"";"2";"";"";"OOO ""TOK BOR""";"";"";"";"";"";"";"";"UZ032";"";"";"";"TOK BOR";"";"";"yes"
"12049415395";"41.3674342";"69.2906089";"charging_station";"";"Uzbekistan";"Toshkent";"N/A";"N/A";"";"2";"";"";"OOO ""TOK BOR""";"";"";"";"";"";"";"";"UZ128";"";"";"";"TOK BOR";"";"";"yes"
"12049415396";"41.2582409";"69.1939841";"charging_station";"";"Uzbekistan";"Toshkent Shahri";"N/A";"N/A";"";"2";"";"";"OOO ""TOK BOR""";"";"";"";"";"";"";"";"UZ036";"";"";"";"TOK BOR";"";"";"yes"
"12049415397";"41.3546225";"69.3548413";"charging_station";"";"Uzbekistan";"Toshkent";"N/A";"N/A";"";"2";"";"";"OOO ""TOK BOR""";"";"";"";"";"";"";"";"UZ037";"";"";"";"TOK BOR";"";"";"yes"
"12069581829";"41.2779231";"69.1978769";"charging_station";"";"Uzbekistan";"Toshkent Shahri";"N/A";"N/A";"";"2";"";"";"OOO ""TOK BOR""";"";"";"";"";"";"";"";"UZ038";"";"";"";"TOK BOR";"";"";"yes"
"12069616947";"41.2002644";"69.2339236";"charging_station";"";"Uzbekistan";"Toshkent Shahri";"N/A";"N/A";"";"2";"";"";"OOO ""TOK BOR""";"";"";"";"";"";"";"";"UZ055";"";"";"";"TOK BOR";"";"";"yes"
"12069628876";"41.3274934";"69.2932732";"charging_station";"";"Uzbekistan";"Toshkent";"N/A";"N/A";"";"2";"";"";"OOO ""TOK BOR""";"";"";"";"";"";"";"";"UZ051";"";"";"";"TOK BOR";"";"";"yes"
"12069628947";"41.3182468";"69.2809547";"charging_station";"";"Uzbekistan";"Toshkent Shahri";"N/A";"N/A";"";"2";"";"";"OOO ""TOK BOR""";"";"";"";"";"";"";"";"UZ057";"";"";"";"TOK BOR";"";"";"yes"
"12069632164";"41.2882115";"69.285275";"charging_station";"";"Uzbekistan";"Toshkent Shahri";"N/A";"N/A";"";"2";"";"";"OOO ""TOK BOR""";"";"";"";"";"";"";"";"UZ042";"";"";"";"TOK BOR";"";"";"yes"
"12069632165";"41.3478679";"69.2858634";"charging_station";"";"Uzbekistan";"Toshkent";"N/A";"N/A";"";"2";"";"";"OOO ""TOK BOR""";"";"";"";"";"";"";"";"UZ049";"";"";"";"TOK BOR";"";"";"yes"
"12069670485";"41.3562022";"69.33509";"charging_station";"";"Uzbekistan";"Toshkent";"N/A";"N/A";"";"2";"";"";"OOO ""TOK BOR""";"";"";"";"";"";"";"";"UZ062";"";"";"";"TOK BOR";"";"";"yes"
"12069683077";"41.3664907";"69.2862819";"charging_station";"";"Uzbekistan";"Toshkent";"N/A";"N/A";"";"2";"";"";"OOO ""TOK BOR""";"";"";"";"";"";"";"";"UZ063";"";"";"";"TOK BOR";"";"";"yes"
"12069753912";"41.25488";"69.196869";"charging_station";"";"Uzbekistan";"Toshkent Shahri";"N/A";"N/A";"";"2";"";"";"OOO ""TOK BOR""";"";"";"";"";"";"";"";"UZ070";"";"";"";"TOK BOR";"";"";"yes"
"12069767514";"41.2043016";"69.2366796";"charging_station";"";"Uzbekistan";"Toshkent Shahri";"N/A";"N/A";"";"2";"";"";"OOO ""TOK BOR""";"";"";"";"";"";"";"";"UZ069";"";"";"";"TOK BOR";"";"";"yes"
"12069805291";"41.3235762";"69.2831593";"charging_station";"";"Uzbekistan";"Toshkent Shahri";"N/A";"N/A";"";"2";"";"";"OOO ""TOK BOR""";"";"";"";"";"";"";"";"UZ074";"";"";"";"TOK BOR";"";"";"yes"
"12070952545";"41.27284";"69.1692094";"charging_station";"";"Uzbekistan";"Toshkent Shahri";"N/A";"N/A";"";"2";"";"";"OOO ""TOK BOR""";"";"";"";"";"";"";"";"UZ087";"";"";"";"TOK BOR";"";"";"yes"
"12070970476";"41.3108809";"69.28276";"charging_station";"";"Uzbekistan";"Toshkent Shahri";"N/A";"N/A";"";"4";"";"";"OOO ""TOK BOR""";"";"";"";"";"";"";"";"UZ084     UZ087";"";"";"";"TOK BOR";"";"";"yes"
"12071107556";"41.2716364";"69.2021885";"charging_station";"";"Uzbekistan";"Toshkent Shahri";"N/A";"N/A";"";"2";"";"";"OOO ""TOK BOR""";"";"";"";"";"";"";"";"UZ100";"";"";"";"TOK BOR";"";"";"yes"
"12071126325";"41.3641193";"69.3333181";"charging_station";"";"Uzbekistan";"Toshkent";"N/A";"N/A";"";"2";"";"";"OOO ""TOK BOR""";"";"";"";"";"";"";"";"UZ102";"";"";"";"TOK BOR";"";"";"yes"
"12071169477";"41.2880598";"69.2493087";"charging_station";"";"Uzbekistan";"Toshkent Shahri";"N/A";"N/A";"";"2";"";"";"OOO ""TOK BOR""";"";"";"";"";"";"";"";"UZ105";"";"";"";"TOK BOR";"";"";"yes"
"12071255863";"41.2799399";"69.2690291";"charging_station";"";"Uzbekistan";"Toshkent Shahri";"N/A";"N/A";"";"4";"";"";"OOO ""TOK BOR""";"";"";"";"";"";"";"";"UZ106     UZ107";"";"";"";"TOK BOR";"";"";"yes"
"12071284786";"41.320925";"69.3633907";"charging_station";"";"Uzbekistan";"Toshkent";"N/A";"N/A";"";"4";"";"";"OOO ""TOK BOR""";"";"";"";"";"";"";"";"UZ108";"";"";"";"TOK BOR";"";"";"yes"
"12071294607";"41.3662553";"69.3166741";"charging_station";"";"Uzbekistan";"Toshkent";"N/A";"N/A";"";"2";"";"";"OOO ""TOK BOR""";"";"";"";"";"";"";"";"UZ109";"";"";"";"TOK BOR";"";"";"yes"
"12071294646";"41.265237";"69.2434756";"charging_station";"";"Uzbekistan";"Toshkent Shahri";"N/A";"N/A";"";"2";"";"";"OOO ""TOK BOR""";"";"";"";"";"";"";"";"UZ112";"";"";"";"TOK BOR";"";"";"yes"
"12071294690";"41.3072638";"69.3519717";"charging_station";"";"Uzbekistan";"Toshkent";"N/A";"N/A";"";"2";"";"";"OOO ""TOK BOR""";"";"";"";"";"";"";"";"UZ110";"";"";"";"TOK BOR";"";"";"yes"
"12071315538";"41.3866827";"69.4583379";"charging_station";"";"Uzbekistan";"Toshkent";"N/A";"N/A";"";"2";"";"";"OOO ""TOK BOR""";"";"";"";"";"";"";"";"UZ111";"";"";"";"TOK BOR";"";"";"yes"
"12071321717";"41.3593979";"69.2782921";"charging_station";"";"Uzbekistan";"Toshkent";"N/A";"N/A";"";"2";"";"";"OOO ""TOK BOR""";"";"";"";"";"";"";"";"UZ113";"";"";"";"TOK BOR";"";"";"yes"
"12071325659";"41.3041223";"69.306612";"charging_station";"";"Uzbekistan";"Toshkent Shahri";"N/A";"N/A";"";"2";"";"";"OOO ""TOK BOR""";"";"";"";"";"";"";"";"UZ115";"";"";"";"TOK BOR";"";"";"yes"
"12071342244";"41.2271483";"69.1474997";"charging_station";"";"Uzbekistan";"Toshkent";"N/A";"N/A";"";"2";"";"";"OOO ""TOK BOR""";"";"";"";"";"";"";"";"UZ114";"";"";"";"TOK BOR";"";"";"yes"
"12071375486";"41.3050612";"69.2526558";"charging_station";"";"Uzbekistan";"Toshkent Shahri";"N/A";"N/A";"";"4";"";"";"OOO ""TOK BOR""";"";"";"";"";"";"";"";"UZ116";"";"";"";"TOK BOR";"";"";"yes"
"12071379218";"41.2411148";"69.2124239";"charging_station";"";"Uzbekistan";"Toshkent Shahri";"N/A";"N/A";"";"2";"";"";"OOO ""TOK BOR""";"";"";"";"";"";"";"";"UZ120";"";"";"";"TOK BOR";"";"";"yes"
"12071435487";"41.2407739";"69.2121592";"charging_station";"";"Uzbekistan";"Toshkent Shahri";"N/A";"N/A";"";"1";"";"";"OOO ""TOK BOR""";"";"";"";"";"";"";"";"UZ122";"";"";"";"TOK BOR";"";"";"yes"
"12071494085";"41.3439819";"69.1992198";"charging_station";"";"Uzbekistan";"Toshkent Shahri";"N/A";"N/A";"";"2";"";"";"OOO ""TOK BOR""";"";"";"";"";"";"";"";"UZ125";"";"";"";"TOK BOR";"";"";"yes"
"12071499155";"41.3454501";"69.2045005";"charging_station";"";"Uzbekistan";"Toshkent Shahri";"N/A";"N/A";"";"2";"";"";"OOO ""TOK BOR""";"";"";"";"";"";"";"";"UZ129";"";"";"";"TOK BOR";"";"";"yes"
"12071499156";"41.3437186";"69.2054716";"charging_station";"";"Uzbekistan";"Toshkent Shahri";"N/A";"N/A";"";"2";"";"";"OOO ""TOK BOR""";"";"";"";"";"";"";"";"UZ130";"";"";"";"TOK BOR";"";"";"yes"
"12072811382";"41.3309027";"69.2714633";"charging_station";"";"Uzbekistan";"Toshkent Shahri";"N/A";"N/A";"";"3";"";"";"OOO ""TOK BOR""";"";"";"";"";"";"";"";"UZ135";"";"";"";"TOK BOR";"";"";"yes"
"12072849240";"41.309847";"69.2723733";"charging_station";"";"Uzbekistan";"Toshkent Shahri";"N/A";"N/A";"";"4";"";"";"OOO ""TOK BOR""";"";"";"";"";"";"";"";"UZ138";"";"";"";"TOK BOR";"";"";"yes"
"12072867767";"41.2928733";"69.2107505";"charging_station";"";"Uzbekistan";"Toshkent Shahri";"N/A";"N/A";"";"4";"";"";"OOO ""TOK BOR""";"";"";"";"";"";"";"";"UZ145          UZ194";"";"";"";"TOK BOR";"";"";"yes"
"12072867768";"41.2926686";"69.2106272";"charging_station";"";"Uzbekistan";"Toshkent Shahri";"N/A";"N/A";"";"1";"";"";"OOO ""TOK BOR""";"";"";"";"";"";"";"";"UZ403";"";"";"";"TOK BOR";"";"";"yes"
"12072898184";"41.203558";"69.2349113";"charging_station";"";"Uzbekistan";"Toshkent Shahri";"N/A";"N/A";"";"2";"";"";"OOO ""TOK BOR""";"";"";"";"";"";"";"";"UZ144";"";"";"";"TOK BOR";"";"";"yes"
"12072927752";"41.3088302";"69.2424588";"charging_station";"";"Uzbekistan";"Toshkent Shahri";"N/A";"N/A";"";"4";"";"";"OOO ""TOK BOR""";"";"";"";"";"";"";"";"UZ149;UZ197";"";"";"";"TOK BOR";"";"";"yes"
"12072927753";"41.3089227";"69.2427518";"charging_station";"";"Uzbekistan";"Toshkent Shahri";"N/A";"N/A";"";"1";"";"";"OOO ""TOK BOR""";"";"";"";"";"";"";"";"UZ412";"";"";"";"TOK BOR";"";"";"yes"
"12072935395";"41.2976773";"69.1750805";"charging_station";"";"Uzbekistan";"Toshkent Shahri";"N/A";"N/A";"";"2";"";"";"OOO ""TOK BOR""";"";"";"";"";"";"";"";"UZ148";"";"";"";"TOK BOR";"";"";"yes"
"12072939858";"41.2480117";"69.3257127";"charging_station";"";"Uzbekistan";"Toshkent Shahri";"N/A";"N/A";"";"2";"";"";"OOO ""TOK BOR""";"";"";"";"";"";"";"";"UZ147";"";"";"";"TOK BOR";"";"";"yes"
"12072973186";"41.3066377";"69.3373879";"charging_station";"";"Uzbekistan";"Toshkent";"N/A";"N/A";"";"4";"";"";"OOO ""TOK BOR""";"";"";"";"";"";"";"";"UZ151 UZ152";"";"";"";"TOK BOR";"";"";"yes"
"12072973187";"41.3063637";"69.3376861";"charging_station";"";"Uzbekistan";"Toshkent";"N/A";"N/A";"";"2";"";"";"OOO ""TOK BOR""";"";"";"";"";"";"";"";"UZ257";"";"";"";"TOK BOR";"";"";"yes"
"12072979174";"41.3105166";"69.2688758";"charging_station";"";"Uzbekistan";"Toshkent Shahri";"N/A";"N/A";"";"2";"";"";"OOO ""TOK BOR""";"";"";"";"";"";"";"";"UZ154";"";"";"";"TOK BOR";"";"";"yes"
"12072982438";"41.2764836";"69.204628";"charging_station";"";"Uzbekistan";"Toshkent Shahri";"N/A";"N/A";"";"2";"";"";"OOO ""TOK BOR""";"";"";"";"";"";"";"";"UZ150";"";"";"";"TOK BOR";"";"";"yes"
"12073009940";"41.2719027";"69.2617028";"charging_station";"";"Uzbekistan";"Toshkent Shahri";"N/A";"N/A";"";"2";"";"";"OOO ""TOK BOR""";"";"";"";"";"";"";"";"UZ158";"";"";"";"TOK BOR";"";"";"yes"
"12073018191";"41.3378152";"69.222761";"charging_station";"";"Uzbekistan";"Toshkent Shahri";"N/A";"N/A";"";"2";"";"";"OOO ""TOK BOR""";"";"";"";"";"";"";"";"UZ160";"";"";"";"TOK BOR";"";"";"yes"
"12073177116";"41.2049058";"69.3235191";"charging_station";"";"Uzbekistan";"Toshkent Shahri";"N/A";"N/A";"";"1";"";"";"OOO ""TOK BOR""";"";"";"";"";"";"";"";"UZ411";"";"";"";"TOK BOR";"";"";"yes"
"12073230708";"41.3392806";"69.206335";"charging_station";"";"Uzbekistan";"Toshkent Shahri";"N/A";"N/A";"";"4";"";"";"OOO ""TOK BOR""";"";"";"";"";"";"";"";"UZ172";"";"";"";"TOK BOR";"";"";"yes"
"12073256815";"41.3255956";"69.335734";"charging_station";"";"Uzbekistan";"Toshkent";"N/A";"N/A";"";"2";"";"";"OOO ""TOK BOR""";"";"";"";"";"";"";"";"UZ175";"";"";"";"TOK BOR";"";"";"yes"
"12073286465";"41.2173109";"69.1989877";"charging_station";"";"Uzbekistan";"Toshkent Shahri";"N/A";"N/A";"";"2";"";"";"OOO ""TOK BOR""";"";"";"";"";"";"";"";"UZ181";"";"";"";"TOK BOR";"";"";"yes"
"12073314120";"41.3125689";"69.2940161";"charging_station";"";"Uzbekistan";"Toshkent Shahri";"N/A";"N/A";"";"5";"";"";"OOO ""TOK BOR""";"";"";"";"";"";"";"";"UZ178   UZ179   UZ398";"";"";"";"TOK BOR";"";"";"yes"
"12073320029";"41.2979578";"69.3116656";"charging_station";"";"Uzbekistan";"Toshkent Shahri";"N/A";"N/A";"";"2";"";"";"OOO ""TOK BOR""";"";"";"";"";"";"";"";"UZ180";"";"";"";"TOK BOR";"";"";"yes"
"12073336431";"41.328874";"69.4315966";"charging_station";"";"Uzbekistan";"Toshkent";"N/A";"N/A";"";"2";"";"";"OOO ""TOK BOR""";"";"";"";"";"";"";"";"UZ184";"";"";"";"TOK BOR";"";"";"yes"
"12073336432";"41.3287961";"69.4315322";"charging_station";"";"Uzbekistan";"Toshkent";"N/A";"N/A";"";"1";"";"";"OOO ""TOK BOR""";"";"";"";"";"";"";"";"UZ387";"";"";"";"TOK BOR";"";"";"yes"
"12073381251";"41.3120159";"69.3173134";"charging_station";"";"Uzbekistan";"Toshkent";"N/A";"N/A";"";"2";"";"";"OOO ""TOK BOR""";"";"";"";"";"";"";"";"UZ188";"";"";"";"TOK BOR";"";"";"yes"
"12073431672";"41.2562807";"69.1563085";"charging_station";"";"Uzbekistan";"Toshkent Shahri";"N/A";"N/A";"";"4";"";"";"OOO ""TOK BOR""";"";"";"";"";"";"";"";"UZ191 UZ192";"";"";"";"TOK BOR";"";"";"yes"
"12073432516";"41.3242706";"69.2960818";"charging_station";"";"Uzbekistan";"Toshkent";"N/A";"N/A";"";"4";"";"";"OOO ""TOK BOR""";"";"";"";"";"";"";"";"UZ195";"";"";"";"TOK BOR";"";"";"yes"
"12074560300";"41.304015";"69.3051662";"charging_station";"";"Uzbekistan";"Toshkent Shahri";"N/A";"N/A";"";"5";"";"";"OOO ""TOK BOR""";"";"";"";"";"";"";"";"UZ198 UZ199 UZ200";"";"";"";"TOK BOR";"";"";"yes"
"12074560301";"41.3039336";"69.3053539";"charging_station";"";"Uzbekistan";"Toshkent Shahri";"N/A";"N/A";"";"1";"";"";"OOO ""TOK BOR""";"";"";"";"";"";"";"";"UZ502";"";"";"";"TOK BOR";"";"";"yes"
"12074699576";"41.3045793";"69.3036732";"charging_station";"";"Uzbekistan";"Toshkent Shahri";"N/A";"N/A";"";"2";"";"";"OOO ""TOK BOR""";"";"";"";"";"";"";"";"UZ216";"";"";"";"TOK BOR";"";"";"yes"
"12074707454";"41.2523047";"69.3222085";"charging_station";"";"Uzbekistan";"Toshkent Shahri";"N/A";"N/A";"";"2";"";"";"OOO ""TOK BOR""";"";"";"";"";"";"";"";"UZ215";"";"";"";"TOK BOR";"";"";"yes"
"12074717893";"41.2915404";"69.2845547";"charging_station";"";"Uzbekistan";"Toshkent Shahri";"N/A";"N/A";"";"2";"";"";"OOO ""TOK BOR""";"";"";"";"";"";"";"";"UZ217";"";"";"";"TOK BOR";"";"";"yes"
"12074767280";"41.2601102";"69.2233408";"charging_station";"";"Uzbekistan";"Toshkent Shahri";"N/A";"N/A";"";"2";"";"";"OOO ""TOK BOR""";"";"";"";"";"";"";"";"UZ222";"";"";"";"TOK BOR";"";"";"yes"
"12074808404";"41.3558907";"69.2307531";"charging_station";"";"Uzbekistan";"Toshkent Shahri";"N/A";"N/A";"";"4";"";"";"OOO ""TOK BOR""";"";"";"";"";"";"";"";"UZ236 UZ237";"";"";"";"TOK BOR";"";"";"yes"
"12074842987";"41.0958391";"69.0546481";"charging_station";"";"Uzbekistan";"Toshkent";"N/A";"N/A";"";"2";"";"";"OOO ""TOK BOR""";"";"";"";"";"";"";"";"UZ239";"";"";"";"TOK BOR";"";"";"yes"
"12074955468";"41.2864511";"69.2742263";"charging_station";"";"Uzbekistan";"Toshkent Shahri";"N/A";"N/A";"";"2";"";"";"OOO ""TOK BOR""";"";"";"";"";"";"";"";"UZ248";"";"";"";"TOK BOR";"";"";"yes"
"12074977078";"41.24184";"69.2129468";"charging_station";"";"Uzbekistan";"Toshkent Shahri";"N/A";"N/A";"";"2";"";"";"OOO ""TOK BOR""";"";"";"";"";"";"";"";"UZ249";"";"";"";"TOK BOR";"";"";"yes"
"12075147352";"41.2566365";"69.4316696";"charging_station";"";"Uzbekistan";"Toshkent Shahri";"N/A";"N/A";"";"3";"";"";"OOO ""TOK BOR""";"";"";"";"";"";"";"";"UZ354";"";"";"";"TOK BOR";"";"";"yes"
"12075156421";"41.2676024";"69.2420143";"charging_station";"";"Uzbekistan";"Toshkent Shahri";"N/A";"N/A";"";"2";"";"";"OOO ""TOK BOR""";"";"";"";"";"";"";"";"UZ353 UZ355";"";"";"";"TOK BOR";"";"";"yes"
"12079465501";"41.3537202";"69.3469909";"charging_station";"";"Uzbekistan";"Toshkent";"N/A";"N/A";"";"3";"";"";"OOO ""TOK BOR""";"";"";"";"";"";"";"";"UZ261";"";"";"";"TOK BOR";"";"";"yes"
"12079475883";"41.3508854";"69.3313682";"charging_station";"";"Uzbekistan";"Toshkent";"N/A";"N/A";"";"2";"";"";"OOO ""TOK BOR""";"";"";"";"";"";"";"";"UZ260";"";"";"";"TOK BOR";"";"";"yes"
"12079504242";"41.2236792";"69.2088571";"charging_station";"";"Uzbekistan";"Toshkent Shahri";"N/A";"N/A";"";"6";"";"";"OOO ""TOK BOR""";"";"";"";"";"";"";"";"UZ269 UZ270";"";"";"";"TOK BOR";"";"";"yes"
"12079535270";"41.3711523";"69.260818";"charging_station";"";"Uzbekistan";"Toshkent Shahri";"N/A";"N/A";"";"2";"";"";"OOO ""TOK BOR""";"";"";"";"";"";"";"";"UZ271";"";"";"";"TOK BOR";"";"";"yes"
"12079535357";"41.1147784";"69.0689041";"charging_station";"";"Uzbekistan";"Toshkent";"N/A";"N/A";"";"2";"";"";"OOO ""TOK BOR""";"";"";"";"";"";"";"";"UZ277";"";"";"";"TOK BOR";"";"";"yes"
"12079569049";"41.2782851";"69.2147423";"charging_station";"";"Uzbekistan";"Toshkent Shahri";"N/A";"N/A";"";"6";"";"";"OOO ""TOK BOR""";"";"";"";"";"";"";"";"UZ283 UZ283 UZ401 UZ402";"";"";"";"TOK BOR";"";"";"yes"
"12079569050";"41.3076662";"69.2692254";"charging_station";"";"Uzbekistan";"Toshkent Shahri";"N/A";"N/A";"";"6";"";"";"OOO ""TOK BOR""";"";"";"";"";"";"";"";"UZ286";"";"";"";"TOK BOR";"";"";"yes"
"12079595901";"41.2157526";"69.219496";"charging_station";"";"Uzbekistan";"Toshkent Shahri";"N/A";"N/A";"";"2";"";"";"OOO ""TOK BOR""";"";"";"";"";"";"";"";"UZ289";"";"";"";"TOK BOR";"";"";"yes"
"12079622088";"41.2849099";"69.1850036";"charging_station";"";"Uzbekistan";"Toshkent Shahri";"N/A";"N/A";"";"6";"";"";"OOO ""TOK BOR""";"";"";"";"";"";"";"";"UZ295 UZ296";"";"";"";"TOK BOR";"";"";"yes"
"12079656043";"41.3556003";"69.3757679";"charging_station";"";"Uzbekistan";"Toshkent";"N/A";"N/A";"";"6";"";"";"OOO ""TOK BOR""";"";"";"";"";"";"";"";"UZ305 UZ306";"";"";"";"TOK BOR";"";"";"yes"
"12079659279";"41.4020071";"69.2041049";"charging_station";"";"Kazakhstan";"Ongtustik Qazaqstan";"N/A";"N/A";"";"2";"";"";"OOO ""TOK BOR""";"";"";"";"";"";"";"";"UZ302";"";"";"";"TOK BOR";"";"";"yes"
"12079685302";"41.156876";"69.0476322";"charging_station";"";"Uzbekistan";"Toshkent";"N/A";"N/A";"";"2";"";"";"OOO ""TOK BOR""";"";"";"";"";"";"";"";"UZ307";"";"";"";"TOK BOR";"";"";"yes"
"12079685303";"41.1578969";"69.0456185";"charging_station";"";"Uzbekistan";"Toshkent";"N/A";"N/A";"";"2";"";"";"OOO ""TOK BOR""";"";"";"";"";"";"";"";"UZ482";"";"";"";"TOK BOR";"";"";"yes"
"12079762739";"41.3616841";"69.2894254";"charging_station";"";"Uzbekistan";"Toshkent";"N/A";"N/A";"";"2";"";"";"OOO ""TOK BOR""";"";"";"";"";"";"";"";"UZ308";"";"";"";"TOK BOR";"";"";"yes"
"12079767728";"41.3081684";"69.1933699";"charging_station";"";"Uzbekistan";"Toshkent Shahri";"N/A";"N/A";"";"2";"";"";"OOO ""TOK BOR""";"";"";"";"";"";"";"";"UZ309";"";"";"";"TOK BOR";"";"";"yes"
"12079784691";"41.3612568";"69.302134";"charging_station";"";"Uzbekistan";"Toshkent";"N/A";"N/A";"";"2";"";"";"OOO ""TOK BOR""";"";"";"";"";"";"";"";"UZ310";"";"";"";"TOK BOR";"";"";"yes"
"12079853363";"41.3001513";"69.2037694";"charging_station";"";"Uzbekistan";"Toshkent Shahri";"N/A";"N/A";"";"2";"";"";"OOO ""TOK BOR""";"";"";"";"";"";"";"";"UZ322";"";"";"";"TOK BOR";"";"";"yes"
"12079914211";"41.2511854";"69.3557501";"charging_station";"";"Uzbekistan";"Toshkent Shahri";"N/A";"N/A";"";"5";"";"";"OOO ""TOK BOR""";"";"";"";"";"";"";"";"UZ327";"";"";"";"TOK BOR";"";"";"yes"
"12079944284";"41.3582557";"69.3365934";"charging_station";"";"Uzbekistan";"Toshkent";"N/A";"N/A";"";"2";"";"";"OOO ""TOK BOR""";"";"";"";"";"";"";"";"UZ332";"";"";"";"TOK BOR";"";"";"yes"
"12079964920";"41.2951973";"69.2252966";"charging_station";"";"Uzbekistan";"Toshkent Shahri";"N/A";"N/A";"";"3";"";"";"OOO ""TOK BOR""";"";"";"";"";"";"";"";"UZ331";"";"";"";"TOK BOR";"";"";"yes"
"12079985832";"41.3273149";"69.3249303";"charging_station";"";"Uzbekistan";"Toshkent";"N/A";"N/A";"";"2";"";"";"OOO ""TOK BOR""";"";"";"";"";"";"";"";"UZ333";"";"";"";"TOK BOR";"";"";"yes"
"12079986956";"41.3217233";"69.2831198";"charging_station";"";"Uzbekistan";"Toshkent Shahri";"N/A";"N/A";"";"4";"";"";"OOO ""TOK BOR""";"";"";"";"";"";"";"";"UZ335 UZ336";"";"";"";"TOK BOR";"";"";"yes"
"12080122878";"41.2476481";"69.208243";"charging_station";"";"Uzbekistan";"Toshkent Shahri";"N/A";"N/A";"";"2";"";"";"OOO ""TOK BOR""";"";"";"";"";"";"";"";"UZ391";"";"";"";"TOK BOR";"";"";"yes"
"12082162744";"41.2368851";"69.2092898";"charging_station";"";"Uzbekistan";"Toshkent Shahri";"N/A";"N/A";"";"3";"";"";"OOO ""TOK BOR""";"";"";"";"";"";"";"";"UZ399";"";"";"";"TOK BOR";"";"";"yes"
"12082266250";"41.333334";"69.3750066";"charging_station";"";"Uzbekistan";"Toshkent";"N/A";"N/A";"";"3";"";"";"OOO ""TOK BOR""";"";"";"";"";"";"";"";"UZ430";"";"";"";"TOK BOR";"";"";"yes"
"12082364171";"41.3675071";"69.3271093";"charging_station";"";"Uzbekistan";"Toshkent";"N/A";"N/A";"";"2";"";"";"OOO ""TOK BOR""";"";"";"";"";"";"";"";"UZ438";"";"";"";"TOK BOR";"";"";"yes"
"12082384115";"41.3474676";"69.2809129";"charging_station";"";"Uzbekistan";"Toshkent";"N/A";"N/A";"";"3";"";"";"OOO ""TOK BOR""";"";"";"";"";"";"";"";"UZ448";"";"";"";"TOK BOR";"";"";"yes"
"12082457232";"41.2153454";"69.215668";"charging_station";"";"Uzbekistan";"Toshkent Shahri";"N/A";"N/A";"";"1";"";"";"OOO ""TOK BOR""";"";"";"";"";"";"";"";"UZ453";"";"";"";"TOK BOR";"";"";"yes"
"12082598114";"41.3720579";"69.3230498";"charging_station";"";"Uzbekistan";"Toshkent";"N/A";"N/A";"";"1";"";"";"OOO ""TOK BOR""";"";"";"";"";"";"";"";"UZ460";"";"";"";"TOK BOR";"";"";"yes"
"12082603320";"41.3131105";"69.2501882";"charging_station";"";"Uzbekistan";"Toshkent Shahri";"N/A";"N/A";"";"4";"";"";"OOO ""TOK BOR""";"";"";"";"";"";"";"";"UZ461 UZ462";"";"";"";"TOK BOR";"";"";"yes"
"12082761273";"41.289932";"69.3209883";"charging_station";"";"Uzbekistan";"Toshkent Shahri";"N/A";"N/A";"";"3";"";"";"OOO ""TOK BOR""";"";"";"";"";"";"";"";"UZ476";"";"";"";"TOK BOR";"";"";"yes"
"12082776092";"41.3045123";"69.2830068";"charging_station";"";"Uzbekistan";"Toshkent Shahri";"N/A";"N/A";"";"2";"";"";"OOO ""TOK BOR""";"";"";"";"";"";"";"";"UZ478";"";"";"";"TOK BOR";"";"";"yes"
"12082788795";"41.3196404";"69.227126";"charging_station";"";"Uzbekistan";"Toshkent Shahri";"N/A";"N/A";"";"2";"";"";"OOO ""TOK BOR""";"";"";"";"";"";"";"";"UZ479";"";"";"";"TOK BOR";"";"";"yes"
"12082824804";"41.3195116";"69.2503737";"charging_station";"";"Uzbekistan";"Toshkent Shahri";"N/A";"N/A";"";"12";"";"";"OOO ""TOK BOR""";"";"";"";"";"";"";"";"UZ488 UZ489 UZ490 UZ491";"";"";"";"TOK BOR";"";"";"yes"
"12082863153";"41.3372665";"69.3151527";"charging_station";"";"Uzbekistan";"Toshkent";"N/A";"N/A";"";"3";"";"";"OOO ""TOK BOR""";"";"";"";"";"";"";"";"UZ499";"";"";"";"TOK BOR";"";"";"yes"
"12082895118";"41.2522727";"69.2520847";"charging_station";"";"Uzbekistan";"Toshkent Shahri";"N/A";"N/A";"";"2";"";"";"OOO ""TOK BOR""";"";"";"";"";"";"";"";"UZ507";"";"";"";"TOK BOR";"";"";"yes"
"12082899747";"41.2828283";"69.3027089";"charging_station";"";"Uzbekistan";"Toshkent Shahri";"N/A";"N/A";"";"1";"";"";"OOO ""TOK BOR""";"";"";"";"";"";"";"";"UZ503";"";"";"";"TOK BOR";"";"";"yes"
"12082908098";"41.2371839";"69.2135043";"charging_station";"";"Uzbekistan";"Toshkent Shahri";"N/A";"N/A";"";"3";"";"";"OOO ""TOK BOR""";"";"";"";"";"";"";"";"UZ508";"";"";"";"TOK BOR";"";"";"yes"
"12084382380";"41.3013568";"69.2477239";"charging_station";"";"Uzbekistan";"Toshkent Shahri";"N/A";"N/A";"";"2";"";"";"OOO ""TOK BOR""";"";"";"";"";"";"";"";"UZ515 UZ516";"";"";"";"TOK BOR";"";"";"yes"
"12084385340";"41.3513114";"69.2461512";"charging_station";"";"Uzbekistan";"Toshkent Shahri";"N/A";"N/A";"";"2";"";"";"OOO ""TOK BOR""";"";"";"";"";"";"";"";"UZ517 UZ518";"";"";"";"TOK BOR";"";"";"yes"
"12084413774";"41.0984765";"69.0397488";"charging_station";"";"Uzbekistan";"Toshkent";"N/A";"N/A";"";"2";"";"";"OOO ""TOK BOR""";"";"";"";"";"";"";"";"UZ520";"";"";"";"TOK BOR";"";"";"yes"
"12084430260";"41.1335126";"69.0820509";"charging_station";"";"Uzbekistan";"Toshkent";"N/A";"N/A";"";"2";"";"";"OOO ""TOK BOR""";"";"";"";"";"";"";"";"UZ521";"";"";"";"TOK BOR";"";"";"yes"
"12084447954";"41.2264993";"69.127567";"charging_station";"";"Uzbekistan";"Toshkent";"N/A";"N/A";"";"1";"";"";"OOO ""TOK BOR""";"";"";"";"";"";"";"";"UZ533";"";"";"";"TOK BOR";"";"";"yes"
"12119990428";"41.2421187";"69.219269";"charging_station";"";"Uzbekistan";"Toshkent Shahri";"N/A";"N/A";"";"2";"";"";"OOO ""TOK BOR""";"";"";"";"";"";"";"";"UZ544";"";"";"";"TOK BOR";"";"";"yes"
"12119991360";"41.3037261";"69.3154754";"charging_station";"";"Uzbekistan";"Toshkent";"N/A";"N/A";"";"4";"";"";"OOO ""TOK BOR""";"";"";"";"";"";"";"";"UZ545";"";"";"";"TOK BOR";"";"";"yes"
"12121476693";"41.3600264";"69.2850496";"charging_station";"";"Uzbekistan";"Toshkent";"N/A";"N/A";"";"2";"";"";"TOSHELECTROAPPARAT";"";"";"";"";"";"";"";"";"";"";"";"GreenTE АО ""НЭС""";"";"";"yes"
"12121483354";"41.2939178";"69.2645549";"charging_station";"";"Uzbekistan";"Toshkent Shahri";"N/A";"N/A";"";"2";"";"";"OOO ""TOK BOR""";"";"";"";"";"";"";"";"UZ549";"";"";"";"TOK BOR";"";"";"yes"
"12121497623";"41.2766858";"69.2451189";"charging_station";"";"Uzbekistan";"Toshkent Shahri";"N/A";"N/A";"";"3";"";"";"OOO ""TOK BOR""";"";"";"";"";"";"";"";"UZ550";"";"";"";"TOK BOR";"";"";"yes"
"12121503167";"41.3665372";"69.2868364";"charging_station";"";"Uzbekistan";"Toshkent";"N/A";"N/A";"";"4";"";"";"OOO ""TOK BOR""";"";"";"";"";"";"";"";"UZ551";"";"";"";"TOK BOR";"";"";"yes"
"12125937640";"41.3123786";"69.2833726";"charging_station";"";"Uzbekistan";"Toshkent Shahri";"N/A";"N/A";"";"6";"";"";"OOO ""TOK BOR""";"";"";"";"";"";"";"";"UZ606";"";"";"";"TOK BOR";"";"";"yes"
"12137448771";"41.2868412";"69.3392981";"charging_station";"";"Uzbekistan";"Toshkent Shahri";"N/A";"N/A";"";"1";"";"";"OOO ""TOK BOR""";"";"";"";"";"";"";"";"UZ615";"";"";"";"TOK BOR";"";"";"yes"
"12137488356";"41.2636705";"69.2657676";"charging_station";"";"Uzbekistan";"Toshkent Shahri";"N/A";"N/A";"";"2";"";"";"OOO ""TOK BOR""";"";"";"";"";"";"";"";"UZ616 UZ617";"";"";"";"TOK BOR";"";"";"yes"
"12137499323";"41.2647278";"69.2674327";"charging_station";"";"Uzbekistan";"Toshkent Shahri";"N/A";"N/A";"";"2";"";"";"OOO ""TOK BOR""";"";"";"";"";"";"";"";"UZ618 UZ619";"";"";"";"TOK BOR";"";"";"yes"
"12141256825";"41.3034907";"69.2334457";"charging_station";"";"Uzbekistan";"Toshkent Shahri";"N/A";"N/A";"";"2";"";"";"OOO ""TOK BOR""";"";"";"";"";"";"";"";"UZ557";"";"";"";"TOK BOR";"";"";"yes"
"12141294360";"41.3167413";"69.356655";"charging_station";"";"Uzbekistan";"Toshkent";"N/A";"N/A";"";"2";"";"";"OOO ""TOK BOR""";"";"";"";"";"";"";"";"UZ558";"";"";"";"TOK BOR";"";"";"yes"
"12141357739";"41.2807082";"69.2422535";"charging_station";"";"Uzbekistan";"Toshkent Shahri";"N/A";"N/A";"";"2";"";"";"OOO ""TOK BOR""";"";"";"";"";"";"";"";"";"";"";"";"TOK BOR";"";"";"yes"
"12154732902";"41.2776269";"69.2745135";"charging_station";"";"Uzbekistan";"Toshkent Shahri";"N/A";"N/A";"";"2";"";"";"OOO ""TOK BOR""";"";"";"";"";"";"";"";"UZ624 UZ558";"";"";"";"TOK BOR";"";"";"yes"
"12154762672";"41.3217551";"69.2946996";"charging_station";"";"Uzbekistan";"Toshkent Shahri";"N/A";"N/A";"";"3";"";"";"OOO ""TOK BOR""";"";"";"";"";"";"";"";"";"";"";"";"TOK BOR";"";"";"yes"
"12154775382";"41.2031763";"69.2141696";"charging_station";"";"Uzbekistan";"Toshkent Shahri";"N/A";"N/A";"";"2";"";"";"OOO ""TOK BOR""";"";"";"";"";"";"";"";"UZ561";"";"";"";"TOK BOR";"";"";"yes"
"12154784492";"41.3196931";"69.3013081";"charging_station";"";"Uzbekistan";"Toshkent";"N/A";"N/A";"";"2";"";"";"OOO ""TOK BOR""";"";"";"";"";"";"";"";"UZ563";"";"";"";"TOK BOR";"";"";"yes"
"12154814907";"41.3532355";"69.149121";"charging_station";"";"Kazakhstan";"Ongtustik Qazaqstan";"N/A";"N/A";"";"1";"";"";"OOO ""TOK BOR""";"";"";"";"";"";"";"";"UZ625";"";"";"";"TOK BOR";"";"";"yes"
"12234571861";"41.3552002";"69.3445035";"charging_station";"";"Uzbekistan";"Toshkent";"N/A";"N/A";"";"3";"";"";"ИП ""TOSHELECTROAPPARAT""";"";"";"";"";"";"";"";"";"";"";"";"Tezroq Locomotiv";"";"";"yes"
"12280791513";"41.3241075";"69.1577145";"charging_station";"";"Uzbekistan";"Toshkent Shahri";"N/A";"N/A";"";"2";"";"";"ИП ООО ""TOSHELECTROAPPARAT""";"";"";"";"";"";"";"";"";"";"";"";"Tezroq";"";"";"yes"
"12350528552";"41.3728376";"69.3107387";"charging_station";"";"Uzbekistan";"Toshkent";"N/A";"N/A";"";"2";"";"";"";"";"";"";"";"";"";"";"";"";"";"";"ND CHARGER";"2100 UZS";"";"yes"
"12350528553";"41.3728";"69.3107605";"charging_station";"";"Uzbekistan";"Toshkent";"N/A";"N/A";"";"2";"";"";"";"";"";"";"";"";"";"";"";"";"";"";"ND CHARGER";"2100 UZS";"";"yes"
"12696039539";"41.2264107";"69.2364857";"charging_station";"";"Uzbekistan";"Toshkent Shahri";"N/A";"N/A";"";"";"";"";"Tezroq";"";"";"";"";"";"";"";"+998880171088";"";"";"";"Tezroq";"";"";""
"12749708189";"41.3560393";"69.203884";"charging_station";"";"Uzbekistan";"Toshkent Shahri";"N/A";"N/A";"";"2";"";"";"OOO ""PRO-TOK""";"";"";"";"";"";"";"";"";"";"";"";"PRO-TOK";"";"";"yes"
"12749741806";"41.3416935";"69.3369718";"charging_station";"";"Uzbekistan";"Toshkent";"N/A";"N/A";"";"5";"";"";"OOO ""PRO-TOK""";"";"";"";"";"";"";"";"";"";"";"";"PRO-TOK";"";"";"yes"
"12909543164";"41.2779199";"69.2168874";"charging_station";"";"Uzbekistan";"Toshkent Shahri";"N/A";"N/A";"";"";"";"";"";"";"";"";"";"";"";"";"";"";"";"";"";"";"";""
"12917887415";"41.2871239";"69.2434692";"charging_station";"";"Uzbekistan";"Toshkent Shahri";"N/A";"N/A";"";"4";"";"";"";"";"";"";"";"";"";"";"";"";"";"";"";"";"";""
