"id";"lat";"lon";"amenity";"city";"state";"country";"scraped_country_code";"scraped_country_name";"authentication:nfc";"capacity";"capacity:car";"motorcar";"operator";"operator:wikidata";"socket:schuko";"socket:schuko:current";"socket:schuko:voltage";"socket:type2";"socket:type2:current";"socket:type2:voltage";"ref";"addr:housenumber";"addr:street";"addr:postcode";"brand";"charge";"opening_hours";"fee"
"11539533007";"25.5918265";"100.8979275";"charging_station";"";"China";"Yunnan";"N/A";"N/A";"";"";"";"";"";"";"";"";"";"";"";"";"";"";"";"";"南方电网";"";"";""
"12378673169";"25.4945112";"114.6058318";"charging_station";"";"China";"Guangdong";"N/A";"N/A";"";"";"";"";"";"";"";"";"";"";"";"";"";"";"";"";"NIO Power";"";"";""
"12378673170";"25.4969058";"114.60766";"charging_station";"";"China";"Guangdong";"N/A";"N/A";"";"";"";"";"";"";"";"";"";"";"";"";"";"";"";"";"NIO Power";"";"";""
"12441218616";"25.5137662";"114.831856";"charging_station";"";"China";"Jiangxi Sheng";"N/A";"N/A";"";"";"";"";"国家电网有限公司";"Q209078";"";"";"";"";"";"";"";"";"";"";"国家电网";"";"";""
"12441218615";"25.5167054";"114.834181";"charging_station";"";"China";"Jiangxi Sheng";"N/A";"N/A";"";"";"";"";"国家电网有限公司";"Q209078";"";"";"";"";"";"";"";"";"";"";"国家电网";"";"";""
"11774710496";"25.7363474";"116.3367334";"charging_station";"";"China";"Fujian";"N/A";"N/A";"";"";"";"";"国家电网有限公司";"Q209078";"";"";"";"";"";"";"";"";"";"";"国家电网";"";"";""
"11774710497";"25.7371592";"116.338627";"charging_station";"";"China";"Fujian";"N/A";"N/A";"";"";"";"";"国家电网有限公司";"Q209078";"";"";"";"";"";"";"";"";"";"";"国家电网";"";"";""
"11774710500";"25.7374056";"116.3385894";"charging_station";"";"China";"Fujian";"N/A";"N/A";"";"";"";"";"";"";"";"";"";"";"";"";"";"";"";"";"NIO Power";"";"";""
"10902359754";"25.6564843";"119.2863215";"charging_station";"";"China";"Fujian";"N/A";"N/A";"";"";"";"";"国家电网有限公司";"Q209078";"";"";"";"";"";"";"";"";"";"";"国家电网";"";"";""
"10902359755";"25.659207";"119.2858123";"charging_station";"";"China";"Fujian";"N/A";"N/A";"";"";"";"";"国家电网有限公司";"Q209078";"";"";"";"";"";"";"";"";"";"";"国家电网";"";"";""
"10902425318";"25.4672895";"119.1783224";"charging_station";"";"China";"Fujian";"N/A";"N/A";"";"";"";"";"国家电网有限公司";"Q209078";"";"";"";"";"";"";"";"";"";"";"国家电网";"";"";""
"10902425319";"25.4661338";"119.1809295";"charging_station";"";"China";"Fujian";"N/A";"N/A";"";"";"";"";"国家电网有限公司";"Q209078";"";"";"";"";"";"";"";"";"";"";"国家电网";"";"";""
"10902327577";"25.8708648";"119.349272";"charging_station";"";"China";"Fujian";"N/A";"N/A";"";"";"";"";"国家电网有限公司";"Q209078";"";"";"";"";"";"";"";"";"";"";"国家电网";"";"";""
"10902327584";"25.8711501";"119.3466453";"charging_station";"";"China";"Fujian";"N/A";"N/A";"";"";"";"";"国家电网有限公司";"Q209078";"";"";"";"";"";"";"";"";"";"";"国家电网";"";"";""
"886449739";"";"";"charging_station";"N/A";"N/A";"N/A";"N/A";"N/A";"";"";"";"";"";"";"";"";"";"";"";"";"";"";"";"";"";"";"";""
"1253930157";"";"";"charging_station";"N/A";"N/A";"N/A";"N/A";"N/A";"";"";"";"";"";"";"";"";"";"";"";"";"";"";"";"";"";"";"";""
"5499729506";"25.4947048";"119.7942799";"";"";"China";"Fujian";"N/A";"N/A";"";"";"";"";"";"";"";"";"";"";"";"";"";"";"";"";"";"";"";""
"11656052096";"25.4934038";"119.7942766";"";"";"China";"Fujian";"N/A";"N/A";"";"";"";"";"";"";"";"";"";"";"";"";"";"";"";"";"";"";"";""
"11656052097";"25.4947081";"119.7940873";"";"";"China";"Fujian";"N/A";"N/A";"";"";"";"";"";"";"";"";"";"";"";"";"";"";"";"";"";"";"";""
"11656052098";"25.4945691";"119.7939333";"";"";"China";"Fujian";"N/A";"N/A";"";"";"";"";"";"";"";"";"";"";"";"";"";"";"";"";"";"";"";""
"11656052099";"25.4934774";"119.7939205";"";"";"China";"Fujian";"N/A";"N/A";"";"";"";"";"";"";"";"";"";"";"";"";"";"";"";"";"";"";"";""
"11656052100";"25.493405";"119.7940103";"";"";"China";"Fujian";"N/A";"N/A";"";"";"";"";"";"";"";"";"";"";"";"";"";"";"";"";"";"";"";""
"8242743783";"25.7222469";"119.365342";"";"";"China";"Fujian";"N/A";"N/A";"";"";"";"";"";"";"";"";"";"";"";"";"";"";"";"";"";"";"";""
"8242743784";"25.7222464";"119.3655632";"";"";"China";"Fujian";"N/A";"N/A";"";"";"";"";"";"";"";"";"";"";"";"";"";"";"";"";"";"";"";""
"8242743785";"25.7219584";"119.3655624";"";"";"China";"Fujian";"N/A";"N/A";"";"";"";"";"";"";"";"";"";"";"";"";"";"";"";"";"";"";"";""
"8242743786";"25.7219589";"119.3653412";"";"";"China";"Fujian";"N/A";"N/A";"";"";"";"";"";"";"";"";"";"";"";"";"";"";"";"";"";"";"";""
"12167946431";"26.19845";"-98.25982";"charging_station";"Hidalgo County";"United States";"Texas";"N/A";"N/A";"";"8";"";"designated";"Tesla, Inc.";"Q478214";"";"";"";"";"";"";"";"800";"Convention Center Boulevard";"78501";"Tesla Supercharger";"";"24/7";"yes"
"12921614073";"26.18791";"-97.75644";"charging_station";"Cameron County";"United States";"Texas";"N/A";"N/A";"";"12";"";"designated";"Tesla, Inc.";"Q478214";"";"";"";"";"";"";"";"6710";"West Expy 83";"78552";"Tesla Supercharger";"";"24/7";"yes"
"12944744287";"26.15991";"-97.87772";"charging_station";"Hidalgo County";"United States";"Texas";"N/A";"N/A";"";"12";"";"designated";"Tesla, Inc.";"Q478214";"";"";"";"";"";"";"";"8007";"East Expressway 83";"78570";"Tesla Supercharger";"";"24/7";"yes"
"12168912388";"25.95071";"-97.48763";"charging_station";"Cameron County";"United States";"Texas";"N/A";"N/A";"";"8";"";"designated";"Tesla, Inc.";"Q478214";"";"";"";"";"";"";"";"2155";"Paredes Line Road";"78521";"Tesla Supercharger";"";"24/7";"yes"
"12322046042";"26.0934301";"-97.2954557";"charging_station";"Cameron County";"United States";"Texas";"N/A";"N/A";"";"";"";"";"";"";"";"";"";"";"";"";"";"";"";"";"";"";"";""
"12166854822";"26.08178";"-97.1612";"charging_station";"Cameron County";"United States";"Texas";"N/A";"N/A";"";"2";"";"designated";"Tesla, Inc.";"Q478214";"";"";"";"";"";"";"";"100";"Padre Boulevard";"78597";"Tesla Supercharger";"";"24/7";"yes"
"6577218589";"26.14462";"-81.78885";"charging_station";"Collier County";"United States";"Florida";"N/A";"N/A";"";"8";"";"designated";"Tesla, Inc.";"Q478214";"";"";"";"";"";"";"";"499";"Bayfront Place";"34102";"Tesla Supercharger";"";"24/7";"yes"
"10975116766";"26.1653664";"-81.7888489";"charging_station";"Collier County";"United States";"Florida";"N/A";"N/A";"";"";"";"";"";"";"";"";"";"";"";"";"";"";"";"";"";"";"";""
"10975116767";"26.1653659";"-81.7888891";"charging_station";"Collier County";"United States";"Florida";"N/A";"N/A";"";"";"";"";"";"";"";"";"";"";"";"";"";"";"";"";"";"";"";""
"11799163025";"26.1777115";"-81.8007516";"charging_station";"Collier County";"United States";"Florida";"N/A";"N/A";"";"2";"";"";"";"";"";"";"";"";"";"";"";"";"";"";"JUS";"";"24/7";"yes"
"12242504459";"26.21263";"-81.79077";"charging_station";"Collier County";"United States";"Florida";"N/A";"N/A";"";"12";"";"designated";"Tesla, Inc.";"Q478214";"";"";"";"";"";"";"";"5934";"Premier Way";"34109";"Tesla Supercharger";"";"24/7";"yes"
"12244158787";"26.20999";"-81.76953";"charging_station";"Collier County";"United States";"Florida";"N/A";"N/A";"";"16";"";"designated";"Tesla, Inc.";"Q478214";"";"";"";"";"";"";"";"2324";"Pine Ridge Road";"34109";"Tesla Supercharger";"";"24/7";"yes"
"12923431485";"26.06479";"-81.7026";"charging_station";"Collier County";"United States";"Florida";"N/A";"N/A";"";"12";"";"designated";"Tesla, Inc.";"Q478214";"";"";"";"";"";"";"";"12628";"Tamiami Trail East";"34113";"Tesla Supercharger";"";"24/7";"yes"
"12923431494";"26.43604";"-81.77305";"charging_station";"Lee County";"United States";"Florida";"N/A";"N/A";"";"16";"";"designated";"Tesla, Inc.";"Q478214";"";"";"";"";"";"";"";"10801";"Corkscrew Road";"33928";"Tesla Supercharger";"";"24/7";"yes"
"12923488275";"26.27111";"-81.7395";"charging_station";"Collier County";"United States";"Florida";"N/A";"N/A";"";"8";"";"designated";"Tesla, Inc.";"Q478214";"";"";"";"";"";"";"";"2415";"Tarpon Bay Boulevard";"34119";"Tesla Supercharger";"";"24/7";"yes"
"7575339420";"26.17436";"-80.85569";"charging_station";"Broward County";"United States";"Florida";"N/A";"N/A";"";"12";"";"designated";"Tesla, Inc.";"Q478214";"";"";"";"";"";"";"";"47801";"West State Road 84";"34141";"Tesla Supercharger";"";"24/7";"yes"
"3656108890";"26.0068467";"-80.3477782";"charging_station";"Broward County";"United States";"Florida";"N/A";"N/A";"";"";"";"";"ChargePoint";"Q5176149";"";"";"";"";"";"";"";"";"";"";"ChargePoint";"";"24/7";""
"5940603096";"26.0934447";"-80.2491517";"charging_station";"Broward County";"United States";"Florida";"N/A";"N/A";"";"2";"";"yes";"ChargePoint";"Q5176149";"";"";"";"";"";"";"";"";"";"";"ChargePoint";"";"24/7";"no"
"5940603098";"26.0824102";"-80.2361755";"charging_station";"Broward County";"United States";"Florida";"N/A";"N/A";"";"1";"";"yes";"Florida Atlantic University Police Department";"";"";"";"";"";"";"";"";"";"";"";"";"";"24/7";"no"
"5950191274";"26.1696239";"-80.2545351";"charging_station";"Broward County";"United States";"Florida";"N/A";"N/A";"";"3";"";"yes";"";"";"";"";"";"";"";"";"";"";"";"";"";"";"24/7";"no"
"6578710624";"26.00695";"-80.34895";"charging_station";"Broward County";"United States";"Florida";"N/A";"N/A";"";"16";"";"designated";"Tesla, Inc.";"Q478214";"";"";"";"";"";"";"";"14916";"Pines Boulevard";"33027";"Tesla Supercharger";"";"24/7";"yes"
"6578732849";"26.10861";"-80.25227";"charging_station";"Broward County";"United States";"Florida";"N/A";"N/A";"";"16";"";"designated";"Tesla, Inc.";"Q478214";"";"";"";"";"";"";"";"813";"South University Drive";"33324";"Tesla Supercharger";"";"24/7";"yes"
"9251765215";"26.0921452";"-80.249763";"charging_station";"Broward County";"United States";"Florida";"N/A";"N/A";"";"";"";"";"";"";"";"";"";"";"";"";"";"";"";"";"";"";"";""
"9701177045";"25.9814426";"-80.296682";"charging_station";"Miami-Dade County";"United States";"Florida";"N/A";"N/A";"";"2";"";"";"";"";"";"";"";"";"";"";"";"";"";"";"";"";"";""
"9701177046";"25.981452";"-80.2979082";"charging_station";"Miami-Dade County";"United States";"Florida";"N/A";"N/A";"";"2";"";"";"";"";"";"";"";"";"";"";"";"";"";"";"";"";"";""
"9820814446";"25.9826243";"-80.3104243";"charging_station";"Miami-Dade County";"United States";"Florida";"N/A";"N/A";"";"";"";"";"";"";"";"";"";"";"";"";"";"";"";"";"";"";"";""
"11059873058";"26.1152874";"-80.2531773";"charging_station";"Broward County";"United States";"Florida";"N/A";"N/A";"";"";"";"";"";"";"";"";"";"";"";"";"";"";"";"";"";"";"";""
"12755929141";"26.0301723";"-80.3584137";"charging_station";"Broward County";"United States";"Florida";"N/A";"N/A";"";"";"";"";"";"";"";"";"";"";"";"";"";"";"";"";"";"";"";""
"12756078851";"26.0640049";"-80.3614502";"charging_station";"Broward County";"United States";"Florida";"N/A";"N/A";"";"";"";"";"";"";"";"";"";"";"";"";"";"";"";"";"";"";"";""
"12923431499";"26.22655";"-80.18243";"charging_station";"Broward County";"United States";"Florida";"N/A";"N/A";"";"8";"";"designated";"Tesla, Inc.";"Q478214";"";"";"";"";"";"";"";"";"";"33069";"Tesla Supercharger";"";"24/7";"yes"
"12923488213";"26.0423";"-80.20902";"charging_station";"Broward County";"United States";"Florida";"N/A";"N/A";"";"24";"";"designated";"Tesla, Inc.";"Q478214";"";"";"";"";"";"";"";"4150";"North State Road 7";"33021";"Tesla Supercharger";"";"24/7";"yes"
"12923488236";"25.97641";"-80.31078";"charging_station";"Miami-Dade County";"United States";"Florida";"N/A";"N/A";"";"16";"";"designated";"Tesla, Inc.";"Q478214";"";"";"";"";"";"";"";"12100";"Miramar Parkway";"33025";"Tesla Supercharger";"";"24/7";"yes"
"12923488243";"25.99429";"-80.29638";"charging_station";"Miami-Dade County";"United States";"Florida";"N/A";"N/A";"";"8";"";"designated";"Tesla, Inc.";"Q478214";"";"";"";"";"";"";"";"1600";"South Hiatus Road";"33025";"Tesla Supercharger";"";"24/7";"yes"
"12923488247";"26.09233";"-80.24965";"charging_station";"Broward County";"United States";"Florida";"N/A";"N/A";"";"8";"";"designated";"Tesla, Inc.";"Q478214";"";"";"";"";"";"";"";"1904";"South University Drive";"33324";"Tesla Supercharger";"";"24/7";"yes"
"12923488280";"26.12088";"-80.1771";"charging_station";"Broward County";"United States";"Florida";"N/A";"N/A";"";"8";"";"designated";"Tesla, Inc.";"Q478214";"";"";"";"";"";"";"";"2620";"West Broward Boulevard";"33312";"Tesla Supercharger";"";"24/7";"yes"
"1236753679";"";"";"charging_station";"N/A";"N/A";"N/A";"N/A";"N/A";"";"4";"";"";"Electrify America";"Q59773555";"";"";"";"";"";"";"";"";"";"";"";"";"";""
"11484385772";"26.0081411";"-80.2059949";"";"Broward County";"United States";"Florida";"N/A";"N/A";"";"";"";"";"";"";"";"";"";"";"";"";"";"";"";"";"";"";"";""
"11484385773";"26.0081456";"-80.2058137";"";"Broward County";"United States";"Florida";"N/A";"N/A";"";"";"";"";"";"";"";"";"";"";"";"";"";"";"";"";"";"";"";""
"11484385774";"26.0080936";"-80.2058115";"";"Broward County";"United States";"Florida";"N/A";"N/A";"";"";"";"";"";"";"";"";"";"";"";"";"";"";"";"";"";"";"";""
"11484385775";"26.0080946";"-80.2057814";"";"Broward County";"United States";"Florida";"N/A";"N/A";"";"";"";"";"";"";"";"";"";"";"";"";"";"";"";"";"";"";"";""
"11484385776";"26.0080349";"-80.2057802";"";"Broward County";"United States";"Florida";"N/A";"N/A";"";"";"";"";"";"";"";"";"";"";"";"";"";"";"";"";"";"";"";""
"11484385777";"26.0080242";"-80.2059886";"";"Broward County";"United States";"Florida";"N/A";"N/A";"";"";"";"";"";"";"";"";"";"";"";"";"";"";"";"";"";"";"";""
"6106684118";"25.9591918";"-80.141396";"charging_station";"Miami-Dade County";"United States";"Florida";"N/A";"N/A";"";"";"";"yes";"";"";"";"";"";"";"";"";"";"";"";"";"";"";"Mo-Su 05:30-23:30";"no"
"6576028303";"25.9564";"-80.143";"charging_station";"Miami-Dade County";"United States";"Florida";"N/A";"N/A";"";"35";"";"designated";"Tesla, Inc.";"Q478214";"";"";"";"";"";"";"";"19501";"Biscayne Boulevard";"33180";"Tesla Supercharger";"";"24/7";"yes"
"7805329634";"26.1313514";"-80.1412825";"charging_station";"Broward County";"United States";"Florida";"N/A";"N/A";"";"";"";"designated";"";"";"";"";"";"";"";"";"";"";"";"";"";"";"";""
"9181381379";"26.3873729";"-80.1135613";"charging_station";"Palm Beach County";"United States";"Florida";"N/A";"N/A";"";"2";"";"";"ChargePoint";"";"";"";"";"";"";"";"";"";"";"";"";"";"";""
"12549474521";"25.954533";"-80.12136";"charging_station";"Miami-Dade County";"United States";"Florida";"N/A";"N/A";"";"";"";"";"ChargePoint";"Q5176149";"";"";"";"";"";"";"";"";"";"";"ChargePoint";"";"";"yes"
"12923431492";"25.97051";"-80.14116";"charging_station";"Broward County";"United States";"Florida";"N/A";"N/A";"";"8";"";"designated";"Tesla, Inc.";"Q478214";"";"";"";"";"";"";"";"21005";"Biscayne Boulevard";"33180";"Tesla Supercharger";"";"24/7";"yes"
"12923431497";"26.36496";"-80.13321";"charging_station";"Palm Beach County";"United States";"Florida";"N/A";"N/A";"";"12";"";"designated";"Tesla, Inc.";"Q478214";"";"";"";"";"";"";"";"6000";"Glades Road";"33431";"Tesla Supercharger";"";"24/7";"yes"
"12923488201";"26.20263";"-80.15646";"charging_station";"Broward County";"United States";"Florida";"N/A";"N/A";"";"8";"";"designated";"Tesla, Inc.";"Q478214";"";"";"";"";"";"";"";"6191";"Powerline Road";"33309";"Tesla Supercharger";"";"24/7";"yes"
"12923488231";"26.27624";"-80.09819";"charging_station";"Broward County";"United States";"Florida";"N/A";"N/A";"";"7";"";"designated";"Tesla, Inc.";"Q478214";"";"";"";"";"";"";"";"3601";"North Federal Highway";"33064";"Tesla Supercharger";"";"24/7";"yes"
"12923488233";"25.99353";"-80.14318";"charging_station";"Broward County";"United States";"Florida";"N/A";"N/A";"";"8";"";"designated";"Tesla, Inc.";"Q478214";"";"";"";"";"";"";"";"701";"North Federal Highway";"33009";"Tesla Supercharger";"";"24/7";"yes"
"12923488251";"26.13694";"-80.11313";"charging_station";"Broward County";"United States";"Florida";"N/A";"N/A";"";"16";"";"designated";"Tesla, Inc.";"Q478214";"";"";"";"";"";"";"";"2414";"East Sunrise Boulevard";"33304";"Tesla Supercharger";"";"24/7";"yes"
"12923488266";"26.3931";"-80.10142";"charging_station";"Palm Beach County";"United States";"Florida";"N/A";"N/A";"";"22";"";"designated";"Tesla, Inc.";"Q478214";"";"";"";"";"";"";"";"690";"Yamato Road";"33431";"Tesla Supercharger";"";"24/7";"yes"
"12923488279";"26.31774";"-80.11964";"charging_station";"Broward County";"United States";"Florida";"N/A";"N/A";"";"8";"";"designated";"Tesla, Inc.";"Q478214";"";"";"";"";"";"";"";"20";"Southwest 12th Avenue";"33442";"Tesla Supercharger";"";"24/7";"yes"
"11443450190";"26.2555204";"36.444515";"charging_station";"";"Saudi Arabia";"Mintaqat Tabuk";"N/A";"N/A";"";"";"";"";"Electromin";"";"";"";"";"";"";"";"";"";"";"";"";"";"Fr 17:00-21:00; Mo-Th,Sa-Su 09:00-22:00";""
"4409337190";"26.3014562";"43.7725477";"charging_station";"";"Saudi Arabia";"Al-Qassim";"N/A";"N/A";"";"";"";"";"";"";"";"";"";"";"";"";"";"";"";"";"";"";"";""
"11443450189";"26.0885996";"43.9844513";"charging_station";"";"Saudi Arabia";"Al-Qassim";"N/A";"N/A";"";"";"";"";"Electromin";"";"";"";"";"";"";"";"";"";"";"";"";"";"Fr 17:00-21:00; Mo-Th,Sa-Su 09:00-22:00";""
"11443450211";"26.3738243";"43.900482";"charging_station";"";"Saudi Arabia";"Al-Qassim";"N/A";"N/A";"";"";"";"";"Electromin";"";"";"";"";"";"";"";"";"";"";"";"";"";"Fr 17:00-21:00; Mo-Th,Sa-Su 09:00-22:00";""
"11443450184";"26.3069383";"44.8047781";"charging_station";"";"Saudi Arabia";"Ar Riyad";"N/A";"N/A";"";"";"";"";"Electromin";"";"";"";"";"";"";"";"";"";"";"";"";"";"Fr 17:00-21:00; Mo-Th,Sa-Su 09:00-22:00";""
"11443435747";"26.3734206";"50.0909722";"charging_station";"";"Saudi Arabia";"Eastern Province";"N/A";"N/A";"";"";"";"";"Electromin";"";"";"";"";"";"";"";"";"";"";"";"";"";"Fr 17:00-21:00; Mo-Th,Sa-Su 09:00-22:00";""
"11443435749";"26.367577";"50.058952";"charging_station";"";"Saudi Arabia";"Eastern Province";"N/A";"N/A";"";"";"";"";"Electromin";"";"";"";"";"";"";"";"";"";"";"";"";"";"Fr 17:00-21:00; Mo-Th,Sa-Su 09:00-22:00";""
"11443450172";"26.380519";"50.0116969";"charging_station";"";"Saudi Arabia";"Eastern Province";"N/A";"N/A";"";"";"";"";"Electromin";"";"";"";"";"";"";"";"";"";"";"";"";"";"Fr 17:00-21:00; Mo-Th,Sa-Su 09:00-22:00";""
"11443450200";"26.2992968";"50.1818508";"charging_station";"";"Saudi Arabia";"Eastern Province";"N/A";"N/A";"";"";"";"";"Electromin";"";"";"";"";"";"";"";"";"";"";"";"";"";"Mo-Th,Sa-Su 09:00-21:00";""
"11443450202";"26.4111374";"50.0927049";"charging_station";"";"Saudi Arabia";"Eastern Province";"N/A";"N/A";"";"";"";"";"Electromin";"";"";"";"";"";"";"";"";"";"";"";"";"";"Mo-Th,Sa-Su 09:00-21:00";""
"11443450205";"26.4308246";"50.0680447";"charging_station";"";"Saudi Arabia";"Eastern Province";"N/A";"N/A";"";"";"";"";"Electromin";"";"";"";"";"";"";"";"";"";"";"";"";"";"Mo-Th,Sa-Su 09:00-21:00";""
"11443450206";"26.2926215";"50.2072727";"charging_station";"";"Saudi Arabia";"Eastern Province";"N/A";"N/A";"";"";"";"";"Electromin";"";"";"";"";"";"";"";"";"";"";"";"";"";"Fr 17:00-21:00; Mo-Th,Sa-Su 09:00-22:00";""
"11443450229";"26.2866672";"50.2071602";"charging_station";"";"Saudi Arabia";"Eastern Province";"N/A";"N/A";"";"";"";"";"Electromin";"";"";"";"";"";"";"";"";"";"";"";"";"";"Fr 17:00-21:00; Mo-Th,Sa-Su 09:00-22:00";""
"11090672605";"26.0038814";"105.6815199";"charging_station";"";"China";"Guizhou Sheng";"N/A";"N/A";"";"";"";"";"";"";"";"";"";"";"";"";"";"";"";"";"";"";"";""
"11093004738";"26.0049557";"105.681018";"charging_station";"";"China";"Guizhou Sheng";"N/A";"N/A";"";"";"";"";"";"";"";"";"";"";"";"";"";"";"";"";"";"";"";""
"11214451496";"26.2013249";"109.8309759";"charging_station";"";"China";"Hunan";"N/A";"N/A";"";"";"";"";"";"";"";"";"";"";"";"";"";"";"";"";"NIO Power";"";"";""
"11214451495";"26.1997028";"109.8337601";"charging_station";"";"China";"Hunan";"N/A";"N/A";"";"";"";"";"";"";"";"";"";"";"";"";"";"";"";"";"NIO Power";"";"";""
"11597378359";"26.4396231";"111.6107226";"charging_station";"";"China";"Hunan";"N/A";"N/A";"";"";"";"";"";"";"";"";"";"";"";"";"";"";"";"";"";"";"";""
"1251051321";"";"";"charging_station";"N/A";"N/A";"N/A";"N/A";"N/A";"";"";"";"";"";"";"";"";"";"";"";"";"";"";"";"";"";"";"";""
"11629597700";"26.2200456";"111.6125213";"";"";"China";"Hunan";"N/A";"N/A";"";"";"";"";"";"";"";"";"";"";"";"";"";"";"";"";"";"";"";""
"11629597701";"26.2199271";"111.6124905";"";"";"China";"Hunan";"N/A";"N/A";"";"";"";"";"";"";"";"";"";"";"";"";"";"";"";"";"";"";"";""
"11629597702";"26.2199166";"111.6125411";"";"";"China";"Hunan";"N/A";"N/A";"";"";"";"";"";"";"";"";"";"";"";"";"";"";"";"";"";"";"";""
"11629597703";"26.2200351";"111.6125719";"";"";"China";"Hunan";"N/A";"N/A";"";"";"";"";"";"";"";"";"";"";"";"";"";"";"";"";"";"";"";""
"11935147837";"26.1289076";"111.9465023";"charging_station";"";"China";"Hunan";"N/A";"N/A";"";"";"";"";"";"";"";"";"";"";"";"";"";"";"";"";"";"";"";""
"12794339025";"25.9558797";"113.1621671";"charging_station";"";"China";"Hunan";"N/A";"N/A";"";"";"";"";"国家电网有限公司";"Q209078";"";"";"";"";"";"";"";"";"";"";"国家电网";"";"";""
"10838731173";"26.1239632";"114.6659053";"charging_station";"";"China";"Jiangxi Sheng";"N/A";"N/A";"";"";"";"";"";"";"";"";"";"";"";"";"";"";"";"";"蔚来换电站";"";"";""
"10838731174";"26.1253602";"114.6646285";"charging_station";"";"China";"Jiangxi Sheng";"N/A";"N/A";"";"";"";"";"";"";"";"";"";"";"";"";"";"";"";"";"蔚来换电站";"";"";""
"11738052300";"26.2613637";"118.4172055";"charging_station";"";"China";"Fujian";"N/A";"N/A";"";"";"";"";"国家电网有限公司";"Q209078";"";"";"";"";"";"";"";"";"";"";"国家电网";"";"";""
"11738052301";"26.2609091";"118.4170526";"charging_station";"";"China";"Fujian";"N/A";"N/A";"";"";"";"";"国家电网有限公司";"Q209078";"";"";"";"";"";"";"";"";"";"";"国家电网";"";"";""
"11750112442";"26.1902764";"118.8006517";"charging_station";"";"China";"Fujian";"N/A";"N/A";"";"";"";"";"国家电网有限公司";"Q209078";"";"";"";"";"";"";"";"";"";"";"国家电网";"";"";""
"9840802991";"26.0309326";"119.2553712";"charging_station";"";"China";"Fujian";"N/A";"N/A";"";"";"";"";"万城万充";"";"";"";"";"";"";"";"";"";"";"";"";"";"";""
"10596609465";"26.2216979";"118.8668138";"charging_station";"";"China";"Fujian";"N/A";"N/A";"";"";"";"";"";"";"";"";"";"";"";"";"";"";"";"";"闽投闽清南山停车场充电站";"";"";""
"10907580299";"26.0189017";"119.2820638";"charging_station";"";"China";"Fujian";"N/A";"N/A";"";"";"";"";"";"";"";"";"";"";"";"";"";"";"";"";"特来电";"";"";""
"10907580300";"26.0185615";"119.2819013";"charging_station";"";"China";"Fujian";"N/A";"N/A";"";"";"";"";"";"";"";"";"";"";"";"";"";"";"";"";"蔚来换电站";"";"";""
"11421909688";"26.0654453";"119.2294539";"charging_station";"";"China";"Fujian";"N/A";"N/A";"";"";"";"";"";"";"";"";"";"";"";"";"";"";"";"";"NIO Power";"";"";""
"11657151185";"25.9953357";"119.3777635";"charging_station";"";"China";"Fujian";"N/A";"N/A";"";"";"";"";"";"";"";"";"";"";"";"";"";"";"";"";"";"";"";""
"11683931675";"25.9903365";"119.3781235";"charging_station";"";"China";"Fujian";"N/A";"N/A";"";"";"";"";"";"";"";"";"";"";"";"";"";"";"";"";"";"";"";""
"1996741639";"26.2746235";"127.7805986";"charging_station";"";"Japan";"Okinawa";"N/A";"N/A";"";"";"";"";"EV Quick";"";"";"";"";"";"";"";"";"";"";"";"";"";"";""
"1996741640";"26.2766251";"127.7811206";"charging_station";"";"Japan";"Okinawa";"N/A";"N/A";"";"";"";"";"EV Quick";"";"";"";"";"";"";"";"";"";"";"";"";"";"";""
"1996741641";"26.4300392";"127.7753212";"charging_station";"";"Japan";"Okinawa";"N/A";"N/A";"";"";"";"";"EV Quick";"";"";"";"";"";"";"";"";"";"";"";"";"";"";""
"8736487152";"26.096535";"127.7224437";"charging_station";"";"Japan";"Okinawa";"N/A";"N/A";"";"";"";"";"";"";"";"";"";"";"";"";"";"";"";"";"";"";"";""
"10269657375";"26.2144624";"127.6944307";"charging_station";"";"Japan";"Okinawa";"N/A";"N/A";"";"1";"";"";"";"";"";"";"";"";"";"";"";"";"";"";"";"";"";""
"11141142472";"26.2770282";"127.781321";"charging_station";"";"Japan";"Okinawa";"N/A";"N/A";"";"";"";"";"";"";"";"";"";"";"";"";"";"";"";"";"";"";"";""
"1041563594";"";"";"charging_station";"N/A";"N/A";"N/A";"N/A";"N/A";"";"";"";"";"";"";"";"";"";"";"";"";"";"";"";"";"";"";"";""
"9588918494";"26.2622053";"127.7130343";"";"";"Japan";"Okinawa";"N/A";"N/A";"";"";"";"";"";"";"";"";"";"";"";"";"";"";"";"";"";"";"";""
"9588918495";"26.2622022";"127.7130213";"";"";"Japan";"Okinawa";"N/A";"N/A";"";"";"";"";"";"";"";"";"";"";"";"";"";"";"";"";"";"";"";""
"9588918496";"26.2621305";"127.7130451";"";"";"Japan";"Okinawa";"N/A";"N/A";"";"";"";"";"";"";"";"";"";"";"";"";"";"";"";"";"";"";"";""
"9588918497";"26.2621346";"127.7130587";"";"";"Japan";"Okinawa";"N/A";"N/A";"";"";"";"";"";"";"";"";"";"";"";"";"";"";"";"";"";"";"";""
"9588918498";"26.2621956";"127.7130101";"";"";"Japan";"Okinawa";"N/A";"N/A";"";"";"";"";"";"";"";"";"";"";"";"";"";"";"";"";"";"";"";""
"9588918499";"26.2621862";"127.7130017";"";"";"Japan";"Okinawa";"N/A";"N/A";"";"";"";"";"";"";"";"";"";"";"";"";"";"";"";"";"";"";"";""
"9588918500";"26.2621749";"127.7129971";"";"";"Japan";"Okinawa";"N/A";"N/A";"";"";"";"";"";"";"";"";"";"";"";"";"";"";"";"";"";"";"";""
"9588918501";"26.2621629";"127.7129967";"";"";"Japan";"Okinawa";"N/A";"N/A";"";"";"";"";"";"";"";"";"";"";"";"";"";"";"";"";"";"";"";""
"9588918502";"26.2621513";"127.7130005";"";"";"Japan";"Okinawa";"N/A";"N/A";"";"";"";"";"";"";"";"";"";"";"";"";"";"";"";"";"";"";"";""
"9588918503";"26.2621415";"127.7130082";"";"";"Japan";"Okinawa";"N/A";"N/A";"";"";"";"";"";"";"";"";"";"";"";"";"";"";"";"";"";"";"";""
"9588918504";"26.2621343";"127.7130189";"";"";"Japan";"Okinawa";"N/A";"N/A";"";"";"";"";"";"";"";"";"";"";"";"";"";"";"";"";"";"";"";""
"9588918505";"26.2621305";"127.7130317";"";"";"Japan";"Okinawa";"N/A";"N/A";"";"";"";"";"";"";"";"";"";"";"";"";"";"";"";"";"";"";"";""
"9588918506";"26.2621426";"127.7130699";"";"";"Japan";"Okinawa";"N/A";"N/A";"";"";"";"";"";"";"";"";"";"";"";"";"";"";"";"";"";"";"";""
"9588918507";"26.2621536";"127.7130774";"";"";"Japan";"Okinawa";"N/A";"N/A";"";"";"";"";"";"";"";"";"";"";"";"";"";"";"";"";"";"";"";""
"9588918508";"26.2621661";"127.7130805";"";"";"Japan";"Okinawa";"N/A";"N/A";"";"";"";"";"";"";"";"";"";"";"";"";"";"";"";"";"";"";"";""
"9588918509";"26.2621789";"127.7130786";"";"";"Japan";"Okinawa";"N/A";"N/A";"";"";"";"";"";"";"";"";"";"";"";"";"";"";"";"";"";"";"";""
"9588918510";"26.2621903";"127.7130721";"";"";"Japan";"Okinawa";"N/A";"N/A";"";"";"";"";"";"";"";"";"";"";"";"";"";"";"";"";"";"";"";""
"9588918511";"26.2621992";"127.7130617";"";"";"Japan";"Okinawa";"N/A";"N/A";"";"";"";"";"";"";"";"";"";"";"";"";"";"";"";"";"";"";"";""
"9588918512";"26.2622043";"127.7130486";"";"";"Japan";"Okinawa";"N/A";"N/A";"";"";"";"";"";"";"";"";"";"";"";"";"";"";"";"";"";"";"";""
"5920425917";"26.3285371";"127.902167";"charging_station";"";"Japan";"Okinawa";"N/A";"N/A";"";"1";"";"";"";"";"";"";"";"";"";"";"";"";"";"";"";"";"";""
"4441604280";"26.4995765";"-100.1727774";"charging_station";"";"Mexico";"Nuevo Leon";"N/A";"N/A";"";"";"";"";"";"";"";"";"";"";"";"";"";"";"";"";"";"";"";""
"3724395798";"26.48853";"-81.78703";"charging_station";"Lee County";"United States";"Florida";"N/A";"N/A";"";"12";"";"designated";"Tesla, Inc.";"Q478214";"";"";"";"";"";"";"";"9903";"Gulf Coast Main Street";"33913";"Tesla Supercharger";"";"24/7";"yes"
"4796008022";"26.6979139";"-81.7618874";"charging_station";"Lee County";"United States";"Florida";"N/A";"N/A";"";"";"";"";"Publix";"";"";"";"";"";"";"";"";"";"";"";"";"";"";""
"6397683465";"26.7829653";"-81.7471253";"charging_station";"Lee County";"United States";"Florida";"N/A";"N/A";"";"";"";"";"";"";"";"";"";"";"";"";"";"";"";"";"";"";"";""
"6577039262";"26.60858";"-81.80944";"charging_station";"Lee County";"United States";"Florida";"N/A";"N/A";"";"14";"";"designated";"Tesla, Inc.";"Q478214";"";"";"";"";"";"";"";"9357";"6 Mile Cypress Parkway";"33966";"Tesla Supercharger";"";"24/7";"yes"
"9598082180";"26.775014";"-81.7583038";"charging_station";"Lee County";"United States";"Florida";"N/A";"N/A";"";"";"";"";"";"";"";"";"";"";"";"";"";"";"";"";"";"";"";""
"9598480244";"26.7857382";"-81.7387201";"charging_station";"Lee County";"United States";"Florida";"N/A";"N/A";"";"";"";"";"";"";"";"";"";"";"";"";"";"";"";"";"";"";"";""
"12878074050";"26.7840452";"-81.7479613";"charging_station";"Lee County";"United States";"Florida";"N/A";"N/A";"";"";"";"";"Babcock Ranch";"";"";"";"";"";"";"";"";"";"";"";"";"";"";"no"
"12923488215";"26.77595";"-81.75754";"charging_station";"Lee County";"United States";"Florida";"N/A";"N/A";"";"12";"";"designated";"Tesla, Inc.";"Q478214";"";"";"";"";"";"";"";"42044";"Cypress Parkway";"33982";"Tesla Supercharger";"";"24/7";"yes"
"12923488256";"26.89569";"-82.01127";"charging_station";"Charlotte County";"United States";"Florida";"N/A";"N/A";"";"8";"";"designated";"Tesla, Inc.";"Q478214";"";"";"";"";"";"";"";"26415";"Indian Trail Drive";"33950";"Tesla Supercharger";"";"24/7";"yes"
"6576997169";"26.45582";"-80.19007";"charging_station";"Palm Beach County";"United States";"Florida";"N/A";"N/A";"";"18";"";"designated";"Tesla, Inc.";"Q478214";"";"";"";"";"";"";"";"";"";"33446";"Tesla Supercharger";"";"24/7";"yes"
"11873216381";"26.6355";"-80.1749";"charging_station";"Palm Beach County";"United States";"Florida";"N/A";"N/A";"";"8";"";"designated";"Tesla, Inc.";"Q478214";"";"";"";"";"";"";"";"9450";"Floridas Tpke";"33414";"Tesla Supercharger";"";"24/7";"yes"
"12946590372";"26.68145";"-80.21135";"charging_station";"Palm Beach County";"United States";"Florida";"N/A";"N/A";"";"";"";"";"";"";"";"";"";"";"";"";"";"10601";"Southern Boulevard";"33411";"";"";"24/7";""
"12963660653";"26.455806";"-80.190981";"charging_station";"Palm Beach County";"United States";"Florida";"N/A";"N/A";"";"";"";"";"";"";"";"";"";"";"";"";"";"14851";"Lyons Road";"33446";"";"";"24/7";""
"6579304192";"26.78196";"-80.09272";"charging_station";"Palm Beach County";"United States";"Florida";"N/A";"N/A";"";"8";"";"designated";"Tesla, Inc.";"Q478214";"";"";"";"";"";"";"";"7289";"Garden Road";"33404";"Tesla Supercharger";"";"24/7";"yes"
"12242196544";"26.84026";"-80.10391";"charging_station";"Palm Beach County";"United States";"Florida";"N/A";"N/A";"";"16";"";"designated";"Tesla, Inc.";"Q478214";"";"";"";"";"";"";"";"4431";"PGA Boulevard";"33410";"Tesla Supercharger";"";"24/7";"yes"
"12923431498";"26.72622";"-80.0875";"charging_station";"Palm Beach County";"United States";"Florida";"N/A";"N/A";"";"8";"";"designated";"Tesla, Inc.";"Q478214";"";"";"";"";"";"";"";"1801";"Palm Beach Lakes Boulevard";"33401";"Tesla Supercharger";"";"24/7";"yes"
"12923488220";"26.45468";"-80.16125";"charging_station";"Palm Beach County";"United States";"Florida";"N/A";"N/A";"";"16";"";"designated";"Tesla, Inc.";"Q478214";"";"";"";"";"";"";"";"7263";"West Atlantic Avenue";"33446";"Tesla Supercharger";"";"24/7";"yes"
"12923488221";"26.75812";"-80.08892";"charging_station";"Palm Beach County";"United States";"Florida";"N/A";"N/A";"";"11";"";"designated";"Tesla, Inc.";"Q478214";"";"";"";"";"";"";"";"2370";"45th Street";"33401";"Tesla Supercharger";"";"24/7";"yes"
"12923488241";"26.53357";"-80.08939";"charging_station";"Palm Beach County";"United States";"Florida";"N/A";"N/A";"";"16";"";"designated";"Tesla, Inc.";"Q478214";"";"";"";"";"";"";"";"650";"North Congress Avenue";"33426";"Tesla Supercharger";"";"24/7";"yes"
"12923488265";"26.69016";"-80.07363";"charging_station";"Palm Beach County";"United States";"Florida";"N/A";"N/A";"";"12";"";"designated";"Tesla, Inc.";"Q478214";"";"";"";"";"";"";"";"1530";"Belvedere Road";"33405";"Tesla Supercharger";"";"24/7";"yes"
"12923488283";"26.58784";"-80.06422";"charging_station";"Palm Beach County";"United States";"Florida";"N/A";"N/A";"";"12";"";"designated";"Tesla, Inc.";"Q478214";"";"";"";"";"";"";"";"1201";"West Lantana Road";"33462";"Tesla Supercharger";"";"24/7";"yes"
"1257188919";"";"";"charging_station";"N/A";"N/A";"N/A";"N/A";"N/A";"";"2";"";"";"FPL";"";"";"";"";"";"";"";"";"";"";"";"FPL EVolution";"";"";"no"
"11688162790";"26.5272129";"-80.0637487";"";"Palm Beach County";"United States";"Florida";"N/A";"N/A";"";"";"";"";"";"";"";"";"";"";"";"";"";"";"";"";"";"";"";""
"11688162791";"26.5271601";"-80.0636901";"";"Palm Beach County";"United States";"Florida";"N/A";"N/A";"";"";"";"";"";"";"";"";"";"";"";"";"";"";"";"";"";"";"";""
"11688162793";"26.527214";"-80.0636716";"";"Palm Beach County";"United States";"Florida";"N/A";"N/A";"";"";"";"";"";"";"";"";"";"";"";"";"";"";"";"";"";"";"";""
"11688162794";"26.5271598";"-80.0636017";"";"Palm Beach County";"United States";"Florida";"N/A";"N/A";"";"";"";"";"";"";"";"";"";"";"";"";"";"";"";"";"";"";"";""
"12603604261";"26.5271717";"-80.0636225";"";"Palm Beach County";"United States";"Florida";"N/A";"N/A";"";"";"";"";"";"";"";"";"";"";"";"";"";"";"";"";"";"";"";""
"12603604262";"26.5271639";"-80.0636094";"";"Palm Beach County";"United States";"Florida";"N/A";"N/A";"";"";"";"";"";"";"";"";"";"";"";"";"";"";"";"";"";"";"";""
"11443435756";"26.5783233";"37.9427218";"charging_station";"";"Saudi Arabia";"Al Madinah al Munawwarah";"N/A";"N/A";"";"";"";"";"Electromin";"";"";"";"";"";"";"";"";"";"";"";"";"";"Fr 17:00-21:00; Mo-Th,Sa-Su 09:00-22:00";""
"11443435745";"26.6541087";"49.9173581";"charging_station";"";"Saudi Arabia";"Eastern Province";"N/A";"N/A";"";"";"";"";"Electromin";"";"";"";"";"";"";"";"";"";"";"";"";"";"Fr 17:00-21:00; Mo-Th,Sa-Su 09:00-22:00";""
"11443435760";"26.7080994";"50.0526005";"charging_station";"";"Saudi Arabia";"Eastern Province";"N/A";"N/A";"";"";"";"";"Electromin";"";"";"";"";"";"";"";"";"";"";"";"";"";"Fr 17:00-21:00; Mo-Th,Sa-Su 09:00-22:00";""
"10609400587";"26.4783538";"80.3149431";"charging_station";"Kanpur";"India";"Uttar Pradesh";"N/A";"N/A";"";"";"";"";"";"";"";"";"";"";"";"";"";"";"";"";"Electriva";"";"";"yes"
"1150599656";"";"";"charging_station";"N/A";"N/A";"N/A";"N/A";"N/A";"";"";"";"";"";"";"";"";"";"";"";"";"";"";"";"";"EV charging station";"";"";""
"10703242255";"26.5099885";"80.2406348";"";"Kanpur";"India";"Uttar Pradesh";"N/A";"N/A";"";"";"";"";"";"";"";"";"";"";"";"";"";"";"";"";"";"";"";""
"10703242256";"26.5098612";"80.2406366";"";"Kanpur";"India";"Uttar Pradesh";"N/A";"N/A";"";"";"";"";"";"";"";"";"";"";"";"";"";"";"";"";"";"";"";""
"10703242257";"26.5098636";"80.2408477";"";"Kanpur";"India";"Uttar Pradesh";"N/A";"N/A";"";"";"";"";"";"";"";"";"";"";"";"";"";"";"";"";"";"";"";""
"10703242258";"26.5099909";"80.2408459";"";"Kanpur";"India";"Uttar Pradesh";"N/A";"N/A";"";"";"";"";"";"";"";"";"";"";"";"";"";"";"";"";"";"";"";""
"9966030097";"26.6405848";"87.95532";"charging_station";"";"Nepal";"Eastern Region";"N/A";"N/A";"";"";"";"";"MG Motors";"";"";"";"";"";"";"";"";"";"";"";"";"";"";""
"9966066129";"26.6396364";"87.9775889";"charging_station";"";"Nepal";"Eastern Region";"N/A";"N/A";"";"";"";"";"Hotel The Kingsbury";"";"";"";"";"";"";"";"";"";"";"";"";"";"";""
"6757221285";"26.719541";"88.4239516";"charging_station";"Darjiling";"India";"West Bengal";"N/A";"N/A";"";"";"";"";"ZEVFY";"";"";"";"";"";"";"";"";"";"";"";"";"";"";""
"6867246009";"26.870618";"100.231363";"charging_station";"";"China";"Yunnan";"N/A";"N/A";"";"";"";"";"";"";"";"";"";"";"";"";"";"";"";"";"";"";"";""
"12539306142";"26.4619687";"100.1806995";"charging_station";"";"China";"Yunnan";"N/A";"N/A";"";"";"";"";"";"";"";"";"";"";"";"";"";"";"";"";"";"";"";""
"12539306143";"26.4638611";"100.185728";"charging_station";"";"China";"Yunnan";"N/A";"N/A";"";"";"";"";"";"";"";"";"";"";"";"";"";"";"";"";"";"";"";""
"12559363870";"26.9164608";"100.218343";"charging_station";"";"China";"Yunnan";"N/A";"N/A";"";"";"";"";"Tesla, Inc.";"Q478214";"";"";"";"";"";"";"";"";"";"";"Tesla Supercharger";"";"";""
"11076795934";"26.5757504";"101.7001516";"charging_station";"";"China";"Sichuan";"N/A";"N/A";"";"";"";"";"";"";"";"";"";"";"";"";"";"";"";"";"NIO Power";"";"";""
"12090372477";"26.5740041";"104.8522491";"charging_station";"";"China";"Guizhou Sheng";"N/A";"N/A";"";"";"";"";"";"";"";"";"";"";"";"";"";"";"";"";"特来电";"";"";""
"12090372478";"26.5741792";"104.8524637";"charging_station";"";"China";"Guizhou Sheng";"N/A";"N/A";"";"";"";"";"";"";"";"";"";"";"";"";"";"";"";"";"NIO Power";"";"";""
"9929639503";"26.5134068";"106.7953052";"charging_station";"";"China";"Guizhou Sheng";"N/A";"N/A";"";"";"";"";"";"";"";"";"";"";"";"";"";"";"";"";"";"";"";""
"9929639504";"26.5118803";"106.7945864";"charging_station";"";"China";"Guizhou Sheng";"N/A";"N/A";"";"";"";"";"";"";"";"";"";"";"";"";"";"";"";"";"";"";"";""
"9929649333";"26.6774908";"106.7202763";"charging_station";"";"China";"Guizhou Sheng";"N/A";"N/A";"";"";"";"";"";"";"";"";"";"";"";"";"";"";"";"";"";"";"";""
"12151415148";"26.6790719";"106.7217994";"charging_station";"";"China";"Guizhou Sheng";"N/A";"N/A";"";"";"";"";"";"";"";"";"";"";"";"";"";"";"";"";"NIO Power";"";"";""
"12151415149";"26.6765735";"106.7227982";"charging_station";"";"China";"Guizhou Sheng";"N/A";"N/A";"";"";"";"";"";"";"";"";"";"";"";"";"";"";"";"";"NIO Power";"";"";""
"12563316231";"26.5787697";"106.7153023";"charging_station";"";"China";"Guizhou Sheng";"N/A";"N/A";"";"";"";"";"Tesla, Inc.";"Q478214";"";"";"";"";"";"";"";"";"";"";"Tesla Supercharger";"";"";""
"1084407264";"";"";"charging_station";"N/A";"N/A";"N/A";"N/A";"N/A";"";"";"";"";"";"";"";"";"";"";"";"";"";"";"";"";"";"";"";""
"9937127070";"26.5908716";"106.7450255";"";"";"China";"Guizhou Sheng";"N/A";"N/A";"";"";"";"";"";"";"";"";"";"";"";"";"";"";"";"";"";"";"";""
"9937127068";"26.5920698";"106.7449186";"";"";"China";"Guizhou Sheng";"N/A";"N/A";"";"";"";"";"";"";"";"";"";"";"";"";"";"";"";"";"";"";"";""
"9937127069";"26.5919153";"106.7447936";"";"";"China";"Guizhou Sheng";"N/A";"N/A";"";"";"";"";"";"";"";"";"";"";"";"";"";"";"";"";"";"";"";""
"9937127071";"26.5908376";"106.7457609";"";"";"China";"Guizhou Sheng";"N/A";"N/A";"";"";"";"";"";"";"";"";"";"";"";"";"";"";"";"";"";"";"";""
"9937127072";"26.5910326";"106.7463473";"";"";"China";"Guizhou Sheng";"N/A";"N/A";"";"";"";"";"";"";"";"";"";"";"";"";"";"";"";"";"";"";"";""
"9937127073";"26.5912208";"106.7466142";"";"";"China";"Guizhou Sheng";"N/A";"N/A";"";"";"";"";"";"";"";"";"";"";"";"";"";"";"";"";"";"";"";""
"9937127074";"26.591634";"106.7462183";"";"";"China";"Guizhou Sheng";"N/A";"N/A";"";"";"";"";"";"";"";"";"";"";"";"";"";"";"";"";"";"";"";""
"9937127075";"26.5920028";"106.7455924";"";"";"China";"Guizhou Sheng";"N/A";"N/A";"";"";"";"";"";"";"";"";"";"";"";"";"";"";"";"";"";"";"";""
"9937127076";"26.5921187";"106.745191";"";"";"China";"Guizhou Sheng";"N/A";"N/A";"";"";"";"";"";"";"";"";"";"";"";"";"";"";"";"";"";"";"";""
"9929639505";"26.5964607";"106.8804351";"charging_station";"";"China";"Guizhou Sheng";"N/A";"N/A";"";"";"";"";"";"";"";"";"";"";"";"";"";"";"";"";"";"";"";""
"11597378338";"26.4614057";"111.6045901";"charging_station";"";"China";"Hunan";"N/A";"N/A";"";"";"";"";"";"";"";"";"";"";"";"";"";"";"";"";"";"";"";""
"11219031086";"26.6918931";"112.8909129";"charging_station";"";"China";"Hunan";"N/A";"N/A";"";"";"";"";"";"";"";"";"";"";"";"";"";"";"";"";"NIO Power";"";"";""
"11219031087";"26.6910687";"112.8931016";"charging_station";"";"China";"Hunan";"N/A";"N/A";"";"";"";"";"";"";"";"";"";"";"";"";"";"";"";"";"NIO Power";"";"";""
"12378655248";"26.593655";"115.6378366";"charging_station";"";"China";"Jiangxi Sheng";"N/A";"N/A";"";"";"";"";"";"";"";"";"";"";"";"";"";"";"";"";"NIO Power";"";"";""
"12378655249";"26.5921194";"115.6384883";"charging_station";"";"China";"Jiangxi Sheng";"N/A";"N/A";"";"";"";"";"";"";"";"";"";"";"";"";"";"";"";"";"NIO Power";"";"";""
"11775601619";"26.7274553";"116.1602509";"charging_station";"";"China";"Jiangxi Sheng";"N/A";"N/A";"";"";"";"";"";"";"";"";"";"";"";"";"";"";"";"";"小桔充电";"";"";""
"11775601620";"26.7263988";"116.1569115";"charging_station";"";"China";"Jiangxi Sheng";"N/A";"N/A";"";"";"";"";"";"";"";"";"";"";"";"";"";"";"";"";"小桔充电";"";"";""
"12815574169";"26.693052";"117.4776492";"charging_station";"";"China";"Fujian";"N/A";"N/A";"";"";"";"";"";"";"";"";"";"";"";"";"";"";"";"";"";"";"";""
"11738080625";"26.7737672";"118.2382794";"charging_station";"";"China";"Fujian";"N/A";"N/A";"";"";"";"";"国家电网有限公司";"Q209078";"";"";"";"";"";"";"";"";"";"";"国家电网";"";"";""
"11738080630";"26.7751681";"118.238624";"charging_station";"";"China";"Fujian";"N/A";"N/A";"";"";"";"";"国家电网有限公司";"Q209078";"";"";"";"";"";"";"";"";"";"";"国家电网";"";"";""
"10820802914";"26.9372455";"118.4111488";"charging_station";"";"China";"Fujian";"N/A";"N/A";"";"";"";"";"国家电网有限公司";"Q209078";"";"";"";"";"";"";"";"";"";"";"国家电网";"";"";""
"10820802915";"26.937389";"118.4093571";"charging_station";"";"China";"Fujian";"N/A";"N/A";"";"";"";"";"国家电网有限公司";"Q209078";"";"";"";"";"";"";"";"";"";"";"国家电网";"";"";""
"12237484955";"26.6175848";"118.6597425";"charging_station";"";"China";"Fujian";"N/A";"N/A";"";"";"";"";"国家电网有限公司";"Q209078";"";"";"";"";"";"";"";"";"";"";"国家电网";"";"";""
"12237484956";"26.6184251";"118.6621104";"charging_station";"";"China";"Fujian";"N/A";"N/A";"";"";"";"";"国家电网有限公司";"Q209078";"";"";"";"";"";"";"";"";"";"";"国家电网";"";"";""
"10047319034";"26.768126";"119.5864492";"charging_station";"";"China";"Fujian";"N/A";"N/A";"";"";"";"";"国家电网有限公司";"Q209078";"";"";"";"";"";"";"";"";"";"";"国家电网";"";"";""
"11224181420";"26.7177346";"119.5593587";"charging_station";"";"China";"Fujian";"N/A";"N/A";"";"";"";"";"";"";"";"";"";"";"";"";"";"";"";"";"NIO Power";"";"";""
"11266724494";"26.8432809";"119.7875796";"charging_station";"";"China";"Fujian";"N/A";"N/A";"";"";"";"";"国家电网有限公司";"Q209078";"";"";"";"";"";"";"";"";"";"";"国家电网";"";"";""
"11266724495";"26.8442789";"119.7875286";"charging_station";"";"China";"Fujian";"N/A";"N/A";"";"";"";"";"国家电网有限公司";"Q209078";"";"";"";"";"";"";"";"";"";"";"国家电网";"";"";""
"11266724496";"26.8431254";"119.7874804";"charging_station";"";"China";"Fujian";"N/A";"N/A";"";"";"";"";"";"";"";"";"";"";"";"";"";"";"";"";"NIO Power";"";"";""
"11266724497";"26.8444321";"119.7873167";"charging_station";"";"China";"Fujian";"N/A";"N/A";"";"";"";"";"";"";"";"";"";"";"";"";"";"";"";"";"NIO Power";"";"";""
"1996741642";"26.4593961";"127.8714142";"charging_station";"";"Japan";"Okinawa";"N/A";"N/A";"";"";"";"";"EV Quick";"";"";"";"";"";"";"";"";"";"";"";"";"";"";""
"1996741643";"26.4607586";"127.8715708";"charging_station";"";"Japan";"Okinawa";"N/A";"N/A";"";"1";"";"";"EV Quick";"";"";"";"";"";"";"";"";"";"";"";"";"";"24/7";""
"1996741644";"26.5524057";"127.9702581";"charging_station";"";"Japan";"Okinawa";"N/A";"N/A";"";"";"";"";"EV Quick";"";"";"";"";"";"";"";"";"";"";"";"";"";"";""
"4278117491";"27.4333483";"-99.5548566";"charging_station";"";"Mexico";"Tamaulipas";"N/A";"N/A";"";"";"";"";"patio frio express laredo";"";"";"";"";"";"";"";"";"";"";"";"";"";"";""
"12944743717";"27.22491";"-98.14503";"charging_station";"Brooks County";"United States";"Texas";"N/A";"N/A";"";"8";"";"designated";"Tesla, Inc.";"Q478214";"";"";"";"";"";"";"";"300";"South Street Marys Street";"78355";"Tesla Supercharger";"";"24/7";"yes"
"6059840600";"27.3860439";"-82.4819383";"charging_station";"Sarasota County";"United States";"Florida";"N/A";"N/A";"";"1";"";"";"";"";"";"";"";"";"";"";"";"";"";"";"ChargePoint";"";"";""
"6579201583";"27.3863";"-82.46437";"charging_station";"Sarasota County";"United States";"Florida";"N/A";"N/A";"";"20";"";"designated";"Tesla, Inc.";"Q478214";"";"";"";"";"";"";"";"5903";"Honore Avenue";"34232";"Tesla Supercharger";"";"24/7";"yes"
"8313407962";"27.3500766";"-82.4043147";"charging_station";"Sarasota County";"United States";"Florida";"N/A";"N/A";"";"1";"";"";"Sarasota County";"";"";"";"";"";"";"";"";"";"";"";"";"";"";"no"
"9664937489";"27.3328979";"-82.5767882";"charging_station";"Sarasota County";"United States";"Florida";"N/A";"N/A";"";"";"";"";"";"";"";"";"";"";"";"";"";"";"";"";"Tesla, Inc.";"";"";""
"10904490456";"27.2703";"-82.46286";"charging_station";"Sarasota County";"United States";"Florida";"N/A";"N/A";"";"8";"";"designated";"Tesla, Inc.";"Q478214";"";"";"";"";"";"";"";"5321";"Clark Road";"34233";"Tesla Supercharger";"";"24/7";"yes"
"10905764723";"27.4448849";"-82.5067153";"charging_station";"Manatee County";"United States";"Florida";"N/A";"N/A";"";"6";"";"";"ChargePoint";"Q5176149";"";"";"";"";"";"";"";"";"";"";"ChargePoint";"";"";"yes"
"10905764728";"27.4455097";"-82.5045828";"charging_station";"Manatee County";"United States";"Florida";"N/A";"N/A";"";"4";"";"";"EVgo";"Q61803820";"";"";"";"";"";"";"";"";"";"";"EVgo";"";"";"yes"
"10905764735";"27.2700023";"-82.4543912";"charging_station";"Sarasota County";"United States";"Florida";"N/A";"N/A";"";"2";"";"";"7-Eleven";"Q259340";"";"";"";"";"";"";"";"";"";"";"7-Eleven";"";"";"yes"
"10905764736";"27.2699438";"-82.4544652";"charging_station";"Sarasota County";"United States";"Florida";"N/A";"N/A";"";"2";"";"";"7-Eleven";"Q259340";"";"";"";"";"";"";"";"";"";"";"7-Eleven";"";"";"yes"
"10905764773";"27.2818297";"-82.5316844";"charging_station";"Sarasota County";"United States";"Florida";"N/A";"N/A";"";"6";"";"";"FPL EVolution";"";"";"";"";"";"";"";"";"";"";"";"FPL EVolution";"";"";"yes"
"12244728830";"27.10796";"-82.38529";"charging_station";"Sarasota County";"United States";"Florida";"N/A";"N/A";"";"8";"";"designated";"Tesla, Inc.";"Q478214";"";"";"";"";"";"";"";"370";"Commercial Court";"34292";"Tesla Supercharger";"";"24/7";"yes"
"12878074051";"27.3874898";"-82.4641346";"charging_station";"Sarasota County";"United States";"Florida";"N/A";"N/A";"";"";"";"";"ChargePoint";"Q5176149";"";"";"";"";"";"";"";"";"";"";"ChargePoint";"";"";""
"12890246778";"27.0442968";"-82.3103038";"charging_station";"Sarasota County";"United States";"Florida";"N/A";"N/A";"";"";"";"designated";"";"";"";"";"";"";"";"";"";"";"";"";"";"";"";""
"1304568039";"";"";"charging_station";"N/A";"N/A";"N/A";"N/A";"N/A";"";"350";"";"";"Electrify America";"Q59773555";"";"";"";"";"";"";"";"";"";"";"";".56";"";"yes"
"1376589262";"";"";"charging_station";"N/A";"N/A";"N/A";"N/A";"N/A";"";"1";"";"";"";"";"";"";"";"";"";"";"";"";"";"";"";"";"";""
"12745632528";"27.0448391";"-82.2470304";"";"Sarasota County";"United States";"Florida";"N/A";"N/A";"";"";"";"";"";"";"";"";"";"";"";"";"";"";"";"";"";"";"";""
"12745632529";"27.0448393";"-82.2469788";"";"Sarasota County";"United States";"Florida";"N/A";"N/A";"";"";"";"";"";"";"";"";"";"";"";"";"";"";"";"";"";"";"";""
"12745632530";"27.0448641";"-82.246979";"";"Sarasota County";"United States";"Florida";"N/A";"N/A";"";"";"";"";"";"";"";"";"";"";"";"";"";"";"";"";"";"";"";""
"12745632531";"27.0448639";"-82.2470306";"";"Sarasota County";"United States";"Florida";"N/A";"N/A";"";"";"";"";"";"";"";"";"";"";"";"";"";"";"";"";"";"";"";""
"12082170703";"27.3857929";"-82.4519481";"";"Sarasota County";"United States";"Florida";"N/A";"N/A";"";"";"";"";"";"";"";"";"";"";"";"";"";"";"";"";"";"";"";""
"12082170704";"27.3857815";"-82.4520613";"";"Sarasota County";"United States";"Florida";"N/A";"N/A";"";"";"";"";"";"";"";"";"";"";"";"";"";"";"";"";"";"";"";""
"12082170705";"27.3856794";"-82.4520465";"";"Sarasota County";"United States";"Florida";"N/A";"N/A";"";"";"";"";"";"";"";"";"";"";"";"";"";"";"";"";"";"";"";""
"12082170706";"27.385689";"-82.4519379";"";"Sarasota County";"United States";"Florida";"N/A";"N/A";"";"";"";"";"";"";"";"";"";"";"";"";"";"";"";"";"";"";"";""
"4794739821";"27.2093553";"-81.8442711";"charging_station";"DeSoto County";"United States";"Florida";"N/A";"N/A";"";"";"";"";"Publix";"";"";"";"";"";"";"";"";"";"";"";"";"";"";""
"6632580800";"27.0238316";"-82.0468946";"charging_station";"Charlotte County";"United States";"Florida";"N/A";"N/A";"";"";"";"";"";"";"";"";"";"";"";"";"";"";"";"";"";"";"";"yes"
"12923488246";"27.20951";"-81.83775";"charging_station";"DeSoto County";"United States";"Florida";"N/A";"N/A";"";"8";"";"designated";"Tesla, Inc.";"Q478214";"";"";"";"";"";"";"";"1737";"East Oak Street";"34266";"Tesla Supercharger";"";"24/7";"yes"
"12923488218";"27.24459";"-80.83124";"charging_station";"Okeechobee County";"United States";"Florida";"N/A";"N/A";"";"8";"";"designated";"Tesla, Inc.";"Q478214";"";"";"";"";"";"";"";"200";"Northwest Park Street";"34972";"Tesla Supercharger";"";"24/7";"yes"
"3725401182";"27.31302";"-80.40669";"charging_station";"Saint Lucie County";"United States";"Florida";"N/A";"N/A";"";"16";"";"designated";"Tesla, Inc.";"Q478214";"";"";"";"";"";"";"";"1701";"Northwest Peacock Boulevard";"34986";"Tesla Supercharger";"";"24/7";"yes"
"12115609973";"27.41558";"-80.39343";"charging_station";"Saint Lucie County";"United States";"Florida";"N/A";"N/A";"";"40";"";"designated";"Tesla, Inc.";"Q478214";"";"";"";"";"";"";"";"2789";"Peters Road";"34945";"Tesla Supercharger";"";"24/7";"yes"
"12242196554";"27.41682";"-80.3819";"charging_station";"Saint Lucie County";"United States";"Florida";"N/A";"N/A";"";"8";"";"designated";"Tesla, Inc.";"Q478214";"";"";"";"";"";"";"";"5575";"Okeechobee Road";"34749";"Tesla Supercharger";"";"24/7";"yes"
"12923431495";"27.17552";"-80.25253";"charging_station";"Martin County";"United States";"Florida";"N/A";"N/A";"";"8";"";"designated";"Tesla, Inc.";"Q478214";"";"";"";"";"";"";"";"2401";"South Kanner Highway";"34994";"Tesla Supercharger";"";"24/7";"yes"
"12923488217";"27.44655";"-80.3994";"charging_station";"Saint Lucie County";"United States";"Florida";"N/A";"N/A";"";"8";"";"designated";"Tesla, Inc.";"Q478214";"";"";"";"";"";"";"";"121";"South Kings Highway";"34945";"Tesla Supercharger";"";"24/7";"yes"
"12923488262";"27.30009";"-80.37207";"charging_station";"Saint Lucie County";"United States";"Florida";"N/A";"N/A";"";"16";"";"designated";"Tesla, Inc.";"Q478214";"";"";"";"";"";"";"";"";"";"34984";"Tesla Supercharger";"";"24/7";"yes"
"7297229985";"27.0027278";"14.4617148";"charging_station";"";"Libya";"Sabha";"N/A";"N/A";"";"";"";"";"محطة مطار سبها check in";"";"";"";"";"";"";"";"";"";"";"";"";"";"";""
