"id";"lat";"lon";"amenity";"city";"state";"country";"scraped_country_code";"scraped_country_name";"authentication:nfc";"capacity";"capacity:car";"motorcar";"operator";"operator:wikidata";"socket:schuko";"socket:schuko:current";"socket:schuko:voltage";"socket:type2";"socket:type2:current";"socket:type2:voltage";"ref";"addr:housenumber";"addr:street";"addr:postcode";"brand";"charge";"opening_hours";"fee"
"4359839095";"17.0184895";"54.0405811";"charging_station";"";"Oman";"Zufar";"N/A";"N/A";"";"";"";"";"الفيحاء لشحن السيارات فرع صلالة";"";"";"";"";"";"";"";"";"";"";"";"";"";"";""
"4359863690";"17.0126151";"54.0461736";"charging_station";"";"Oman";"Zufar";"N/A";"N/A";"";"";"";"";"شحن سيارة ايمن صلالة";"";"";"";"";"";"";"";"";"";"";"";"";"";"";""
"4677005989";"20.7607466";"58.3070992";"charging_station";"";"Oman";"Ash Sharqiyah";"N/A";"N/A";"";"";"";"";"";"";"";"";"";"";"";"";"";"";"";"";"";"";"";""
"9700411857";"22.9748692";"53.7860717";"charging_station";"";"United Arab Emirates";"Abu Dhabi";"N/A";"N/A";"";"4";"";"";"";"";"";"";"";"";"";"";"";"";"";"";"";"";"";""
"4318136089";"23.5993926";"58.4150673";"charging_station";"";"Oman";"Muhafazat Masqat";"N/A";"N/A";"";"";"";"";"";"";"";"";"";"";"";"";"";"";"";"";"";"";"";""
"5202588621";"23.4884418";"58.2637622";"charging_station";"";"Oman";"Muhafazat Masqat";"N/A";"N/A";"";"";"";"";"";"";"";"";"";"";"";"";"";"";"";"";"";"";"";""
"1377857543";"";"";"charging_station";"N/A";"N/A";"N/A";"N/A";"N/A";"";"";"";"";"";"";"";"";"";"";"";"";"";"";"";"";"";"";"";""
"1378391297";"";"";"charging_station";"N/A";"N/A";"N/A";"N/A";"N/A";"";"2";"";"";"";"";"";"";"";"";"";"";"";"";"";"";"";"";"";""
"1381016754";"";"";"charging_station";"N/A";"N/A";"N/A";"N/A";"N/A";"";"";"";"";"";"";"";"";"";"";"";"";"";"";"";"";"";"";"";""
"12758088045";"23.6322194";"58.0539814";"";"";"Oman";"Muhafazat Masqat";"N/A";"N/A";"";"";"";"";"";"";"";"";"";"";"";"";"";"";"";"";"";"";"";""
"12758088046";"23.6322188";"58.0540548";"";"";"Oman";"Muhafazat Masqat";"N/A";"N/A";"";"";"";"";"";"";"";"";"";"";"";"";"";"";"";"";"";"";"";""
"12758088047";"23.6321573";"58.0540511";"";"";"Oman";"Muhafazat Masqat";"N/A";"N/A";"";"";"";"";"";"";"";"";"";"";"";"";"";"";"";"";"";"";"";""
"12758088054";"23.6321684";"58.0539773";"";"";"Oman";"Muhafazat Masqat";"N/A";"N/A";"";"";"";"";"";"";"";"";"";"";"";"";"";"";"";"";"";"";"";""
"12784961769";"23.5852894";"58.1474141";"";"";"Oman";"Muhafazat Masqat";"N/A";"N/A";"";"";"";"";"";"";"";"";"";"";"";"";"";"";"";"";"";"";"";""
"12784961770";"23.5853775";"58.1472887";"";"";"Oman";"Muhafazat Masqat";"N/A";"N/A";"";"";"";"";"";"";"";"";"";"";"";"";"";"";"";"";"";"";"";""
"12784961771";"23.5853275";"58.1472508";"";"";"Oman";"Muhafazat Masqat";"N/A";"N/A";"";"";"";"";"";"";"";"";"";"";"";"";"";"";"";"";"";"";"";""
"12784961772";"23.5852448";"58.1473729";"";"";"Oman";"Muhafazat Masqat";"N/A";"N/A";"";"";"";"";"";"";"";"";"";"";"";"";"";"";"";"";"";"";"";""
"9671489179";"23.616807";"58.1819908";"";"";"Oman";"Muhafazat Masqat";"N/A";"N/A";"";"";"";"";"";"";"";"";"";"";"";"";"";"";"";"";"";"";"";""
"12426924777";"23.6168435";"58.1819932";"";"";"Oman";"Muhafazat Masqat";"N/A";"N/A";"";"";"";"";"";"";"";"";"";"";"";"";"";"";"";"";"";"";"";""
"12762815150";"23.6168495";"58.1819217";"";"";"Oman";"Muhafazat Masqat";"N/A";"N/A";"";"";"";"";"";"";"";"";"";"";"";"";"";"";"";"";"";"";"";""
"12762815151";"23.6167949";"58.1819175";"";"";"Oman";"Muhafazat Masqat";"N/A";"N/A";"";"";"";"";"";"";"";"";"";"";"";"";"";"";"";"";"";"";"";""
"12762815152";"23.6167906";"58.1819903";"";"";"Oman";"Muhafazat Masqat";"N/A";"N/A";"";"";"";"";"";"";"";"";"";"";"";"";"";"";"";"";"";"";"";""
"12570726459";"24.0715423";"53.1022727";"charging_station";"";"United Arab Emirates";"Abu Dhabi";"N/A";"N/A";"";"180";"";"";"ADNOC";"";"";"";"";"";"";"";"";"";"";"";"";"";"";""
"11778853169";"24.0778816";"55.7684971";"charging_station";"";"United Arab Emirates";"Abu Dhabi";"N/A";"N/A";"";"2";"";"";"DEWA";"";"";"";"";"";"";"";"";"";"";"";"";"";"";""
"12548538869";"23.7115109";"57.241287";"charging_station";"";"Oman";"Al Batinah";"N/A";"N/A";"";"";"";"";"";"";"";"";"";"";"";"";"";"";"";"";"";"";"";""
"9631310148";"24.456777";"54.3128866";"charging_station";"";"United Arab Emirates";"Abu Dhabi";"N/A";"N/A";"";"";"";"";"";"";"";"";"";"";"";"";"";"";"";"";"Tesla, Inc.";"";"";""
"11811918173";"24.4883683";"54.3518346";"charging_station";"";"United Arab Emirates";"Abu Dhabi";"N/A";"N/A";"";"";"";"";"";"";"";"";"";"";"";"";"";"";"";"";"";"";"";""
"12486691101";"24.4842573";"54.3493388";"charging_station";"";"United Arab Emirates";"Abu Dhabi";"N/A";"N/A";"";"";"";"";"";"";"";"";"";"";"";"";"";"";"";"";"";"";"";""
"9622494491";"24.2441901";"55.7157455";"charging_station";"";"United Arab Emirates";"Abu Dhabi";"N/A";"N/A";"";"4";"";"";"Tesla, Inc.";"Q478214";"";"";"";"";"";"";"";"";"";"";"Tesla Supercharger";"";"";""
"2019391322";"24.8690374";"55.0264481";"charging_station";"";"United Arab Emirates";"Dubai";"N/A";"N/A";"no";"";"";"";"DEWA";"";"";"";"";"";"";"";"";"";"";"";"";"";"";""
"5207060322";"25.1143807";"55.3717438";"charging_station";"";"United Arab Emirates";"Dubai";"N/A";"N/A";"";"2";"";"";"DEWA";"";"";"";"";"";"";"";"";"";"";"";"";"";"";""
"8094027052";"25.0256264";"55.1113111";"charging_station";"";"United Arab Emirates";"Dubai";"N/A";"N/A";"";"2";"";"";"DEWA";"";"";"";"";"";"";"";"";"";"";"";"";"";"24/7";"yes"
"8670860371";"25.1327043";"55.1891293";"charging_station";"";"United Arab Emirates";"Dubai";"N/A";"N/A";"";"";"";"";"";"";"";"";"";"";"";"";"";"";"";"";"";"";"";""
"8670939236";"25.0970286";"55.1650399";"charging_station";"";"United Arab Emirates";"Dubai";"N/A";"N/A";"";"";"";"";"";"";"";"";"";"";"";"";"";"";"";"";"";"";"24/7";""
"8670972389";"25.0853266";"55.1589669";"charging_station";"";"United Arab Emirates";"Dubai";"N/A";"N/A";"";"";"";"";"";"";"";"";"";"";"";"";"";"";"";"";"";"";"";""
"8670972390";"25.0644104";"55.1465009";"charging_station";"";"United Arab Emirates";"Dubai";"N/A";"N/A";"";"";"";"";"";"";"";"";"";"";"";"";"";"";"";"";"";"";"";""
"8670990259";"25.0164836";"55.1461083";"charging_station";"";"United Arab Emirates";"Dubai";"N/A";"N/A";"";"";"";"";"";"";"";"";"";"";"";"";"";"";"";"";"";"";"";""
"8670990260";"25.0006973";"55.1501346";"charging_station";"";"United Arab Emirates";"Dubai";"N/A";"N/A";"";"";"";"";"";"";"";"";"";"";"";"";"";"";"";"";"";"";"";""
"8670995816";"24.9610396";"55.1587999";"charging_station";"";"United Arab Emirates";"Dubai";"N/A";"N/A";"";"2";"";"";"DEWA";"";"";"";"";"";"";"";"";"";"";"";"";"";"";""
"9507308914";"24.9864866";"55.0228437";"charging_station";"";"United Arab Emirates";"Dubai";"N/A";"N/A";"";"5";"";"";"VU";"";"";"";"";"";"";"";"";"";"";"";"";"";"";""
"10567615819";"25.0795209";"55.3664589";"charging_station";"";"United Arab Emirates";"Dubai";"N/A";"N/A";"";"8";"";"";"Tesla, Inc.";"Q478214";"";"";"";"";"";"";"";"";"Wadi Ai Safa 5, Emirates Road 611";"";"Tesla Supercharger";"";"24/7";"yes"
"10836351205";"25.1240253";"55.3810398";"charging_station";"";"United Arab Emirates";"Ash Shariqah";"N/A";"N/A";"";"2";"";"";"DEWA";"";"";"";"";"";"";"";"";"";"";"";"";"";"24/7";""
"10836381279";"25.1206047";"55.380605";"charging_station";"";"United Arab Emirates";"Dubai";"N/A";"N/A";"";"2";"";"";"DEWA";"";"";"";"";"";"";"";"";"";"";"";"";"";"";""
"10836761505";"25.1277922";"55.3965067";"charging_station";"";"United Arab Emirates";"Ash Shariqah";"N/A";"N/A";"";"2";"";"";"DEWA";"";"";"";"";"";"";"";"";"";"";"";"";"";"";""
"11057698506";"25.0898126";"55.152223";"charging_station";"";"United Arab Emirates";"Dubai";"N/A";"N/A";"";"";"";"";"";"";"";"";"";"";"";"";"";"";"";"";"";"";"";""
"11775699769";"25.024558";"55.1530097";"charging_station";"";"United Arab Emirates";"Dubai";"N/A";"N/A";"";"2";"";"";"";"";"";"";"";"";"";"";"";"";"";"";"";"";"";""
"12486057398";"24.8495471";"55.3453907";"charging_station";"";"United Arab Emirates";"Dubai";"N/A";"N/A";"";"2";"";"";"EV Green";"";"";"";"";"";"";"";"";"";"";"";"EV Green";"";"";"yes"
"6230993808";"25.1261515";"55.8593443";"charging_station";"";"United Arab Emirates";"Ash Shariqah";"N/A";"N/A";"";"";"";"";"";"";"";"";"";"";"";"";"";"";"";"";"";"";"";""
"6230993809";"25.1261381";"55.8594087";"charging_station";"";"United Arab Emirates";"Ash Shariqah";"N/A";"N/A";"";"";"";"";"";"";"";"";"";"";"";"";"";"";"";"";"";"";"";""
"6208272475";"24.8169256";"56.1321779";"charging_station";"";"Oman";"Al Batinah";"N/A";"N/A";"";"";"";"yes";"";"";"";"";"";"";"";"";"";"";"";"";"";"";"24/7";""
"6208272476";"24.8169518";"56.132196";"charging_station";"";"Oman";"Al Batinah";"N/A";"N/A";"";"";"";"yes";"";"";"";"";"";"";"";"";"";"";"";"";"";"";"24/7";""
"6219005011";"24.8194764";"56.1344424";"charging_station";"";"Oman";"Al Batinah";"N/A";"N/A";"";"";"";"yes";"";"";"";"";"";"";"";"";"";"";"";"";"";"";"";""
"6219005012";"24.8194948";"56.1344129";"charging_station";"";"Oman";"Al Batinah";"N/A";"N/A";"";"";"";"yes";"";"";"";"";"";"";"";"";"";"";"";"";"";"";"";""
"6219005013";"24.8195133";"56.1343834";"charging_station";"";"Oman";"Al Batinah";"N/A";"N/A";"";"";"";"yes";"";"";"";"";"";"";"";"";"";"";"";"";"";"";"";""
"6219005014";"24.8195317";"56.1343539";"charging_station";"";"Oman";"Al Batinah";"N/A";"N/A";"";"";"";"yes";"";"";"";"";"";"";"";"";"";"";"";"";"";"";"";""
"3509535358";"25.2977719";"55.3852035";"charging_station";"";"United Arab Emirates";"Ash Shariqah";"N/A";"N/A";"";"";"";"";"RTA";"";"";"";"";"";"";"";"";"";"";"";"";"";"";""
"4558013490";"25.282302";"55.3855579";"charging_station";"";"United Arab Emirates";"Ash Shariqah";"N/A";"N/A";"";"";"";"";"";"";"";"";"";"";"";"";"";"";"";"";"";"";"";""
"4963690238";"25.1490116";"55.1955324";"charging_station";"";"United Arab Emirates";"Dubai";"N/A";"N/A";"";"";"";"";"Wifi UAE";"";"";"";"";"";"";"";"";"";"";"";"";"";"";"no"
"4963713202";"25.1568318";"55.2023131";"charging_station";"";"United Arab Emirates";"Dubai";"N/A";"N/A";"";"";"";"";"Wifi UAE";"";"";"";"";"";"";"";"";"";"";"";"";"";"";"no"
"8417967649";"25.2234469";"55.2855116";"charging_station";"";"United Arab Emirates";"Ash Shariqah";"N/A";"N/A";"";"3";"";"";"Dubai Electricity and Water Authority";"Q1262868";"";"";"";"";"";"";"";"";"";"";"";"";"";""
"8670939237";"25.169541";"55.21513";"charging_station";"";"United Arab Emirates";"Dubai";"N/A";"N/A";"";"";"";"";"";"";"";"";"";"";"";"";"";"";"";"";"";"";"";""
"8670972388";"25.1420138";"55.1918482";"charging_station";"";"United Arab Emirates";"Dubai";"N/A";"N/A";"";"";"";"";"";"";"";"";"";"";"";"";"";"";"";"";"";"";"";""
"10976365228";"25.157477";"55.2281677";"charging_station";"";"United Arab Emirates";"Dubai";"N/A";"N/A";"";"3";"";"";"DEWA";"";"";"";"";"";"";"";"";"";"";"";"DEWA";"";"";"no"
"11488442524";"25.1846202";"55.492781";"charging_station";"";"United Arab Emirates";"Ash Shariqah";"N/A";"N/A";"";"";"";"";"";"";"";"";"";"";"";"";"";"";"";"";"";"";"";""
"11801402546";"25.4292156";"55.4657783";"charging_station";"";"United Arab Emirates";"Ajman";"N/A";"N/A";"";"2";"";"";"DEWA";"";"";"";"";"";"";"";"";"";"";"";"";"";"";""
"12398609801";"25.2799866";"55.3815414";"charging_station";"";"United Arab Emirates";"Ash Shariqah";"N/A";"N/A";"";"";"";"";"McDonald's";"Q38076";"";"";"";"";"";"";"";"";"";"";"";"";"";""
"12799712737";"25.2881376";"55.4130718";"charging_station";"";"United Arab Emirates";"Ash Shariqah";"N/A";"N/A";"";"";"";"";"";"";"";"";"";"";"";"";"";"";"";"";"";"";"";""
"12799712738";"25.2881524";"55.4130819";"charging_station";"";"United Arab Emirates";"Ash Shariqah";"N/A";"N/A";"";"";"";"";"";"";"";"";"";"";"";"";"";"";"";"";"";"";"";""
"12799712739";"25.2881212";"55.4130607";"charging_station";"";"United Arab Emirates";"Ash Shariqah";"N/A";"N/A";"";"";"";"";"";"";"";"";"";"";"";"";"";"";"";"";"";"";"";""
"7304595785";"25.433592";"55.5863461";"charging_station";"";"United Arab Emirates";"Umm al Qaywayn";"N/A";"N/A";"";"";"";"";"DiaSurge Medical FZE";"";"";"";"";"";"";"";"";"";"";"";"";"";"";""
"10108001286";"25.1573679";"56.3500457";"charging_station";"";"United Arab Emirates";"Al Fujayrah";"N/A";"N/A";"";"8";"";"";"century mall";"";"";"";"";"";"";"";"";"";"";"";"Tesla, Inc.";"";"";"no"
