"id";"lat";"lon";"amenity";"city";"state";"country";"scraped_country_code";"scraped_country_name";"authentication:nfc";"capacity";"capacity:car";"motorcar";"operator";"operator:wikidata";"socket:schuko";"socket:schuko:current";"socket:schuko:voltage";"socket:type2";"socket:type2:current";"socket:type2:voltage";"ref";"addr:housenumber";"addr:street";"addr:postcode";"brand";"charge";"opening_hours";"fee"
"4513683661";"8.1734518";"-10.7485878";"charging_station";"";"Sierra Leone";"Eastern Province";"N/A";"N/A";"";"";"";"";"";"";"";"";"";"";"";"";"";"Kenema Road";"Kenema Road";"";"";"";"";""
"4513684931";"8.0982991";"-10.6999134";"charging_station";"";"Sierra Leone";"Eastern Province";"N/A";"N/A";"";"";"";"";"";"";"";"";"";"";"";"";"";"kaneya";"Kailahun High Way";"";"";"";"";""
"4513720180";"8.28557";"-10.5715918";"charging_station";"";"Sierra Leone";"Eastern Province";"N/A";"N/A";"";"";"";"";"";"";"";"";"";"";"";"";"";"00";"Tangambu road";"";"";"";"";""
"4513731282";"8.2835538";"-10.5747592";"charging_station";"";"Sierra Leone";"Eastern Province";"N/A";"N/A";"";"";"";"";"";"";"";"";"";"";"";"";"";"7A";"Subaru road";"";"";"";"";""
"4513731287";"8.2824429";"-10.5737289";"charging_station";"";"Sierra Leone";"Eastern Province";"N/A";"N/A";"";"";"";"";"";"";"";"";"";"";"";"";"";"60";"Mofindor road";"";"";"";"";""
"4513732499";"8.2828106";"-10.575403";"charging_station";"";"Sierra Leone";"Eastern Province";"N/A";"N/A";"";"";"";"";"";"";"";"";"";"";"";"";"";"77";"Nyanyahun road";"";"";"";"";""
"4513732507";"8.277527";"-10.5689129";"charging_station";"";"Sierra Leone";"Eastern Province";"N/A";"N/A";"";"";"";"";"";"";"";"";"";"";"";"";"";"54";"Buedu road";"";"";"";"";""
"4530280417";"8.2766295";"-10.5674976";"charging_station";"";"Sierra Leone";"Eastern Province";"N/A";"N/A";"";"";"";"";"";"";"";"";"";"";"";"";"";"00";"Buedu Road";"";"";"";"";""
"4530280439";"8.2854822";"-10.5640637";"charging_station";"";"Sierra Leone";"Eastern Province";"N/A";"N/A";"";"";"";"";"";"";"";"";"";"";"";"";"";"59 A";"massanta section";"2327";"";"";"";""
"4530280451";"8.2807054";"-10.5708761";"charging_station";"";"Sierra Leone";"Eastern Province";"N/A";"N/A";"";"";"";"";"";"";"";"";"";"";"";"";"";"00";"massanta section";"";"";"";"";""
"4530282291";"8.278162";"-10.5739454";"charging_station";"";"Sierra Leone";"Eastern Province";"N/A";"N/A";"";"";"";"";"";"";"";"";"";"";"";"";"";"11";"Mofindor road";"";"";"";"";""
"4530282296";"8.278535";"-10.5715682";"charging_station";"";"Sierra Leone";"Eastern Province";"N/A";"N/A";"";"";"";"";"";"";"";"";"";"";"";"";"";"19D";"Mountain cut Road";"";"";"";"";""
"4530282334";"8.2691045";"-10.5796201";"charging_station";"";"Sierra Leone";"Eastern Province";"N/A";"N/A";"";"";"";"";"";"";"";"";"";"";"";"";"";"1";"Moiwo Street";"";"";"";"";""
"4530474810";"8.2818843";"-10.371362";"charging_station";"";"Sierra Leone";"Eastern Province";"N/A";"N/A";"";"";"";"";"";"";"";"";"";"";"";"";"";"00";"Koindu Road";"";"";"";"";""
"4530474819";"8.2787443";"-10.3727765";"charging_station";"";"Sierra Leone";"Eastern Province";"N/A";"N/A";"";"";"";"";"";"";"";"";"";"";"";"";"";"14";"Kailahun Road";"";"";"";"";""
"4530503865";"8.3318153";"-10.4939497";"charging_station";"";"Sierra Leone";"Eastern Province";"N/A";"N/A";"";"";"";"";"";"";"";"";"";"";"";"";"";"00";"Die road";"";"";"";"";""
"4530569791";"8.3839835";"-10.410018";"charging_station";"";"Sierra Leone";"Eastern Province";"N/A";"N/A";"";"";"";"";"";"";"";"";"";"";"";"";"";"00000";"koindu high way";"";"";"";"";""
"272696706";"";"";"charging_station";"N/A";"N/A";"N/A";"N/A";"N/A";"";"";"";"";"";"";"";"";"";"";"";"";"";"19";"Kodovo Street";"";"";"";"";""
"272907106";"";"";"charging_station";"N/A";"N/A";"N/A";"N/A";"N/A";"";"";"";"";"";"";"";"";"";"";"";"";"";"00";"Mofindor Road";"";"";"";"";""
"272907146";"";"";"charging_station";"N/A";"N/A";"N/A";"N/A";"N/A";"";"";"";"";"";"";"";"";"";"";"";"";"";"00";"Mofindor Road";"";"";"";"";""
"273360791";"";"";"charging_station";"N/A";"N/A";"N/A";"N/A";"N/A";"";"";"";"";"";"";"";"";"";"";"";"";"";"43A";"Buedu Road";"";"";"";"";""
"273361050";"";"";"charging_station";"N/A";"N/A";"N/A";"N/A";"N/A";"";"";"";"";"";"";"";"";"";"";"";"";"";"00";"Buedu Road";"";"";"";"";""
"454309098";"";"";"charging_station";"N/A";"N/A";"N/A";"N/A";"N/A";"";"";"";"";"";"";"";"";"";"";"";"";"";"Msdowo";"Pendent Road";"";"";"";"";""
"454318252";"";"";"charging_station";"N/A";"N/A";"N/A";"N/A";"N/A";"";"";"";"";"";"";"";"";"";"";"";"";"";"00";"Buedu";"";"";"";"";""
"454318277";"";"";"charging_station";"N/A";"N/A";"N/A";"N/A";"N/A";"";"";"";"";"";"";"";"";"";"";"";"";"";"61";"Mofindor road";"";"";"";"";""
"4508782495";"7.9935522";"-10.7543625";"";"";"Sierra Leone";"Eastern Province";"N/A";"N/A";"";"";"";"";"";"";"";"";"";"";"";"";"";"";"";"";"";"";"";""
"4508782496";"7.993624";"-10.7542777";"";"";"Sierra Leone";"Eastern Province";"N/A";"N/A";"";"";"";"";"";"";"";"";"";"";"";"";"";"";"";"";"";"";"";""
"4508782497";"7.9936401";"-10.7542917";"";"";"Sierra Leone";"Eastern Province";"N/A";"N/A";"";"";"";"";"";"";"";"";"";"";"";"";"";"";"";"";"";"";"";""
"4508782498";"7.9935683";"-10.7543764";"";"";"Sierra Leone";"Eastern Province";"N/A";"N/A";"";"";"";"";"";"";"";"";"";"";"";"";"";"";"";"";"";"";"";""
"2778194640";"8.2779295";"-10.5737561";"";"";"Sierra Leone";"Eastern Province";"N/A";"N/A";"";"";"";"";"";"";"";"";"";"";"";"";"";"";"";"";"";"";"";""
"2778194644";"8.277933";"-10.5737881";"";"";"Sierra Leone";"Eastern Province";"N/A";"N/A";"";"";"";"";"";"";"";"";"";"";"";"";"";"";"";"";"";"";"";""
"2778194699";"8.277957";"-10.5737531";"";"";"Sierra Leone";"Eastern Province";"N/A";"N/A";"";"";"";"";"";"";"";"";"";"";"";"";"";"";"";"";"";"";"";""
"2778194700";"8.2779604";"-10.5737851";"";"";"Sierra Leone";"Eastern Province";"N/A";"N/A";"";"";"";"";"";"";"";"";"";"";"";"";"";"";"";"";"";"";"";""
"2778195746";"8.2802297";"-10.5745411";"";"";"Sierra Leone";"Eastern Province";"N/A";"N/A";"";"";"";"";"";"";"";"";"";"";"";"";"";"";"";"";"";"";"";""
"2778195758";"8.2802467";"-10.574554";"";"";"Sierra Leone";"Eastern Province";"N/A";"N/A";"";"";"";"";"";"";"";"";"";"";"";"";"";"";"";"";"";"";"";""
"2778195760";"8.2802468";"-10.574518";"";"";"Sierra Leone";"Eastern Province";"N/A";"N/A";"";"";"";"";"";"";"";"";"";"";"";"";"";"";"";"";"";"";"";""
"2778195773";"8.2802638";"-10.5745309";"";"";"Sierra Leone";"Eastern Province";"N/A";"N/A";"";"";"";"";"";"";"";"";"";"";"";"";"";"";"";"";"";"";"";""
"2782219499";"8.2779336";"-10.5701909";"";"";"Sierra Leone";"Eastern Province";"N/A";"N/A";"";"";"";"";"";"";"";"";"";"";"";"";"";"";"";"";"";"";"";""
"2782219551";"8.2779358";"-10.5702243";"";"";"Sierra Leone";"Eastern Province";"N/A";"N/A";"";"";"";"";"";"";"";"";"";"";"";"";"";"";"";"";"";"";"";""
"2782219608";"8.277954";"-10.5701895";"";"";"Sierra Leone";"Eastern Province";"N/A";"N/A";"";"";"";"";"";"";"";"";"";"";"";"";"";"";"";"";"";"";"";""
"2782219616";"8.2779562";"-10.5702229";"";"";"Sierra Leone";"Eastern Province";"N/A";"N/A";"";"";"";"";"";"";"";"";"";"";"";"";"";"";"";"";"";"";"";""
"2782219621";"8.277957";"-10.5701475";"";"";"Sierra Leone";"Eastern Province";"N/A";"N/A";"";"";"";"";"";"";"";"";"";"";"";"";"";"";"";"";"";"";"";""
"2782219631";"8.2779585";"-10.5701705";"";"";"Sierra Leone";"Eastern Province";"N/A";"N/A";"";"";"";"";"";"";"";"";"";"";"";"";"";"";"";"";"";"";"";""
"2782219744";"8.2779924";"-10.5701451";"";"";"Sierra Leone";"Eastern Province";"N/A";"N/A";"";"";"";"";"";"";"";"";"";"";"";"";"";"";"";"";"";"";"";""
"2782219757";"8.2779939";"-10.5701681";"";"";"Sierra Leone";"Eastern Province";"N/A";"N/A";"";"";"";"";"";"";"";"";"";"";"";"";"";"";"";"";"";"";"";""
"4508860457";"8.2768925";"-10.5677506";"";"";"Sierra Leone";"Eastern Province";"N/A";"N/A";"";"";"";"";"";"";"";"";"";"";"";"";"";"";"";"";"";"";"";""
"4508860458";"8.2769204";"-10.5677207";"";"";"Sierra Leone";"Eastern Province";"N/A";"N/A";"";"";"";"";"";"";"";"";"";"";"";"";"";"";"";"";"";"";"";""
"4508860459";"8.2770019";"-10.5677983";"";"";"Sierra Leone";"Eastern Province";"N/A";"N/A";"";"";"";"";"";"";"";"";"";"";"";"";"";"";"";"";"";"";"";""
"4508860460";"8.2769738";"-10.5678283";"";"";"Sierra Leone";"Eastern Province";"N/A";"N/A";"";"";"";"";"";"";"";"";"";"";"";"";"";"";"";"";"";"";"";""
"2776294009";"8.2809402";"-10.5721682";"";"";"Sierra Leone";"Eastern Province";"N/A";"N/A";"";"";"";"";"";"";"";"";"";"";"";"";"";"";"";"";"";"";"";""
"2776294011";"8.280947";"-10.5721808";"";"";"Sierra Leone";"Eastern Province";"N/A";"N/A";"";"";"";"";"";"";"";"";"";"";"";"";"";"";"";"";"";"";"";""
"2776294019";"8.28096";"-10.5721572";"";"";"Sierra Leone";"Eastern Province";"N/A";"N/A";"";"";"";"";"";"";"";"";"";"";"";"";"";"";"";"";"";"";"";""
"2776294024";"8.2809668";"-10.5721698";"";"";"Sierra Leone";"Eastern Province";"N/A";"N/A";"";"";"";"";"";"";"";"";"";"";"";"";"";"";"";"";"";"";"";""
"4508862865";"8.2820021";"-10.5741628";"";"";"Sierra Leone";"Eastern Province";"N/A";"N/A";"";"";"";"";"";"";"";"";"";"";"";"";"";"";"";"";"";"";"";""
"4508862866";"8.2819881";"-10.5741482";"";"";"Sierra Leone";"Eastern Province";"N/A";"N/A";"";"";"";"";"";"";"";"";"";"";"";"";"";"";"";"";"";"";"";""
"4508862867";"8.2820031";"-10.5741337";"";"";"Sierra Leone";"Eastern Province";"N/A";"N/A";"";"";"";"";"";"";"";"";"";"";"";"";"";"";"";"";"";"";"";""
"4508862868";"8.282017";"-10.5741482";"";"";"Sierra Leone";"Eastern Province";"N/A";"N/A";"";"";"";"";"";"";"";"";"";"";"";"";"";"";"";"";"";"";"";""
"4513760200";"8.4613677";"-10.3362036";"charging_station";"";"Sierra Leone";"Eastern Province";"N/A";"N/A";"";"";"";"";"";"";"";"";"";"";"";"";"";"00";"Liberia highway";"";"";"";"";""
"4513760201";"8.462291";"-10.3372121";"charging_station";"";"Sierra Leone";"Eastern Province";"N/A";"N/A";"";"";"";"";"";"";"";"";"";"";"";"";"";"12";"Guinea Road";"";"";"";"";""
"4513760210";"8.461316";"-10.3368063";"charging_station";"";"Sierra Leone";"Eastern Province";"N/A";"N/A";"";"";"";"";"";"";"";"";"";"";"";"";"";"0000";"Liberia road";"";"";"";"";""
"4530647922";"8.4616118";"-10.3381884";"charging_station";"";"Sierra Leone";"Eastern Province";"N/A";"N/A";"";"";"";"";"";"";"";"";"";"";"";"";"";"0000";"Texaco";"";"";"";"";""
"4514040902";"9.1087919";"-12.9225183";"charging_station";"";"Sierra Leone";"Northern Province";"N/A";"N/A";"";"";"";"";"";"";"";"";"";"";"";"";"";"10";"Ida Road";"";"";"";"";""
"4514040903";"9.1083259";"-12.9216926";"charging_station";"";"Sierra Leone";"Northern Province";"N/A";"N/A";"";"";"";"";"";"";"";"";"";"";"";"";"";"";"";"";"";"";"";""
"4514040907";"9.1230242";"-12.9172462";"charging_station";"";"Sierra Leone";"Northern Province";"N/A";"N/A";"";"";"";"";"";"";"";"";"";"";"";"";"";"12c";"Hospital Road";"";"";"";"";""
"4514040927";"9.1219488";"-12.9180919";"charging_station";"";"Sierra Leone";"Northern Province";"N/A";"N/A";"";"";"";"";"";"";"";"";"";"";"";"";"";"1d";"Barracks Road";"";"";"";"";""
"4514040930";"9.1235553";"-12.9165743";"charging_station";"";"Sierra Leone";"Northern Province";"N/A";"N/A";"";"";"";"";"";"";"";"";"";"";"";"";"";"26";"Hospital Road";"";"";"";"";""
"4514040932";"9.128792";"-12.9202223";"charging_station";"";"Sierra Leone";"Northern Province";"N/A";"N/A";"";"";"";"";"";"";"";"";"";"";"";"";"";"81";"Koramabai Dura Road";"";"";"";"";""
"4514040962";"9.1232933";"-12.9199953";"charging_station";"";"Sierra Leone";"Northern Province";"N/A";"N/A";"";"";"";"";"";"";"";"";"";"";"";"";"";"43b";"Yorfendeh Street";"";"";"";"";""
"4540031144";"9.1121735";"-12.9259043";"charging_station";"";"Sierra Leone";"Northern Province";"N/A";"N/A";"";"";"";"";"";"";"";"";"";"";"";"";"";"";"";"";"";"";"";""
"4540031174";"9.112193";"-12.9258744";"charging_station";"";"Sierra Leone";"Northern Province";"N/A";"N/A";"";"";"";"";"";"";"";"";"";"";"";"";"";"";"";"";"";"";"";""
"4513830871";"9.3992216";"-12.6643717";"charging_station";"";"Sierra Leone";"Northern Province";"N/A";"N/A";"";"";"";"";"";"";"";"";"";"";"";"";"";"13";"center street";"";"";"";"";""
"4513830873";"9.3978668";"-12.6648438";"charging_station";"";"Sierra Leone";"Northern Province";"N/A";"N/A";"";"";"";"";"";"";"";"";"";"";"";"";"";"43";"center street";"";"";"";"";""
"4534080567";"9.4480268";"-12.7164917";"charging_station";"";"Sierra Leone";"Northern Province";"N/A";"N/A";"";"";"";"";"";"";"";"";"";"";"";"";"";"";"";"";"";"";"";""
"4513807995";"9.5340349";"-10.9574783";"charging_station";"";"Sierra Leone";"Northern Province";"N/A";"N/A";"";"";"";"";"";"";"";"";"";"";"";"";"";"kabala road";"kabala road";"";"";"";"";""
"4539841838";"9.5327856";"-10.957821";"charging_station";"";"Sierra Leone";"Northern Province";"N/A";"N/A";"";"";"";"";"";"";"";"";"";"";"";"";"";"13";"Serekolia Road";"";"";"";"";""
"4509056553";"7.8777881";"-10.7888587";"charging_station";"";"Sierra Leone";"Eastern Province";"N/A";"N/A";"";"";"";"";"";"";"";"";"";"";"";"";"";"";"Jabama Road";"";"";"";"";""
"4509056556";"7.8782182";"-10.7895291";"charging_station";"";"Sierra Leone";"Eastern Province";"N/A";"N/A";"";"";"";"";"";"";"";"";"";"";"";"";"";"";"Koroma Street";"";"";"";"";""
"4509056560";"7.8783263";"-10.7892318";"charging_station";"";"Sierra Leone";"Eastern Province";"N/A";"N/A";"";"";"";"";"";"";"";"";"";"";"";"";"";"";"Ngevao Street";"";"";"";"";""
"4509056566";"7.8730143";"-10.7865031";"charging_station";"";"Sierra Leone";"Eastern Province";"N/A";"N/A";"";"";"";"";"";"";"";"";"";"";"";"";"";"Jewoms";"Kpengama Rosd";"";"";"";"";""
