"id";"lat";"lon";"amenity";"city";"state";"country";"scraped_country_code";"scraped_country_name";"authentication:nfc";"capacity";"capacity:car";"motorcar";"operator";"operator:wikidata";"socket:schuko";"socket:schuko:current";"socket:schuko:voltage";"socket:type2";"socket:type2:current";"socket:type2:voltage";"ref";"addr:housenumber";"addr:street";"addr:postcode";"brand";"charge";"opening_hours";"fee"
"9655914911";"41.4617383";"23.2621006";"charging_station";"Obshtina Petrich";"Bulgaria";"Blagoevgrad";"N/A";"N/A";"";"";"";"";"";"";"";"";"";"";"";"";"";"";"";"";"";"";"";""
"9848211504";"41.5499359";"23.2701611";"charging_station";"Obshtina Sandanski";"Bulgaria";"Blagoevgrad";"N/A";"N/A";"";"";"";"";"Kaufland";"";"";"";"";"1";"";"";"";"";"";"";"";"";"08:00-21:00";"yes"
"9848234455";"41.5501421";"23.268335";"charging_station";"Obshtina Sandanski";"Bulgaria";"Blagoevgrad";"N/A";"N/A";"";"";"";"";"";"";"";"";"";"2";"";"";"";"";"";"";"";"";"";"no"
"9848236389";"41.5501385";"23.2683907";"charging_station";"Obshtina Sandanski";"Bulgaria";"Blagoevgrad";"N/A";"N/A";"";"";"";"";"";"";"";"";"";"1";"";"";"";"";"";"";"";"";"";"no"
"10054137078";"41.4328886";"23.3343381";"charging_station";"Obshtina Petrich";"Bulgaria";"Blagoevgrad";"N/A";"N/A";"";"";"";"";"";"";"";"";"";"1";"";"";"";"";"";"";"";"";"";"no"
"12120162893";"41.5405522";"23.2544866";"charging_station";"Obshtina Sandanski";"Bulgaria";"Blagoevgrad";"N/A";"N/A";"";"4";"";"yes";"Финес Енерджи ООД";"Q128904354";"";"";"";"";"";"";"";"";"";"";"";"";"24/7";"yes"
"12121650425";"41.3975006";"23.3542018";"charging_station";"Nomos Serron";"Greece";"Central Macedonia";"N/A";"N/A";"";"2";"";"yes";"Финес Енерджи ООД";"Q128904354";"";"";"";"";"";"";"";"";"";"2868";"";"";"24/7";"no"
"12121650426";"41.3974815";"23.3540972";"charging_station";"Nomos Serron";"Greece";"Central Macedonia";"N/A";"N/A";"";"6";"";"yes";"Финес Енерджи ООД";"Q128904354";"";"";"";"";"";"";"";"";"";"2868";"";"";"24/7";"no"
"12124255858";"41.4343643";"23.3337002";"charging_station";"Obshtina Petrich";"Bulgaria";"Blagoevgrad";"N/A";"N/A";"";"4";"";"yes";"Финес Енерджи ООД";"Q128904354";"";"";"";"";"";"";"";"";"Екзарх Йосиф";"2870";"";"";"24/7";"yes"
"12126495133";"41.3985466";"23.353591";"charging_station";"Obshtina Petrich";"Bulgaria";"Blagoevgrad";"N/A";"N/A";"";"";"";"";"Eko";"";"";"";"";"";"";"";"";"";"";"";"ABB";"";"";""
"12143721188";"41.3960962";"23.1784192";"charging_station";"Obshtina Petrich";"Bulgaria";"Blagoevgrad";"N/A";"N/A";"";"2";"";"yes";"";"Q128904354";"";"";"";"";"";"";"";"";"";"";"Sungrow";"";"24/7";"yes"
"12174290401";"41.4053098";"23.2017168";"charging_station";"Obshtina Petrich";"Bulgaria";"Blagoevgrad";"N/A";"N/A";"";"2";"";"yes";"";"Q128904354";"";"";"";"";"";"";"";"";"";"";"";"";"24/7";"yes"
"12508854266";"41.2815818";"22.9782513";"charging_station";"";"North Macedonia";"Novo Selo";"N/A";"N/A";"";"1";"";"yes";"Cafe Ιωάννα";"";"";"";"";"1";"";"";"";"";"";"";"";"";"24/7";"yes"
"12508854267";"41.2861712";"23.0151316";"charging_station";"";"North Macedonia";"Novo Selo";"N/A";"N/A";"";"2";"";"yes";"Epavlis Hotel";"";"";"";"";"2";"";"";"";"";"";"";"Joltie";"";"24/7";"yes"
"12749431398";"41.3617681";"23.3583498";"charging_station";"Nomos Serron";"Greece";"Central Macedonia";"N/A";"N/A";"";"2";"";"yes";"EcoCharge Greece";"";"";"";"";"";"";"";"";"";"";"";"";"";"24/7";"yes"
"10054157996";"41.3826384";"23.3617148";"charging_station";"Nomos Serron";"Greece";"Central Macedonia";"N/A";"N/A";"";"";"";"";"";"";"";"";"";"2";"";"";"";"";"";"";"";"";"";"no"
"12159437568";"41.4891413";"24.8500268";"charging_station";"";"Bulgaria";"Smolyan";"N/A";"N/A";"";"2";"";"yes";"Финес Енерджи ЕООД";"Q128904354";"";"";"";"";"";"";"";"";"";"";"";"";"";"yes"
"12169556926";"41.5743946";"24.713422";"charging_station";"Obshtina Smolyan";"Bulgaria";"Smolyan";"N/A";"N/A";"";"";"";"yes";"";"Q128904354";"";"";"";"";"";"";"";"";"";"";"";"";"";"yes"
"12124254063";"41.3398825";"25.3582129";"charging_station";"Obshtina Dzhebel";"Bulgaria";"Kurdzhali";"N/A";"N/A";"";"3";"";"yes";"Финес Енерджи ООД";"Q128904354";"";"";"";"";"";"";"";"";"";"";"";"";"24/7";"yes"
"12157597111";"41.3792871";"25.1019473";"charging_station";"Obshtina Zlatograd";"Bulgaria";"Smolyan";"N/A";"N/A";"";"2";"";"yes";"Финес Енерджи ЕООД";"Q128904354";"";"";"";"";"";"";"";"";"";"";"";"";"";"yes"
"12151195680";"41.606791";"25.3754005";"charging_station";"Obshtina Kurdzhali";"Bulgaria";"Kurdzhali";"N/A";"N/A";"";"4";"";"yes";"Финес Енерджи ООД";"Q128904354";"";"";"";"";"";"";"";"";"";"";"";"";"24/7";"yes"
"6642219187";"41.619545";"26.6329086";"charging_station";"";"Turkiye";"Edirne";"N/A";"N/A";"";"1";"";"yes";"Ramada Hotel & Suites Edirne";"";"";"";"";"";"";"";"";"";"";"";"";"";"24/7";"yes"
"6642219339";"41.6296316";"26.6204793";"charging_station";"";"Turkiye";"Edirne";"N/A";"N/A";"";"1";"";"yes";"Sharz";"";"";"";"";"1";"";"";"";"";"";"";"";"";"24/7";"yes"
"6741511937";"41.5409125";"26.8316261";"charging_station";"";"Turkiye";"Edirne";"N/A";"N/A";"";"1";"";"yes";"SHARZ";"";"";"";"";"1";"";"";"";"";"";"";"";"";"24/7";"yes"
"6741511951";"41.6671275";"26.5716979";"charging_station";"";"Turkiye";"Edirne";"N/A";"N/A";"";"2";"";"";"ZES";"";"";"";"";"2";"";"";"";"";"";"";"";"";"10:00-22:00";"yes"
"10787187655";"41.6806059";"26.5820465";"charging_station";"";"Turkiye";"Edirne";"N/A";"N/A";"";"6";"";"";"Tesla";"Q478214";"";"";"";"";"";"";"";"";"";"";"Tesla Supercharger";"";"";"yes"
"10934426298";"41.6369547";"26.6093182";"charging_station";"";"Turkiye";"Edirne";"N/A";"N/A";"";"";"";"";"zes";"";"";"";"";"2";"";"";"";"";"";"";"";"";"";"yes"
"10934444150";"41.621056";"26.6308559";"charging_station";"";"Turkiye";"Edirne";"N/A";"N/A";"";"";"";"";"Zes";"";"";"";"";"";"";"";"";"";"";"";"";"";"";"yes"
"11497711874";"41.3532352";"26.5035109";"charging_station";"Nomos Evrou";"Greece";"East Macedonia and Thrace";"N/A";"N/A";"";"4";"";"yes";"Σκλαβενίτης";"";"";"";"";"2";"";"";"";"";"";"";"";"";"24/7";"yes"
"12021290879";"41.6615625";"26.5823498";"charging_station";"";"Turkiye";"Edirne";"N/A";"N/A";"";"";"";"";"";"";"";"";"";"";"";"";"";"";"";"";"";"";"";""
"12521387340";"41.5004561";"26.4807951";"charging_station";"Nomos Evrou";"Greece";"East Macedonia and Thrace";"N/A";"N/A";"";"2";"";"yes";"ELIN ΠΑΡΑΣΚΕΥΟΠΟΥΛΟΣ";"";"";"";"";"";"";"";"";"";"";"";"";"";"24/7";"yes"
"12521387341";"41.5030173";"26.5355793";"charging_station";"Nomos Evrou";"Greece";"East Macedonia and Thrace";"N/A";"N/A";"";"2";"";"yes";"Δήμος Ορεστιάδας";"";"";"";"";"";"";"";"";"";"";"";"";"";"24/7";"yes"
"12521387342";"41.4874174";"26.5344876";"charging_station";"Nomos Evrou";"Greece";"East Macedonia and Thrace";"N/A";"N/A";"";"2";"";"yes";"Μασούτης";"";"";"";"";"2";"";"";"";"";"";"";"nrg incharge";"";"24/7";"yes"
"12521455647";"41.3581766";"26.5077996";"charging_station";"Nomos Evrou";"Greece";"East Macedonia and Thrace";"N/A";"N/A";"";"1";"";"yes";"VW Skoda Καραλελέκης";"";"";"";"";"";"";"";"164987";"";"";"";"";"";"24/7";"yes"
"12817691092";"41.4830411";"26.5344232";"charging_station";"Nomos Evrou";"Greece";"East Macedonia and Thrace";"N/A";"N/A";"";"2";"";"yes";"EKO Tsiatsiou";"";"";"";"";"";"";"";"";"";"";"";"EKO Charge&Go";"";"24/7";"yes"
"12817691093";"41.4877549";"26.5344219";"charging_station";"Nomos Evrou";"Greece";"East Macedonia and Thrace";"N/A";"N/A";"";"1";"";"yes";"Κωτσόβολος Ορεστιάδας";"";"";"";"";"";"";"";"";"";"";"";"";"";"24/7";"yes"
"12818556957";"41.3496258";"26.4956385";"charging_station";"Nomos Evrou";"Greece";"East Macedonia and Thrace";"N/A";"N/A";"";"2";"";"yes";"Μασούτης";"Q6783887";"";"";"";"2";"";"";"";"";"";"";"nrg incharge";"";"24/7";"yes"
"6636331190";"41.2816946";"27.5898934";"charging_station";"";"Turkiye";"Kirklareli";"N/A";"N/A";"";"2";"";"";"ZES";"";"";"";"";"2";"";"";"";"17";"İstanbul Edirne Yolu";"39750";"";"";"24/7";"yes"
"6427056407";"41.3076728";"27.9996322";"charging_station";"";"Turkiye";"Tekirdag";"N/A";"N/A";"";"1";"";"";"Sharz";"";"";"";"";"1";"";"";"";"";"";"";"";"";"24/7";""
"7213235950";"41.318917";"27.9793218";"charging_station";"";"Turkiye";"Tekirdag";"N/A";"N/A";"";"1";"";"";"ZES";"";"";"";"";"1";"";"";"";"";"";"";"";"";"24/7";"yes"
"7814312254";"41.3209156";"27.967091";"charging_station";"";"Turkiye";"Tekirdag";"N/A";"N/A";"";"2";"";"";"ZES";"";"";"";"";"2";"";"";"";"";"";"";"";"";"24/7";"yes"
"9351671667";"41.256538";"27.9099163";"charging_station";"";"Turkiye";"Tekirdag";"N/A";"N/A";"";"2";"";"";"Dorset Çelik";"";"";"";"";"2";"";"";"";"";"";"";"";"";"";"100TL"
"9669476065";"41.3412075";"27.9652788";"charging_station";"";"Turkiye";"Tekirdag";"N/A";"N/A";"";"";"";"";"";"";"";"";"";"";"";"";"";"";"";"";"";"";"";""
"10815930889";"41.2955657";"27.9971587";"charging_station";"";"Turkiye";"Tekirdag";"N/A";"N/A";"";"2";"";"";"ZES";"";"";"";"";"2";"";"";"";"";"";"";"";"";"";"yes"
"10816010841";"41.2816876";"27.9980806";"charging_station";"";"Turkiye";"Tekirdag";"N/A";"N/A";"";"2";"";"";"ZES";"";"";"";"";"2";"";"";"";"";"";"";"";"";"24/7";"yes"
"10816010842";"41.282052";"27.9962674";"charging_station";"";"Turkiye";"Tekirdag";"N/A";"N/A";"";"2";"";"";"ZES";"";"";"";"";"2";"";"";"";"";"";"";"";"";"24/7";"yes"
"10941248525";"41.2971318";"28.0008523";"charging_station";"";"Turkiye";"Tekirdag";"N/A";"N/A";"";"";"";"";"WAT Mobilite";"";"";"";"";"";"";"";"";"";"";"";"";"";"24/7";"yes"
"11582513181";"41.2938443";"27.9951125";"charging_station";"";"Turkiye";"Tekirdag";"N/A";"N/A";"";"";"";"";"Tunçmatik";"";"";"";"";"";"";"";"";"";"";"";"";"";"24/7";"yes"
"11582579349";"41.2971163";"28.0008084";"charging_station";"";"Turkiye";"Tekirdag";"N/A";"N/A";"";"1";"";"";"Eşarj";"";"";"";"";"1";"";"";"";"";"";"";"";"";"";"yes"
"11643644749";"41.2563647";"28.0364326";"charging_station";"";"Turkiye";"Istanbul";"N/A";"N/A";"";"";"";"";"";"";"";"";"";"";"";"";"";"";"";"";"";"";"";""
"11832382977";"41.3067832";"27.9669745";"charging_station";"";"Turkiye";"Tekirdag";"N/A";"N/A";"";"";"";"";"";"";"";"";"";"";"";"";"";"";"";"";"";"";"";""
"12333493109";"41.2473235";"27.873323";"charging_station";"";"Turkiye";"Tekirdag";"N/A";"N/A";"";"1";"";"yes";"";"";"";"";"";"";"";"";"";"";"";"";"";"";"24/7";"yes"
"7945504210";"41.9169048";"22.4114882";"charging_station";"";"North Macedonia";"Kocani";"N/A";"N/A";"";"";"";"";"";"";"";"";"";"";"";"";"";"";"";"";"";"";"";""
"10151492504";"41.9169243";"22.411438";"charging_station";"";"North Macedonia";"Kocani";"N/A";"N/A";"";"";"";"";"";"";"";"";"";"";"";"";"";"";"";"";"EVN";"";"";""
"10270082471";"42.0058368";"23.0795141";"charging_station";"Obshtina Blagoevgrad";"Bulgaria";"Blagoevgrad";"N/A";"N/A";"";"";"";"";"";"";"";"";"";"1";"";"";"";"";"";"";"";"";"";""
"12140316205";"42.1371757";"23.345525";"charging_station";"";"Bulgaria";"Kyustendil";"N/A";"N/A";"";"4";"";"yes";"Финес Енерджи ООД";"Q128904354";"";"";"";"";"";"";"";"";"";"2643";"Sungrow; Autel";"";"24/7";"yes"
"12151109282";"41.9970586";"23.0597911";"charging_station";"Obshtina Blagoevgrad";"Bulgaria";"Blagoevgrad";"N/A";"N/A";"";"2";"";"yes";"Финес";"Q128904354";"";"";"";"";"";"";"";"";"";"";"";"";"";"yes"
"12159391261";"41.8768957";"23.5306764";"charging_station";"Obshtina Bansko";"Bulgaria";"Blagoevgrad";"N/A";"N/A";"";"";"";"yes";"Финес Енерджи ЕООД";"";"";"";"";"";"";"";"";"";"";"";"";"";"";"yes"
"12169894721";"41.8440196";"23.4875049";"charging_station";"Obshtina Bansko";"Bulgaria";"Blagoevgrad";"N/A";"N/A";"";"4";"";"yes";"";"Q128904354";"";"";"";"";"";"";"";"";"";"";"";"";"24/7";"yes"
"12190200790";"41.8558817";"23.418355";"charging_station";"Obshtina Razlog";"Bulgaria";"Blagoevgrad";"N/A";"N/A";"yes";"2";"";"";"";"";"";"";"";"2";"";"";"7060";"";"";"";"EVPoint";"";"";"yes"
"12192583545";"41.856779";"23.4156666";"charging_station";"Obshtina Razlog";"Bulgaria";"Blagoevgrad";"N/A";"N/A";"";"2";"";"yes";"";"";"";"";"";"";"";"";"";"";"";"";"";"0.65 BGN / kWh";"24/7";"yes"
"12192583567";"41.8578937";"23.4115953";"charging_station";"Obshtina Razlog";"Bulgaria";"Blagoevgrad";"N/A";"N/A";"";"2";"";"yes";"";"";"";"";"";"";"";"";"";"";"";"";"";"";"24/7";"yes"
"12197078535";"41.8603234";"23.4154862";"charging_station";"Obshtina Razlog";"Bulgaria";"Blagoevgrad";"N/A";"N/A";"";"1";"";"yes";"";"";"";"";"";"1";"";"";"7498";"";"";"";"";"";"24/7";"yes"
"12625685252";"41.8395053";"23.4857635";"charging_station";"Obshtina Bansko";"Bulgaria";"Blagoevgrad";"N/A";"N/A";"";"1";"";"";"Финес Енерджи ООД";"Q128904354";"";"";"";"";"";"";"";"";"";"";"";"";"";""
"10949084745";"42.1852134";"24.3510825";"charging_station";"Obshtina Pazardzhik";"Bulgaria";"Pazardzhik";"N/A";"N/A";"";"";"";"";"EVPoint";"";"";"";"";"3";"";"";"";"";"";"";"";"0.5lv/kWh";"";"yes"
"11862103152";"42.1826981";"24.3165662";"charging_station";"Obshtina Pazardzhik";"Bulgaria";"Pazardzhik";"N/A";"N/A";"";"2";"";"yes";"";"Q128904354";"";"";"";"";"";"";"";"";"";"";"";"";"";"yes"
"11862103153";"42.1812079";"24.3459764";"charging_station";"Obshtina Pazardzhik";"Bulgaria";"Pazardzhik";"N/A";"N/A";"";"";"";"";"";"";"";"";"";"";"";"";"";"";"";"";"";"";"";""
"12143894959";"42.0310906";"24.0040205";"charging_station";"Obshtina Velingrad";"Bulgaria";"Pazardzhik";"N/A";"N/A";"";"6";"";"yes";"Финес Енерджи ООД";"Q128904354";"";"";"";"";"";"";"";"";"";"";"";"";"24/7";"yes"
"12144099937";"42.0306095";"23.9734809";"charging_station";"Obshtina Velingrad";"Bulgaria";"Pazardzhik";"N/A";"N/A";"";"2";"";"";"Финес Енерджи ООД";"Q128904354";"";"";"";"";"";"";"";"";"";"";"";"";"24/7";"yes"
"12169630680";"41.9551149";"24.1526793";"charging_station";"Obshtina Batak";"Bulgaria";"Pazardzhik";"N/A";"N/A";"";"2";"";"yes";"";"Q128904354";"";"";"";"";"";"";"";"";"";"";"";"";"";"yes"
"1277778170";"";"";"charging_station";"N/A";"N/A";"N/A";"N/A";"N/A";"";"6";"";"";"";"";"";"";"";"";"";"";"";"";"";"";"";"";"";""
"11799214022";"42.1830299";"24.3463369";"";"Obshtina Pazardzhik";"Bulgaria";"Pazardzhik";"N/A";"N/A";"";"";"";"";"";"";"";"";"";"";"";"";"";"";"";"";"";"";"";""
"11821800843";"42.1828988";"24.3464398";"";"Obshtina Pazardzhik";"Bulgaria";"Pazardzhik";"N/A";"N/A";"";"";"";"";"";"";"";"";"";"";"";"";"";"";"";"";"";"";"";""
"10977522882";"42.1831676";"24.3466401";"";"Obshtina Pazardzhik";"Bulgaria";"Pazardzhik";"N/A";"N/A";"";"";"";"";"";"";"";"";"";"";"";"";"";"";"";"";"";"";"";""
"11821800844";"42.18304";"24.346741";"";"Obshtina Pazardzhik";"Bulgaria";"Pazardzhik";"N/A";"N/A";"";"";"";"";"";"";"";"";"";"";"";"";"";"";"";"";"";"";"";""
"9355614237";"42.1445868";"24.7689718";"charging_station";"Obshtina Plovdiv";"Bulgaria";"Plovdiv";"N/A";"N/A";"";"4";"";"";"Tesla";"Q478214";"";"";"";"";"";"";"";"6";"Лев Толстой";"4017";"Tesla Supercharger";"";"24/7";"yes"
"9683498855";"42.1329711";"24.7892603";"charging_station";"Obshtina Plovdiv";"Bulgaria";"Plovdiv";"N/A";"N/A";"";"";"";"";"";"";"";"";"";"1";"";"";"";"";"";"";"";"";"";"no"
"9683504723";"42.1419288";"24.7187669";"charging_station";"Obshtina Plovdiv";"Bulgaria";"Plovdiv";"N/A";"N/A";"";"";"";"";"";"";"";"";"";"2";"";"";"";"";"";"";"";"";"Mo-Su 07:00-23:00";"no"
"9683508186";"42.1413583";"24.7196175";"charging_station";"Obshtina Plovdiv";"Bulgaria";"Plovdiv";"N/A";"N/A";"";"";"";"";"";"";"";"";"";"2";"";"";"";"";"";"";"";"";"Mo-Su 07:00-23:00";"no"
"10864789616";"42.1475824";"24.7698641";"charging_station";"Obshtina Plovdiv";"Bulgaria";"Plovdiv";"N/A";"N/A";"";"";"";"";"";"";"";"";"";"";"";"";"";"";"";"";"";"";"";"no"
"10943643242";"42.1318636";"24.6951728";"charging_station";"Obshtina Plovdiv";"Bulgaria";"Plovdiv";"N/A";"N/A";"";"2";"";"";"Финес Енерджи ООД";"Q128904354";"";"";"";"";"";"";"";"";"";"";"";"";"24/7";""
"10943732983";"42.1247236";"24.7214819";"charging_station";"Obshtina Plovdiv";"Bulgaria";"Plovdiv";"N/A";"N/A";"";"";"";"";"";"";"";"";"";"";"";"";"";"";"";"";"";"";"07:00-22:00";""
"10949223898";"42.1392835";"24.5435569";"charging_station";"";"Bulgaria";"Plovdiv";"N/A";"N/A";"";"";"";"";"";"";"";"";"";"1";"";"";"";"";"";"";"";"0.69 lv/kWh";"";"yes"
"12141643309";"42.1345807";"24.5971401";"charging_station";"";"Bulgaria";"Plovdiv";"N/A";"N/A";"";"2";"";"yes";"Финес Енерджи ООД";"Q128904354";"";"";"";"";"";"";"";"";"";"4213";"ABB Terra";"";"24/7";"yes"
"12143874868";"42.2039774";"24.6739961";"charging_station";"Obshtina Plovdiv";"Bulgaria";"Plovdiv";"N/A";"N/A";"";"2";"";"yes";"Финес Енерджи ООД";"Q128904354";"";"";"";"2";"";"";"";"";"";"";"";"";"24/7";"yes"
"12145709202";"42.0955354";"24.6969196";"charging_station";"Obshtina Plovdiv";"Bulgaria";"Plovdiv";"N/A";"N/A";"";"2";"";"yes";"Финес Енерджи ООД";"Q128904354";"";"";"";"";"";"";"";"";"";"";"";"";"24/7";"yes"
"12172501346";"41.7424962";"24.3949525";"charging_station";"Obshtina Devin";"Bulgaria";"Smolyan";"N/A";"N/A";"";"2";"";"yes";"";"Q128904354";"";"";"";"";"";"";"";"";"";"";"";"";"24/7";"yes"
"12179761523";"42.1481819";"24.7876178";"charging_station";"Obshtina Plovdiv";"Bulgaria";"Plovdiv";"N/A";"N/A";"";"";"";"yes";"Финес Енерджи ООД";"Q128904354";"";"";"";"";"";"";"";"";"";"";"";"";"24/7";"yes"
"12180290219";"42.2008728";"24.7353436";"charging_station";"Obshtina Plovdiv";"Bulgaria";"Plovdiv";"N/A";"N/A";"";"3";"";"yes";"Финес Енерджи ООД";"Q128904354";"";"";"";"";"";"";"";"";"";"";"";"";"24/7";"yes"
"9792476426";"42.0906836";"25.211577";"charging_station";"Obshtina Chirpan";"Bulgaria";"Stara Zagora";"N/A";"N/A";"";"";"";"";"";"";"";"";"";"";"";"";"";"";"";"";"";"";"";""
"11107052717";"42.1916039";"25.1918569";"charging_station";"Obshtina Chirpan";"Bulgaria";"Stara Zagora";"N/A";"N/A";"";"4";"";"";"";"";"";"";"";"";"";"";"";"";"";"";"";"";"";""
"12120354802";"42.193573";"25.1572378";"charging_station";"Obshtina Brezovo";"Bulgaria";"Plovdiv";"N/A";"N/A";"";"2";"";"yes";"Финес Енерджи ООД";"Q128904354";"";"";"";"";"";"";"";"";"Автомагистрала Тракия";"6255";"";"";"24/7";"yes"
"12120354803";"42.1936452";"25.1572503";"charging_station";"Obshtina Brezovo";"Bulgaria";"Plovdiv";"N/A";"N/A";"";"2";"";"yes";"Финес Енерджи ООД";"Q128904354";"";"";"";"";"";"";"";"";"Автомагистрала Тракия";"6255";"";"";"24/7";"yes"
"12144064509";"42.0188926";"24.8621564";"charging_station";"Obshtina Asenovgrad";"Bulgaria";"Plovdiv";"N/A";"N/A";"";"2";"";"yes";"Финес Енерджи ООД";"Q128904354";"";"";"";"";"";"";"";"";"";"";"";"";"24/7";"yes"
"12174297046";"42.1994868";"25.3345866";"charging_station";"Obshtina Chirpan";"Bulgaria";"Stara Zagora";"N/A";"N/A";"";"2";"";"yes";"";"";"";"";"";"";"";"";"";"";"";"";"";"";"24/7";"yes"
"10942366145";"41.9195608";"25.5578798";"charging_station";"Obshtina Khaskovo";"Bulgaria";"Khaskovo";"N/A";"N/A";"";"";"";"";"GigaCharger";"";"";"";"";"1";"";"";"";"";"";"";"";"";"";"0.20€/kWh"
"12120250400";"41.9311152";"25.6036623";"charging_station";"Obshtina Khaskovo";"Bulgaria";"Khaskovo";"N/A";"N/A";"";"4";"";"yes";"Финес Енерджи ООД";"Q128904354";"";"";"";"";"";"";"";"77";"бул. Съединение";"6304";"";"";"24/7";"yes"
"12120304833";"41.9400653";"25.5579007";"charging_station";"Obshtina Khaskovo";"Bulgaria";"Khaskovo";"N/A";"N/A";"";"2";"";"yes";"Финес Енерджи ООД";"Q128904354";"";"";"";"";"";"";"";"51";"Дунав";"6303";"";"";"24/7";"yes"
"12146280201";"41.9409497";"25.5551829";"charging_station";"Obshtina Khaskovo";"Bulgaria";"Khaskovo";"N/A";"N/A";"";"2";"";"yes";"Финес Енерджи ООД";"";"";"";"";"";"";"";"";"";"";"";"";"";"";"yes"
"12151246024";"42.1931351";"25.6404148";"charging_station";"Obshtina Dimitrovgrad";"Bulgaria";"Khaskovo";"N/A";"N/A";"";"2";"";"yes";"Финес Енерджи ООД";"Q128904354";"";"";"";"";"";"";"";"";"";"";"";"";"24/7";"yes"
"12169789892";"42.0532632";"25.5864269";"charging_station";"Obshtina Dimitrovgrad";"Bulgaria";"Khaskovo";"N/A";"N/A";"";"2";"";"yes";"";"Q128904354";"";"";"";"";"";"";"";"";"";"";"";"";"";"yes"
"12141677530";"41.7628354";"26.2145041";"charging_station";"Obshtina Svilengrad";"Bulgaria";"Khaskovo";"N/A";"N/A";"";"2";"";"yes";"Финес Енерджи ООД";"Q128904354";"";"";"";"";"";"";"";"16";"Камчия";"6500";"Sungrow";"";"24/7";"yes"
"12141934996";"41.9254402";"25.9209162";"charging_station";"Obshtina Kharmanli";"Bulgaria";"Khaskovo";"N/A";"N/A";"";"4";"";"yes";"Финес Енерджи ООД";"Q128904354";"";"";"";"";"";"";"";"";"";"6450";"";"";"24/7";"yes"
"9570085732";"41.750532";"26.6550341";"charging_station";"";"Turkiye";"Edirne";"N/A";"N/A";"";"1";"";"";"ZES";"";"";"";"";"1";"";"";"";"";"";"";"";"";"24/7";"yes"
"12172071904";"42.2223641";"27.7807894";"charging_station";"Obshtina Primorsko";"Bulgaria";"Burgas";"N/A";"N/A";"";"2";"";"yes";"";"Q128904354";"";"";"";"";"";"";"";"";"";"";"";"";"24/7";"yes"
"12172071905";"42.2224237";"27.7807492";"charging_station";"Obshtina Primorsko";"Bulgaria";"Burgas";"N/A";"N/A";"";"2";"";"yes";"";"Q128904354";"";"";"";"2";"";"";"";"";"";"";"";"";"24/7";"yes"
"12179777716";"42.2746152";"22.6809499";"charging_station";"Obshtina Kyustendil";"Bulgaria";"Kyustendil";"N/A";"N/A";"";"2";"";"yes";"Финес Енерджи ООД";"Q128904354";"";"";"";"";"";"";"";"";"";"";"";"";"24/7";"yes"
"4631981417";"42.7100552";"23.2715428";"charging_station";"Stolichna Obshtina";"Bulgaria";"Sofia-Capital";"N/A";"N/A";"";"";"";"";"Mega Mall";"";"5";"";"";"";"";"";"";"15";"бул. Царица Йоанна";"";"";"";"";""
"4632018020";"42.7002861";"23.3091447";"charging_station";"Stolichna Obshtina";"Bulgaria";"Sofia-Capital";"N/A";"N/A";"";"2";"";"yes";"ProCredit Bank";"";"1";"";"";"1";"";"";"";"";"";"";"";"";"";"yes"
"5557487456";"42.6842691";"23.31811";"charging_station";"Stolichna Obshtina";"Bulgaria";"Sofia-Capital";"N/A";"N/A";"";"1";"";"";"Kia";"";"";"";"";"";"";"";"";"";"";"";"";"";"";""
"6373899778";"42.7339089";"23.247714";"charging_station";"Obshtina Bozhurishte";"Bulgaria";"Sofiya";"N/A";"N/A";"";"2";"";"";"";"";"";"";"";"";"";"";"";"";"";"";"";"";"";""
"6398434545";"42.6968332";"23.3323226";"charging_station";"Stolichna Obshtina";"Bulgaria";"Sofia-Capital";"N/A";"N/A";"";"1";"";"yes";"KIA Motors";"";"";"";"";"1";"";"";"";"";"";"";"";"";"24/7";"no"
"6501480010";"42.6851021";"23.3172034";"charging_station";"Stolichna Obshtina";"Bulgaria";"Sofia-Capital";"N/A";"N/A";"";"4";"";"";"Evpoint";"";"2";"";"";"2";"";"";"";"";"";"";"";"";"";""
"8260706764";"42.6853169";"23.3327296";"charging_station";"Stolichna Obshtina";"Bulgaria";"Sofia-Capital";"N/A";"N/A";"";"8";"";"";"Evpoint";"";"";"";"";"";"";"";"";"";"";"";"";"";"";""
"8723614381";"42.6809714";"23.3084862";"charging_station";"Stolichna Obshtina";"Bulgaria";"Sofia-Capital";"N/A";"N/A";"";"2";"";"yes";"ЕКО";"";"";"";"";"";"";"";"ABB";"";"";"";"";"";"";"yes"
"8901800166";"42.6825871";"23.2778163";"charging_station";"Stolichna Obshtina";"Bulgaria";"Sofia-Capital";"N/A";"N/A";"";"2";"";"";"Столичен автотранспорт";"";"";"";"";"";"";"";"";"";"";"";"";"";"";""
"8901800167";"42.6825264";"23.277898";"charging_station";"Stolichna Obshtina";"Bulgaria";"Sofia-Capital";"N/A";"N/A";"";"2";"";"";"Столичен автотранспорт";"";"";"";"";"";"";"";"";"";"";"";"";"";"";""
"8901800168";"42.6826209";"23.2780142";"charging_station";"Stolichna Obshtina";"Bulgaria";"Sofia-Capital";"N/A";"N/A";"";"2";"";"";"Столичен автотранспорт";"";"";"";"";"";"";"";"";"";"";"";"";"";"";""
"8901800169";"42.6826666";"23.2779338";"charging_station";"Stolichna Obshtina";"Bulgaria";"Sofia-Capital";"N/A";"N/A";"";"2";"";"";"Столичен автотранспорт";"";"";"";"";"";"";"";"";"";"";"";"";"";"";""
"9683487770";"42.7117893";"23.3015923";"charging_station";"Stolichna Obshtina";"Bulgaria";"Sofia-Capital";"N/A";"N/A";"";"1";"";"";"";"";"";"";"";"1";"";"";"";"";"";"";"";"";"";"no"
"9683506805";"42.7105423";"23.3027672";"charging_station";"Stolichna Obshtina";"Bulgaria";"Sofia-Capital";"N/A";"N/A";"";"";"";"";"";"";"";"";"";"2";"";"";"";"";"";"";"";"";"Mo-Su 07:00-22:00";"no"
"9683511459";"42.6895429";"23.302069";"charging_station";"Stolichna Obshtina";"Bulgaria";"Sofia-Capital";"N/A";"N/A";"";"2";"";"";"Kaufland";"";"";"";"";"";"";"";"";"";"";"";"";"";"";""
"9683524802";"42.7034503";"23.3459936";"charging_station";"Stolichna Obshtina";"Bulgaria";"Sofia-Capital";"N/A";"N/A";"";"";"";"";"";"";"";"";"";"1";"";"";"";"";"";"";"";"";"";"no"
"9974759170";"42.7196632";"23.2558669";"charging_station";"Obshtina Bozhurishte";"Bulgaria";"Sofiya";"N/A";"N/A";"";"4";"";"";"";"";"";"";"";"2";"";"";"";"";"";"";"";"";"Mo-Su 07:30-23:00";"yes"
"9980315249";"42.6224977";"23.3583928";"charging_station";"Stolichna Obshtina";"Bulgaria";"Sofia-Capital";"N/A";"N/A";"";"";"";"";"";"";"";"";"";"";"";"";"";"";"";"";"";"";"";"no"
"9980315250";"42.6260337";"23.3522045";"charging_station";"Stolichna Obshtina";"Bulgaria";"Sofia-Capital";"N/A";"N/A";"";"";"";"";"Renault";"Q6686";"";"";"";"3";"";"";"";"";"";"";"";"";"Mo-Fr 08:00-19:00; Sa 09:00-14:00";"no"
"9980315251";"42.6709105";"23.2674103";"charging_station";"Stolichna Obshtina";"Bulgaria";"Sofia-Capital";"N/A";"N/A";"";"1";"";"";"";"";"";"";"";"1";"";"";"";"";"";"";"";"";"";"no"
"9980330441";"42.7113709";"23.3523811";"charging_station";"Stolichna Obshtina";"Bulgaria";"Sofia-Capital";"N/A";"N/A";"";"";"";"";"Renault";"Q6686";"";"";"";"";"";"";"";"";"";"";"";"";"";"no"
"9981154555";"42.6744357";"23.2500899";"charging_station";"Stolichna Obshtina";"Bulgaria";"Sofia-Capital";"N/A";"N/A";"";"";"";"";"";"";"";"";"";"2";"";"";"1001";"";"";"";"";"";"";""
"9981183452";"42.6658389";"23.2889088";"charging_station";"Stolichna Obshtina";"Bulgaria";"Sofia-Capital";"N/A";"N/A";"";"2";"";"";"Eldrive";"";"";"";"";"2";"";"";"91";"";"";"";"";"";"";"yes"
"10243425046";"42.7112138";"23.2722643";"charging_station";"Stolichna Obshtina";"Bulgaria";"Sofia-Capital";"N/A";"N/A";"";"";"";"";"";"";"";"";"";"";"";"";"";"";"";"";"";"";"";""
"10243425047";"42.7110044";"23.2716202";"charging_station";"Stolichna Obshtina";"Bulgaria";"Sofia-Capital";"N/A";"N/A";"";"";"";"";"";"";"";"";"";"";"";"";"";"";"";"";"";"";"";""
"10306910192";"42.6945349";"23.3157184";"charging_station";"Stolichna Obshtina";"Bulgaria";"Sofia-Capital";"N/A";"N/A";"";"1";"";"";"Charge Point Energy Group";"";"";"";"";"";"";"";"";"";"";"";"";"";"";""
"10834117590";"42.6414824";"23.2930292";"charging_station";"Stolichna Obshtina";"Bulgaria";"Sofia-Capital";"N/A";"N/A";"";"2";"";"";"";"";"";"";"";"";"";"";"";"";"";"";"";"";"";""
"10836802428";"42.6947093";"23.2307499";"charging_station";"Obshtina Bozhurishte";"Bulgaria";"Sofiya";"N/A";"N/A";"";"";"";"";"";"";"";"";"";"";"";"";"";"";"";"";"";"";"Mo-Fr 07:00-18:00";""
"10836808068";"42.6947685";"23.2306721";"charging_station";"Obshtina Bozhurishte";"Bulgaria";"Sofiya";"N/A";"N/A";"";"";"";"";"";"";"";"";"";"2";"";"";"";"";"";"";"";"";"Mo-Fr 07:00-18:00";"no"
"11039538075";"42.7415383";"23.3099597";"charging_station";"Stolichna Obshtina";"Bulgaria";"Sofia-Capital";"N/A";"N/A";"";"";"";"";"";"";"";"";"";"";"";"";"";"";"";"";"";"";"";""
"11124771911";"42.6512595";"23.3497306";"charging_station";"Stolichna Obshtina";"Bulgaria";"Sofia-Capital";"N/A";"N/A";"";"2";"";"";"ProCredit Bank";"";"";"";"";"";"";"";"";"";"";"";"";"";"";""
"11128941160";"42.7340238";"23.3146003";"charging_station";"Stolichna Obshtina";"Bulgaria";"Sofia-Capital";"N/A";"N/A";"";"";"";"";"";"";"";"";"";"";"";"";"";"";"";"";"";"";"";""
"11290580118";"42.7258079";"23.2418279";"charging_station";"Obshtina Bozhurishte";"Bulgaria";"Sofiya";"N/A";"N/A";"";"";"";"";"Kaufland";"";"";"";"";"";"";"";"";"";"";"";"";"";"";""
"11381264450";"42.710257";"23.3024864";"charging_station";"Stolichna Obshtina";"Bulgaria";"Sofia-Capital";"N/A";"N/A";"";"";"";"";"";"";"";"";"";"";"";"";"";"";"";"";"";"";"";""
"11443468576";"42.7208491";"23.3406599";"charging_station";"Stolichna Obshtina";"Bulgaria";"Sofia-Capital";"N/A";"N/A";"";"1";"";"";"";"";"";"";"";"";"";"";"";"";"";"";"";"";"";""
"11615138964";"42.6679342";"23.2876355";"charging_station";"Stolichna Obshtina";"Bulgaria";"Sofia-Capital";"N/A";"N/A";"";"1";"";"";"";"";"";"";"";"";"";"";"";"";"";"";"Gigacharger";"";"";""
"11738624676";"42.6739503";"23.330323";"charging_station";"Stolichna Obshtina";"Bulgaria";"Sofia-Capital";"N/A";"N/A";"";"4";"";"";"Autel";"";"";"";"";"";"";"";"";"";"";"";"";"";"";""
"11810014395";"42.6877608";"23.2765265";"charging_station";"Stolichna Obshtina";"Bulgaria";"Sofia-Capital";"N/A";"N/A";"";"";"";"";"";"";"";"";"";"";"";"";"";"";"";"";"";"";"";""
"11901185532";"42.642512";"23.3360306";"charging_station";"Stolichna Obshtina";"Bulgaria";"Sofia-Capital";"N/A";"N/A";"";"2";"";"";"Kaufland";"";"";"";"";"";"";"";"";"";"";"";"";"";"";""
"11975166181";"42.651256";"23.3497944";"charging_station";"Stolichna Obshtina";"Bulgaria";"Sofia-Capital";"N/A";"N/A";"";"3";"";"";"Evic";"";"";"";"";"";"";"";"";"";"";"";"";"";"";""
"11985218259";"42.7001057";"23.343084";"charging_station";"Stolichna Obshtina";"Bulgaria";"Sofia-Capital";"N/A";"N/A";"";"1";"";"yes";"BullCharge";"";"";"";"";"";"";"";"";"";"";"";"";"";"";"yes"
"12120132516";"42.5836037";"23.1199712";"charging_station";"Obshtina Pernik";"Bulgaria";"Pernik";"N/A";"N/A";"";"4";"";"yes";"Финес Енерджи ООД";"Q128904354";"";"";"";"";"";"";"";"";"";"";"";"";"";"yes"
"12125985893";"42.5838835";"23.1199308";"charging_station";"Obshtina Pernik";"Bulgaria";"Pernik";"N/A";"N/A";"";"";"";"";"FINES";"";"";"";"";"";"";"";"";"";"";"";"";"";"";"yes"
"12125985894";"42.5839194";"23.1201586";"charging_station";"Obshtina Pernik";"Bulgaria";"Pernik";"N/A";"N/A";"";"";"";"";"";"";"";"";"";"";"";"";"";"";"";"";"Electrip";"";"";"yes"
"12139684371";"42.6556271";"23.2812249";"charging_station";"Stolichna Obshtina";"Bulgaria";"Sofia-Capital";"N/A";"N/A";"";"2";"";"yes";"Финес Енерджи ООД";"Q128904354";"";"";"";"";"";"";"";"8Б";"Бяло поле";"1618";"";"";"24/7";"yes"
"12144402171";"42.4432381";"23.1264219";"charging_station";"Obshtina Bobovdol";"Bulgaria";"Kyustendil";"N/A";"N/A";"";"2";"";"yes";"Финес Енерджи ООД";"Q128904354";"";"";"";"";"";"";"";"";"";"";"";"";"24/7";"yes"
"12146080293";"42.6008712";"23.1306296";"charging_station";"Obshtina Pernik";"Bulgaria";"Pernik";"N/A";"N/A";"";"2";"";"yes";"";"Q128904354";"";"";"";"";"";"";"";"";"";"";"";"";"24/7";"yes"
"12153882467";"42.6552369";"23.28754";"charging_station";"Stolichna Obshtina";"Bulgaria";"Sofia-Capital";"N/A";"N/A";"";"2";"";"yes";"Екарс БГ ЕООД";"";"";"";"";"";"";"";"";"";"";"";"";"";"Mo-Su 07:00-22:00";"yes"
"12157547315";"42.7305157";"23.3018444";"charging_station";"Stolichna Obshtina";"Bulgaria";"Sofia-Capital";"N/A";"N/A";"";"2";"";"yes";"Финес Енерджи ЕООД";"Q128904354";"";"";"";"";"";"";"";"";"";"";"";"";"";"yes"
"12179780377";"42.7097165";"23.2577462";"charging_station";"Stolichna Obshtina";"Bulgaria";"Sofia-Capital";"N/A";"N/A";"";"2";"";"yes";"Финес Енерджи ООД";"";"";"";"";"";"";"";"";"";"";"";"";"";"24/7";"yes"
"12196583041";"42.6559178";"23.3154661";"charging_station";"Stolichna Obshtina";"Bulgaria";"Sofia-Capital";"N/A";"N/A";"";"4";"";"";"Eldrive";"Q120376381";"";"";"";"";"";"";"";"";"";"";"";"";"";""
"12196583042";"42.6559324";"23.3154276";"charging_station";"Stolichna Obshtina";"Bulgaria";"Sofia-Capital";"N/A";"N/A";"";"4";"";"";"Eldrive";"Q120376381";"";"";"";"";"";"";"";"";"";"";"";"";"";""
"12255764594";"42.6668323";"23.3500953";"charging_station";"Stolichna Obshtina";"Bulgaria";"Sofia-Capital";"N/A";"N/A";"";"2";"";"";"";"";"";"";"";"";"";"";"";"";"";"";"WINK";"";"";""
"12294787195";"42.6019982";"23.0479851";"charging_station";"Obshtina Pernik";"Bulgaria";"Pernik";"N/A";"N/A";"";"";"";"";"";"";"";"";"";"";"";"";"";"";"";"";"";"";"";""
"12297688069";"42.6660728";"23.3267176";"charging_station";"Stolichna Obshtina";"Bulgaria";"Sofia-Capital";"N/A";"N/A";"";"2";"";"";"";"";"";"";"";"";"";"";"";"";"";"";"WINK";"";"";""
"12337323685";"42.6217728";"23.180129";"charging_station";"Obshtina Bozhurishte";"Bulgaria";"Sofiya";"N/A";"N/A";"";"";"";"";"";"";"";"";"";"";"";"";"";"";"";"";"KIA Hypercharge";"";"";""
"12390621128";"42.6657566";"23.285558";"charging_station";"Stolichna Obshtina";"Bulgaria";"Sofia-Capital";"N/A";"N/A";"";"";"";"";"Гигачарджър ЕООД";"Q130044770";"";"";"";"";"";"";"";"";"";"";"";"";"";""
"12390621129";"42.6657789";"23.2854938";"charging_station";"Stolichna Obshtina";"Bulgaria";"Sofia-Capital";"N/A";"N/A";"";"";"";"";"Гигачарджър ЕООД";"Q130044770";"";"";"";"";"";"";"";"";"";"";"";"";"";""
"12391537737";"42.6584557";"23.2717938";"charging_station";"Stolichna Obshtina";"Bulgaria";"Sofia-Capital";"N/A";"N/A";"";"2";"";"";"Eldrive";"";"";"";"";"";"";"";"";"";"";"";"Eldrive";"";"";"yes"
"12506414393";"42.6817964";"23.3148889";"charging_station";"Stolichna Obshtina";"Bulgaria";"Sofia-Capital";"N/A";"N/A";"";"";"";"";"";"";"";"";"";"";"";"";"";"";"";"";"";"";"";""
"12506891185";"42.670733";"23.2790745";"charging_station";"Stolichna Obshtina";"Bulgaria";"Sofia-Capital";"N/A";"N/A";"";"1";"";"";"Гигачарджър ЕООД";"Q130044770";"";"";"";"";"";"";"";"";"";"";"";"";"";""
"12621360397";"42.633583";"23.333096";"charging_station";"Stolichna Obshtina";"Bulgaria";"Sofia-Capital";"N/A";"N/A";"";"";"";"";"Eldrive";"Q120376381";"";"";"";"";"";"";"BG152";"";"";"";"";"";"";"yes"
"12641190271";"42.6027938";"23.1138666";"charging_station";"Obshtina Pernik";"Bulgaria";"Pernik";"N/A";"N/A";"";"1";"";"";"";"";"";"";"";"";"";"";"7431";"";"";"";"";"";"";""
"12659926888";"42.6796929";"23.3150412";"charging_station";"Stolichna Obshtina";"Bulgaria";"Sofia-Capital";"N/A";"N/A";"";"2";"";"";"Kia";"";"";"";"";"";"";"";"";"";"";"";"";"";"";""
"12692328900";"42.6840534";"23.3225083";"charging_station";"Stolichna Obshtina";"Bulgaria";"Sofia-Capital";"N/A";"N/A";"";"1";"";"";"";"";"";"";"";"";"";"";"";"";"";"";"";"";"";""
"12708356625";"42.6664123";"23.2862797";"charging_station";"Stolichna Obshtina";"Bulgaria";"Sofia-Capital";"N/A";"N/A";"";"";"";"";"Гигачарджър ЕООД";"Q130044770";"";"";"";"";"";"";"";"";"";"";"";"";"";""
"12765932789";"42.6732683";"23.3307275";"charging_station";"Stolichna Obshtina";"Bulgaria";"Sofia-Capital";"N/A";"N/A";"";"1";"";"";"";"";"";"";"";"";"";"";"";"";"";"";"";"";"";""
"12794093409";"42.6675753";"23.3022815";"charging_station";"Stolichna Obshtina";"Bulgaria";"Sofia-Capital";"N/A";"N/A";"";"1";"";"";"";"";"";"";"";"";"";"";"";"";"";"";"";"";"";""
"12857899008";"42.6986387";"23.3257272";"charging_station";"Stolichna Obshtina";"Bulgaria";"Sofia-Capital";"N/A";"N/A";"";"";"";"";"";"";"";"";"";"";"";"";"";"";"";"";"Kia Hypercharge";"";"";""
"12875145727";"42.6977627";"23.3311529";"charging_station";"Stolichna Obshtina";"Bulgaria";"Sofia-Capital";"N/A";"N/A";"";"";"";"";"";"";"";"";"";"";"";"";"";"";"";"";"";"";"";""
"12875198325";"42.6845408";"23.3306387";"charging_station";"Stolichna Obshtina";"Bulgaria";"Sofia-Capital";"N/A";"N/A";"";"";"";"";"";"";"";"";"";"";"";"";"";"";"";"";"";"";"";""
"12875931485";"42.657822";"23.3136928";"charging_station";"Stolichna Obshtina";"Bulgaria";"Sofia-Capital";"N/A";"N/A";"";"6";"";"";"Tesla";"Q478214";"";"";"";"";"";"";"";"";"";"";"Tesla Supercharger";"";"";"yes"
"12887055019";"42.6622133";"23.2780573";"charging_station";"Stolichna Obshtina";"Bulgaria";"Sofia-Capital";"N/A";"N/A";"";"";"";"";"Gigacharger";"";"";"";"";"";"";"";"";"";"";"";"";"";"";""
"12960563531";"42.6788961";"23.2951422";"charging_station";"Stolichna Obshtina";"Bulgaria";"Sofia-Capital";"N/A";"N/A";"";"1";"";"";"";"";"";"";"";"";"";"";"";"";"";"";"";"";"";""
"1250505088";"";"";"charging_station";"N/A";"N/A";"N/A";"N/A";"N/A";"";"1";"";"";"Столичен електротранспорт";"";"";"";"";"";"";"";"";"";"";"";"";"";"";""
"1250592578";"";"";"charging_station";"N/A";"N/A";"N/A";"N/A";"N/A";"";"1";"";"";"Столичен електротранспорт";"";"";"";"";"";"";"";"";"";"";"";"";"";"";""
"1250592579";"";"";"charging_station";"N/A";"N/A";"N/A";"N/A";"N/A";"";"1";"";"";"Столичен електротранспорт";"";"";"";"";"";"";"";"";"";"";"";"";"";"";""
"1250689643";"";"";"charging_station";"N/A";"N/A";"N/A";"N/A";"N/A";"";"1";"";"";"Столичен електротранспорт";"";"";"";"";"";"";"";"";"";"";"";"";"";"";""
"1250693306";"";"";"charging_station";"N/A";"N/A";"N/A";"N/A";"N/A";"";"1";"";"";"Столичен електротранспорт";"";"";"";"";"";"";"";"";"";"";"";"";"";"";""
"1250693772";"";"";"charging_station";"N/A";"N/A";"N/A";"N/A";"N/A";"";"1";"";"";"Столичен електротранспорт";"";"";"";"";"";"";"";"";"";"";"";"";"";"";""
"1250693994";"";"";"charging_station";"N/A";"N/A";"N/A";"N/A";"N/A";"";"1";"";"";"Столичен електротранспорт";"";"";"";"";"";"";"";"";"";"";"";"";"";"";""
"1250693995";"";"";"charging_station";"N/A";"N/A";"N/A";"N/A";"N/A";"";"1";"";"";"Столичен електротранспорт";"";"";"";"";"";"";"";"";"";"";"";"";"";"";""
"1250695985";"";"";"charging_station";"N/A";"N/A";"N/A";"N/A";"N/A";"";"1";"";"";"Столичен електротранспорт";"";"";"";"";"";"";"";"";"";"";"";"";"";"";""
"1250696770";"";"";"charging_station";"N/A";"N/A";"N/A";"N/A";"N/A";"";"1";"";"";"Столичен електротранспорт";"";"";"";"";"";"";"";"";"";"";"";"";"";"";""
"11623958111";"42.6830486";"23.2435605";"";"Obshtina Bozhurishte";"Bulgaria";"Sofiya";"N/A";"N/A";"";"";"";"";"";"";"";"";"";"";"";"";"";"";"";"";"";"";"";""
"11623958112";"42.6830713";"23.2435814";"";"Obshtina Bozhurishte";"Bulgaria";"Sofiya";"N/A";"N/A";"";"";"";"";"";"";"";"";"";"";"";"";"";"";"";"";"";"";"";""
"11623958113";"42.6831325";"23.2434581";"";"Obshtina Bozhurishte";"Bulgaria";"Sofiya";"N/A";"N/A";"";"";"";"";"";"";"";"";"";"";"";"";"";"";"";"";"";"";"";""
"11623958114";"42.6831098";"23.2434372";"";"Obshtina Bozhurishte";"Bulgaria";"Sofiya";"N/A";"N/A";"";"";"";"";"";"";"";"";"";"";"";"";"";"";"";"";"";"";"";""
"11626085414";"42.682827";"23.2434359";"";"Obshtina Bozhurishte";"Bulgaria";"Sofiya";"N/A";"N/A";"";"";"";"";"";"";"";"";"";"";"";"";"";"";"";"";"";"";"";""
"11626085415";"42.6828383";"23.2434698";"";"Obshtina Bozhurishte";"Bulgaria";"Sofiya";"N/A";"N/A";"";"";"";"";"";"";"";"";"";"";"";"";"";"";"";"";"";"";"";""
"11626085416";"42.6829379";"23.2434082";"";"Obshtina Bozhurishte";"Bulgaria";"Sofiya";"N/A";"N/A";"";"";"";"";"";"";"";"";"";"";"";"";"";"";"";"";"";"";"";""
"11626085417";"42.6829266";"23.2433743";"";"Obshtina Bozhurishte";"Bulgaria";"Sofiya";"N/A";"N/A";"";"";"";"";"";"";"";"";"";"";"";"";"";"";"";"";"";"";"";""
"11626078932";"42.6171665";"23.3487256";"";"Stolichna Obshtina";"Bulgaria";"Sofia-Capital";"N/A";"N/A";"";"";"";"";"";"";"";"";"";"";"";"";"";"";"";"";"";"";"";""
"11626078933";"42.6171452";"23.3487022";"";"Stolichna Obshtina";"Bulgaria";"Sofia-Capital";"N/A";"N/A";"";"";"";"";"";"";"";"";"";"";"";"";"";"";"";"";"";"";"";""
"11626078934";"42.6170762";"23.3488178";"";"Stolichna Obshtina";"Bulgaria";"Sofia-Capital";"N/A";"N/A";"";"";"";"";"";"";"";"";"";"";"";"";"";"";"";"";"";"";"";""
"11626078935";"42.6170976";"23.3488413";"";"Stolichna Obshtina";"Bulgaria";"Sofia-Capital";"N/A";"N/A";"";"";"";"";"";"";"";"";"";"";"";"";"";"";"";"";"";"";"";""
"11624898289";"42.660595";"23.29741";"";"Stolichna Obshtina";"Bulgaria";"Sofia-Capital";"N/A";"N/A";"";"";"";"";"";"";"";"";"";"";"";"";"";"";"";"";"";"";"";""
"11624898290";"42.6606178";"23.2974309";"";"Stolichna Obshtina";"Bulgaria";"Sofia-Capital";"N/A";"N/A";"";"";"";"";"";"";"";"";"";"";"";"";"";"";"";"";"";"";"";""
"11624898292";"42.6606562";"23.2972867";"";"Stolichna Obshtina";"Bulgaria";"Sofia-Capital";"N/A";"N/A";"";"";"";"";"";"";"";"";"";"";"";"";"";"";"";"";"";"";"";""
"11624898293";"42.6605097";"23.297592";"";"Stolichna Obshtina";"Bulgaria";"Sofia-Capital";"N/A";"N/A";"";"";"";"";"";"";"";"";"";"";"";"";"";"";"";"";"";"";"";""
"11624898294";"42.6605324";"23.2976128";"";"Stolichna Obshtina";"Bulgaria";"Sofia-Capital";"N/A";"N/A";"";"";"";"";"";"";"";"";"";"";"";"";"";"";"";"";"";"";"";""
"11624898295";"42.6605937";"23.2974895";"";"Stolichna Obshtina";"Bulgaria";"Sofia-Capital";"N/A";"N/A";"";"";"";"";"";"";"";"";"";"";"";"";"";"";"";"";"";"";"";""
"11624898296";"42.6605709";"23.2974686";"";"Stolichna Obshtina";"Bulgaria";"Sofia-Capital";"N/A";"N/A";"";"";"";"";"";"";"";"";"";"";"";"";"";"";"";"";"";"";"";""
"11624898291";"42.660679";"23.2973075";"";"Stolichna Obshtina";"Bulgaria";"Sofia-Capital";"N/A";"N/A";"";"";"";"";"";"";"";"";"";"";"";"";"";"";"";"";"";"";"";""
"11626120913";"42.6771173";"23.280808";"";"Stolichna Obshtina";"Bulgaria";"Sofia-Capital";"N/A";"N/A";"";"";"";"";"";"";"";"";"";"";"";"";"";"";"";"";"";"";"";""
"11626120914";"42.6770953";"23.2808303";"";"Stolichna Obshtina";"Bulgaria";"Sofia-Capital";"N/A";"N/A";"";"";"";"";"";"";"";"";"";"";"";"";"";"";"";"";"";"";"";""
"11626120915";"42.6771604";"23.2809498";"";"Stolichna Obshtina";"Bulgaria";"Sofia-Capital";"N/A";"N/A";"";"";"";"";"";"";"";"";"";"";"";"";"";"";"";"";"";"";"";""
"11626120916";"42.6771825";"23.2809276";"";"Stolichna Obshtina";"Bulgaria";"Sofia-Capital";"N/A";"N/A";"";"";"";"";"";"";"";"";"";"";"";"";"";"";"";"";"";"";"";""
"11626065105";"42.6895781";"23.3323218";"";"Stolichna Obshtina";"Bulgaria";"Sofia-Capital";"N/A";"N/A";"";"";"";"";"";"";"";"";"";"";"";"";"";"";"";"";"";"";"";""
"11626065106";"42.6896001";"23.3323439";"";"Stolichna Obshtina";"Bulgaria";"Sofia-Capital";"N/A";"N/A";"";"";"";"";"";"";"";"";"";"";"";"";"";"";"";"";"";"";"";""
"11626065107";"42.6896653";"23.3322244";"";"Stolichna Obshtina";"Bulgaria";"Sofia-Capital";"N/A";"N/A";"";"";"";"";"";"";"";"";"";"";"";"";"";"";"";"";"";"";"";""
"11626065108";"42.6896432";"23.3322022";"";"Stolichna Obshtina";"Bulgaria";"Sofia-Capital";"N/A";"N/A";"";"";"";"";"";"";"";"";"";"";"";"";"";"";"";"";"";"";"";""
"11626088822";"42.7120463";"23.3173811";"";"Stolichna Obshtina";"Bulgaria";"Sofia-Capital";"N/A";"N/A";"";"";"";"";"";"";"";"";"";"";"";"";"";"";"";"";"";"";"";""
"11626088823";"42.712069";"23.317402";"";"Stolichna Obshtina";"Bulgaria";"Sofia-Capital";"N/A";"N/A";"";"";"";"";"";"";"";"";"";"";"";"";"";"";"";"";"";"";"";""
"11626088824";"42.7121301";"23.3172787";"";"Stolichna Obshtina";"Bulgaria";"Sofia-Capital";"N/A";"N/A";"";"";"";"";"";"";"";"";"";"";"";"";"";"";"";"";"";"";"";""
"11626088825";"42.7121074";"23.3172578";"";"Stolichna Obshtina";"Bulgaria";"Sofia-Capital";"N/A";"N/A";"";"";"";"";"";"";"";"";"";"";"";"";"";"";"";"";"";"";"";""
"11626088826";"42.7123899";"23.3174893";"";"Stolichna Obshtina";"Bulgaria";"Sofia-Capital";"N/A";"N/A";"";"";"";"";"";"";"";"";"";"";"";"";"";"";"";"";"";"";"";""
"11626088827";"42.7124126";"23.3175102";"";"Stolichna Obshtina";"Bulgaria";"Sofia-Capital";"N/A";"N/A";"";"";"";"";"";"";"";"";"";"";"";"";"";"";"";"";"";"";"";""
"11626088828";"42.7124737";"23.3173869";"";"Stolichna Obshtina";"Bulgaria";"Sofia-Capital";"N/A";"N/A";"";"";"";"";"";"";"";"";"";"";"";"";"";"";"";"";"";"";"";""
"11626088829";"42.712451";"23.317366";"";"Stolichna Obshtina";"Bulgaria";"Sofia-Capital";"N/A";"N/A";"";"";"";"";"";"";"";"";"";"";"";"";"";"";"";"";"";"";"";""
"11626115491";"42.7138113";"23.3078802";"";"Stolichna Obshtina";"Bulgaria";"Sofia-Capital";"N/A";"N/A";"";"";"";"";"";"";"";"";"";"";"";"";"";"";"";"";"";"";"";""
"11626115492";"42.7137926";"23.3079075";"";"Stolichna Obshtina";"Bulgaria";"Sofia-Capital";"N/A";"N/A";"";"";"";"";"";"";"";"";"";"";"";"";"";"";"";"";"";"";"";""
"11626115493";"42.7138729";"23.3080086";"";"Stolichna Obshtina";"Bulgaria";"Sofia-Capital";"N/A";"N/A";"";"";"";"";"";"";"";"";"";"";"";"";"";"";"";"";"";"";"";""
"11626115494";"42.7138915";"23.3079813";"";"Stolichna Obshtina";"Bulgaria";"Sofia-Capital";"N/A";"N/A";"";"";"";"";"";"";"";"";"";"";"";"";"";"";"";"";"";"";"";""
"3958247069";"42.6492643";"23.394566";"charging_station";"Stolichna Obshtina";"Bulgaria";"Sofia-Capital";"N/A";"N/A";"yes";"2";"";"yes";"ЕЛЕКТРОМОБИЛИ БГ";"";"1";"";"";"";"";"";"";"";"";"";"";"";"";""
"4375792723";"42.6367459";"23.4151158";"charging_station";"Stolichna Obshtina";"Bulgaria";"Sofia-Capital";"N/A";"N/A";"";"";"";"yes";"KIA Motors Bulgaria";"";"";"";"";"1";"";"";"";"";"";"";"";"";"";""
"4631729512";"42.6606867";"23.3813224";"charging_station";"Stolichna Obshtina";"Bulgaria";"Sofia-Capital";"N/A";"N/A";"yes";"2";"";"yes";"Eldrive";"";"";"";"";"2";"";"";"";"";"";"";"";"";"";""
"6565674637";"42.6723293";"23.3949673";"charging_station";"Stolichna Obshtina";"Bulgaria";"Sofia-Capital";"N/A";"N/A";"";"";"";"";"";"";"";"";"";"";"";"";"";"";"";"";"";"";"";""
"6901144325";"42.6542852";"23.3704305";"charging_station";"Stolichna Obshtina";"Bulgaria";"Sofia-Capital";"N/A";"N/A";"";"1";"";"";"";"";"";"";"";"";"";"";"";"";"";"";"";"";"";""
"9980312982";"42.623944";"23.3837486";"charging_station";"Stolichna Obshtina";"Bulgaria";"Sofia-Capital";"N/A";"N/A";"";"";"";"yes";"Екарс БГ ЕООД";"";"";"";"";"1";"";"";"";"";"";"";"";"";"";"no"
"10047793089";"42.6404965";"23.4110065";"charging_station";"Stolichna Obshtina";"Bulgaria";"Sofia-Capital";"N/A";"N/A";"";"";"";"";"";"";"";"";"";"1";"";"";"";"";"";"";"";"";"24/7";"no"
"10118423663";"42.6229582";"23.3681425";"charging_station";"Stolichna Obshtina";"Bulgaria";"Sofia-Capital";"N/A";"N/A";"";"";"";"";"Eldrive";"";"";"";"";"";"";"";"";"";"";"";"";"";"";""
"10864790159";"42.3341111";"23.556033";"charging_station";"Obshtina Samokov";"Bulgaria";"Sofiya";"N/A";"N/A";"";"2";"";"";"";"";"";"";"";"1";"";"";"";"";"";"";"";"";"";"no"
"10881022631";"42.6748398";"23.367608";"charging_station";"Stolichna Obshtina";"Bulgaria";"Sofia-Capital";"N/A";"N/A";"";"1";"";"";"Fines Charging";"";"";"";"";"";"";"";"";"";"";"";"";"";"";""
"11101219594";"42.3643251";"23.3889377";"charging_station";"";"Bulgaria";"Kyustendil";"N/A";"N/A";"";"4";"";"";"";"";"";"";"";"4";"";"";"";"";"";"";"";"";"";""
"11302426054";"42.687908";"23.4128037";"charging_station";"Stolichna Obshtina";"Bulgaria";"Sofia-Capital";"N/A";"N/A";"";"";"";"";"";"";"";"";"";"";"";"";"";"";"";"";"";"";"";""
"11302428176";"42.6878591";"23.4128604";"charging_station";"Stolichna Obshtina";"Bulgaria";"Sofia-Capital";"N/A";"N/A";"";"";"";"";"";"";"";"";"";"";"";"";"";"";"";"";"";"";"";""
"11302428177";"42.6878102";"23.4129172";"charging_station";"Stolichna Obshtina";"Bulgaria";"Sofia-Capital";"N/A";"N/A";"";"";"";"";"";"";"";"";"";"";"";"";"";"";"";"";"";"";"";""
"11409067142";"42.6975714";"23.4443384";"charging_station";"Stolichna Obshtina";"Bulgaria";"Sofia-Capital";"N/A";"N/A";"";"2";"";"";"";"";"";"";"";"";"";"";"";"";"";"";"";"";"";""
"11608614158";"42.7122107";"23.3717853";"charging_station";"Stolichna Obshtina";"Bulgaria";"Sofia-Capital";"N/A";"N/A";"";"";"";"";"";"";"";"";"";"";"";"";"";"";"";"";"";"";"";""
"11723449715";"42.6565947";"23.5904248";"charging_station";"Obshtina Elin Pelin";"Bulgaria";"Sofiya";"N/A";"N/A";"";"";"";"";"";"";"";"";"";"";"";"";"";"";"";"";"Eldrive";"";"";""
"11850655235";"42.6513996";"23.3798621";"charging_station";"Stolichna Obshtina";"Bulgaria";"Sofia-Capital";"N/A";"N/A";"";"1";"";"";"OMV eMobility";"";"";"";"";"";"";"";"";"";"";"";"";"";"";""
"12081567272";"42.6494088";"23.3680592";"charging_station";"Stolichna Obshtina";"Bulgaria";"Sofia-Capital";"N/A";"N/A";"";"2";"";"yes";"";"";"";"";"";"1";"";"";"";"";"";"";"EVPoint";"";"Mo-Sa 07:30-21:30; Su 09:00-21:00";"yes"
"12095709593";"42.6515821";"23.3923582";"charging_station";"Stolichna Obshtina";"Bulgaria";"Sofia-Capital";"N/A";"N/A";"";"2";"";"yes";"";"";"";"";"";"";"";"";"";"";"";"";"";"";"";"yes"
"12095709594";"42.6528881";"23.3908179";"charging_station";"Stolichna Obshtina";"Bulgaria";"Sofia-Capital";"N/A";"N/A";"";"5";"";"yes";"";"";"";"";"";"";"";"";"";"";"";"";"";"";"";"yes"
"12120119628";"42.6230178";"23.3795111";"charging_station";"Stolichna Obshtina";"Bulgaria";"Sofia-Capital";"N/A";"N/A";"";"4";"";"yes";"Финес Енерджи ООД";"Q128904354";"";"";"";"";"";"";"";"21";"Околовръстен път";"1766";"";"";"";"yes"
"12122364951";"42.6321911";"23.4580958";"charging_station";"Obshtina Elin Pelin";"Bulgaria";"Sofiya";"N/A";"N/A";"";"2";"";"yes";"Финес Енерджи ООД";"Q128904354";"";"";"";"";"";"";"";"";"";"";"";"";"24/7";"yes"
"12139724768";"42.4319548";"23.8511351";"charging_station";"Obshtina Ikhtiman";"Bulgaria";"Sofiya";"N/A";"N/A";"";"2";"";"yes";"Финес Енерджи ООД";"Q128904354";"";"";"";"";"";"";"";"";"Автомагистрала Тракия";"2050";"";"";"24/7";"yes"
"12140250936";"42.6613984";"23.3721189";"charging_station";"Stolichna Obshtina";"Bulgaria";"Sofia-Capital";"N/A";"N/A";"";"2";"";"yes";"Финес Енерджи ООД";"Q128904354";"";"";"";"";"";"";"";"5";"Димитър Моллов";"1750";"";"";"24/7";"yes"
"12141651302";"42.7341699";"23.6107095";"charging_station";"Stolichna Obshtina";"Bulgaria";"Sofia-Capital";"N/A";"N/A";"";"4";"";"yes";"Финес Енерджи ООД";"Q128904354";"";"";"";"";"";"";"";"";"Автомагистрала Хемус";"2125";"Sungrow; Hypercharger";"";"24/7";"yes"
"12143940790";"42.6601735";"23.3817941";"charging_station";"Stolichna Obshtina";"Bulgaria";"Sofia-Capital";"N/A";"N/A";"";"4";"";"";"";"";"";"";"";"";"";"";"";"";"";"";"Eldrive";"";"";"yes"
"12143940791";"42.6601286";"23.3817395";"charging_station";"Stolichna Obshtina";"Bulgaria";"Sofia-Capital";"N/A";"N/A";"";"3";"";"";"";"";"";"";"";"";"";"";"";"";"";"";"electrip";"";"";"yes"
"12144338582";"42.7070562";"23.4554679";"charging_station";"Stolichna Obshtina";"Bulgaria";"Sofia-Capital";"N/A";"N/A";"";"2";"";"yes";"Финес Енерджи ООД";"Q128904354";"";"";"";"";"";"";"";"";"";"";"";"";"24/7";"yes"
"12146024695";"42.432961";"23.8526876";"charging_station";"Obshtina Ikhtiman";"Bulgaria";"Sofiya";"N/A";"N/A";"";"2";"";"yes";"";"Q128904354";"";"";"";"";"";"";"";"";"";"";"";"";"24/7";"yes"
"12146284648";"42.6227571";"23.3719459";"charging_station";"Stolichna Obshtina";"Bulgaria";"Sofia-Capital";"N/A";"N/A";"";"6";"";"yes";"";"Q128904354";"";"";"";"";"";"";"";"";"";"";"";"";"";"yes"
"12151357238";"42.6328872";"23.3798442";"charging_station";"Stolichna Obshtina";"Bulgaria";"Sofia-Capital";"N/A";"N/A";"";"";"";"";"";"";"";"";"";"";"";"";"10041";"";"";"";"GigaCharger";"";"";"yes"
"12151358261";"42.6342524";"23.3777787";"charging_station";"Stolichna Obshtina";"Bulgaria";"Sofia-Capital";"N/A";"N/A";"";"1";"";"yes";"Гигачарджър ЕООД";"Q130044770";"";"";"";"1";"";"";"";"";"";"";"GigaCharger";"";"";"yes"
"12151632756";"42.6563382";"23.4063446";"charging_station";"Stolichna Obshtina";"Bulgaria";"Sofia-Capital";"N/A";"N/A";"";"2";"";"yes";"Финес Енерджи ООД";"Q128904354";"";"";"";"";"";"";"";"";"";"";"";"";"24/7";"yes"
"12157568949";"42.7094795";"23.3659492";"charging_station";"Stolichna Obshtina";"Bulgaria";"Sofia-Capital";"N/A";"N/A";"";"";"";"yes";"Финес Енерджи ЕООД";"Q128904354";"";"";"";"";"";"";"";"";"";"";"";"";"24/7";"yes"
"12160313881";"42.6568056";"23.3861005";"charging_station";"Stolichna Obshtina";"Bulgaria";"Sofia-Capital";"N/A";"N/A";"";"";"";"";"Eldrive";"";"";"";"";"";"";"";"";"";"";"";"Eldrive";"0.80 BGN / kWh";"";"yes"
"12169542296";"42.6244312";"23.3728062";"charging_station";"Stolichna Obshtina";"Bulgaria";"Sofia-Capital";"N/A";"N/A";"";"2";"";"yes";"";"Q128904354";"";"";"";"";"";"";"";"";"";"";"";"";"";"yes"
"12180082584";"42.3321134";"23.5489784";"charging_station";"Obshtina Samokov";"Bulgaria";"Sofiya";"N/A";"N/A";"";"2";"";"yes";"Финес Енерджи ООД";"Q128904354";"";"";"";"";"";"";"";"";"";"";"";"";"24/7";"yes"
"12287921176";"42.6808292";"23.4004145";"charging_station";"Stolichna Obshtina";"Bulgaria";"Sofia-Capital";"N/A";"N/A";"";"2";"";"";"";"";"";"";"";"";"";"";"";"";"";"";"EVLink";"";"";"yes"
"12296344417";"42.6212901";"23.3686445";"charging_station";"Stolichna Obshtina";"Bulgaria";"Sofia-Capital";"N/A";"N/A";"";"2";"";"";"Eldrive";"Q120376381";"";"";"";"";"";"";"BG 35";"";"";"";"";"";"";"yes"
"12454406850";"42.6898203";"23.4023496";"charging_station";"Stolichna Obshtina";"Bulgaria";"Sofia-Capital";"N/A";"N/A";"";"";"";"";"";"";"";"";"";"";"";"";"";"";"";"";"";"";"";""
"12587473148";"42.625318";"23.3757134";"charging_station";"Stolichna Obshtina";"Bulgaria";"Sofia-Capital";"N/A";"N/A";"";"";"";"";"";"";"";"";"";"";"";"";"";"";"";"";"ElDrive";"";"";"yes"
"12695824268";"42.7082104";"23.4599712";"charging_station";"Stolichna Obshtina";"Bulgaria";"Sofia-Capital";"N/A";"N/A";"";"";"";"";"";"";"";"";"";"";"";"";"";"";"";"";"";"";"";""
"12695824269";"42.7083339";"23.4599926";"charging_station";"Stolichna Obshtina";"Bulgaria";"Sofia-Capital";"N/A";"N/A";"";"";"";"";"";"";"";"";"";"";"";"";"";"";"";"";"";"";"";""
"12695824270";"42.708464";"23.4600087";"charging_station";"Stolichna Obshtina";"Bulgaria";"Sofia-Capital";"N/A";"N/A";"";"";"";"";"";"";"";"";"";"";"";"";"";"";"";"";"";"";"";""
"12695824271";"42.708552";"23.4600176";"charging_station";"Stolichna Obshtina";"Bulgaria";"Sofia-Capital";"N/A";"N/A";"";"";"";"";"";"";"";"";"";"";"";"";"";"";"";"";"";"";"";""
"12714463801";"42.6275594";"23.3785773";"charging_station";"Stolichna Obshtina";"Bulgaria";"Sofia-Capital";"N/A";"N/A";"";"";"";"";"";"";"";"";"";"";"";"";"";"";"";"";"";"";"";""
"12797176850";"42.6302161";"23.3793978";"charging_station";"Stolichna Obshtina";"Bulgaria";"Sofia-Capital";"N/A";"N/A";"";"1";"";"";"";"";"";"";"";"";"";"";"";"";"";"";"GigaCharger";"";"";""
"1250689308";"";"";"charging_station";"N/A";"N/A";"N/A";"N/A";"N/A";"";"1";"";"";"Столичен електротранспорт";"";"";"";"";"";"";"";"";"";"";"";"";"";"";""
"1250689391";"";"";"charging_station";"N/A";"N/A";"N/A";"N/A";"N/A";"";"1";"";"";"Столичен електротранспорт";"";"";"";"";"";"";"";"";"";"";"";"";"";"";""
"1250690003";"";"";"charging_station";"N/A";"N/A";"N/A";"N/A";"N/A";"";"1";"";"";"Столичен електротранспорт";"";"";"";"";"";"";"";"";"";"";"";"";"";"";""
"1250693608";"";"";"charging_station";"N/A";"N/A";"N/A";"N/A";"N/A";"";"1";"";"";"Столичен електротранспорт";"";"";"";"";"";"";"";"";"";"";"";"";"";"";""
"1250694573";"";"";"charging_station";"N/A";"N/A";"N/A";"N/A";"N/A";"";"1";"";"";"Столичен електротранспорт";"";"";"";"";"";"";"";"";"";"";"";"";"";"";""
"1250696092";"";"";"charging_station";"N/A";"N/A";"N/A";"N/A";"N/A";"";"1";"";"";"Столичен електротранспорт";"";"";"";"";"";"";"";"";"";"";"";"";"";"";""
"1250696125";"";"";"charging_station";"N/A";"N/A";"N/A";"N/A";"N/A";"";"1";"";"";"Столичен електротранспорт";"";"";"";"";"";"";"";"";"";"";"";"";"";"";""
"11626116494";"42.6510589";"23.3674968";"";"Stolichna Obshtina";"Bulgaria";"Sofia-Capital";"N/A";"N/A";"";"";"";"";"";"";"";"";"";"";"";"";"";"";"";"";"";"";"";""
"11626116495";"42.6510686";"23.3674618";"";"Stolichna Obshtina";"Bulgaria";"Sofia-Capital";"N/A";"N/A";"";"";"";"";"";"";"";"";"";"";"";"";"";"";"";"";"";"";"";""
"11626116496";"42.6509661";"23.3674094";"";"Stolichna Obshtina";"Bulgaria";"Sofia-Capital";"N/A";"N/A";"";"";"";"";"";"";"";"";"";"";"";"";"";"";"";"";"";"";"";""
"11626116497";"42.6509564";"23.3674443";"";"Stolichna Obshtina";"Bulgaria";"Sofia-Capital";"N/A";"N/A";"";"";"";"";"";"";"";"";"";"";"";"";"";"";"";"";"";"";"";""
"11626059220";"42.6658354";"23.3717215";"";"Stolichna Obshtina";"Bulgaria";"Sofia-Capital";"N/A";"N/A";"";"";"";"";"";"";"";"";"";"";"";"";"";"";"";"";"";"";"";""
"11626059221";"42.6658547";"23.3717479";"";"Stolichna Obshtina";"Bulgaria";"Sofia-Capital";"N/A";"N/A";"";"";"";"";"";"";"";"";"";"";"";"";"";"";"";"";"";"";"";""
"11626059222";"42.6659325";"23.3716433";"";"Stolichna Obshtina";"Bulgaria";"Sofia-Capital";"N/A";"N/A";"";"";"";"";"";"";"";"";"";"";"";"";"";"";"";"";"";"";"";""
"11626059223";"42.6659132";"23.3716167";"";"Stolichna Obshtina";"Bulgaria";"Sofia-Capital";"N/A";"N/A";"";"";"";"";"";"";"";"";"";"";"";"";"";"";"";"";"";"";"";""
"11626066314";"42.6775978";"23.3706133";"";"Stolichna Obshtina";"Bulgaria";"Sofia-Capital";"N/A";"N/A";"";"";"";"";"";"";"";"";"";"";"";"";"";"";"";"";"";"";"";""
"11626066315";"42.6775748";"23.370593";"";"Stolichna Obshtina";"Bulgaria";"Sofia-Capital";"N/A";"N/A";"";"";"";"";"";"";"";"";"";"";"";"";"";"";"";"";"";"";"";""
"11626066316";"42.6775151";"23.3707177";"";"Stolichna Obshtina";"Bulgaria";"Sofia-Capital";"N/A";"N/A";"";"";"";"";"";"";"";"";"";"";"";"";"";"";"";"";"";"";"";""
"11626066317";"42.6775381";"23.3707381";"";"Stolichna Obshtina";"Bulgaria";"Sofia-Capital";"N/A";"N/A";"";"";"";"";"";"";"";"";"";"";"";"";"";"";"";"";"";"";"";""
"11626115309";"42.6778791";"23.3706458";"";"Stolichna Obshtina";"Bulgaria";"Sofia-Capital";"N/A";"N/A";"";"";"";"";"";"";"";"";"";"";"";"";"";"";"";"";"";"";"";""
"11626115310";"42.6778561";"23.3706255";"";"Stolichna Obshtina";"Bulgaria";"Sofia-Capital";"N/A";"N/A";"";"";"";"";"";"";"";"";"";"";"";"";"";"";"";"";"";"";"";""
"11626115311";"42.6777964";"23.3707502";"";"Stolichna Obshtina";"Bulgaria";"Sofia-Capital";"N/A";"N/A";"";"";"";"";"";"";"";"";"";"";"";"";"";"";"";"";"";"";"";""
"11626115312";"42.6778194";"23.3707706";"";"Stolichna Obshtina";"Bulgaria";"Sofia-Capital";"N/A";"N/A";"";"";"";"";"";"";"";"";"";"";"";"";"";"";"";"";"";"";"";""
"11626098018";"42.6097722";"23.4107934";"";"Stolichna Obshtina";"Bulgaria";"Sofia-Capital";"N/A";"N/A";"";"";"";"";"";"";"";"";"";"";"";"";"";"";"";"";"";"";"";""
"11626098019";"42.6097873";"23.4108245";"";"Stolichna Obshtina";"Bulgaria";"Sofia-Capital";"N/A";"N/A";"";"";"";"";"";"";"";"";"";"";"";"";"";"";"";"";"";"";"";""
"11626098020";"42.6098786";"23.4107425";"";"Stolichna Obshtina";"Bulgaria";"Sofia-Capital";"N/A";"N/A";"";"";"";"";"";"";"";"";"";"";"";"";"";"";"";"";"";"";"";""
"11626098021";"42.6098635";"23.4107114";"";"Stolichna Obshtina";"Bulgaria";"Sofia-Capital";"N/A";"N/A";"";"";"";"";"";"";"";"";"";"";"";"";"";"";"";"";"";"";"";""
"11626012644";"42.6545595";"23.413411";"";"Stolichna Obshtina";"Bulgaria";"Sofia-Capital";"N/A";"N/A";"";"";"";"";"";"";"";"";"";"";"";"";"";"";"";"";"";"";"";""
"11626012645";"42.6545837";"23.4134284";"";"Stolichna Obshtina";"Bulgaria";"Sofia-Capital";"N/A";"N/A";"";"";"";"";"";"";"";"";"";"";"";"";"";"";"";"";"";"";"";""
"11626012646";"42.654635";"23.4132969";"";"Stolichna Obshtina";"Bulgaria";"Sofia-Capital";"N/A";"N/A";"";"";"";"";"";"";"";"";"";"";"";"";"";"";"";"";"";"";"";""
"11626012647";"42.6546107";"23.4132794";"";"Stolichna Obshtina";"Bulgaria";"Sofia-Capital";"N/A";"N/A";"";"";"";"";"";"";"";"";"";"";"";"";"";"";"";"";"";"";"";""
"11626058250";"42.6541829";"23.4119326";"";"Stolichna Obshtina";"Bulgaria";"Sofia-Capital";"N/A";"N/A";"";"";"";"";"";"";"";"";"";"";"";"";"";"";"";"";"";"";"";""
"11626058251";"42.6542076";"23.4119485";"";"Stolichna Obshtina";"Bulgaria";"Sofia-Capital";"N/A";"N/A";"";"";"";"";"";"";"";"";"";"";"";"";"";"";"";"";"";"";"";""
"11626058252";"42.6542545";"23.411814";"";"Stolichna Obshtina";"Bulgaria";"Sofia-Capital";"N/A";"N/A";"";"";"";"";"";"";"";"";"";"";"";"";"";"";"";"";"";"";"";""
"11626058253";"42.6542297";"23.411798";"";"Stolichna Obshtina";"Bulgaria";"Sofia-Capital";"N/A";"N/A";"";"";"";"";"";"";"";"";"";"";"";"";"";"";"";"";"";"";"";""
"9088792366";"42.3196019";"24.1305035";"charging_station";"Obshtina Lesichevo";"Bulgaria";"Pazardzhik";"N/A";"N/A";"";"2";"";"yes";"";"";"";"";"";"";"";"";"";"";"";"";"";"";"";""
"9683506804";"42.3304084";"23.9881274";"charging_station";"Obshtina Belovo";"Bulgaria";"Pazardzhik";"N/A";"N/A";"";"2";"";"yes";"Финес Енерджи ООД";"Q128904354";"";"";"";"";"";"";"";"";"";"";"";"0.79 BGN / kWh";"24/7";"yes"
"12122048684";"42.2682883";"24.3142891";"charging_station";"Obshtina Pazardzhik";"Bulgaria";"Pazardzhik";"N/A";"N/A";"";"2";"";"yes";"Финес Енерджи ООД";"Q128904354";"";"";"";"";"";"";"";"";"";"";"";"";"";"yes"
"12143695423";"42.4959451";"24.1939893";"charging_station";"Obshtina Panagyurishte";"Bulgaria";"Pazardzhik";"N/A";"N/A";"";"2";"";"yes";"";"Q128904354";"";"";"";"";"";"";"";"";"";"";"";"";"24/7";"yes"
"12181602620";"42.33641";"24.0798855";"charging_station";"Obshtina Lesichevo";"Bulgaria";"Pazardzhik";"N/A";"N/A";"";"2";"";"yes";"Финес Енерджи ООД";"Q128904354";"";"";"";"";"";"";"";"";"";"";"";"0.79 BGN / kWh";"24/7";"yes"
"12045926138";"42.6430983";"24.7884371";"charging_station";"Obshtina Karlovo";"Bulgaria";"Plovdiv";"N/A";"N/A";"";"1";"";"";"Eldrive";"Q120376381";"";"";"";"2";"";"";"Eldrive BG370";"";"";"";"";"";"06:00-22:00";""
"12045926139";"42.6430981";"24.7884167";"charging_station";"Obshtina Karlovo";"Bulgaria";"Plovdiv";"N/A";"N/A";"";"24kW";"";"";"Eldrive";"";"";"";"";"";"";"";"Eldrive";"";"";"";"";"";"";""
"12146246390";"42.6329005";"24.8155668";"charging_station";"Obshtina Karlovo";"Bulgaria";"Plovdiv";"N/A";"N/A";"";"2";"";"yes";"Финес Енерджи ООД";"Q128904354";"";"";"";"";"";"";"";"";"";"";"";"";"24/7";"yes"
"1300518301";"";"";"charging_station";"N/A";"N/A";"N/A";"N/A";"N/A";"";"4";"";"";"";"";"";"";"";"";"";"";"";"";"";"";"";"";"";""
"12045926134";"42.6431165";"24.7883911";"";"Obshtina Karlovo";"Bulgaria";"Plovdiv";"N/A";"N/A";"";"";"";"";"";"";"";"";"";"";"";"";"";"";"";"";"";"";"";""
"12045926135";"42.6430934";"24.7883916";"";"Obshtina Karlovo";"Bulgaria";"Plovdiv";"N/A";"N/A";"";"";"";"";"";"";"";"";"";"";"";"";"";"";"";"";"";"";"";""
"12045926136";"42.6430943";"24.7884635";"";"Obshtina Karlovo";"Bulgaria";"Plovdiv";"N/A";"N/A";"";"";"";"";"";"";"";"";"";"";"";"";"";"";"";"";"";"";"";""
"12045926137";"42.6431174";"24.788463";"";"Obshtina Karlovo";"Bulgaria";"Plovdiv";"N/A";"N/A";"";"";"";"";"";"";"";"";"";"";"";"";"";"";"";"";"";"";"";""
"10300864460";"42.4321745";"25.639146";"charging_station";"Obshtina Stara Zagora";"Bulgaria";"Stara Zagora";"N/A";"N/A";"";"2";"";"";"Kaufland";"";"";"";"";"";"";"";"";"";"";"";"";"";"";""
"11120858576";"42.4316264";"25.6845361";"charging_station";"Obshtina Stara Zagora";"Bulgaria";"Stara Zagora";"N/A";"N/A";"";"3";"";"";"Финес Енерджи ООД";"Q128904354";"";"";"";"";"";"";"";"";"66";"6011";"ABB Terra 53; Kreisel Chimero";"";"24/7";""
"12122290349";"42.6151603";"25.4068293";"charging_station";"Obshtina Kazanluk";"Bulgaria";"Stara Zagora";"N/A";"N/A";"";"2";"";"yes";"Финес Енерджи ООД";"Q128904354";"";"";"";"";"";"";"";"";"Мусала";"6102";"";"";"24/7";"yes"
"12139946901";"42.4226437";"25.6038724";"charging_station";"Obshtina Stara Zagora";"Bulgaria";"Stara Zagora";"N/A";"N/A";"";"2";"";"yes";"Финес Енерджи ООД";"Q128904354";"";"";"";"";"";"";"";"6";"Никола Икономов";"6013";"";"";"24/7";"yes"
"12144256451";"42.4123797";"25.6212437";"charging_station";"Obshtina Stara Zagora";"Bulgaria";"Stara Zagora";"N/A";"N/A";"";"2";"";"yes";"Финес Енерджи ООД";"Q128904354";"";"";"";"";"";"";"";"";"";"";"";"";"24/7";"yes"
"12151133684";"42.4141288";"25.6376256";"charging_station";"Obshtina Stara Zagora";"Bulgaria";"Stara Zagora";"N/A";"N/A";"";"4";"";"yes";"Финес Енерджи ООД";"Q128904354";"";"";"";"";"";"";"";"";"";"";"";"";"24/7";"yes"
"12151612116";"42.5698101";"25.5464215";"charging_station";"Obshtina Muglizh";"Bulgaria";"Stara Zagora";"N/A";"N/A";"";"2";"";"yes";"Финес Енерджи ООД";"Q128904354";"";"";"";"";"";"";"";"";"";"";"";"";"24/7";"yes"
"12157597087";"42.4328289";"25.6876398";"charging_station";"Obshtina Stara Zagora";"Bulgaria";"Stara Zagora";"N/A";"N/A";"";"2";"";"yes";"Финес Енерджи ЕООД";"Q128904354";"";"";"";"";"";"";"";"";"";"";"";"";"";"yes"
"12169590783";"42.6068467";"25.5572355";"charging_station";"Obshtina Muglizh";"Bulgaria";"Stara Zagora";"N/A";"N/A";"";"2";"";"yes";"";"Q128904354";"";"";"";"";"";"";"";"";"";"";"";"";"24/7";"yes"
"9733987649";"42.6832951";"26.3317877";"charging_station";"Obshtina Sliven";"Bulgaria";"Sliven";"N/A";"N/A";"";"";"";"yes";"";"";"";"";"";"";"";"";"";"";"";"";"";"";"";""
"12123807947";"42.45273";"26.0514629";"charging_station";"Obshtina Nova Zagora";"Bulgaria";"Sliven";"N/A";"N/A";"";"4";"";"yes";"Финес Енерджи ООД";"Q128904354";"";"";"";"";"";"";"";"";"Автомагистрала Тракия";"8937";"";"";"24/7";"yes"
"12123807948";"42.4527459";"26.0515151";"charging_station";"Obshtina Nova Zagora";"Bulgaria";"Sliven";"N/A";"N/A";"";"2";"";"yes";"Финес Енерджи ООД";"Q128904354";"";"";"";"";"";"";"";"";"Автомагистрала Тракия";"8937";"";"";"24/7";"yes"
"12141893565";"42.4538315";"26.0510463";"charging_station";"Obshtina Nova Zagora";"Bulgaria";"Sliven";"N/A";"N/A";"";"6";"";"yes";"Финес Енерджи ООД";"Q128904354";"";"";"";"";"";"";"";"";"Автомагистрала Тракия";"8937";"Sungrow";"";"24/7";"yes"
"12146063118";"42.6805102";"26.3149408";"charging_station";"Obshtina Sliven";"Bulgaria";"Sliven";"N/A";"N/A";"";"2";"";"yes";"Финес Енерджи ООД";"Q128904354";"";"";"";"";"";"";"";"";"";"";"";"";"";"yes"
"12179759401";"42.4700368";"26.5103523";"charging_station";"Obshtina Yambol";"Bulgaria";"Yambol";"N/A";"N/A";"";"2";"";"yes";"Финес Енерджи ООД";"Q128904354";"";"";"";"";"";"";"";"";"";"";"";"";"24/7";"yes"
"12123678786";"42.5875968";"27.2227478";"charging_station";"Obshtina Kameno";"Bulgaria";"Burgas";"N/A";"N/A";"";"4";"";"yes";"Финес Енерджи ООД";"Q128904354";"";"";"";"";"";"";"";"";"Автомагистрала Тракия";"8121";"";"";"24/7";"yes"
"12169889646";"42.7101146";"27.2551241";"charging_station";"Obshtina Aytos";"Bulgaria";"Burgas";"N/A";"N/A";"";"2";"";"yes";"";"Q128904354";"";"";"";"";"";"";"";"";"";"";"";"";"";"yes"
"12174306906";"42.6513666";"26.9809842";"charging_station";"Obshtina Karnobat";"Bulgaria";"Burgas";"N/A";"N/A";"";"2";"";"yes";"";"Q128904354";"";"";"";"";"";"";"";"";"";"";"";"";"";"yes"
"5793659152";"43.0222704";"22.7350881";"charging_station";"Pirotski Okrug";"Serbia";"Central Serbia";"N/A";"N/A";"";"1";"";"";"putevi srbije";"";"";"";"";"1";"";"";"";"";"";"";"";"";"24/7";"no"
"9249259411";"43.1336632";"22.6073169";"charging_station";"Pirotski Okrug";"Serbia";"Central Serbia";"N/A";"N/A";"";"";"";"";"";"";"";"";"";"1";"";"";"";"";"";"";"";"";"";"no"
"9683482215";"43.0124085";"22.7771234";"charging_station";"Pirotski Okrug";"Serbia";"Central Serbia";"N/A";"N/A";"";"";"";"";"";"";"";"";"";"1";"";"";"";"";"";"";"";"";"";"no"
"12744335444";"43.1579564";"22.5809632";"charging_station";"Pirotski Okrug";"Serbia";"Central Serbia";"N/A";"N/A";"";"";"";"";"";"";"";"";"";"1";"";"";"";"";"";"";"";"";"";"no"
"11919284768";"42.7476811";"23.2079897";"charging_station";"Obshtina Bozhurishte";"Bulgaria";"Sofiya";"N/A";"N/A";"";"";"";"";"";"";"";"";"";"";"";"";"";"";"";"";"";"";"";""
"12139986710";"42.743946";"23.2300461";"charging_station";"Obshtina Bozhurishte";"Bulgaria";"Sofiya";"N/A";"N/A";"";"4";"";"yes";"Финес Енерджи ООД";"Q128904354";"";"";"";"2";"";"";"";"447";"бул. Европа";"1331";"ABB Terra 53; Kreisel Chimero";"";"24/7";"yes"
"12151145833";"42.7838558";"23.1669561";"charging_station";"Obshtina Bozhurishte";"Bulgaria";"Sofiya";"N/A";"N/A";"";"2";"";"yes";"Финес Енерджи ООД";"Q128904354";"";"";"";"";"";"";"";"";"";"";"";"";"24/7";"yes"
"12151194134";"42.794948";"23.2151413";"charging_station";"Obshtina Kostinbrod";"Bulgaria";"Sofiya";"N/A";"N/A";"";"2";"";"yes";"Финес Енерджи ООД";"Q128904354";"";"";"";"";"";"";"";"";"";"";"";"";"24/7";"yes"
"12466606913";"42.810092";"23.2172646";"charging_station";"Obshtina Kostinbrod";"Bulgaria";"Sofiya";"N/A";"N/A";"";"";"";"";"Voltspot";"";"";"";"";"";"";"";"90";"";"";"";"";"";"";""
"12344068718";"43.0965688";"24.1515694";"charging_station";"Obshtina Yablanitsa";"Bulgaria";"Lovech";"N/A";"N/A";"";"2";"";"";"Avia Volt";"";"";"";"";"";"";"";"";"";"";"";"Avia Volt";"";"";""
"12404566341";"43.2144878";"24.1654709";"charging_station";"Obshtina Lukovit";"Bulgaria";"Lovech";"N/A";"N/A";"";"3";"";"";"Evpoint";"";"";"";"";"";"";"";"";"";"";"";"";"";"";""
"12559137268";"43.0237524";"24.1092567";"charging_station";"Obshtina Yablanitsa";"Bulgaria";"Lovech";"N/A";"N/A";"";"2";"";"";"Fines Charging";"";"";"";"";"";"";"";"";"";"";"";"";"";"";""
"12141659141";"42.8951277";"24.7543685";"charging_station";"Obshtina Troyan";"Bulgaria";"Lovech";"N/A";"N/A";"";"2";"";"";"Финес Енерджи ООД";"Q128904354";"";"";"";"";"";"";"";"";"";"5630";"";"";"24/7";"yes"
"12181980062";"43.0400537";"24.5301197";"charging_station";"Obshtina Ugurchin";"Bulgaria";"Lovech";"N/A";"N/A";"";"1";"";"yes";"Финес Енерджи ООД";"Q128904354";"";"";"";"";"";"";"";"";"";"";"";"0.69 BGN / kWh";"24/7";"yes"
"12184202943";"43.1639845";"24.7228237";"charging_station";"Obshtina Lovech";"Bulgaria";"Lovech";"N/A";"N/A";"";"1";"";"yes";"Финес Енерджи ООД";"Q128904354";"";"";"";"";"";"";"";"";"";"";"";"";"24/7";"yes"
"12193288173";"42.8926299";"24.7164489";"charging_station";"Obshtina Troyan";"Bulgaria";"Lovech";"N/A";"N/A";"";"";"";"";"";"";"";"";"";"";"";"";"";"";"";"";"";"";"";""
"12143769396";"42.8720876";"25.3154327";"charging_station";"Obshtina Gabrovo";"Bulgaria";"Gabrovo";"N/A";"N/A";"";"2";"";"yes";"";"Q128904354";"";"";"";"";"";"";"";"";"";"";"";"";"24/7";"yes"
"12181540574";"43.0319201";"25.0805265";"charging_station";"Obshtina Sevlievo";"Bulgaria";"Gabrovo";"N/A";"N/A";"";"3";"";"yes";"Финес Енерджи ООД";"Q128904354";"";"";"";"";"";"";"";"";"";"";"";"";"24/7";"yes"
"12184172854";"42.9111245";"25.3338008";"charging_station";"Obshtina Gabrovo";"Bulgaria";"Gabrovo";"N/A";"N/A";"";"2";"";"yes";"Фермер 2016 ООД";"";"";"";"";"";"";"";"";"";"";"";"";"";"24/7";"yes"
"6412636742";"43.0751635";"25.6119401";"charging_station";"Obshtina Veliko Turnovo";"Bulgaria";"Veliko Turnovo";"N/A";"N/A";"";"2";"";"yes";"Kaufland";"";"";"";"";"";"";"";"";"";"";"";"";"";"";""
"11119237978";"43.0831031";"25.6408675";"charging_station";"Obshtina Veliko Turnovo";"Bulgaria";"Veliko Turnovo";"N/A";"N/A";"";"";"";"";"";"";"";"";"";"";"";"";"";"";"";"";"";"";"";""
"12120001012";"43.0727997";"25.6160603";"charging_station";"Obshtina Veliko Turnovo";"Bulgaria";"Veliko Turnovo";"N/A";"N/A";"";"2";"";"yes";"Финес Енерджи ООД";"Q128904354";"";"";"";"";"";"";"";"19";"Магистрална";"5002";"";"";"24/7";"yes"
"12144372554";"43.0783394";"25.5959478";"charging_station";"Obshtina Veliko Turnovo";"Bulgaria";"Veliko Turnovo";"N/A";"N/A";"";"2";"";"yes";"Финес Енерджи ООД";"Q128904354";"";"";"";"";"";"";"";"";"";"";"";"";"24/7";"yes"
"12144376967";"43.1161127";"25.6978342";"charging_station";"Obshtina Gorna Oryakhovitsa";"Bulgaria";"Veliko Turnovo";"N/A";"N/A";"";"2";"";"yes";"Финес Енерджи ООД";"Q128904354";"";"";"";"";"";"";"";"";"";"";"";"";"";"yes"
"12146094074";"43.0793146";"25.5950224";"charging_station";"Obshtina Veliko Turnovo";"Bulgaria";"Veliko Turnovo";"N/A";"N/A";"";"2";"";"yes";"";"";"";"";"";"";"";"";"";"";"";"";"";"";"24/7";"yes"
"12151650034";"43.0716618";"25.637278";"charging_station";"Obshtina Veliko Turnovo";"Bulgaria";"Veliko Turnovo";"N/A";"N/A";"";"2";"";"yes";"Финес Енерджи ООД";"Q128904354";"";"";"";"";"";"";"";"";"";"";"";"";"";"yes"
"12169675612";"43.0011732";"25.6204122";"charging_station";"Obshtina Veliko Turnovo";"Bulgaria";"Veliko Turnovo";"N/A";"N/A";"";"2";"";"yes";"";"Q128904354";"";"";"";"";"";"";"";"";"";"";"";"";"24/7";"yes"
"12172368871";"43.1083079";"26.2655063";"charging_station";"Obshtina Antonovo";"Bulgaria";"Turgovishte";"N/A";"N/A";"";"2";"";"yes";"";"Q128904354";"";"";"";"";"";"";"";"";"";"";"";"";"24/7";"yes"
"12919281116";"42.9292794";"25.8997085";"charging_station";"";"Bulgaria";"Veliko Turnovo";"N/A";"N/A";"";"";"";"";"";"";"";"";"";"";"";"";"";"";"";"";"";"";"";""
"12184205114";"43.2065175";"26.5165041";"charging_station";"Obshtina Turgovishte";"Bulgaria";"Turgovishte";"N/A";"N/A";"";"2";"";"yes";"Фермер 2016 ООД";"";"";"";"";"";"";"";"";"";"";"";"";"";"24/7";"yes"
"5144014949";"43.1065387";"27.8313588";"charging_station";"Obshtina Varna";"Bulgaria";"Varna";"N/A";"N/A";"";"1";"";"yes";"Gazprom";"";"";"";"";"";"";"";"";"";"";"";"";"";"";""
"6724921830";"43.2113886";"27.9321547";"charging_station";"Obshtina Varna";"Bulgaria";"Varna";"N/A";"N/A";"";"";"";"yes";"";"";"";"";"";"";"";"";"";"";"";"";"";"";"24/7";"yes"
"7835978011";"43.2000083";"27.9127702";"charging_station";"Obshtina Varna";"Bulgaria";"Varna";"N/A";"N/A";"yes";"2";"";"yes";"ОП „Общински паркинги и синя зона“ - Варна";"";"2";"";"220";"2";"";"400";"5";"31";"Цариброд";"";"";"";"24/7";"no"
"7899340697";"43.2061494";"27.9227279";"charging_station";"Obshtina Varna";"Bulgaria";"Varna";"N/A";"N/A";"yes";"2";"";"yes";"ОП „Общински паркинги и синя зона“ - Варна";"";"2";"";"220";"2";"";"400";"10";"";"";"";"";"";"24/7";"no"
"7899340698";"43.2067472";"27.9210274";"charging_station";"Obshtina Varna";"Bulgaria";"Varna";"N/A";"N/A";"yes";"2";"";"yes";"Община Варна";"";"2";"";"";"2";"";"";"";"";"";"";"";"";"24/7";"no"
"7905499466";"43.2026358";"27.9152942";"charging_station";"Obshtina Varna";"Bulgaria";"Varna";"N/A";"N/A";"yes";"2";"";"yes";"ОП „Общински паркинги и синя зона“ - Варна";"";"2";"";"220";"2";"";"400";"4";"";"";"";"";"";"24/7";"no"
"7911732453";"43.203444";"27.9118455";"charging_station";"Obshtina Varna";"Bulgaria";"Varna";"N/A";"N/A";"yes";"2";"";"yes";"ОП „Общински паркинги и синя зона“ - Варна";"";"2";"";"220";"2";"";"400";"7";"4";"Русе";"";"";"";"24/7";"no"
"7911732454";"43.1979519";"27.9140599";"charging_station";"Obshtina Varna";"Bulgaria";"Varna";"N/A";"N/A";"yes";"2";"";"yes";"ОП „Общински паркинги и синя зона“ - Варна";"";"2";"";"220";"2";"";"400";"3";"";"";"";"";"";"24/7";"no"
"7911798137";"43.2019112";"27.9104293";"charging_station";"Obshtina Varna";"Bulgaria";"Varna";"N/A";"N/A";"yes";"2";"";"yes";"ОП „Общински паркинги и синя зона“ - Варна";"";"2";"";"220";"2";"";"400";"2";"22";"Пирот";"";"";"";"24/7";"no"
"7913389808";"43.2066905";"27.9005695";"charging_station";"Obshtina Varna";"Bulgaria";"Varna";"N/A";"N/A";"yes";"2";"";"yes";"ОП „Общински паркинги и синя зона“ - Варна";"";"2";"";"220";"2";"";"400";"";"";"";"";"";"";"24/7";"no"
"8497397603";"43.2093198";"27.9025057";"charging_station";"Obshtina Varna";"Bulgaria";"Varna";"N/A";"N/A";"";"";"";"";"";"";"";"";"";"";"";"";"";"";"";"";"";"";"";""
"8818220066";"43.1994367";"27.9178775";"charging_station";"Obshtina Varna";"Bulgaria";"Varna";"N/A";"N/A";"";"2";"";"";"Община Варна";"";"";"";"";"";"";"";"";"";"";"";"";"";"";""
"9384207682";"43.2065419";"27.9094873";"charging_station";"Obshtina Varna";"Bulgaria";"Varna";"N/A";"N/A";"";"";"";"";"Община Варна";"";"";"";"";"";"";"";"";"";"";"";"";"";"";"no"
"9413581311";"43.2206327";"27.8895879";"charging_station";"Obshtina Varna";"Bulgaria";"Varna";"N/A";"N/A";"";"4";"";"yes";"Финес Енерджи ООД";"Q128904354";"";"";"";"";"";"";"";"";"";"";"";"";"24/7";"yes"
"9495150940";"43.2145781";"27.9236278";"charging_station";"Obshtina Varna";"Bulgaria";"Varna";"N/A";"N/A";"";"2";"";"";"Община Варна";"";"";"";"";"";"";"";"ЗС 17";"";"";"";"";"";"24/7";"no"
"9859048174";"43.2049001";"27.9138481";"charging_station";"Obshtina Varna";"Bulgaria";"Varna";"N/A";"N/A";"yes";"2";"";"yes";"ОП „Общински паркинги и синя зона“ - Варна";"";"2";"";"220";"2";"";"400";"";"";"Драган Цанков";"";"";"";"24/7";"no"
"9977421973";"43.2096948";"27.9240462";"charging_station";"Obshtina Varna";"Bulgaria";"Varna";"N/A";"N/A";"yes";"2";"";"yes";"ОП „Общински паркинги и синя зона“ - Варна";"";"2";"";"220";"2";"";"400";"";"31";"Добри Чинтулов";"";"";"";"24/7";"no"
"10182281759";"43.20784";"27.9163416";"charging_station";"Obshtina Varna";"Bulgaria";"Varna";"N/A";"N/A";"yes";"2";"";"yes";"ОП „Общински паркинги и синя зона“ - Варна";"";"2";"";"220";"2";"";"400";"5";"";"";"";"";"";"24/7";"yes"
"10846756337";"43.2151469";"27.9448722";"charging_station";"Obshtina Varna";"Bulgaria";"Varna";"N/A";"N/A";"";"";"";"";"";"";"";"";"";"";"";"";"";"";"";"";"";"";"";""
"11374543033";"43.2113401";"27.9106457";"charging_station";"Obshtina Varna";"Bulgaria";"Varna";"N/A";"N/A";"";"";"";"";"";"";"";"";"";"";"";"";"";"";"";"";"";"";"";""
"12145661050";"43.2208405";"27.898684";"charging_station";"Obshtina Varna";"Bulgaria";"Varna";"N/A";"N/A";"";"";"";"yes";"Финес Енерджи ООД";"Q128904354";"";"";"";"";"";"";"";"";"";"";"";"";"";"yes"
"12145691844";"43.2322351";"27.894879";"charging_station";"Obshtina Varna";"Bulgaria";"Varna";"N/A";"N/A";"";"3";"";"yes";"Финес Енерджи ООД";"Q128904354";"";"";"";"";"";"";"";"";"";"";"";"";"24/7";"yes"
"12146176650";"43.2229527";"27.8704798";"charging_station";"Obshtina Varna";"Bulgaria";"Varna";"N/A";"N/A";"";"2";"";"yes";"";"Q128904354";"";"";"";"";"";"";"";"";"";"";"";"";"24/7";"yes"
"12151637752";"43.2250435";"27.8663264";"charging_station";"Obshtina Varna";"Bulgaria";"Varna";"N/A";"N/A";"";"2";"";"yes";"Финес Енерджи ООД";"Q128904354";"";"";"";"";"";"";"";"";"";"";"";"";"24/7";"yes"
"12153330668";"42.8252751";"27.879028";"charging_station";"Obshtina Nesebur";"Bulgaria";"Burgas";"N/A";"N/A";"";"2";"";"yes";"Финес Енерджи ООД";"Q128904354";"";"";"";"";"";"";"";"";"";"";"";"";"24/7";"yes"
"12159470253";"42.9549595";"27.8966461";"charging_station";"Obshtina Byala";"Bulgaria";"Varna";"N/A";"N/A";"";"2";"";"yes";"Финес Енерджи ЕООД";"Q128904354";"";"";"";"";"";"";"";"";"";"";"";"";"24/7";"yes"
"12568185954";"43.1924499";"27.9213667";"charging_station";"Obshtina Varna";"Bulgaria";"Varna";"N/A";"N/A";"";"";"";"";"";"";"";"";"";"";"";"";"";"";"";"";"";"";"";""
"12568185959";"43.1924145";"27.9213667";"charging_station";"Obshtina Varna";"Bulgaria";"Varna";"N/A";"N/A";"";"";"";"";"";"";"";"";"";"";"";"";"";"";"";"";"";"";"";""
"11669382513";"43.4219866";"23.2250125";"charging_station";"Obshtina Montana";"Bulgaria";"Montana";"N/A";"N/A";"";"";"";"";"";"";"";"";"";"";"";"";"441";"";"";"";"Eldrive";"";"";""
"12169944063";"43.2431444";"23.1428517";"charging_station";"Obshtina Berkovitsa";"Bulgaria";"Montana";"N/A";"N/A";"";"2";"";"yes";"";"Q128904354";"";"";"";"";"";"";"";"";"";"";"";"";"24/7";"yes"
"8082182638";"43.3395496";"27.1886497";"charging_station";"Obshtina Novi Pazar";"Bulgaria";"Shumen";"N/A";"N/A";"";"";"";"";"";"";"";"";"";"";"";"";"";"";"";"";"";"";"";""
"12153146839";"43.2811029";"26.9735706";"charging_station";"Obshtina Shumen";"Bulgaria";"Shumen";"N/A";"N/A";"";"2";"";"yes";"Финес Енерджи ООД";"Q128904354";"";"";"";"";"";"";"";"";"";"";"";"";"24/7";"yes"
"8845141389";"43.435439";"28.3255689";"charging_station";"Obshtina Kavarna";"Bulgaria";"Dobrich";"N/A";"N/A";"";"1";"";"";"";"";"";"";"";"1";"";"";"";"";"";"";"";"";"";"yes"
"12036020311";"43.4349892";"28.3270365";"charging_station";"Obshtina Kavarna";"Bulgaria";"Dobrich";"N/A";"N/A";"";"2";"";"";"";"";"";"";"";"";"";"";"";"";"";"";"";"";"";""
"12143889166";"43.3654743";"28.0672567";"charging_station";"Obshtina Varna";"Bulgaria";"Varna";"N/A";"N/A";"";"2";"";"yes";"Финес Енерджи ООД";"Q128904354";"";"";"";"";"";"";"";"";"";"";"";"";"24/7";""
"12153260476";"43.3676806";"28.0786166";"charging_station";"Obshtina Varna";"Bulgaria";"Varna";"N/A";"N/A";"";"3";"";"yes";"Финес Енерджи ООД";"";"";"";"";"1";"";"";"";"";"";"";"";"";"24/7";"yes"
"12169610529";"43.3522732";"28.0081187";"charging_station";"Obshtina Varna";"Bulgaria";"Varna";"N/A";"N/A";"";"2";"";"yes";"";"Q128904354";"";"";"";"";"";"";"";"";"";"";"";"";"";"yes"
"10840853375";"43.9083112";"25.9869656";"charging_station";"";"Romania";"Giurgiu";"N/A";"N/A";"";"2";"";"yes";"";"";"";"";"";"";"";"";"";"";"";"";"";"";"";""
"12120295009";"43.8322795";"25.9720176";"charging_station";"Obshtina Ruse";"Bulgaria";"Ruse";"N/A";"N/A";"";"2";"";"yes";"Финес Енерджи ООД";"Q128904354";"";"";"";"";"";"";"";"1";"бул. Христо Ботев";"7018";"";"";"24/7";"yes"
"12146251374";"43.834788";"25.9673124";"charging_station";"Obshtina Ruse";"Bulgaria";"Ruse";"N/A";"N/A";"";"2";"";"yes";"";"Q128904354";"";"";"";"";"";"";"";"";"";"";"";"";"";"yes"
"12169764422";"43.871131";"25.9996907";"charging_station";"Obshtina Ruse";"Bulgaria";"Ruse";"N/A";"N/A";"";"2";"";"yes";"";"Q128904354";"";"";"";"";"";"";"";"";"";"";"";"";"24/7";"yes"
"12174315618";"43.8542492";"25.9912243";"charging_station";"Obshtina Ruse";"Bulgaria";"Ruse";"N/A";"N/A";"";"2";"";"yes";"";"Q128904354";"";"";"";"";"";"";"";"";"";"";"";"";"";"yes"
"12180278493";"43.9010282";"26.0626575";"charging_station";"Comuna Oinacu";"Romania";"Giurgiu";"N/A";"N/A";"";"";"";"yes";"";"";"";"";"";"";"";"";"";"";"";"";"GigaCharger";"0.36 BGN / kWh";"";"yes"
"12180278494";"43.9011867";"26.0624255";"charging_station";"Comuna Oinacu";"Romania";"Giurgiu";"N/A";"N/A";"";"2";"";"yes";"Финес Енерджи ООД";"Q128904354";"";"";"";"";"";"";"";"";"";"";"";"";"24/7";"yes"
"12238318970";"43.897485";"25.9635573";"charging_station";"";"Romania";"Giurgiu";"N/A";"N/A";"";"";"";"";"Kaufland";"";"";"";"";"";"";"";"";"";"";"";"";"";"";""
"12238332497";"43.9051141";"25.973779";"charging_station";"";"Romania";"Giurgiu";"N/A";"N/A";"";"";"";"";"";"";"";"";"";"";"";"";"";"";"";"";"";"";"";""
"487098809";"44.1905379";"27.3540651";"charging_station";"Comuna Modelu";"Romania";"Calarasi";"N/A";"N/A";"";"";"";"";"";"";"";"";"";"";"";"";"";"";"";"";"";"";"";""
"8123876242";"44.192928";"27.3288829";"charging_station";"Municipiul Calarasi";"Romania";"Calarasi";"N/A";"N/A";"";"";"";"";"";"";"";"";"";"";"";"";"";"";"";"";"";"";"";""
"11135897679";"42.3883098";"27.7008911";"charging_station";"Obshtina Sozopol";"Bulgaria";"Burgas";"N/A";"N/A";"";"";"";"";"";"";"";"";"";"";"";"";"";"";"";"";"";"";"";""
"11409128546";"42.4080951";"27.6778679";"charging_station";"Obshtina Sozopol";"Bulgaria";"Burgas";"N/A";"N/A";"";"";"";"";"";"";"";"";"";"";"";"";"";"";"";"";"";"";"";""
"11994927008";"42.7046122";"27.7122186";"charging_station";"Obshtina Nesebur";"Bulgaria";"Burgas";"N/A";"N/A";"";"2";"";"yes";"";"";"";"";"";"";"";"";"";"";"";"";"Sungrow";"";"";"yes"
"12020959986";"42.6983952";"27.7154734";"charging_station";"Obshtina Nesebur";"Bulgaria";"Burgas";"N/A";"N/A";"";"";"";"";"";"";"";"";"";"";"";"";"";"";"";"";"";"";"";""
"12022676804";"42.663003";"27.6930978";"charging_station";"Obshtina Nesebur";"Bulgaria";"Burgas";"N/A";"N/A";"";"4";"";"";"";"";"";"";"";"";"";"";"";"";"";"";"";"";"";""
"12122364924";"42.6791997";"27.7050137";"charging_station";"Obshtina Nesebur";"Bulgaria";"Burgas";"N/A";"N/A";"";"2";"";"yes";"Финес Енерджи ООД";"Q128904354";"";"";"";"";"";"";"";"";"1-ва";"8240";"";"";"24/7";"yes"
"12124108194";"42.540793";"27.4408585";"charging_station";"Obshtina Burgas";"Bulgaria";"Burgas";"N/A";"N/A";"";"2";"";"yes";"Финес Енерджи ООД";"Q128904354";"";"";"";"";"";"";"";"";"";"8008";"";"";"";"yes"
"12139857803";"42.572962";"27.4148788";"charging_station";"Obshtina Burgas";"Bulgaria";"Burgas";"N/A";"N/A";"";"2";"";"yes";"Финес Енерджи ООД";"Q128904354";"";"";"";"";"";"";"";"";"";"8124";"";"";"24/7";"yes"
"12143871307";"42.6945452";"27.700986";"charging_station";"Obshtina Nesebur";"Bulgaria";"Burgas";"N/A";"N/A";"";"4";"";"yes";"Финес Енерджи ООД";"Q128904354";"";"";"";"";"";"";"";"";"";"";"";"";"24/7";"yes"
"12143896031";"42.6534671";"27.6729371";"charging_station";"Obshtina Nesebur";"Bulgaria";"Burgas";"N/A";"N/A";"";"2";"";"yes";"Финес Енерджи ООД";"Q128904354";"";"";"";"";"";"";"";"";"";"";"";"";"24/7";"yes"
"12143920245";"42.4084051";"27.7059679";"charging_station";"Obshtina Sozopol";"Bulgaria";"Burgas";"N/A";"N/A";"";"1";"";"yes";"Финес Енерджи ООД";"Q128904354";"";"";"";"";"";"";"";"";"";"";"";"";"";"yes"
"12143920246";"42.4060919";"27.7124146";"charging_station";"Obshtina Sozopol";"Bulgaria";"Burgas";"N/A";"N/A";"";"2";"";"yes";"Финес Енерджи ООД";"Q128904354";"";"";"";"";"";"";"";"";"";"";"";"";"24/7";"yes"
"12144258072";"42.4084051";"27.7059679";"charging_station";"Obshtina Sozopol";"Bulgaria";"Burgas";"N/A";"N/A";"";"1";"";"yes";"Финес Енерджи ООД";"Q128904354";"";"";"";"";"";"";"";"";"";"";"";"";"";"yes"
"12144258073";"42.4060919";"27.7124146";"charging_station";"Obshtina Sozopol";"Bulgaria";"Burgas";"N/A";"N/A";"";"2";"";"yes";"Финес Енерджи ООД";"Q128904354";"";"";"";"";"";"";"";"";"";"";"";"";"24/7";"yes"
"12145565070";"42.5199258";"27.4371086";"charging_station";"Obshtina Burgas";"Bulgaria";"Burgas";"N/A";"N/A";"";"2";"";"yes";"Финес Енерджи ООД";"Q128904354";"";"";"";"";"";"";"";"";"";"";"";"";"";"yes"
"12146155990";"42.4997223";"27.4551089";"charging_station";"Obshtina Burgas";"Bulgaria";"Burgas";"N/A";"N/A";"";"2";"";"yes";"";"Q128904354";"";"";"";"";"";"";"";"";"";"";"";"";"24/7";"yes"
"12172106723";"42.4213241";"27.6929645";"charging_station";"Obshtina Sozopol";"Bulgaria";"Burgas";"N/A";"N/A";"";"";"";"yes";"";"Q128904354";"";"";"";"";"";"";"";"";"";"";"";"";"24/7";"yes"
"12172358977";"42.4286289";"27.6414259";"charging_station";"Obshtina Sozopol";"Bulgaria";"Burgas";"N/A";"N/A";"";"2";"";"yes";"";"Q128904354";"";"";"";"";"";"";"";"";"";"";"";"";"24/7";"yes"
"12179729639";"42.5639857";"27.6313431";"charging_station";"Obshtina Pomorie";"Bulgaria";"Burgas";"N/A";"N/A";"";"2";"";"yes";"Финес Енерджи ООД";"Q128904354";"";"";"";"";"";"";"";"";"";"";"";"";"24/7";"yes"
"12180152445";"42.2643235";"27.7417432";"charging_station";"Obshtina Primorsko";"Bulgaria";"Burgas";"N/A";"N/A";"";"2";"";"yes";"Финес Енерджи ООД";"Q128904354";"";"";"";"";"";"";"";"";"";"";"";"";"24/7";"yes"
"12184182649";"42.6732565";"27.7027023";"charging_station";"Obshtina Nesebur";"Bulgaria";"Burgas";"N/A";"N/A";"";"2";"";"yes";"Финес Енерджи ООД";"Q128904354";"";"";"";"";"";"";"";"";"";"";"";"";"24/7";"yes"
"12526028488";"42.5006717";"27.4617993";"charging_station";"Obshtina Burgas";"Bulgaria";"Burgas";"N/A";"N/A";"";"";"";"";"";"";"";"";"";"";"";"";"";"";"";"";"";"";"";""
"12180206072";"43.3117976";"25.0727132";"charging_station";"";"Bulgaria";"Lovech";"N/A";"N/A";"";"4";"";"yes";"Финес Енерджи ООД";"Q128904354";"";"";"";"";"";"";"";"";"";"";"";"";"24/7";"yes"
"12182088705";"43.4394978";"24.9923354";"charging_station";"Obshtina Pleven";"Bulgaria";"Pleven";"N/A";"N/A";"";"1";"";"yes";"Фермер 2016 ООД";"";"";"";"";"";"";"";"";"";"";"";"";"";"24/7";"yes"
"12146103202";"43.4678758";"25.7121961";"charging_station";"Obshtina Tsenovo";"Bulgaria";"Ruse";"N/A";"N/A";"";"2";"";"yes";"";"Q128904354";"";"";"";"";"";"";"";"";"";"";"";"";"24/7";"yes"
"12121879464";"43.2422911";"26.5579354";"charging_station";"Obshtina Turgovishte";"Bulgaria";"Turgovishte";"N/A";"N/A";"";"1";"";"";"";"";"";"";"";"";"";"";"";"";"";"";"electrip";"";"";""
"12146118971";"43.2446674";"26.5490252";"charging_station";"Obshtina Turgovishte";"Bulgaria";"Turgovishte";"N/A";"N/A";"";"2";"";"yes";"Финес Енерджи ООД";"";"";"";"";"";"";"";"";"";"";"";"";"";"";"yes"
"12179788736";"43.5296131";"26.5010485";"charging_station";"Obshtina Razgrad";"Bulgaria";"Razgrad";"N/A";"N/A";"";"2";"";"yes";"Финес Енерджи ООД";"Q128904354";"";"";"";"";"";"";"";"";"";"";"";"";"24/7";"yes"
"12180233153";"43.2501832";"26.5534857";"charging_station";"Obshtina Turgovishte";"Bulgaria";"Turgovishte";"N/A";"N/A";"";"2";"";"yes";"Финес Енерджи ООД";"Q128904354";"";"";"";"";"";"";"";"";"";"";"";"";"24/7";"yes"
"12120144246";"43.5791046";"27.8302386";"charging_station";"Obshtina Dobrich";"Bulgaria";"Dobrich";"N/A";"N/A";"";"2";"";"yes";"Финес Енерджи ООД";"Q128904354";"";"";"";"";"";"";"";"68";"бул. 25-ти Септември";"9301";"";"";"";"yes"
"12157547365";"43.5873746";"27.8248729";"charging_station";"Obshtina Dobrich";"Bulgaria";"Dobrich";"N/A";"N/A";"";"2";"";"yes";"Финес Енерджи ЕООД";"Q128904354";"";"";"";"";"";"";"";"";"";"";"";"";"24/7";"yes"
"12169664956";"43.5610446";"27.8278381";"charging_station";"Obshtina Dobrich";"Bulgaria";"Dobrich";"N/A";"N/A";"";"3";"";"yes";"";"Q128904354";"";"";"";"";"";"";"";"";"";"";"";"";"24/7";"yes"
"12169675511";"43.5500382";"27.8335217";"charging_station";"Obshtina Dobrich";"Bulgaria";"Dobrich";"N/A";"N/A";"";"2";"";"yes";"";"Q128904354";"";"";"";"";"";"";"";"";"";"";"";"";"24/7";"yes"
"12182056532";"43.2416926";"27.8547587";"charging_station";"Obshtina Aksakovo";"Bulgaria";"Varna";"N/A";"N/A";"";"2";"";"yes";"Финес Енерджи ООД";"Q128904354";"";"";"";"";"";"";"";"";"";"";"";"";"24/7";"yes"
"1395320170";"";"";"charging_station";"N/A";"N/A";"N/A";"N/A";"N/A";"";"1";"";"";"";"";"";"";"";"1";"";"";"";"2";"9-та";"9670";"Wink";"";"";"yes"
"12915414303";"43.6901668";"28.5317292";"";"Comuna Limanu";"Romania";"Constanta";"N/A";"N/A";"";"";"";"";"";"";"";"";"";"";"";"";"";"";"";"";"";"";"";""
"12915414304";"43.6901677";"28.5318574";"";"Comuna Limanu";"Romania";"Constanta";"N/A";"N/A";"";"";"";"";"";"";"";"";"";"";"";"";"";"";"";"";"";"";"";""
"12915414305";"43.69011";"28.5318582";"";"Comuna Limanu";"Romania";"Constanta";"N/A";"N/A";"";"";"";"";"";"";"";"";"";"";"";"";"";"";"";"";"";"";"";""
"12915414306";"43.6901091";"28.5317299";"";"Comuna Limanu";"Romania";"Constanta";"N/A";"N/A";"";"";"";"";"";"";"";"";"";"";"";"";"";"";"";"";"";"";"";""
"12141883774";"43.985713";"22.8292747";"charging_station";"Obshtina Vidin";"Bulgaria";"Vidin";"N/A";"N/A";"";"4";"";"yes";"Финес Енерджи ООД";"Q128904354";"";"";"";"";"";"";"";"";"";"3725";"Sungrow";"";"24/7";"yes"
"12169598854";"43.7589432";"23.7433796";"charging_station";"Obshtina Kozloduy";"Bulgaria";"Vratsa";"N/A";"N/A";"";"2";"";"yes";"";"Q128904354";"";"";"";"";"";"";"";"";"";"";"";"";"";"yes"
"8732040832";"43.7857298";"24.484605";"charging_station";"Oras Corabia";"Romania";"Olt";"N/A";"N/A";"";"";"";"";"";"";"";"";"";"";"";"";"";"";"";"";"";"";"";""
"9240777481";"44.1216196";"24.9842449";"charging_station";"";"Romania";"Teleorman";"N/A";"N/A";"";"";"";"";"Enel";"";"";"";"";"";"";"";"";"";"";"";"";"";"";""
"10570818358";"43.7565917";"24.8753347";"charging_station";"Municipiul Turnu Magurele";"Romania";"Teleorman";"N/A";"N/A";"";"";"";"";"";"";"";"";"";"";"";"";"";"";"";"";"";"";"";""
"12456096966";"43.9728577";"25.3452855";"charging_station";"";"Romania";"Teleorman";"N/A";"N/A";"";"";"";"";"Renovatio e-charge";"Q115409077";"";"";"";"";"";"";"";"";"";"";"";"";"";""
"4022258451";"44.1486662";"28.357204";"charging_station";"Oras Murfatlar";"Romania";"Constanta";"N/A";"N/A";"";"";"";"";"MOL";"Q549181";"";"";"";"";"";"";"";"";"";"";"";"";"24/7";""
"7125748119";"44.1695093";"28.6103352";"charging_station";"Municipiul Constanta";"Romania";"Constanta";"N/A";"N/A";"";"";"";"";"";"";"";"";"";"";"";"";"";"";"";"";"";"";"";""
"8917172889";"44.0899356";"28.6108157";"charging_station";"Comuna Agigea";"Romania";"Constanta";"N/A";"N/A";"";"";"";"";"";"";"";"";"";"";"";"";"";"";"";"";"";"";"";""
