"id";"lat";"lon";"amenity";"city";"state";"country";"scraped_country_code";"scraped_country_name";"authentication:nfc";"capacity";"capacity:car";"motorcar";"operator";"operator:wikidata";"socket:schuko";"socket:schuko:current";"socket:schuko:voltage";"socket:type2";"socket:type2:current";"socket:type2:voltage";"ref";"addr:housenumber";"addr:street";"addr:postcode";"brand";"charge";"opening_hours";"fee"
"12695114197";"36.2039691";"57.6531574";"charging_station";"";"Iran";"Razavi Khorasan";"N/A";"N/A";"";"60";"";"";"";"";"";"";"";"";"";"";"";"";"";"";"";"";"";""
"3339389677";"36.2841593";"59.6192128";"charging_station";"";"Iran";"Razavi Khorasan";"N/A";"N/A";"";"";"";"";"";"";"";"";"";"";"";"";"";"";"";"";"";"";"";""
"5601793521";"36.7230102";"57.8355105";"charging_station";"";"Iran";"Razavi Khorasan";"N/A";"N/A";"";"";"";"";"خانه باغ عباس توکلیان";"";"";"";"";"";"";"";"";"";"";"";"";"";"";""
"4382019593";"37.9062865";"58.4183607";"charging_station";"";"Turkmenistan";"Ahal";"N/A";"N/A";"";"";"";"";"";"";"";"";"";"";"";"";"";"";"";"";"";"";"";""
"12082323778";"38.589409";"66.3224077";"charging_station";"";"Uzbekistan";"Qashqadaryo";"N/A";"N/A";"";"3";"";"";"OOO ""TOK BOR""";"";"";"";"";"";"";"";"UZ433";"";"";"";"TOK BOR";"";"";"yes"
"12070982720";"38.3298118";"66.585885";"charging_station";"";"Uzbekistan";"Qashqadaryo";"N/A";"N/A";"";"2";"";"";"OOO ""TOK BOR""";"";"";"";"";"";"";"";"UZ089";"";"";"";"TOK BOR";"";"";"yes"
"12072867765";"38.8604069";"65.7999934";"charging_station";"";"Uzbekistan";"Qashqadaryo";"N/A";"N/A";"";"2";"";"";"OOO ""TOK BOR""";"";"";"";"";"";"";"";"UZ141";"";"";"";"TOK BOR";"";"";"yes"
"12074591699";"38.8296136";"65.7575439";"charging_station";"";"Uzbekistan";"Qashqadaryo";"N/A";"N/A";"";"2";"";"";"OOO ""TOK BOR""";"";"";"";"";"";"";"";"UZ205";"";"";"";"TOK BOR";"";"";"yes"
"12075189190";"39.0429039";"65.6043666";"charging_station";"";"Uzbekistan";"Qashqadaryo";"N/A";"N/A";"";"4";"";"";"OOO ""TOK BOR""";"";"";"";"";"";"";"";"UZ326 UZ363";"";"";"";"TOK BOR";"";"";"yes"
"12684565474";"38.8116814";"65.775726";"charging_station";"";"Uzbekistan";"Qashqadaryo";"N/A";"N/A";"";"";"";"";"Tezroq";"";"";"";"";"";"";"";"";"";"";"";"Tezroq";"";"";""
"11957684926";"38.7215575";"66.2339529";"charging_station";"";"Uzbekistan";"Qashqadaryo";"N/A";"N/A";"";"3";"";"";"OOO ""TOK BOR""";"";"";"";"";"";"";"";"UZ466";"";"";"";"TOK BOR";"";"";"yes"
"12075131448";"38.9709145";"66.667695";"charging_station";"";"Uzbekistan";"Qashqadaryo";"N/A";"N/A";"";"2";"";"";"OOO ""TOK BOR""";"";"";"";"";"";"";"";"UZ297 UZ349";"";"";"";"TOK BOR";"";"";"yes"
"12079913630";"39.1814982";"65.3292546";"charging_station";"";"Uzbekistan";"Qashqadaryo";"N/A";"N/A";"";"4";"";"";"OOO ""TOK BOR""";"";"";"";"";"";"";"";"UZ326";"";"";"";"TOK BOR";"";"";"yes"
"12074528252";"39.2175964";"66.2467207";"charging_station";"";"Uzbekistan";"Qashqadaryo";"N/A";"N/A";"";"2";"";"";"OOO ""TOK BOR""";"";"";"";"";"";"";"";"UZ203";"";"";"";"TOK BOR";"";"";"yes"
"12082360432";"39.4639942";"66.4363504";"charging_station";"";"Uzbekistan";"Samarqand";"N/A";"N/A";"";"1";"";"";"OOO ""TOK BOR""";"";"";"";"";"";"";"";"UZ436";"";"";"";"TOK BOR";"";"";"yes"
"10689581549";"39.7683478";"64.4323254";"charging_station";"";"Uzbekistan";"Bukhara";"N/A";"N/A";"";"2";"";"yes";"OOO ""TOK BOR""";"";"";"";"";"";"";"";"UZ067";"";"";"";"TOK BOR";"";"";"yes"
"12074957988";"39.780751";"64.4310791";"charging_station";"";"Uzbekistan";"Bukhara";"N/A";"N/A";"";"4";"";"";"OOO ""TOK BOR""";"";"";"";"";"";"";"";"UZ244 UZ330";"";"";"";"TOK BOR";"";"";"yes"
"12074966487";"39.7643855";"64.4220925";"charging_station";"";"Uzbekistan";"Bukhara";"N/A";"N/A";"";"5";"";"";"OOO ""TOK BOR""";"";"";"";"";"";"";"";"UZ246 UZ247";"";"";"";"TOK BOR";"";"";"yes"
"12075226715";"40.0611883";"64.1289872";"charging_station";"";"Uzbekistan";"Bukhara";"N/A";"N/A";"";"4";"";"";"OOO ""TOK BOR""";"";"";"";"";"";"";"";"UZ337 UZ369 UZ471";"";"";"";"TOK BOR";"";"";"yes"
"12080024841";"39.7485655";"64.4173094";"charging_station";"";"Uzbekistan";"Bukhara";"N/A";"N/A";"";"2";"";"";"OOO ""TOK BOR""";"";"";"";"";"";"";"";"UZ338";"";"";"";"TOK BOR";"";"";"yes"
"12145439604";"39.7624751";"64.4125183";"charging_station";"";"Uzbekistan";"Bukhara";"N/A";"N/A";"";"4";"";"";"TOSHELECTROAPPARAT";"";"";"";"";"";"";"";"";"";"";"";"GreenTE";"";"";"yes"
"12242814867";"39.9024707";"64.2930141";"charging_station";"";"Uzbekistan";"Bukhara";"N/A";"N/A";"";"2";"";"";"ИП ООО ""TOSHELECTROAPPARAT""";"";"";"";"";"";"";"";"";"";"";"";"GreenTE";"";"";"yes"
"12072834926";"40.0866483";"64.6747124";"charging_station";"";"Uzbekistan";"Bukhara";"N/A";"N/A";"";"2";"";"";"OOO ""TOK BOR""";"";"";"";"";"";"";"";"UZ136";"";"";"";"TOK BOR";"";"";"yes"
"12073353449";"40.0897412";"64.657958";"charging_station";"";"Uzbekistan";"Bukhara";"N/A";"N/A";"";"2";"";"";"OOO ""TOK BOR""";"";"";"";"";"";"";"";"UZ183";"";"";"";"TOK BOR";"";"";"yes"
"12073353450";"40.0898233";"64.6577263";"charging_station";"";"Uzbekistan";"Bukhara";"N/A";"N/A";"";"1";"";"";"OOO ""TOK BOR""";"";"";"";"";"";"";"";"UZ500";"";"";"";"TOK BOR";"";"";"yes"
"12074600248";"40.0182854";"64.527132";"charging_station";"";"Uzbekistan";"Bukhara";"N/A";"N/A";"";"2";"";"";"OOO ""TOK BOR""";"";"";"";"";"";"";"";"UZ208";"";"";"";"TOK BOR";"";"";"yes"
"12074908513";"39.734855";"64.455563";"charging_station";"";"Uzbekistan";"Bukhara";"N/A";"N/A";"";"2";"";"";"OOO ""TOK BOR""";"";"";"";"";"";"";"";"UZ245";"";"";"";"TOK BOR";"";"";"yes"
"12119571124";"39.7406874";"64.5612709";"charging_station";"";"Uzbekistan";"Bukhara";"N/A";"N/A";"";"2";"";"";"Станция зарядки электромобилей";"";"";"";"";"";"";"";"";"";"";"";"GreenTE Kog'on";"";"";"yes"
"12243094330";"39.7869479";"64.4497068";"charging_station";"";"Uzbekistan";"Bukhara";"N/A";"N/A";"";"";"";"";"ИП ООО ""TOSHELECTROAPPARAT""";"";"";"";"";"";"";"";"";"";"";"";"GreenTE";"";"";"yes"
"11048333349";"40.1094714";"65.3839662";"charging_station";"";"Uzbekistan";"Navoiy";"N/A";"N/A";"";"2";"";"";"OOO ""TOK BOR""";"";"";"";"";"";"";"";"UZ136";"";"";"";"TOK BOR";"";"";"yes"
"11740440569";"40.1120452";"65.3609612";"charging_station";"";"Uzbekistan";"Navoiy";"N/A";"N/A";"";"2";"";"";"TOSHELECTROAPPARAT";"";"";"";"";"";"";"";"";"";"";"";"GreenTE Zarafshan Grand Hotel";"";"";"yes"
"11740443769";"40.1212033";"65.1414235";"charging_station";"";"Uzbekistan";"Navoiy";"N/A";"N/A";"";"2";"";"";"TOSHELECTROAPPARAT";"";"";"";"";"";"";"";"";"";"";"";"GreenTE гостиница ""Zarafshan""";"";"";"yes"
"12069758951";"40.1156373";"65.4930027";"charging_station";"";"Uzbekistan";"Navoiy";"N/A";"N/A";"";"2";"";"";"OOO ""TOK BOR""";"";"";"";"";"";"";"";"UZ068";"";"";"";"TOK BOR";"";"";"yes"
"12120028131";"39.9241124";"66.2771046";"charging_station";"";"Uzbekistan";"Samarqand";"N/A";"N/A";"";"3";"";"";"OOO ""TOK BOR""";"";"";"";"";"";"";"";"UZ";"";"";"";"TOK BOR";"";"";"yes"
"12399835986";"39.9212813";"66.2912036";"charging_station";"";"Uzbekistan";"Samarqand";"N/A";"N/A";"";"2";"";"";"ИП ООО ""TOSHELECTROAPPARAT""";"";"";"";"";"";"";"";"";"";"";"";"GreenTE";"";"";"yes"
"11012518673";"40.1396984";"63.4619369";"charging_station";"";"Uzbekistan";"Bukhara";"N/A";"N/A";"";"";"";"";"";"";"";"";"";"";"";"";"";"";"";"";"TOK BOR";"";"";"yes"
"12071093944";"40.1455801";"63.4538449";"charging_station";"";"Uzbekistan";"Bukhara";"N/A";"N/A";"";"4";"";"";"OOO ""TOK BOR""";"";"";"";"";"";"";"";"UZ098";"";"";"";"TOK BOR";"";"";"yes"
"12071037572";"40.1473121";"65.3452913";"charging_station";"";"Uzbekistan";"Navoiy";"N/A";"N/A";"";"2";"";"";"OOO ""TOK BOR""";"";"";"";"";"";"";"";"UZ093";"";"";"";"TOK BOR";"";"";"yes"
"12082874009";"40.1481234";"65.3476586";"charging_station";"";"Uzbekistan";"Navoiy";"N/A";"N/A";"";"2";"";"";"OOO ""TOK BOR""";"";"";"";"";"";"";"";"UZ492";"";"";"";"TOK BOR";"";"";"yes"
"11012521480";"41.0589208";"61.9785386";"charging_station";"";"Turkmenistan";"Lebap";"N/A";"N/A";"";"";"";"";"";"";"";"";"";"";"";"";"";"";"";"";"TOK BOR";"";"";"yes"
"12075219369";"41.0837588";"61.969451";"charging_station";"";"Turkmenistan";"Lebap";"N/A";"N/A";"";"6";"";"";"OOO ""TOK BOR""";"";"";"";"";"";"";"";"UZ097 UZ265 UZ267 UZ368";"";"";"";"TOK BOR";"";"";"yes"
"12082623333";"41.4002692";"60.3750768";"charging_station";"";"Uzbekistan";"Xorazm";"N/A";"N/A";"";"3";"";"";"OOO ""TOK BOR""";"";"";"";"";"";"";"";"UZ470";"";"";"";"TOK BOR";"";"";"yes"
"11883845580";"41.5769334";"60.5762517";"charging_station";"";"Uzbekistan";"Xorazm";"N/A";"N/A";"";"";"";"";"";"";"";"";"";"";"";"";"";"";"";"";"Electric Vehicle Charging Station";"";"";""
"11891324408";"41.5491222";"60.6364529";"charging_station";"";"Uzbekistan";"Xorazm";"N/A";"N/A";"";"";"";"";"";"";"";"";"";"";"";"";"";"";"";"";"Elektrazaprafka";"";"";""
"12071082165";"41.5311279";"60.6071173";"charging_station";"";"Uzbekistan";"Xorazm";"N/A";"N/A";"";"2";"";"";"OOO ""TOK BOR""";"";"";"";"";"";"";"";"UZ096";"";"";"";"TOK BOR";"";"";"yes"
"12071354909";"41.5452984";"60.6225947";"charging_station";"";"Uzbekistan";"Xorazm";"N/A";"N/A";"";"2";"";"";"OOO ""TOK BOR""";"";"";"";"";"";"";"";"UZ118";"";"";"";"TOK BOR";"";"";"yes"
"12071354910";"41.5453217";"60.6221884";"charging_station";"";"Uzbekistan";"Xorazm";"N/A";"N/A";"";"4";"";"";"OOO ""TOK BOR""";"";"";"";"";"";"";"";"UZ119 UZ366";"";"";"";"TOK BOR";"";"";"yes"
"12079504240";"41.5952458";"60.8781903";"charging_station";"";"Uzbekistan";"Karakalpakstan";"N/A";"N/A";"";"2";"";"";"OOO ""TOK BOR""";"";"";"";"";"";"";"";"UZ268";"";"";"";"TOK BOR";"";"";"yes"
"12079891459";"41.6125638";"60.8412267";"charging_station";"";"Uzbekistan";"Karakalpakstan";"N/A";"N/A";"";"1";"";"";"OOO ""TOK BOR""";"";"";"";"";"";"";"";"UZ325";"";"";"";"TOK BOR";"";"";"yes"
"11012515177";"41.5689246";"64.22209";"charging_station";"";"Uzbekistan";"Navoiy";"N/A";"N/A";"";"1";"";"";"OOO ""TOK BOR""";"";"";"";"";"";"";"";"UZ101";"";"";"";"TOK BOR";"";"";"yes"
"12072939676";"41.5581655";"64.2008096";"charging_station";"";"Uzbekistan";"Navoiy";"N/A";"N/A";"";"2";"";"";"OOO ""TOK BOR""";"";"";"";"";"";"";"";"UZ146";"";"";"";"TOK BOR";"";"";"yes"
"12079948176";"41.5705526";"64.2013805";"charging_station";"";"Uzbekistan";"Navoiy";"N/A";"N/A";"";"2";"";"";"OOO ""TOK BOR""";"";"";"";"";"";"";"";"UZ329";"";"";"";"TOK BOR";"";"";"yes"
"11898190185";"41.8233143";"60.8708918";"charging_station";"";"Uzbekistan";"Karakalpakstan";"N/A";"N/A";"";"2";"";"";"";"";"";"";"";"";"";"";"";"";"";"";"";"";"";"yes"
"12684603496";"41.6994199";"60.5267781";"charging_station";"";"Uzbekistan";"Xorazm";"N/A";"N/A";"";"";"";"";"tezroq";"";"";"";"";"";"";"";"+998880171088";"";"";"";"Tezroq";"";"";""
"10866675325";"42.4453112";"59.6288482";"charging_station";"";"Uzbekistan";"Karakalpakstan";"N/A";"N/A";"";"2";"";"";"OOO ""TOK BOR""";"";"";"";"";"";"";"";"UZ095";"";"";"";"TOK BOR";"";"";"yes"
"10873415521";"42.4667368";"59.5919243";"charging_station";"";"Uzbekistan";"Karakalpakstan";"N/A";"N/A";"";"";"";"";"";"";"";"";"";"";"";"";"";"";"";"";"Megawatt Energy";"";"";"yes"
"12119548375";"42.4257982";"59.6391964";"charging_station";"";"Uzbekistan";"Karakalpakstan";"N/A";"N/A";"";"2";"";"";"TOSHELECTROAPPARAT";"";"";"";"";"";"";"";"";"";"";"";"Tezroq NUKUSELECTROAPPARAT";"";"";"yes"
"12698745129";"42.4672409";"59.5926013";"charging_station";"";"Uzbekistan";"Karakalpakstan";"N/A";"N/A";"";"";"";"";"";"";"";"";"";"";"";"";"";"";"";"";"";"";"";""
"12739198808";"42.4719886";"59.6031126";"charging_station";"";"Uzbekistan";"Karakalpakstan";"N/A";"N/A";"";"";"";"";"";"";"";"";"";"";"";"";"";"";"";"";"Megawatt";"";"";""
"12071048546";"42.1506093";"63.5642239";"charging_station";"Uchkuduk District";"Uzbekistan";"Navoiy";"N/A";"N/A";"";"1";"";"";"OOO ""TOK BOR""";"";"";"";"";"";"";"";"UZ099";"";"";"";"TOK BOR";"";"";"yes"
