"id";"lat";"lon";"amenity";"city";"state";"country";"scraped_country_code";"scraped_country_name";"authentication:nfc";"capacity";"capacity:car";"motorcar";"operator";"operator:wikidata";"socket:schuko";"socket:schuko:current";"socket:schuko:voltage";"socket:type2";"socket:type2:current";"socket:type2:voltage";"ref";"addr:housenumber";"addr:street";"addr:postcode";"brand";"charge";"opening_hours";"fee"
"6984192250";"40.185417";"140.051409";"charging_station";"";"Japan";"Akita";"N/A";"N/A";"";"";"";"";"";"";"";"";"";"";"";"";"";"";"";"";"";"";"";""
"6984200634";"40.1825717";"140.0507143";"charging_station";"";"Japan";"Akita";"N/A";"N/A";"";"";"";"";"";"";"";"";"";"";"";"";"";"";"";"";"";"";"";""
"5599655382";"40.4288377";"140.8950454";"charging_station";"";"Japan";"Akita";"N/A";"N/A";"";"";"";"";"";"";"";"";"";"";"";"";"";"";"";"";"";"";"";""
"12229405422";"40.4176471";"140.8574375";"charging_station";"";"Japan";"Akita";"N/A";"N/A";"";"";"";"";"";"";"";"";"";"";"";"";"";"";"";"";"";"";"";""
"4239211094";"40.6024241";"140.5005026";"charging_station";"";"Japan";"Aomori";"N/A";"N/A";"";"";"";"";"";"";"";"";"";"";"";"";"";"";"";"";"";"";"";""
"7178552316";"40.7949938";"140.7544629";"charging_station";"";"Japan";"Aomori";"N/A";"N/A";"";"";"";"";"";"";"";"";"";"";"";"";"";"";"";"";"";"";"";""
"7178553705";"40.7980886";"140.7577469";"charging_station";"";"Japan";"Aomori";"N/A";"N/A";"";"";"";"";"";"";"";"";"";"";"";"";"";"";"";"";"";"";"";""
"7226630002";"40.8254337";"140.7548346";"charging_station";"";"Japan";"Aomori";"N/A";"N/A";"";"";"";"";"";"";"";"";"";"";"";"";"";"";"";"";"";"";"";""
"7226649690";"40.8275775";"140.7509016";"charging_station";"";"Japan";"Aomori";"N/A";"N/A";"";"";"";"";"";"";"";"";"";"";"";"";"";"";"";"";"";"";"";""
"7562259795";"40.8357129";"140.7252576";"charging_station";"";"Japan";"Aomori";"N/A";"N/A";"";"";"";"";"";"";"";"";"";"";"";"";"";"";"";"";"";"";"";""
"7562260620";"40.8306412";"140.7058886";"charging_station";"";"Japan";"Aomori";"N/A";"N/A";"";"";"";"";"";"";"";"";"";"";"";"";"";"";"";"";"";"";"";""
"7562272110";"40.8288647";"140.7077273";"charging_station";"";"Japan";"Aomori";"N/A";"N/A";"";"";"";"";"";"";"";"";"";"";"";"";"";"";"";"";"";"";"";""
"7562295991";"40.8289118";"140.7056918";"charging_station";"";"Japan";"Aomori";"N/A";"N/A";"";"";"";"";"";"";"";"";"";"";"";"";"";"";"";"";"";"";"";""
"7602249304";"40.8332027";"140.6909266";"charging_station";"";"Japan";"Aomori";"N/A";"N/A";"";"";"";"";"";"";"";"";"";"";"";"";"";"";"";"";"";"";"";""
"7602249605";"40.83428";"140.6865054";"charging_station";"";"Japan";"Aomori";"N/A";"N/A";"";"";"";"";"";"";"";"";"";"";"";"";"";"";"";"";"";"";"";""
"7602250001";"40.8340373";"140.6871085";"charging_station";"";"Japan";"Aomori";"N/A";"N/A";"";"";"";"";"";"";"";"";"";"";"";"";"";"";"";"";"";"";"";""
"8186356065";"40.6035513";"140.4690683";"charging_station";"";"Japan";"Aomori";"N/A";"N/A";"";"";"";"";"";"";"";"";"";"";"";"";"";"";"";"";"";"";"";""
"8922449114";"40.763694";"140.4335189";"charging_station";"";"Japan";"Aomori";"N/A";"N/A";"";"";"";"";"";"";"";"";"";"";"";"";"";"";"";"";"";"";"";""
"6332961098";"40.5785613";"140.9934439";"charging_station";"Aomori Shi";"Japan";"Aomori";"N/A";"N/A";"";"";"";"";"";"";"";"";"";"";"";"";"";"";"";"";"";"";"";""
"7140685743";"40.6130864";"141.2058658";"charging_station";"Misawa Shi";"Japan";"Aomori";"N/A";"N/A";"";"";"";"";"";"";"";"";"";"";"";"";"";"";"";"";"";"";"";""
"7140685761";"40.616421";"141.2114435";"charging_station";"Misawa Shi";"Japan";"Aomori";"N/A";"N/A";"";"";"";"";"";"";"";"";"";"";"";"";"";"";"";"";"";"";"";""
"7168771887";"40.6341831";"141.2030639";"charging_station";"Misawa Shi";"Japan";"Aomori";"N/A";"N/A";"";"";"";"";"";"";"";"";"";"";"";"";"";"";"";"";"";"";"";""
"7168774887";"40.6510287";"141.1959037";"charging_station";"Misawa Shi";"Japan";"Aomori";"N/A";"N/A";"";"";"";"";"";"";"";"";"";"";"";"";"";"";"";"";"";"";"";""
"5539942572";"41.083954";"141.2573486";"charging_station";"";"Japan";"Aomori";"N/A";"N/A";"";"";"";"";"";"";"";"";"";"";"";"";"";"";"";"";"";"";"";""
"11375025672";"41.2978231";"141.2173658";"charging_station";"";"Japan";"Aomori";"N/A";"N/A";"";"";"";"";"";"";"";"";"";"";"";"";"";"";"";"";"";"";"";""
"10268976790";"41.6828603";"123.4525634";"charging_station";"Shenyang Shi";"China";"Liaoning";"N/A";"N/A";"";"";"";"";"";"";"";"";"";"";"";"";"";"";"";"";"蔚来换电站";"";"";""
"11195186934";"41.8772762";"123.9284881";"charging_station";"";"China";"Liaoning";"N/A";"N/A";"";"";"";"";"";"";"";"";"";"";"";"";"";"";"";"";"NIO Power";"";"";""
"1352882147";"";"";"charging_station";"N/A";"N/A";"N/A";"N/A";"N/A";"";"";"";"";"";"";"";"";"";"";"";"";"";"";"";"";"特来电";"";"";""
"12518021917";"42.5341495";"128.9912267";"";"";"China";"Jilin Sheng";"N/A";"N/A";"";"";"";"";"";"";"";"";"";"";"";"";"";"";"";"";"";"";"";""
"12518021918";"42.5339304";"128.9913112";"";"";"China";"Jilin Sheng";"N/A";"N/A";"";"";"";"";"";"";"";"";"";"";"";"";"";"";"";"";"";"";"";""
"12518021919";"42.5339055";"128.9912098";"";"";"China";"Jilin Sheng";"N/A";"N/A";"";"";"";"";"";"";"";"";"";"";"";"";"";"";"";"";"";"";"";""
"12518021942";"42.5342722";"128.9904804";"";"";"China";"Jilin Sheng";"N/A";"N/A";"";"";"";"";"";"";"";"";"";"";"";"";"";"";"";"";"";"";"";""
"12518021943";"42.5338204";"128.9905698";"";"";"China";"Jilin Sheng";"N/A";"N/A";"";"";"";"";"";"";"";"";"";"";"";"";"";"";"";"";"";"";"";""
"12518021944";"42.5344039";"128.9911305";"";"";"China";"Jilin Sheng";"N/A";"N/A";"";"";"";"";"";"";"";"";"";"";"";"";"";"";"";"";"";"";"";""
"3015741760";"42.5068543";"140.3669254";"charging_station";"";"Japan";"Hokkaido";"N/A";"N/A";"";"";"";"";"";"";"";"";"";"";"";"";"";"";"";"";"";"";"";""
"5960348593";"42.2268284";"140.3128229";"charging_station";"";"Japan";"Hokkaido";"N/A";"N/A";"";"";"";"";"";"";"";"";"";"";"";"";"";"";"";"";"";"";"";""
"5960348594";"42.2265015";"140.3128267";"charging_station";"";"Japan";"Hokkaido";"N/A";"N/A";"";"";"";"";"";"";"";"";"";"";"";"";"";"";"";"";"";"";"";""
"4607705695";"42.4915087";"141.1420148";"charging_station";"";"Japan";"Hokkaido";"N/A";"N/A";"";"";"";"";"";"";"";"";"";"";"";"";"";"";"";"";"";"";"";""
"4607751589";"42.4634414";"141.1608909";"charging_station";"";"Japan";"Hokkaido";"N/A";"N/A";"";"";"";"";"";"";"";"";"";"";"";"";"";"";"";"";"";"";"";""
"4609107296";"42.4914916";"141.1420717";"charging_station";"";"Japan";"Hokkaido";"N/A";"N/A";"";"";"";"";"";"";"";"";"";"";"";"";"";"";"";"";"";"";"";""
"11152192700";"42.3424659";"142.3572617";"charging_station";"";"Japan";"Hokkaido";"N/A";"N/A";"";"";"";"";"";"";"";"";"";"";"";"";"";"";"";"";"";"";"";""
"12740823763";"42.3383215";"142.3747855";"charging_station";"";"Japan";"Hokkaido";"N/A";"N/A";"";"4";"";"";"";"";"";"";"";"";"";"";"";"";"";"";"DMM EV ON";"";"24/7";"yes"
"12740823764";"42.3359234";"142.3694291";"charging_station";"";"Japan";"Hokkaido";"N/A";"N/A";"";"1";"";"";"やまもと薬局";"";"";"";"";"";"";"";"";"";"";"";"";"";"";"yes"
"12740823765";"42.3384662";"142.3641003";"charging_station";"";"Japan";"Hokkaido";"N/A";"N/A";"";"4";"";"";"";"";"";"";"";"";"";"";"";"";"";"";"DMM EV ON";"";"24/7";"yes"
"12740823766";"42.3378353";"142.3655396";"charging_station";"";"Japan";"Hokkaido";"N/A";"N/A";"";"3";"";"";"";"";"";"";"";"";"";"";"";"";"";"";"";"";"";"yes"
"12756750057";"42.3358298";"142.3656823";"charging_station";"";"Japan";"Hokkaido";"N/A";"N/A";"";"4";"";"";"";"";"";"";"";"";"";"";"";"";"";"";"DMM EV ON";"";"";"yes"
"12756750058";"42.337528";"142.360232";"charging_station";"";"Japan";"Hokkaido";"N/A";"N/A";"";"4";"";"";"";"";"";"";"";"";"";"";"";"";"";"";"DMM EV ON";"";"Mo-Su,PH 06:00-21:00; Apr-Sep:We[2, 4] off";"yes"
"12756750059";"42.3406828";"142.3691913";"charging_station";"";"Japan";"Hokkaido";"N/A";"N/A";"";"4";"";"";"";"";"";"";"";"";"";"";"";"";"";"";"DMM EV ON";"";"Mo-Fr 08:45-17:30; Sa,Su,PH off";"yes"
"12531652210";"42.6840685";"128.0414535";"charging_station";"";"China";"Jilin Sheng";"N/A";"N/A";"";"";"";"";"";"";"";"";"";"";"";"";"";"";"";"";"蔚来能源";"";"";""
"12531652211";"42.6834055";"128.0396774";"charging_station";"";"China";"Jilin Sheng";"N/A";"N/A";"";"";"";"";"";"";"";"";"";"";"";"";"";"";"";"";"蔚来能源";"";"";""
"1232960773";"";"";"charging_station";"N/A";"N/A";"N/A";"N/A";"N/A";"";"";"";"";"";"";"";"";"";"";"";"";"";"";"";"";"";"";"";""
"1232960774";"";"";"charging_station";"N/A";"N/A";"N/A";"N/A";"N/A";"";"";"";"";"";"";"";"";"";"";"";"";"";"";"";"";"";"";"";""
"1232960775";"";"";"charging_station";"N/A";"N/A";"N/A";"N/A";"N/A";"";"";"";"";"";"";"";"";"";"";"";"";"";"";"";"";"";"";"";""
"11438649205";"42.8853689";"129.4952887";"";"";"China";"Jilin Sheng";"N/A";"N/A";"";"";"";"";"";"";"";"";"";"";"";"";"";"";"";"";"";"";"";""
"11438649206";"42.885367";"129.4958305";"";"";"China";"Jilin Sheng";"N/A";"N/A";"";"";"";"";"";"";"";"";"";"";"";"";"";"";"";"";"";"";"";""
"11438649207";"42.8854335";"129.4958309";"";"";"China";"Jilin Sheng";"N/A";"N/A";"";"";"";"";"";"";"";"";"";"";"";"";"";"";"";"";"";"";"";""
"11438649208";"42.8854354";"129.4952891";"";"";"China";"Jilin Sheng";"N/A";"N/A";"";"";"";"";"";"";"";"";"";"";"";"";"";"";"";"";"";"";"";""
"11438649209";"42.8853534";"129.4959246";"";"";"China";"Jilin Sheng";"N/A";"N/A";"";"";"";"";"";"";"";"";"";"";"";"";"";"";"";"";"";"";"";""
"11438649210";"42.8853544";"129.4965139";"";"";"China";"Jilin Sheng";"N/A";"N/A";"";"";"";"";"";"";"";"";"";"";"";"";"";"";"";"";"";"";"";""
"11438649211";"42.8854209";"129.4965137";"";"";"China";"Jilin Sheng";"N/A";"N/A";"";"";"";"";"";"";"";"";"";"";"";"";"";"";"";"";"";"";"";""
"11438649212";"42.8854199";"129.4959244";"";"";"China";"Jilin Sheng";"N/A";"N/A";"";"";"";"";"";"";"";"";"";"";"";"";"";"";"";"";"";"";"";""
"11438649213";"42.8856828";"129.4954006";"";"";"China";"Jilin Sheng";"N/A";"N/A";"";"";"";"";"";"";"";"";"";"";"";"";"";"";"";"";"";"";"";""
"11438649214";"42.8856808";"129.4959424";"";"";"China";"Jilin Sheng";"N/A";"N/A";"";"";"";"";"";"";"";"";"";"";"";"";"";"";"";"";"";"";"";""
"11438649215";"42.8857473";"129.4959429";"";"";"China";"Jilin Sheng";"N/A";"N/A";"";"";"";"";"";"";"";"";"";"";"";"";"";"";"";"";"";"";"";""
"11438649216";"42.8857492";"129.495401";"";"";"China";"Jilin Sheng";"N/A";"N/A";"";"";"";"";"";"";"";"";"";"";"";"";"";"";"";"";"";"";"";""
"11524215257";"42.8505697";"132.8962999";"charging_station";"";"Russian Federation";"Primorskiy";"N/A";"N/A";"";"2";"";"";"";"";"";"";"";"";"";"";"";"";"";"";"";"";"";""
"10650929966";"42.6265259";"140.7991344";"charging_station";"";"Japan";"Hokkaido";"N/A";"N/A";"";"";"";"yes";"";"";"";"";"";"";"";"";"";"";"";"";"";"";"";""
"6737751714";"42.7949733";"140.9380853";"charging_station";"";"Japan";"Hokkaido";"N/A";"N/A";"";"";"";"";"";"";"";"";"";"";"";"";"";"";"";"";"";"";"";""
"7634284040";"43.0352306";"141.349744";"charging_station";"";"Japan";"Hokkaido";"N/A";"N/A";"";"";"";"";"";"";"";"";"";"";"";"";"";"";"";"";"";"";"";""
"7855894641";"43.0402016";"141.3890843";"charging_station";"";"Japan";"Hokkaido";"N/A";"N/A";"";"1";"";"";"";"";"";"";"";"";"";"";"";"";"";"";"";"";"";"yes"
"4662869189";"42.9901104";"141.4518678";"charging_station";"";"Japan";"Hokkaido";"N/A";"N/A";"";"2";"";"";"";"";"";"";"";"";"";"";"";"";"";"";"";"";"";""
"5148557321";"43.027081";"141.446561";"charging_station";"";"Japan";"Hokkaido";"N/A";"N/A";"";"";"";"";"";"";"";"";"";"";"";"";"";"";"";"";"";"";"";""
"6785861071";"42.8322321";"141.6319018";"charging_station";"";"Japan";"Hokkaido";"N/A";"N/A";"";"1";"";"";"日産自動車";"";"";"";"";"";"";"";"";"";"";"";"CHAdeMO (44 kW)";"";"";""
"7698497522";"42.9850829";"141.457345";"charging_station";"";"Japan";"Hokkaido";"N/A";"N/A";"";"";"";"";"";"";"";"";"";"";"";"";"";"";"";"";"";"";"";""
"7698509201";"42.9861345";"141.4557733";"charging_station";"";"Japan";"Hokkaido";"N/A";"N/A";"";"";"";"";"";"";"";"";"";"";"";"";"";"";"";"";"";"";"";""
"11133545635";"43.1730775";"124.4821386";"charging_station";"";"China";"Jilin Sheng";"N/A";"N/A";"";"";"";"";"";"";"";"";"";"";"";"";"";"";"";"";"NIO Power";"";"";""
"11133545636";"43.1725524";"124.4862809";"charging_station";"";"China";"Jilin Sheng";"N/A";"N/A";"";"";"";"";"";"";"";"";"";"";"";"";"";"";"";"";"NIO Power";"";"";""
"5426676222";"43.1010737";"131.8942897";"charging_station";"";"Russian Federation";"Primorskiy";"N/A";"N/A";"";"";"";"";"Одиссей Шип Сервис";"";"";"";"";"";"";"";"";"";"";"";"";"";"";""
"8855560439";"43.0462643";"131.8865679";"charging_station";"";"Russian Federation";"Primorskiy";"N/A";"N/A";"";"2";"";"";"РусГидро";"";"";"";"";"";"";"";"";"";"";"";"";"";"";""
"7279486887";"43.3578536";"132.1911255";"charging_station";"";"Russian Federation";"Primorskiy";"N/A";"N/A";"";"";"";"";"Русгидро";"";"";"";"";"";"";"";"";"";"";"";"";"";"";""
"7283686631";"43.0906004";"131.9655559";"charging_station";"";"Russian Federation";"Primorskiy";"N/A";"N/A";"";"";"";"";"";"";"";"";"";"";"";"";"";"";"";"";"";"";"";""
"11959149878";"43.3772255";"132.2328485";"charging_station";"";"Russian Federation";"Primorskiy";"N/A";"N/A";"";"";"";"";"";"";"";"";"";"";"";"";"";"";"";"";"";"";"";""
"12780119101";"43.1194769";"131.9700003";"charging_station";"";"Russian Federation";"Primorskiy";"N/A";"N/A";"";"";"";"";"";"";"";"";"";"";"";"";"";"";"";"";"";"";"";""
"4109104100";"43.103855";"141.396986";"charging_station";"";"Japan";"Hokkaido";"N/A";"N/A";"";"";"";"";"";"";"";"";"";"";"";"";"";"";"";"";"";"";"";"yes"
"8594558085";"43.0471656";"141.3344435";"charging_station";"";"Japan";"Hokkaido";"N/A";"N/A";"";"";"";"";"";"";"";"";"";"";"";"";"";"";"";"";"";"";"";""
"8838867628";"43.052727";"141.4034223";"charging_station";"";"Japan";"Hokkaido";"N/A";"N/A";"";"1";"";"";"Nissan";"Q20165";"";"";"";"";"";"";"";"";"";"";"";"";"";"yes"
"9938215042";"43.0666943";"141.3104791";"charging_station";"";"Japan";"Hokkaido";"N/A";"N/A";"";"";"";"";"";"";"";"";"";"";"";"";"";"";"";"";"";"";"";""
"9938215044";"43.0647932";"141.3137194";"charging_station";"";"Japan";"Hokkaido";"N/A";"N/A";"";"";"";"";"";"";"";"";"";"";"";"";"";"";"";"";"";"";"";"yes"
"9938215045";"43.0630428";"141.3134577";"charging_station";"";"Japan";"Hokkaido";"N/A";"N/A";"";"";"";"";"";"";"";"";"";"";"";"";"";"";"";"";"";"";"";""
"9938236304";"43.0690457";"141.3069453";"charging_station";"";"Japan";"Hokkaido";"N/A";"N/A";"";"";"";"";"";"";"";"";"";"";"";"";"";"";"";"";"";"";"";""
"9938236305";"43.0696789";"141.3057392";"charging_station";"";"Japan";"Hokkaido";"N/A";"N/A";"";"";"";"";"";"";"";"";"";"";"";"";"";"";"";"";"";"";"";""
"9938236306";"43.0683699";"141.3069211";"charging_station";"";"Japan";"Hokkaido";"N/A";"N/A";"";"";"";"";"";"";"";"";"";"";"";"";"";"";"";"";"";"";"";""
"10588113443";"43.0914386";"141.3936355";"charging_station";"";"Japan";"Hokkaido";"N/A";"N/A";"";"";"";"";"";"";"";"";"";"";"";"";"";"";"";"";"";"";"";"yes"
"5063017021";"43.068603";"141.481085";"charging_station";"";"Japan";"Hokkaido";"N/A";"N/A";"";"";"";"";"";"";"";"";"";"";"";"";"";"";"";"";"";"";"";""
"5159871822";"43.089553";"141.518273";"charging_station";"";"Japan";"Hokkaido";"N/A";"N/A";"";"";"";"";"";"";"";"";"";"";"";"";"";"";"";"";"";"";"";""
"5591356121";"43.7980429";"125.3760165";"charging_station";"Changchun Shi";"China";"Jilin Sheng";"N/A";"N/A";"";"";"";"";"gas cucina";"";"";"";"";"";"";"";"";"";"";"";"";"";"";""
"10935526297";"43.8719339";"125.2688035";"charging_station";"Changchun Shi";"China";"Jilin Sheng";"N/A";"N/A";"";"";"";"";"";"";"";"";"";"";"";"";"";"";"";"";"NIO Power";"";"";""
"11879091841";"43.8200644";"125.3204073";"charging_station";"Changchun Shi";"China";"Jilin Sheng";"N/A";"N/A";"";"";"";"";"";"";"";"";"";"";"";"";"";"";"";"";"";"";"";""
"7236808891";"44.0222359";"143.495838";"charging_station";"";"Japan";"Hokkaido";"N/A";"N/A";"";"";"";"yes";"";"";"";"";"";"";"";"";"";"";"";"";"";"";"";""
"9015903447";"44.3190302";"142.7693659";"charging_station";"";"Japan";"Hokkaido";"N/A";"N/A";"";"";"";"";"";"";"";"";"";"";"";"";"";"";"";"";"";"";"";""
"12208761192";"44.6071841";"132.9051174";"charging_station";"";"Russian Federation";"Primorskiy";"N/A";"N/A";"";"";"";"";"РусГидро";"";"";"";"";"";"";"";"";"";"";"";"РусГидро";"";"";""
"8261505979";"45.3256611";"130.8616454";"charging_station";"";"China";"Heilongjiang Sheng";"N/A";"N/A";"";"";"";"";"";"";"";"";"";"";"";"";"";"";"";"";"";"";"";"yes"
"4231482391";"45.418216";"141.674721";"charging_station";"";"Japan";"Hokkaido";"N/A";"N/A";"";"";"";"";"";"";"";"";"";"";"";"";"";"";"";"";"";"";"";""
"9229326264";"45.1255079";"142.3609889";"charging_station";"";"Japan";"Hokkaido";"N/A";"N/A";"";"";"";"";"";"";"";"";"";"";"";"";"";"";"";"";"";"";"";""
