"id";"lat";"lon";"amenity";"city";"state";"country";"scraped_country_code";"scraped_country_name";"authentication:nfc";"capacity";"capacity:car";"motorcar";"operator";"operator:wikidata";"socket:schuko";"socket:schuko:current";"socket:schuko:voltage";"socket:type2";"socket:type2:current";"socket:type2:voltage";"ref";"addr:housenumber";"addr:street";"addr:postcode";"brand";"charge";"opening_hours";"fee"
"12074599947";"37.2328997";"67.2593837";"charging_station";"";"Uzbekistan";"Surxondaryo";"N/A";"N/A";"";"2";"";"";"OOO ""TOK BOR""";"";"";"";"";"";"";"";"UZ207";"";"";"";"TOK BOR";"";"";"yes"
"12074761264";"37.6680274";"67.0087692";"charging_station";"";"Uzbekistan";"Surxondaryo";"N/A";"N/A";"";"2";"";"";"OOO ""TOK BOR""";"";"";"";"";"";"";"";"UZ225";"";"";"";"TOK BOR";"";"";"yes"
"12075110612";"37.2497729";"67.309407";"charging_station";"";"Uzbekistan";"Surxondaryo";"N/A";"N/A";"";"3";"";"";"OOO ""TOK BOR""";"";"";"";"";"";"";"";"UZ347";"";"";"";"TOK BOR";"";"";"yes"
"12075123524";"37.229331";"67.2790633";"charging_station";"";"Uzbekistan";"Surxondaryo";"N/A";"N/A";"";"3";"";"";"OOO ""TOK BOR""";"";"";"";"";"";"";"";"UZ323 UZ348";"";"";"";"TOK BOR";"";"";"yes"
"12079431325";"37.2401147";"67.2918527";"charging_station";"";"Uzbekistan";"Surxondaryo";"N/A";"N/A";"";"2";"";"";"OOO ""TOK BOR""";"";"";"";"";"";"";"";"UZ251";"";"";"";"TOK BOR";"";"";"yes"
"12079444340";"37.4443585";"67.1562084";"charging_station";"";"Uzbekistan";"Surxondaryo";"N/A";"N/A";"";"2";"";"";"OOO ""TOK BOR""";"";"";"";"";"";"";"";"UZ252";"";"";"";"Tok Bor";"";"";"yes"
"12082208339";"37.5074168";"67.4231177";"charging_station";"";"Uzbekistan";"Surxondaryo";"N/A";"N/A";"";"1";"";"";"OOO ""TOK BOR""";"";"";"";"";"";"";"";"UZ392";"";"";"";"TOK BOR";"";"";"yes"
"12082321516";"37.4483602";"67.1497602";"charging_station";"";"Uzbekistan";"Surxondaryo";"N/A";"N/A";"";"1";"";"";"OOO ""TOK BOR""";"";"";"";"";"";"";"";"UZ435";"";"";"";"TOK BOR";"";"";"yes"
"4382019593";"37.9062865";"58.4183607";"charging_station";"";"Turkmenistan";"Ahal";"N/A";"N/A";"";"";"";"";"";"";"";"";"";"";"";"";"";"";"";"";"";"";"";""
"12070963046";"37.8310765";"67.5915096";"charging_station";"";"Uzbekistan";"Surxondaryo";"N/A";"N/A";"";"2";"";"";"OOO ""TOK BOR""";"";"";"";"";"";"";"";"UZ091";"";"";"";"TOK BOR";"";"";"yes"
"12075068126";"37.9594263";"67.7371785";"charging_station";"";"Uzbekistan";"Surxondaryo";"N/A";"N/A";"";"2";"";"";"OOO ""TOK BOR""";"";"";"";"";"";"";"";"UZ346";"";"";"";"TOK BOR";"";"";"yes"
"12079443317";"37.7365563";"67.5092914";"charging_station";"";"Uzbekistan";"Surxondaryo";"N/A";"N/A";"";"2";"";"";"OOO ""TOK BOR""";"";"";"";"";"";"";"";"UZ250";"";"";"";"TOK BOR";"";"";"yes"
"12082323778";"38.589409";"66.3224077";"charging_station";"";"Uzbekistan";"Qashqadaryo";"N/A";"N/A";"";"3";"";"";"OOO ""TOK BOR""";"";"";"";"";"";"";"";"UZ433";"";"";"";"TOK BOR";"";"";"yes"
"12070982720";"38.3298118";"66.585885";"charging_station";"";"Uzbekistan";"Qashqadaryo";"N/A";"N/A";"";"2";"";"";"OOO ""TOK BOR""";"";"";"";"";"";"";"";"UZ089";"";"";"";"TOK BOR";"";"";"yes"
"12074598305";"38.2971106";"67.9007788";"charging_station";"";"Uzbekistan";"Surxondaryo";"N/A";"N/A";"";"2";"";"";"OOO ""TOK BOR""";"";"";"";"";"";"";"";"UZ206";"";"";"";"TOK BOR";"";"";"yes"
"9931706544";"38.5972753";"68.7606235";"charging_station";"";"Tajikistan";"Dushanbe";"N/A";"N/A";"";"2";"";"";"ЯК Такси";"";"";"";"";"";"";"";"";"";"";"";"";"somoni";"";"yes"
"12072867765";"38.8604069";"65.7999934";"charging_station";"";"Uzbekistan";"Qashqadaryo";"N/A";"N/A";"";"2";"";"";"OOO ""TOK BOR""";"";"";"";"";"";"";"";"UZ141";"";"";"";"TOK BOR";"";"";"yes"
"12074591699";"38.8296136";"65.7575439";"charging_station";"";"Uzbekistan";"Qashqadaryo";"N/A";"N/A";"";"2";"";"";"OOO ""TOK BOR""";"";"";"";"";"";"";"";"UZ205";"";"";"";"TOK BOR";"";"";"yes"
"12075189190";"39.0429039";"65.6043666";"charging_station";"";"Uzbekistan";"Qashqadaryo";"N/A";"N/A";"";"4";"";"";"OOO ""TOK BOR""";"";"";"";"";"";"";"";"UZ326 UZ363";"";"";"";"TOK BOR";"";"";"yes"
"12684565474";"38.8116814";"65.775726";"charging_station";"";"Uzbekistan";"Qashqadaryo";"N/A";"N/A";"";"";"";"";"Tezroq";"";"";"";"";"";"";"";"";"";"";"";"Tezroq";"";"";""
"11957684926";"38.7215575";"66.2339529";"charging_station";"";"Uzbekistan";"Qashqadaryo";"N/A";"N/A";"";"3";"";"";"OOO ""TOK BOR""";"";"";"";"";"";"";"";"UZ466";"";"";"";"TOK BOR";"";"";"yes"
"12070967946";"39.0581229";"66.8361029";"charging_station";"";"Uzbekistan";"Qashqadaryo";"N/A";"N/A";"";"3";"";"";"OOO ""TOK BOR""";"";"";"";"";"";"";"";"UZ088 UZ361";"";"";"";"TOK BOR";"";"";"yes"
"12074837698";"39.1181914";"66.8760993";"charging_station";"";"Uzbekistan";"Qashqadaryo";"N/A";"N/A";"";"2";"";"";"OOO ""TOK BOR""";"";"";"";"";"";"";"";"UZ238";"";"";"";"TOK BOR";"";"";"yes"
"12075131448";"38.9709145";"66.667695";"charging_station";"";"Uzbekistan";"Qashqadaryo";"N/A";"N/A";"";"2";"";"";"OOO ""TOK BOR""";"";"";"";"";"";"";"";"UZ297 UZ349";"";"";"";"TOK BOR";"";"";"yes"
"12075169970";"39.0634892";"66.834971";"charging_station";"";"Uzbekistan";"Qashqadaryo";"N/A";"N/A";"";"3";"";"";"OOO ""TOK BOR""";"";"";"";"";"";"";"";"UZ258 UZ358";"";"";"";"TOK BOR";"";"";"yes"
"12075177170";"39.1086697";"66.864348";"charging_station";"";"Uzbekistan";"Qashqadaryo";"N/A";"N/A";"";"2";"";"";"OOO ""TOK BOR""";"";"";"";"";"";"";"";"UZ298 UZ360";"";"";"";"TOK BOR";"";"";"yes"
"12079913630";"39.1814982";"65.3292546";"charging_station";"";"Uzbekistan";"Qashqadaryo";"N/A";"N/A";"";"4";"";"";"OOO ""TOK BOR""";"";"";"";"";"";"";"";"UZ326";"";"";"";"TOK BOR";"";"";"yes"
"12074528252";"39.2175964";"66.2467207";"charging_station";"";"Uzbekistan";"Qashqadaryo";"N/A";"N/A";"";"2";"";"";"OOO ""TOK BOR""";"";"";"";"";"";"";"";"UZ203";"";"";"";"TOK BOR";"";"";"yes"
"12082360432";"39.4639942";"66.4363504";"charging_station";"";"Uzbekistan";"Samarqand";"N/A";"N/A";"";"1";"";"";"OOO ""TOK BOR""";"";"";"";"";"";"";"";"UZ436";"";"";"";"TOK BOR";"";"";"yes"
"12069603984";"39.6571793";"66.9074783";"charging_station";"";"Uzbekistan";"Samarqand";"N/A";"N/A";"";"1";"";"";"OOO ""TOK BOR""";"";"";"";"";"";"";"";"UZ058";"";"";"";"TOK BOR";"";"";"yes"
"12069621371";"39.656389";"66.9474726";"charging_station";"";"Uzbekistan";"Samarqand";"N/A";"N/A";"";"2";"";"";"OOO ""TOK BOR""";"";"";"";"";"";"";"";"UZ034";"";"";"";"TOK BOR";"";"";"yes"
"12069654437";"39.662236";"66.9072692";"charging_station";"";"Uzbekistan";"Samarqand";"N/A";"N/A";"";"2";"";"";"OOO ""TOK BOR""";"";"";"";"";"";"";"";"UZ061";"";"";"";"TOK BOR";"";"";"yes"
"12073436117";"39.6473921";"66.9224542";"charging_station";"";"Uzbekistan";"Samarqand";"N/A";"N/A";"";"2";"";"";"OOO ""TOK BOR""";"";"";"";"";"";"";"";"UZ196";"";"";"";"TOK BOR";"";"";"yes"
"12074930826";"39.650232";"66.9632837";"charging_station";"";"Uzbekistan";"Samarqand";"N/A";"N/A";"";"4";"";"";"OOO ""TOK BOR""";"";"";"";"";"";"";"";"UZ243 UZ318";"";"";"";"TOK BOR";"";"";"yes"
"12075037603";"39.6553686";"66.9236489";"charging_station";"";"Uzbekistan";"Samarqand";"N/A";"N/A";"";"3";"";"";"OOO ""TOK BOR""";"";"";"";"";"";"";"";"UZ319";"";"";"";"TOK BOR";"";"";"yes"
"12075062948";"39.6659465";"66.9819072";"charging_station";"";"Uzbekistan";"Samarqand";"N/A";"N/A";"";"1";"";"";"OOO ""TOK BOR""";"";"";"";"";"";"";"";"UZ341";"";"";"";"TOK BOR";"";"";"yes"
"12082437469";"39.6467702";"66.9247132";"charging_station";"";"Uzbekistan";"Samarqand";"N/A";"N/A";"";"1";"";"";"OOO ""TOK BOR""";"";"";"";"";"";"";"";"UZ449";"";"";"";"TOK BOR";"";"";"yes"
"12084367279";"39.6490723";"66.9582018";"charging_station";"";"Uzbekistan";"Samarqand";"N/A";"N/A";"";"1";"";"";"OOO ""TOK BOR""";"";"";"";"";"";"";"";"UZ513";"";"";"";"TOK BOR";"";"";"yes"
"12071570461";"39.6506138";"67.0466314";"charging_station";"";"Uzbekistan";"Samarqand";"N/A";"N/A";"";"2";"";"";"OOO ""TOK BOR""";"";"";"";"";"";"";"";"UZ132";"";"";"";"TOK BOR";"";"";"yes"
"12082934701";"39.6500703";"67.0447043";"charging_station";"";"Uzbekistan";"Samarqand";"N/A";"N/A";"";"1";"";"";"OOO ""TOK BOR""";"";"";"";"";"";"";"";"UZ506";"";"";"";"TOK BOR";"";"";"yes"
"12071501033";"39.6215006";"68.4768829";"charging_station";"";"Tajikistan";"Viloyati Sughd";"N/A";"N/A";"";"2";"";"";"OOO ""TOK BOR""";"";"";"";"";"";"";"";"UZ127";"";"";"";"TOK BOR";"";"";"yes"
"11012518673";"40.1396984";"63.4619369";"charging_station";"";"Uzbekistan";"Bukhara";"N/A";"N/A";"";"";"";"";"";"";"";"";"";"";"";"";"";"";"";"";"TOK BOR";"";"";"yes"
"12071093944";"40.1455801";"63.4538449";"charging_station";"";"Uzbekistan";"Bukhara";"N/A";"N/A";"";"4";"";"";"OOO ""TOK BOR""";"";"";"";"";"";"";"";"UZ098";"";"";"";"TOK BOR";"";"";"yes"
"10689581549";"39.7683478";"64.4323254";"charging_station";"";"Uzbekistan";"Bukhara";"N/A";"N/A";"";"2";"";"yes";"OOO ""TOK BOR""";"";"";"";"";"";"";"";"UZ067";"";"";"";"TOK BOR";"";"";"yes"
"12074908513";"39.734855";"64.455563";"charging_station";"";"Uzbekistan";"Bukhara";"N/A";"N/A";"";"2";"";"";"OOO ""TOK BOR""";"";"";"";"";"";"";"";"UZ245";"";"";"";"TOK BOR";"";"";"yes"
"12074957988";"39.780751";"64.4310791";"charging_station";"";"Uzbekistan";"Bukhara";"N/A";"N/A";"";"4";"";"";"OOO ""TOK BOR""";"";"";"";"";"";"";"";"UZ244 UZ330";"";"";"";"TOK BOR";"";"";"yes"
"12074966487";"39.7643855";"64.4220925";"charging_station";"";"Uzbekistan";"Bukhara";"N/A";"N/A";"";"5";"";"";"OOO ""TOK BOR""";"";"";"";"";"";"";"";"UZ246 UZ247";"";"";"";"TOK BOR";"";"";"yes"
"12075226715";"40.0611883";"64.1289872";"charging_station";"";"Uzbekistan";"Bukhara";"N/A";"N/A";"";"4";"";"";"OOO ""TOK BOR""";"";"";"";"";"";"";"";"UZ337 UZ369 UZ471";"";"";"";"TOK BOR";"";"";"yes"
"12080024841";"39.7485655";"64.4173094";"charging_station";"";"Uzbekistan";"Bukhara";"N/A";"N/A";"";"2";"";"";"OOO ""TOK BOR""";"";"";"";"";"";"";"";"UZ338";"";"";"";"TOK BOR";"";"";"yes"
"12145439604";"39.7624751";"64.4125183";"charging_station";"";"Uzbekistan";"Bukhara";"N/A";"N/A";"";"4";"";"";"TOSHELECTROAPPARAT";"";"";"";"";"";"";"";"";"";"";"";"GreenTE";"";"";"yes"
"12242814867";"39.9024707";"64.2930141";"charging_station";"";"Uzbekistan";"Bukhara";"N/A";"N/A";"";"2";"";"";"ИП ООО ""TOSHELECTROAPPARAT""";"";"";"";"";"";"";"";"";"";"";"";"GreenTE";"";"";"yes"
"12243094330";"39.7869479";"64.4497068";"charging_station";"";"Uzbekistan";"Bukhara";"N/A";"N/A";"";"";"";"";"ИП ООО ""TOSHELECTROAPPARAT""";"";"";"";"";"";"";"";"";"";"";"";"GreenTE";"";"";"yes"
"12072834926";"40.0866483";"64.6747124";"charging_station";"";"Uzbekistan";"Bukhara";"N/A";"N/A";"";"2";"";"";"OOO ""TOK BOR""";"";"";"";"";"";"";"";"UZ136";"";"";"";"TOK BOR";"";"";"yes"
"12073353449";"40.0897412";"64.657958";"charging_station";"";"Uzbekistan";"Bukhara";"N/A";"N/A";"";"2";"";"";"OOO ""TOK BOR""";"";"";"";"";"";"";"";"UZ183";"";"";"";"TOK BOR";"";"";"yes"
"12073353450";"40.0898233";"64.6577263";"charging_station";"";"Uzbekistan";"Bukhara";"N/A";"N/A";"";"1";"";"";"OOO ""TOK BOR""";"";"";"";"";"";"";"";"UZ500";"";"";"";"TOK BOR";"";"";"yes"
"12074600248";"40.0182854";"64.527132";"charging_station";"";"Uzbekistan";"Bukhara";"N/A";"N/A";"";"2";"";"";"OOO ""TOK BOR""";"";"";"";"";"";"";"";"UZ208";"";"";"";"TOK BOR";"";"";"yes"
"12119571124";"39.7406874";"64.5612709";"charging_station";"";"Uzbekistan";"Bukhara";"N/A";"N/A";"";"2";"";"";"Станция зарядки электромобилей";"";"";"";"";"";"";"";"";"";"";"";"GreenTE Kog'on";"";"";"yes"
"11048333349";"40.1094714";"65.3839662";"charging_station";"";"Uzbekistan";"Navoiy";"N/A";"N/A";"";"2";"";"";"OOO ""TOK BOR""";"";"";"";"";"";"";"";"UZ136";"";"";"";"TOK BOR";"";"";"yes"
"11740440569";"40.1120452";"65.3609612";"charging_station";"";"Uzbekistan";"Navoiy";"N/A";"N/A";"";"2";"";"";"TOSHELECTROAPPARAT";"";"";"";"";"";"";"";"";"";"";"";"GreenTE Zarafshan Grand Hotel";"";"";"yes"
"11740443769";"40.1212033";"65.1414235";"charging_station";"";"Uzbekistan";"Navoiy";"N/A";"N/A";"";"2";"";"";"TOSHELECTROAPPARAT";"";"";"";"";"";"";"";"";"";"";"";"GreenTE гостиница ""Zarafshan""";"";"";"yes"
"12069758951";"40.1156373";"65.4930027";"charging_station";"";"Uzbekistan";"Navoiy";"N/A";"N/A";"";"2";"";"";"OOO ""TOK BOR""";"";"";"";"";"";"";"";"UZ068";"";"";"";"TOK BOR";"";"";"yes"
"12071037572";"40.1473121";"65.3452913";"charging_station";"";"Uzbekistan";"Navoiy";"N/A";"N/A";"";"2";"";"";"OOO ""TOK BOR""";"";"";"";"";"";"";"";"UZ093";"";"";"";"TOK BOR";"";"";"yes"
"12082874009";"40.1481234";"65.3476586";"charging_station";"";"Uzbekistan";"Navoiy";"N/A";"N/A";"";"2";"";"";"OOO ""TOK BOR""";"";"";"";"";"";"";"";"UZ492";"";"";"";"TOK BOR";"";"";"yes"
"12120028131";"39.9241124";"66.2771046";"charging_station";"";"Uzbekistan";"Samarqand";"N/A";"N/A";"";"3";"";"";"OOO ""TOK BOR""";"";"";"";"";"";"";"";"UZ";"";"";"";"TOK BOR";"";"";"yes"
"12399835986";"39.9212813";"66.2912036";"charging_station";"";"Uzbekistan";"Samarqand";"N/A";"N/A";"";"2";"";"";"ИП ООО ""TOSHELECTROAPPARAT""";"";"";"";"";"";"";"";"";"";"";"";"GreenTE";"";"";"yes"
"12071145989";"39.6778197";"67.04638";"charging_station";"";"Uzbekistan";"Samarqand";"N/A";"N/A";"";"2";"";"";"OOO ""TOK BOR""";"";"";"";"";"";"";"";"UZ104";"";"";"";"TOK BOR";"";"";"yes"
"12073037825";"39.6936269";"66.9998001";"charging_station";"";"Uzbekistan";"Samarqand";"N/A";"N/A";"";"4";"";"";"OOO ""TOK BOR""";"";"";"";"";"";"";"";"UZ162   UZ311";"";"";"";"TOK BOR";"";"";"yes"
"12073037826";"39.6938821";"67.0000636";"charging_station";"";"Uzbekistan";"Samarqand";"N/A";"N/A";"";"2";"";"";"OOO ""TOK BOR""";"";"";"";"";"";"";"";"UZ343      UZ344";"";"";"";"TOK BOR";"";"";"yes"
"12074625149";"39.7169214";"67.1086326";"charging_station";"";"Uzbekistan";"Samarqand";"N/A";"N/A";"";"2";"";"";"OOO ""TOK BOR""";"";"";"";"";"";"";"";"UZ209";"";"";"";"TOK BOR";"";"";"yes"
"12074754071";"39.7012502";"67.0140311";"charging_station";"";"Uzbekistan";"Samarqand";"N/A";"N/A";"";"4";"";"";"OOO ""TOK BOR""";"";"";"";"";"";"";"";"UZ220 UZ221";"";"";"";"TOK BOR";"";"";"yes"
"12079559550";"39.674117";"67.0243787";"charging_station";"";"Uzbekistan";"Samarqand";"N/A";"N/A";"";"2";"";"";"OOO ""TOK BOR""";"";"";"";"";"";"";"";"UZ288";"";"";"";"TOK BOR";"";"";"yes"
"12079645881";"39.722628";"67.1289246";"charging_station";"";"Uzbekistan";"Samarqand";"N/A";"N/A";"";"4";"";"";"OOO ""TOK BOR""";"";"";"";"";"";"";"";"UZ299";"";"";"";"TOK BOR";"";"";"yes"
"12154709870";"39.7715254";"67.2752893";"charging_station";"";"Uzbekistan";"Samarqand";"N/A";"N/A";"";"3";"";"";"OOO ""TOK BOR""";"";"";"";"";"";"";"";"UZ624";"";"";"";"TOK BOR";"";"";"yes"
"12069775989";"40.0857739";"67.9347301";"charging_station";"";"Uzbekistan";"Jizzax";"N/A";"N/A";"";"2";"";"";"OOO ""TOK BOR""";"";"";"";"";"";"";"";"UZ131";"";"";"";"TOK BOR";"";"";"yes"
"12072973192";"40.1591002";"67.9583499";"charging_station";"";"Uzbekistan";"Jizzax";"N/A";"N/A";"";"1";"";"";"OOO ""TOK BOR""";"";"";"";"";"";"";"";"UZ410";"";"";"";"TOK BOR";"";"";"yes"
"12072973193";"40.159265";"67.9583265";"charging_station";"";"Uzbekistan";"Jizzax";"N/A";"N/A";"";"2";"";"";"OOO ""TOK BOR""";"";"";"";"";"";"";"";"UZ156";"";"";"";"TOK BOR";"";"";"yes"
"12072973194";"40.1595043";"67.9583943";"charging_station";"";"Uzbekistan";"Jizzax";"N/A";"N/A";"";"2";"";"";"OOO ""TOK BOR""";"";"";"";"";"";"";"";"UZ155";"";"";"";"TOK BOR";"";"";"yes"
"12074549750";"40.0107536";"67.5992724";"charging_station";"";"Uzbekistan";"Jizzax";"N/A";"N/A";"";"2";"";"";"OOO ""TOK BOR""";"";"";"";"";"";"";"";"UZ202";"";"";"";"TOK BOR";"";"";"yes"
"12074832265";"40.0669321";"67.8689444";"charging_station";"";"Uzbekistan";"Jizzax";"N/A";"N/A";"";"3";"";"";"OOO ""TOK BOR""";"";"";"";"";"";"";"";"UZ240";"";"";"";"TOK BOR";"";"";"yes"
"12074912130";"40.0814646";"67.929199";"charging_station";"";"Uzbekistan";"Jizzax";"N/A";"N/A";"";"3";"";"";"OOO ""TOK BOR""";"";"";"";"";"";"";"";"UZ241";"";"";"";"TOK BOR";"";"";"yes"
"12074930825";"40.0819622";"67.9307086";"charging_station";"";"Uzbekistan";"Jizzax";"N/A";"N/A";"";"3";"";"";"OOO ""TOK BOR""";"";"";"";"";"";"";"";"UZ242";"";"";"";"TOK BOR";"";"";"yes"
"12079627093";"40.142724";"67.9555731";"charging_station";"";"Uzbekistan";"Jizzax";"N/A";"N/A";"";"2";"";"";"OOO ""TOK BOR""";"";"";"";"";"";"";"";"UZ301";"";"";"";"TOK BOR";"";"";"yes"
"12119574162";"40.077998";"67.7074306";"charging_station";"";"Uzbekistan";"Jizzax";"N/A";"N/A";"";"2";"";"";"TOSHELECTROAPPARAT";"";"";"";"";"";"";"";"";"";"";"";"GreenTE Sangzor";"";"";"yes"
"12234466290";"40.0311293";"67.6225804";"charging_station";"";"Uzbekistan";"Jizzax";"N/A";"N/A";"";"2";"";"";"ИП ООО ""TOSHELECTROAPPARAT""";"";"";"";"";"";"";"";"";"";"";"";"GreenTE";"";"";"yes"
"12079853006";"40.1390588";"68.4886494";"charging_station";"";"Uzbekistan";"Jizzax";"N/A";"N/A";"";"2";"";"";"OOO ""TOK BOR""";"";"";"";"";"";"";"";"UZ320";"";"";"";"TOK BOR";"";"";"yes"
"12082807281";"39.9416169";"68.3866352";"charging_station";"";"Uzbekistan";"Jizzax";"N/A";"N/A";"";"1";"";"";"OOO ""TOK BOR""";"";"";"";"";"";"";"";"UZ498";"";"";"";"TOK BOR";"";"";"yes"
"12082809231";"39.9395676";"68.3912343";"charging_station";"";"Uzbekistan";"Jizzax";"N/A";"N/A";"";"4";"";"";"OOO ""TOK BOR""";"";"";"";"";"";"";"";"UZ484";"";"";"";"TOK BOR";"";"";"yes"
"12082825196";"39.9419363";"68.3885151";"charging_station";"";"Uzbekistan";"Jizzax";"N/A";"N/A";"";"1";"";"";"OOO ""TOK BOR""";"";"";"";"";"";"";"";"UZ497";"";"";"";"TOK BOR";"";"";"yes"
"12082898168";"39.9793074";"68.4127421";"charging_station";"";"Uzbekistan";"Jizzax";"N/A";"N/A";"";"2";"";"";"OOO ""TOK BOR""";"";"";"";"";"";"";"";"UZ496";"";"";"";"TOK BOR";"";"";"yes"
"12119543855";"40.5477117";"68.4081649";"charging_station";"";"Kazakhstan";"Ongtustik Qazaqstan";"N/A";"N/A";"";"2";"";"";"TOSHELECTROAPPARAT";"";"";"";"";"";"";"";"";"";"";"";"GreenTE Sardoba";"";"";"yes"
"12071462901";"40.1827444";"68.678769";"charging_station";"";"Tajikistan";"Viloyati Sughd";"N/A";"N/A";"";"2";"";"";"OOO ""TOK BOR""";"";"";"";"";"";"";"";"UZ124";"";"";"";"TOK BOR";"";"";"yes"
"12071596736";"40.5032175";"68.5201479";"charging_station";"";"Kazakhstan";"Ongtustik Qazaqstan";"N/A";"N/A";"";"2";"";"";"OOO ""TOK BOR""";"";"";"";"";"";"";"";"UZ133";"";"";"";"TOK BOR";"";"";"yes"
"12079801353";"40.5070682";"68.7807356";"charging_station";"";"Uzbekistan";"Sirdaryo";"N/A";"N/A";"";"1";"";"";"OOO ""TOK BOR""";"";"";"";"";"";"";"";"UZ317";"";"";"";"TOK BOR";"";"";"yes"
"12079807930";"40.6155495";"68.7104388";"charging_station";"";"Uzbekistan";"Sirdaryo";"N/A";"N/A";"";"2";"";"";"OOO ""TOK BOR""";"";"";"";"";"";"";"";"UZ315";"";"";"";"TOK BOR";"";"";"yes"
"12082932212";"40.2223138";"69.2597521";"charging_station";"";"Uzbekistan";"Toshkent";"N/A";"N/A";"";"6";"";"";"OOO ""TOK BOR""";"";"";"";"";"";"";"";"UZ509";"";"";"";"TOK BOR";"";"";"yes"
"12082977986";"40.236015";"69.2616293";"charging_station";"";"Uzbekistan";"Toshkent";"N/A";"N/A";"";"1";"";"";"OOO ""TOK BOR""";"";"";"";"";"";"";"";"UZ512";"";"";"";"TOK BOR";"";"";"yes"
"12486197071";"40.2973837";"69.6127341";"charging_station";"";"Tajikistan";"Viloyati Sughd";"N/A";"N/A";"";"";"";"";"";"";"";"";"";"";"";"";"";"";"";"";"";"";"";""
"12486203952";"40.2927172";"69.6361639";"charging_station";"";"Tajikistan";"Viloyati Sughd";"N/A";"N/A";"";"";"";"";"";"";"";"";"";"";"";"";"";"";"";"";"";"";"";""
"12486206834";"40.3128702";"69.6812381";"charging_station";"";"Tajikistan";"Viloyati Sughd";"N/A";"N/A";"";"";"";"";"";"";"";"";"";"";"";"";"";"";"";"";"";"";"";""
"12486217241";"40.2706222";"69.6358242";"charging_station";"";"Tajikistan";"Viloyati Sughd";"N/A";"N/A";"";"";"";"";"";"";"";"";"";"";"";"";"";"";"";"";"";"";"";""
"12486221797";"40.2746036";"69.6212943";"charging_station";"";"Tajikistan";"Viloyati Sughd";"N/A";"N/A";"";"";"";"";"";"";"";"";"";"";"";"";"";"";"";"";"";"";"";""
"12620411401";"40.2947936";"69.599973";"charging_station";"";"Tajikistan";"Viloyati Sughd";"N/A";"N/A";"";"";"";"";"";"";"";"";"";"";"";"";"";"";"";"";"";"";"";""
"1363064044";"";"";"charging_station";"N/A";"N/A";"N/A";"N/A";"N/A";"";"";"";"";"";"";"";"";"";"";"";"";"";"";"";"";"";"";"";""
"12620399761";"40.2646815";"69.6487293";"";"";"Tajikistan";"Viloyati Sughd";"N/A";"N/A";"";"";"";"";"";"";"";"";"";"";"";"";"";"";"";"";"";"";"";""
"12620399762";"40.264697";"69.6490654";"";"";"Tajikistan";"Viloyati Sughd";"N/A";"N/A";"";"";"";"";"";"";"";"";"";"";"";"";"";"";"";"";"";"";"";""
"12620399763";"40.2644909";"69.6490817";"";"";"Tajikistan";"Viloyati Sughd";"N/A";"N/A";"";"";"";"";"";"";"";"";"";"";"";"";"";"";"";"";"";"";"";""
"12620399764";"40.2644753";"69.6487456";"";"";"Tajikistan";"Viloyati Sughd";"N/A";"N/A";"";"";"";"";"";"";"";"";"";"";"";"";"";"";"";"";"";"";"";""
"11043913884";"40.5391939";"70.9461929";"charging_station";"";"Uzbekistan";"Fergana";"N/A";"N/A";"";"";"";"";"";"";"";"";"";"";"";"";"";"";"";"";"";"";"";""
"11871652743";"40.5377098";"70.9363789";"charging_station";"";"Uzbekistan";"Fergana";"N/A";"N/A";"";"2";"";"";"OOO ""TOK BOR""";"";"";"";"";"";"";"";"TokBor UZ016";"";"";"";"TOK BOR";"1950 сум/кВт*ч";"";"yes"
"11957812434";"40.6189285";"70.8963353";"charging_station";"";"Uzbekistan";"Fergana";"N/A";"N/A";"";"2";"";"";"ИП ООО ""TOSHELECTROAPPARAT""";"";"";"";"";"";"";"";"";"";"";"";"GreenTE Dang'ara";"";"";"yes"
"12070909303";"40.5441835";"70.9396031";"charging_station";"";"Uzbekistan";"Fergana";"N/A";"N/A";"";"3";"";"";"OOO ""TOK BOR""";"";"";"";"";"";"";"";"UZ080";"";"";"";"TOK BOR";"";"";"yes"
"12073216508";"40.5497416";"70.9224646";"charging_station";"";"Uzbekistan";"Fergana";"N/A";"N/A";"";"2";"";"";"OOO ""TOK BOR""";"";"";"";"";"";"";"";"UZ171";"";"";"";"TOK BOR";"";"";"yes"
"12073415076";"40.5184875";"70.935635";"charging_station";"";"Uzbekistan";"Fergana";"N/A";"N/A";"";"2";"";"";"OOO ""TOK BOR""";"";"";"";"";"";"";"";"UZ189";"";"";"";"TOK BOR";"";"";"yes"
"12073415077";"40.5184013";"70.9356301";"charging_station";"";"Uzbekistan";"Fergana";"N/A";"N/A";"";"1";"";"";"OOO ""TOK BOR""";"";"";"";"";"";"";"";"UZ385";"";"";"";"TOK BOR";"";"";"yes"
"12079565579";"40.3666835";"70.8100514";"charging_station";"";"Uzbekistan";"Fergana";"N/A";"N/A";"";"2";"";"";"OOO ""TOK BOR""";"";"";"";"";"";"";"";"UZ282";"";"";"";"TOK BOR";"";"";"yes"
"12082266607";"40.5332111";"70.9450975";"charging_station";"";"Uzbekistan";"Fergana";"N/A";"N/A";"";"2";"";"";"OOO ""TOK BOR""";"";"";"";"";"";"";"";"UZ432";"";"";"";"TOK BOR";"";"";"yes"
"11957759054";"40.5839829";"71.3815313";"charging_station";"";"Uzbekistan";"Fergana";"N/A";"N/A";"";"2";"";"";"GreenTE";"";"";"";"";"";"";"";"";"";"";"";"GreenTE Buvayda tumani";"";"";"yes"
"12749690866";"40.5591325";"71.1398541";"charging_station";"";"Uzbekistan";"Fergana";"N/A";"N/A";"";"4";"";"";"OOO ""PRO-TOK""";"";"";"";"";"";"";"";"";"";"";"";"PRO-TOK";"";"";"yes"
"12070955822";"40.3829768";"71.7795788";"charging_station";"";"Uzbekistan";"Fergana";"N/A";"N/A";"";"2";"";"";"OOO ""TOK BOR""";"";"";"";"";"";"";"";"UZ081";"";"";"";"TOK BOR";"";"";"yes"
"12073015932";"40.4222944";"71.7160023";"charging_station";"";"Uzbekistan";"Fergana";"N/A";"N/A";"";"2";"";"";"OOO ""TOK BOR""";"";"";"";"";"";"";"";"UZ163";"";"";"";"TOK BOR";"";"";"yes"
"12073061469";"40.3817491";"71.7823309";"charging_station";"";"Uzbekistan";"Fergana";"N/A";"N/A";"";"2";"";"";"OOO ""TOK BOR""";"";"";"";"";"";"";"";"UZ164";"";"";"";"TOK BOR";"";"";"yes"
"12079550582";"40.3424035";"71.7691886";"charging_station";"";"Uzbekistan";"Fergana";"N/A";"N/A";"";"2";"";"";"OOO ""TOK BOR""";"";"";"";"";"";"";"";"UZ281";"";"";"";"TOK BOR";"";"";"yes"
"12079662750";"40.3720364";"71.8087348";"charging_station";"";"Uzbekistan";"Fergana";"N/A";"N/A";"";"4";"";"";"OOO ""TOK BOR""";"";"";"";"";"";"";"";"UZ303";"";"";"";"TOK BOR";"";"";"yes"
"12079795842";"40.3755031";"71.8091532";"charging_station";"";"Uzbekistan";"Fergana";"N/A";"N/A";"";"2";"";"";"OOO ""TOK BOR""";"";"";"";"";"";"";"";"UZ314";"";"";"";"TOK BOR";"";"";"yes"
"12082338976";"40.6519971";"71.7410876";"charging_station";"";"Uzbekistan";"Fergana";"N/A";"N/A";"";"2";"";"";"OOO ""TOK BOR""";"";"";"";"";"";"";"";"UZ434";"";"";"";"TOK BOR";"";"";"yes"
"12100427080";"40.6475223";"71.7085372";"charging_station";"";"Uzbekistan";"Fergana";"N/A";"N/A";"";"2";"";"";"OOO ""TOK BOR""";"";"";"";"";"";"";"";"UZ542";"";"";"";"TOK BOR";"";"";"yes"
"12117204388";"40.5207041";"72.8022672";"charging_station";"";"Kyrgyzstan";"Osh";"N/A";"N/A";"";"";"";"";"";"";"";"";"";"";"";"";"";"";"";"";"Spark";"";"";"yes"
"11012521480";"41.0589208";"61.9785386";"charging_station";"";"Turkmenistan";"Lebap";"N/A";"N/A";"";"";"";"";"";"";"";"";"";"";"";"";"";"";"";"";"TOK BOR";"";"";"yes"
"12075219369";"41.0837588";"61.969451";"charging_station";"";"Turkmenistan";"Lebap";"N/A";"N/A";"";"6";"";"";"OOO ""TOK BOR""";"";"";"";"";"";"";"";"UZ097 UZ265 UZ267 UZ368";"";"";"";"TOK BOR";"";"";"yes"
"11998483108";"40.9063382";"68.7001405";"charging_station";"";"Uzbekistan";"Sirdaryo";"N/A";"N/A";"";"1";"";"";"OOO ""TOK BOR""";"";"";"";"";"";"";"";"UZ483";"";"";"";"TOK BOR";"";"";"yes"
"12071596783";"40.7054927";"68.698791";"charging_station";"";"Uzbekistan";"Sirdaryo";"N/A";"N/A";"";"2";"";"";"OOO ""TOK BOR""";"";"";"";"";"";"";"";"UZ134";"";"";"";"TOK BOR";"";"";"yes"
"12073274966";"40.8922203";"68.6760103";"charging_station";"";"Uzbekistan";"Sirdaryo";"N/A";"N/A";"";"2";"";"";"OOO ""TOK BOR""";"";"";"";"";"";"";"";"UZ182";"";"";"";"TOK BOR";"";"";"yes"
"12073426855";"40.7992619";"68.6759204";"charging_station";"";"Uzbekistan";"Sirdaryo";"N/A";"N/A";"";"2";"";"";"OOO ""TOK BOR""";"";"";"";"";"";"";"";"UZ190";"";"";"";"TOK BOR";"";"";"yes"
"12079810217";"40.8491762";"68.6673571";"charging_station";"";"Uzbekistan";"Sirdaryo";"N/A";"N/A";"";"2";"";"";"OOO ""TOK BOR""";"";"";"";"";"";"";"";"UZ316";"";"";"";"TOK BOR";"";"";"yes"
"12084439142";"40.7034537";"68.6997064";"charging_station";"";"Uzbekistan";"Sirdaryo";"N/A";"N/A";"";"1";"";"";"OOO ""TOK BOR""";"";"";"";"";"";"";"";"UZ535";"";"";"";"TOK BOR";"";"";"yes"
"12234566849";"40.7050673";"68.6988793";"charging_station";"";"Uzbekistan";"Sirdaryo";"N/A";"N/A";"";"2";"";"";"ИП ООО ""TOSHELECTROAPPARAT""";"";"";"";"";"";"";"";"";"";"";"";"GreenTE";"";"";"yes"
"12073267961";"40.8171116";"69.2061482";"charging_station";"";"Uzbekistan";"Toshkent";"N/A";"N/A";"";"2";"";"";"OOO ""TOK BOR""";"";"";"";"";"";"";"";"UZ177";"";"";"";"TOK BOR";"";"";"yes"
"12074842987";"41.0958391";"69.0546481";"charging_station";"";"Uzbekistan";"Toshkent";"N/A";"N/A";"";"2";"";"";"OOO ""TOK BOR""";"";"";"";"";"";"";"";"UZ239";"";"";"";"TOK BOR";"";"";"yes"
"12079535357";"41.1147784";"69.0689041";"charging_station";"";"Uzbekistan";"Toshkent";"N/A";"N/A";"";"2";"";"";"OOO ""TOK BOR""";"";"";"";"";"";"";"";"UZ277";"";"";"";"TOK BOR";"";"";"yes"
"12079685302";"41.156876";"69.0476322";"charging_station";"";"Uzbekistan";"Toshkent";"N/A";"N/A";"";"2";"";"";"OOO ""TOK BOR""";"";"";"";"";"";"";"";"UZ307";"";"";"";"TOK BOR";"";"";"yes"
"12079685303";"41.1578969";"69.0456185";"charging_station";"";"Uzbekistan";"Toshkent";"N/A";"N/A";"";"2";"";"";"OOO ""TOK BOR""";"";"";"";"";"";"";"";"UZ482";"";"";"";"TOK BOR";"";"";"yes"
"12084413774";"41.0984765";"69.0397488";"charging_station";"";"Uzbekistan";"Toshkent";"N/A";"N/A";"";"2";"";"";"OOO ""TOK BOR""";"";"";"";"";"";"";"";"UZ520";"";"";"";"TOK BOR";"";"";"yes"
"12084430260";"41.1335126";"69.0820509";"charging_station";"";"Uzbekistan";"Toshkent";"N/A";"N/A";"";"2";"";"";"OOO ""TOK BOR""";"";"";"";"";"";"";"";"UZ521";"";"";"";"TOK BOR";"";"";"yes"
"11740455469";"40.9069569";"69.7971525";"charging_station";"";"Uzbekistan";"Toshkent";"N/A";"N/A";"";"2";"";"";"GreenTE";"";"";"";"";"";"";"";"";"";"";"";"GreenTE Ором";"";"";"yes"
"12069832709";"40.9026481";"69.6424651";"charging_station";"";"Uzbekistan";"Toshkent";"N/A";"N/A";"";"2";"";"";"OOO ""TOK BOR""";"";"";"";"";"";"";"";"UZ077";"";"";"";"TOK BOR";"";"";"yes"
"12073012285";"40.9034204";"69.6448366";"charging_station";"";"Uzbekistan";"Toshkent";"N/A";"N/A";"";"2";"";"";"OOO ""TOK BOR""";"";"";"";"";"";"";"";"UZ161";"";"";"";"TOK BOR";"";"";"yes"
"12073433273";"40.860395";"69.5882256";"charging_station";"";"Uzbekistan";"Toshkent";"N/A";"N/A";"";"2";"";"";"OOO ""TOK BOR""";"";"";"";"";"";"";"";"UZ193";"";"";"";"TOK BOR";"";"";"yes"
"12141255700";"40.9082544";"69.8035528";"charging_station";"";"Uzbekistan";"Toshkent";"N/A";"N/A";"";"3";"";"";"OOO ""TOK BOR""";"";"";"";"";"";"";"";"UZ555 UZ622";"";"";"";"TOK BOR";"";"";"yes"
"11487135270";"40.9945457";"70.0554678";"charging_station";"";"Uzbekistan";"Toshkent";"N/A";"N/A";"";"6";"";"";"OOO ""TOK BOR""";"";"";"";"";"";"";"";"UZ157";"";"";"";"TOK BOR";"";"";"yes"
"12080064281";"41.15468";"70.4462884";"charging_station";"";"Uzbekistan";"Toshkent";"N/A";"N/A";"";"6";"";"";"OOO ""TOK BOR""";"";"";"";"";"";"";"";"UZ383 UZ384";"";"";"";"TOK BOR";"";"";"yes"
"11740449369";"40.8180487";"70.7975699";"charging_station";"";"Uzbekistan";"Namangan";"N/A";"N/A";"";"2";"";"";"GreenTE";"";"";"";"";"";"";"";"";"";"";"";"GreenTE Uzbekistan";"";"";"yes"
"11876408432";"40.8746134";"70.7822669";"charging_station";"";"Uzbekistan";"Namangan";"N/A";"N/A";"";"2";"";"";"OOO ""TOK BOR""";"";"";"";"";"";"";"";"TokBor UZ313";"";"";"";"TOK BOR";"2850 сум/кВт*ч1";"";"yes"
"11876408433";"40.8746681";"70.7824561";"charging_station";"";"Uzbekistan";"Namangan";"N/A";"N/A";"";"1";"";"";"OOO ""TOK BOR""";"";"";"";"";"";"";"";"TokBor UZ370";"";"";"";"TOK BOR";"";"";"yes"
"12069596918";"41.0270503";"70.6042939";"charging_station";"";"Tajikistan";"Viloyati Sughd";"N/A";"N/A";"";"2";"";"";"OOO TOK BOR";"";"";"";"";"";"";"";"UZ054";"";"";"";"TOK BOR";"";"";"yes"
"12069848209";"41.0328802";"70.5937791";"charging_station";"";"Tajikistan";"Viloyati Sughd";"N/A";"N/A";"";"2";"";"";"OOO ""TOK BOR""";"";"";"";"";"";"";"";"UZ078";"";"";"";"TOK BOR";"";"";"yes"
"12074638359";"41.0340984";"70.5871089";"charging_station";"";"Tajikistan";"Viloyati Sughd";"N/A";"N/A";"";"2";"";"";"OOO ""TOK BOR""";"";"";"";"";"";"";"";"UZ213";"";"";"";"TOK BOR";"";"";"yes"
"12074638360";"41.0339884";"70.5868824";"charging_station";"";"Tajikistan";"Viloyati Sughd";"N/A";"N/A";"";"1";"";"";"OOO ""TOK BOR""";"";"";"";"";"";"";"";"UZ381";"";"";"";"TOK BOR";"";"";"yes"
"12074655028";"41.0503895";"70.5688706";"charging_station";"";"Uzbekistan";"Toshkent";"N/A";"N/A";"";"2";"";"";"OOO ""TOK BOR""";"";"";"";"";"";"";"";"UZ214";"";"";"";"TOK BOR";"";"";"yes"
"12074655029";"41.0502544";"70.5689746";"charging_station";"";"Uzbekistan";"Toshkent";"N/A";"N/A";"";"1";"";"";"OOO ""TOK BOR""";"";"";"";"";"";"";"";"UZ382";"";"";"";"TOK BOR";"";"";"yes"
"12074729718";"40.9975978";"70.6333012";"charging_station";"";"Tajikistan";"Viloyati Sughd";"N/A";"N/A";"";"2";"";"";"OOO ""TOK BOR""";"";"";"";"";"";"";"";"UZ218";"";"";"";"TOK BOR";"";"";"yes"
"12074744578";"40.9975726";"70.6339569";"charging_station";"";"Tajikistan";"Viloyati Sughd";"N/A";"N/A";"";"2";"";"";"OOO ""TOK BOR""";"";"";"";"";"";"";"";"UZ219";"";"";"";"TOK BOR";"";"";"yes"
"12074744579";"40.9977289";"70.6339926";"charging_station";"";"Tajikistan";"Viloyati Sughd";"N/A";"N/A";"";"1";"";"";"OOO ""TOK BOR""";"";"";"";"";"";"";"";"UZ379";"";"";"";"TOK BOR";"";"";"yes"
"12082439787";"40.798854";"70.8572207";"charging_station";"";"Uzbekistan";"Namangan";"N/A";"N/A";"";"3";"";"";"OOO ""TOK BOR""";"";"";"";"";"";"";"";"UZ451";"";"";"";"TOK BOR";"";"";"yes"
"12112256282";"40.7860564";"70.8101516";"charging_station";"";"Uzbekistan";"Fergana";"N/A";"N/A";"";"3";"";"";"OOO ""TOK BOR""";"";"";"";"";"";"";"";"UZ526 UZ540";"";"";"";"TOK BOR";"";"";"yes"
"12073219588";"40.8917874";"71.0609056";"charging_station";"";"Uzbekistan";"Namangan";"N/A";"N/A";"";"2";"";"";"OOO ""TOK BOR""";"";"";"";"";"";"";"";"UZ170";"";"";"";"TOK BOR";"";"";"yes"
"12074644149";"40.9905569";"71.2558836";"charging_station";"";"Uzbekistan";"Namangan";"N/A";"N/A";"";"2";"";"";"OOO ""TOK BOR""";"";"";"";"";"";"";"";"UZ212";"";"";"";"TOK BOR";"";"";"yes"
"12079436929";"40.8682272";"71.1208555";"charging_station";"";"Uzbekistan";"Namangan";"N/A";"N/A";"";"2";"";"";"OOO ""TOK BOR""";"";"";"";"";"";"";"";"UZ259";"";"";"";"TOK BOR";"";"";"yes"
"12079550577";"40.9824793";"71.2429758";"charging_station";"";"Uzbekistan";"Namangan";"N/A";"N/A";"";"2";"";"";"OOO ""TOK BOR""";"";"";"";"";"";"";"";"UZ278";"";"";"";"TOK BOR";"";"";"yes"
"12082273284";"40.905295";"71.4640099";"charging_station";"";"Uzbekistan";"Namangan";"N/A";"N/A";"";"1";"";"";"OOO ""TOK BOR""";"";"";"";"";"";"";"";"UZ431";"";"";"";"TOK BOR";"";"";"yes"
"12070939941";"41.0048352";"71.6752073";"charging_station";"";"Uzbekistan";"Namangan";"N/A";"N/A";"";"2";"";"";"OOO ""TOK BOR""";"";"";"";"";"";"";"";"UZ082";"";"";"";"TOK BOR";"";"";"yes"
"12070964508";"40.9918608";"71.6484013";"charging_station";"";"Uzbekistan";"Namangan";"N/A";"N/A";"";"2";"";"";"OOO ""TOK BOR""";"";"";"";"";"";"";"";"UZ083";"";"";"";"TOK BOR";"";"";"yes"
"12073176752";"40.9955898";"71.5895044";"charging_station";"";"Uzbekistan";"Namangan";"N/A";"N/A";"";"2";"";"";"OOO ""TOK BOR""";"";"";"";"";"";"";"";"UZ167";"";"";"";"TOK BOR";"";"";"yes"
"12073209939";"40.9936896";"71.6772793";"charging_station";"";"Uzbekistan";"Namangan";"N/A";"N/A";"";"1";"";"";"OOO ""TOK BOR""";"";"";"";"";"";"";"";"UZ371";"";"";"";"TOK BOR";"";"";"yes"
"12073209940";"40.9936663";"71.6772485";"charging_station";"";"Uzbekistan";"Namangan";"N/A";"N/A";"";"2";"";"";"OOO ""TOK BOR""";"";"";"";"";"";"";"";"UZ169";"";"";"";"TOK BOR";"";"";"yes"
"12073381736";"41.0077929";"71.6276688";"charging_station";"";"Uzbekistan";"Namangan";"N/A";"N/A";"";"5";"";"";"OOO ""TOK BOR""";"";"";"";"";"";"";"";"UZ187";"";"";"";"TOK BOR";"";"";"yes"
"12073381737";"41.0077193";"71.6276635";"charging_station";"";"Uzbekistan";"Namangan";"N/A";"N/A";"";"1";"";"";"OOO ""TOK BOR""";"";"";"";"";"";"";"";"UZ380";"";"";"";"TOK BOR";"";"";"yes"
"12074632991";"40.9787297";"71.7086882";"charging_station";"";"Uzbekistan";"Namangan";"N/A";"N/A";"";"2";"";"";"OOO ""TOK BOR""";"";"";"";"";"";"";"";"UZ211";"";"";"";"TOK BOR";"";"";"yes"
"12074636094";"41.0014763";"71.6531843";"charging_station";"";"Uzbekistan";"Namangan";"N/A";"N/A";"";"2";"";"";"OOO ""TOK BOR""";"";"";"";"";"";"";"";"UZ210";"";"";"";"TOK BOR";"";"";"yes"
"12079519597";"40.9895885";"71.6367836";"charging_station";"";"Uzbekistan";"Namangan";"N/A";"N/A";"";"3";"";"";"OOO ""TOK BOR""";"";"";"";"";"";"";"";"UZ272";"";"";"";"TOK BOR";"";"";"yes"
"12079963647";"40.9940493";"71.6099858";"charging_station";"";"Uzbekistan";"Namangan";"N/A";"N/A";"";"2";"";"";"OOO ""TOK BOR""";"";"";"";"";"";"";"";"UZ374 UZ375";"";"";"";"TOK BOR";"";"";"yes"
"12080061384";"40.9986309";"71.6441191";"charging_station";"";"Uzbekistan";"Namangan";"N/A";"N/A";"";"1";"";"";"OOO ""TOK BOR""";"";"";"";"";"";"";"";"UZ373";"";"";"";"TOK BOR";"";"";"yes"
"12234617001";"41.0000908";"71.6127601";"charging_station";"";"Uzbekistan";"Namangan";"N/A";"N/A";"";"2";"";"";"ИП ООО ""TOSHELECTROAPPARAT""";"";"";"";"";"";"";"";"";"";"";"";"GreenTE";"";"";"yes"
"12298386104";"40.8575644";"71.6860288";"charging_station";"";"Uzbekistan";"Namangan";"N/A";"N/A";"";"";"";"";"ИП ООО ""TOSHELECTROAPPARAT""";"";"";"";"";"";"";"";"";"";"";"";"GreenTE";"";"";"yes"
"12298401033";"40.7517615";"71.7051667";"charging_station";"";"Uzbekistan";"Namangan";"N/A";"N/A";"";"2";"";"";"ИП ООО ""TOSHELECTROAPPARAT""";"";"";"";"";"";"";"";"";"";"";"";"GreenTE";"";"";"yes"
"12014293856";"40.9604434";"72.3249804";"charging_station";"";"Uzbekistan";"Andijon";"N/A";"N/A";"";"2";"";"";"OOO ""TOK BOR""";"";"";"";"";"";"";"";"UZ487";"";"";"";"TOK BOR";"";"";"yes"
"12069611620";"40.7857214";"72.3492714";"charging_station";"";"Uzbekistan";"Andijon";"N/A";"N/A";"";"2";"";"";"OOO TOK BOR";"";"";"";"";"";"";"";"UZ027";"";"";"";"TOK BOR";"";"";"yes"
"12069700157";"40.7509594";"72.36255";"charging_station";"";"Uzbekistan";"Andijon";"N/A";"N/A";"";"8";"";"";"OOO ""TOK BOR""";"";"";"";"";"";"";"";"UZ065";"";"";"";"TOK BOR";"";"";"yes"
"12069795893";"40.7857475";"72.3497953";"charging_station";"";"Uzbekistan";"Andijon";"N/A";"N/A";"";"2";"";"";"OOO ""TOK BOR""";"";"";"";"";"";"";"";"UZ073";"";"";"";"TOK BOR";"";"";"yes"
"12073075418";"40.7510534";"72.3624304";"charging_station";"";"Uzbekistan";"Andijon";"N/A";"N/A";"";"1";"";"";"OOO ""TOK BOR""";"";"";"";"";"";"";"";"UZ376";"";"";"";"TOK BOR";"";"";"yes"
"12079507731";"40.7045626";"72.478152";"charging_station";"";"Uzbekistan";"Andijon";"N/A";"N/A";"";"2";"";"";"OOO ""TOK BOR""";"";"";"";"";"";"";"";"UZ280";"";"";"";"TOK BOR";"";"";"yes"
"12082596682";"40.7133842";"72.3004172";"charging_station";"";"Uzbekistan";"Andijon";"N/A";"N/A";"";"2";"";"";"OOO ""TOK BOR""";"";"";"";"";"";"";"";"UZ454";"";"";"";"TOK BOR";"";"";"yes"
"12082864549";"40.7524898";"72.3312273";"charging_station";"";"Uzbekistan";"Andijon";"N/A";"N/A";"";"1";"";"";"OOO ""TOK BOR""";"";"";"";"";"";"";"";"UZ486";"";"";"";"TOK BOR";"";"";"yes"
"12100427081";"40.8018331";"72.9867878";"charging_station";"";"Kyrgyzstan";"Jalal-Abad";"N/A";"N/A";"";"1";"";"";"OOO ""TOK BOR""";"";"";"";"";"";"";"";"UZ543";"";"";"";"TOK BOR";"";"";"yes"
"12543173203";"40.7298593";"72.7549584";"charging_station";"";"Uzbekistan";"Andijon";"N/A";"N/A";"";"";"";"";"Tezroq";"";"";"";"";"";"";"";"";"";"";"";"Tezroq";"";"";"yes"
"12082623333";"41.4002692";"60.3750768";"charging_station";"";"Uzbekistan";"Xorazm";"N/A";"N/A";"";"3";"";"";"OOO ""TOK BOR""";"";"";"";"";"";"";"";"UZ470";"";"";"";"TOK BOR";"";"";"yes"
"11883845580";"41.5769334";"60.5762517";"charging_station";"";"Uzbekistan";"Xorazm";"N/A";"N/A";"";"";"";"";"";"";"";"";"";"";"";"";"";"";"";"";"Electric Vehicle Charging Station";"";"";""
"11891324408";"41.5491222";"60.6364529";"charging_station";"";"Uzbekistan";"Xorazm";"N/A";"N/A";"";"";"";"";"";"";"";"";"";"";"";"";"";"";"";"";"Elektrazaprafka";"";"";""
"12071082165";"41.5311279";"60.6071173";"charging_station";"";"Uzbekistan";"Xorazm";"N/A";"N/A";"";"2";"";"";"OOO ""TOK BOR""";"";"";"";"";"";"";"";"UZ096";"";"";"";"TOK BOR";"";"";"yes"
"12071354909";"41.5452984";"60.6225947";"charging_station";"";"Uzbekistan";"Xorazm";"N/A";"N/A";"";"2";"";"";"OOO ""TOK BOR""";"";"";"";"";"";"";"";"UZ118";"";"";"";"TOK BOR";"";"";"yes"
"12071354910";"41.5453217";"60.6221884";"charging_station";"";"Uzbekistan";"Xorazm";"N/A";"N/A";"";"4";"";"";"OOO ""TOK BOR""";"";"";"";"";"";"";"";"UZ119 UZ366";"";"";"";"TOK BOR";"";"";"yes"
"12079504240";"41.5952458";"60.8781903";"charging_station";"";"Uzbekistan";"Karakalpakstan";"N/A";"N/A";"";"2";"";"";"OOO ""TOK BOR""";"";"";"";"";"";"";"";"UZ268";"";"";"";"TOK BOR";"";"";"yes"
"12079891459";"41.6125638";"60.8412267";"charging_station";"";"Uzbekistan";"Karakalpakstan";"N/A";"N/A";"";"1";"";"";"OOO ""TOK BOR""";"";"";"";"";"";"";"";"UZ325";"";"";"";"TOK BOR";"";"";"yes"
"11012515177";"41.5689246";"64.22209";"charging_station";"";"Uzbekistan";"Navoiy";"N/A";"N/A";"";"1";"";"";"OOO ""TOK BOR""";"";"";"";"";"";"";"";"UZ101";"";"";"";"TOK BOR";"";"";"yes"
"12072939676";"41.5581655";"64.2008096";"charging_station";"";"Uzbekistan";"Navoiy";"N/A";"N/A";"";"2";"";"";"OOO ""TOK BOR""";"";"";"";"";"";"";"";"UZ146";"";"";"";"TOK BOR";"";"";"yes"
"12079948176";"41.5705526";"64.2013805";"charging_station";"";"Uzbekistan";"Navoiy";"N/A";"N/A";"";"2";"";"";"OOO ""TOK BOR""";"";"";"";"";"";"";"";"UZ329";"";"";"";"TOK BOR";"";"";"yes"
"10207954923";"41.2536173";"69.304648";"charging_station";"";"Uzbekistan";"Toshkent Shahri";"N/A";"N/A";"";"";"";"";"";"";"";"";"";"";"";"";"";"";"";"";"";"";"";""
"11051061314";"41.3120182";"69.2850859";"charging_station";"";"Uzbekistan";"Toshkent Shahri";"N/A";"N/A";"";"2";"";"";"OOO ""TOK BOR""";"";"";"";"";"";"";"";"UZ029";"";"";"";"TOK BOR";"";"";"yes"
"11740455470";"41.3263942";"69.2115984";"charging_station";"";"Uzbekistan";"Toshkent Shahri";"N/A";"N/A";"";"1";"";"";"GreenTE";"";"";"";"";"";"";"";"";"";"";"";"GreenTE ""UZELTEXSANOAT""";"";"";"yes"
"11740468569";"41.2373221";"69.2142228";"charging_station";"";"Uzbekistan";"Toshkent Shahri";"N/A";"N/A";"";"1";"";"";"TOSHELECTROAPPARAT";"";"";"";"";"";"";"";"";"";"";"";"GreenTE JES";"";"";"yes"
"11740474969";"41.3082241";"69.2764508";"charging_station";"";"Uzbekistan";"Toshkent Shahri";"N/A";"N/A";"";"2";"";"";"TOSHELECTROAPPARAT";"";"";"";"";"";"";"";"";"";"";"";"GreenTE Uzautosanoat";"";"";"yes"
"11740475070";"41.3283727";"69.2850139";"charging_station";"";"Uzbekistan";"Toshkent Shahri";"N/A";"N/A";"";"2";"";"";"GreenTE";"";"";"";"";"";"";"";"";"";"";"";"GreenTE АО ""НЭС""";"";"";"yes"
"11740480369";"41.2764028";"69.3023206";"charging_station";"";"Uzbekistan";"Toshkent Shahri";"N/A";"N/A";"";"";"";"";"GreenTE";"";"";"";"";"";"";"";"";"";"";"";"GreenTE Uzelectroapparat-electroshield";"";"";"yes"
"11740483569";"41.2785841";"69.3067075";"charging_station";"";"Uzbekistan";"Toshkent Shahri";"N/A";"N/A";"";"3";"";"";"GreenTE";"";"";"";"";"";"";"";"";"";"";"";"GreenTE ""TOSHELECTROAPPARAT""";"";"";"yes"
"11845813269";"41.279845";"69.2186921";"charging_station";"";"Uzbekistan";"Toshkent Shahri";"N/A";"N/A";"";"2";"";"";"OOO ""TOK BOR""";"";"";"";"";"";"";"";"UZ287";"";"";"";"TOK BOR";"";"";"yes"
"11851122904";"41.2755374";"69.2237122";"charging_station";"";"Uzbekistan";"Toshkent Shahri";"N/A";"N/A";"";"2";"";"";"OOO ""TOK BOR""";"";"";"";"";"";"";"";"UZ064";"";"";"";"TOK BOR";"";"";"yes"
"11862402473";"41.2826536";"69.2224778";"charging_station";"";"Uzbekistan";"Toshkent Shahri";"N/A";"N/A";"";"2";"";"";"OOO ""TOK BOR""";"";"";"";"";"";"";"";"UZ450";"";"";"";"TOK BOR";"";"";"yes"
"11868077057";"41.3129674";"69.3320907";"charging_station";"";"Uzbekistan";"Toshkent";"N/A";"N/A";"";"2";"";"";"Tok Bor";"";"";"";"";"";"";"";"UZ002";"";"";"";"TOK BOR";"";"";"yes"
"11868077058";"41.3393251";"69.1779705";"charging_station";"";"Uzbekistan";"Toshkent Shahri";"N/A";"N/A";"";"3";"";"";"Tok Bor";"";"";"";"";"";"";"";"UZ334 UZ416";"";"";"";"TOK BOR";"";"";"yes"
"11871652734";"41.3281208";"69.2655065";"charging_station";"";"Uzbekistan";"Toshkent Shahri";"N/A";"N/A";"";"2";"";"";"OOO ""TOK BOR""";"";"";"";"";"";"";"";"UZ004";"";"";"";"TOK BOR";"";"";"yes"
"11871652735";"41.3283678";"69.2652307";"charging_station";"";"Uzbekistan";"Toshkent Shahri";"N/A";"N/A";"";"2";"";"";"OOO ""TOK BOR""";"";"";"";"";"";"";"";"UZ046";"";"";"";"TOK BOR";"";"";"yes"
"11871652736";"41.3283805";"69.2653108";"charging_station";"";"Uzbekistan";"Toshkent Shahri";"N/A";"N/A";"";"2";"";"";"OOO ""TOK BOR""";"";"";"";"";"";"";"";"UZ126";"";"";"";"TOK BOR";"";"";"yes"
"11871652737";"41.3395501";"69.254603";"charging_station";"";"Uzbekistan";"Toshkent Shahri";"N/A";"N/A";"";"2";"";"";"OOO ""TOK BOR""";"";"";"";"";"";"";"";"TokBor UZ005";"";"";"";"TOK BOR";"";"";"yes"
"11871652738";"41.3395732";"69.2545306";"charging_station";"";"Uzbekistan";"Toshkent Shahri";"N/A";"N/A";"";"7";"";"";"OOO ""TOK BOR""";"";"";"";"";"";"";"";"TokBor UZ006";"";"";"";"TOK BOR";"";"";"yes"
"11871652739";"41.3039865";"69.3221655";"charging_station";"";"Uzbekistan";"Toshkent";"N/A";"N/A";"";"2";"";"";"OOO ""TOK BOR""";"";"";"";"";"";"";"";"UZ007";"";"";"";"TOK BOR";"";"";"yes"
"11871652740";"41.3494275";"69.178046";"charging_station";"";"Uzbekistan";"Toshkent Shahri";"N/A";"N/A";"";"2";"";"";"OOO ""TOK BOR""";"";"";"";"";"";"";"";"UZ011";"";"";"";"TOK BOR";"";"";"yes"
"11871652741";"41.3288741";"69.3133242";"charging_station";"";"Uzbekistan";"Toshkent";"N/A";"N/A";"";"1";"";"";"OOO ""TOK BOR""";"";"";"";"";"";"";"";"UZ014";"";"";"";"TOK BOR";"";"";"yes"
"11871652742";"41.3560063";"69.2039676";"charging_station";"";"Uzbekistan";"Toshkent Shahri";"N/A";"N/A";"";"2";"";"";"OOO ""TOK BOR""";"";"";"";"";"";"";"";"UZ015";"";"";"";"TOK BOR";"";"";"yes"
"11876772765";"41.3491263";"69.1662375";"charging_station";"";"Uzbekistan";"Toshkent Shahri";"N/A";"N/A";"";"2";"";"";"OOO ""TO BOR""";"";"";"";"";"";"";"";"TokBor UZ390";"";"";"";"TOK BOR";"2850 сум/кВт*ч";"";"yes"
"11907695288";"41.3483374";"69.2379232";"charging_station";"";"Uzbekistan";"Toshkent Shahri";"N/A";"N/A";"";"3";"";"";"OOO ""TOK BOR""";"";"";"";"";"";"";"";"UZ174 UZ415";"";"";"";"TOK BOR";"";"";"yes"
"11907695289";"41.3072143";"69.2956824";"charging_station";"";"Uzbekistan";"Toshkent Shahri";"N/A";"N/A";"";"3";"";"";"OOO ""TOK BOR""";"";"";"";"";"";"";"";"UZ079 UZ414";"";"";"";"TOK BOR";"";"";"yes"
"11911609934";"41.3720149";"69.2864849";"charging_station";"";"Uzbekistan";"Toshkent";"N/A";"N/A";"";"4";"";"";"OOO ""TOK BOR""";"";"";"";"";"";"";"";"UZ139, UZ419, UZ420";"";"";"";"TOK BOR";"";"";"yes"
"11957602326";"41.2440181";"69.309728";"charging_station";"";"Uzbekistan";"Toshkent Shahri";"N/A";"N/A";"";"";"";"";"";"";"";"";"";"";"";"";"";"";"";"";"";"";"";""
"11957602327";"41.2529437";"69.3125832";"charging_station";"";"Uzbekistan";"Toshkent Shahri";"N/A";"N/A";"";"";"";"yes";"";"";"";"";"";"";"";"";"";"";"";"";"";"";"";""
"11957774369";"41.3606875";"69.2868321";"charging_station";"";"Uzbekistan";"Toshkent";"N/A";"N/A";"";"2";"";"";"GreenTE";"";"";"";"";"";"";"";"";"";"";"";"GreenTE АО ""НЭС""";"";"";"yes"
"11972138047";"41.244485";"69.303744";"charging_station";"";"Uzbekistan";"Toshkent Shahri";"N/A";"N/A";"";"2";"";"";"";"";"";"";"";"";"";"";"";"";"";"";"";"";"";"yes"
"12005347701";"41.313361";"69.3312519";"charging_station";"";"Uzbekistan";"Toshkent";"N/A";"N/A";"";"3";"";"";"OOO ""TOK BOR""";"";"";"";"";"";"";"";"UZ437, UZ459";"";"";"";"TOK BOR";"";"";"yes"
"12005347702";"41.3142024";"69.328415";"charging_station";"";"Uzbekistan";"Toshkent";"N/A";"N/A";"";"2";"";"";"OOO ""TOK BOR""";"";"";"";"";"";"";"";"UZ072";"";"";"";"TOK BOR";"";"";"yes"
"12005347708";"41.3244042";"69.26677";"charging_station";"";"Uzbekistan";"Toshkent Shahri";"N/A";"N/A";"";"5";"";"";"OOO ""TOK BOR""";"";"";"";"";"";"";"";"UZ463";"";"";"";"TOK BOR";"";"";"yes"
"12005347709";"41.3490317";"69.1800405";"charging_station";"";"Uzbekistan";"Toshkent Shahri";"N/A";"N/A";"";"1";"";"";"OOO ""TOK BOR""";"";"";"";"";"";"";"";"UZ345";"";"";"";"TOK BOR";"";"";"yes"
"12008940987";"41.3345314";"69.1641293";"charging_station";"";"Uzbekistan";"Toshkent Shahri";"N/A";"N/A";"";"3";"";"";"OOO ""TOK BOR""";"";"";"";"";"";"";"";"UZ255 UZ485";"";"";"";"TOK BOR";"";"";"yes"
"12025214706";"41.3300884";"69.2391214";"charging_station";"";"Uzbekistan";"Toshkent Shahri";"N/A";"N/A";"";"3";"";"";"OOO ""TOK BOR""";"";"";"";"";"";"";"";"UZ481, UZ505";"";"";"";"TOK BOR";"";"";"yes"
"12025214707";"41.2662752";"69.3151367";"charging_station";"";"Uzbekistan";"Toshkent Shahri";"N/A";"N/A";"";"1";"";"";"OOO ""TOK BOR""";"";"";"";"";"";"";"";"UZ400";"";"";"";"TOK BOR";"";"";"yes"
"12025214708";"41.2735377";"69.333542";"charging_station";"";"Uzbekistan";"Toshkent Shahri";"N/A";"N/A";"";"1";"";"";"OOO ""TOK BOR""";"";"";"";"";"";"";"";"UZ504";"";"";"";"TOK BOR";"";"";"yes"
"12049415393";"41.3097663";"69.2985303";"charging_station";"";"Uzbekistan";"Toshkent Shahri";"N/A";"N/A";"";"2";"";"";"OOO ""TOK BOR""";"";"";"";"";"";"";"";"UZ031";"";"";"";"TOK BOR";"";"";"yes"
"12049415394";"41.3670975";"69.2909119";"charging_station";"";"Uzbekistan";"Toshkent";"N/A";"N/A";"";"2";"";"";"OOO ""TOK BOR""";"";"";"";"";"";"";"";"UZ032";"";"";"";"TOK BOR";"";"";"yes"
"12049415395";"41.3674342";"69.2906089";"charging_station";"";"Uzbekistan";"Toshkent";"N/A";"N/A";"";"2";"";"";"OOO ""TOK BOR""";"";"";"";"";"";"";"";"UZ128";"";"";"";"TOK BOR";"";"";"yes"
"12049415396";"41.2582409";"69.1939841";"charging_station";"";"Uzbekistan";"Toshkent Shahri";"N/A";"N/A";"";"2";"";"";"OOO ""TOK BOR""";"";"";"";"";"";"";"";"UZ036";"";"";"";"TOK BOR";"";"";"yes"
"12049415397";"41.3546225";"69.3548413";"charging_station";"";"Uzbekistan";"Toshkent";"N/A";"N/A";"";"2";"";"";"OOO ""TOK BOR""";"";"";"";"";"";"";"";"UZ037";"";"";"";"TOK BOR";"";"";"yes"
"12069581829";"41.2779231";"69.1978769";"charging_station";"";"Uzbekistan";"Toshkent Shahri";"N/A";"N/A";"";"2";"";"";"OOO ""TOK BOR""";"";"";"";"";"";"";"";"UZ038";"";"";"";"TOK BOR";"";"";"yes"
"12069616947";"41.2002644";"69.2339236";"charging_station";"";"Uzbekistan";"Toshkent Shahri";"N/A";"N/A";"";"2";"";"";"OOO ""TOK BOR""";"";"";"";"";"";"";"";"UZ055";"";"";"";"TOK BOR";"";"";"yes"
"12069628876";"41.3274934";"69.2932732";"charging_station";"";"Uzbekistan";"Toshkent";"N/A";"N/A";"";"2";"";"";"OOO ""TOK BOR""";"";"";"";"";"";"";"";"UZ051";"";"";"";"TOK BOR";"";"";"yes"
"12069628947";"41.3182468";"69.2809547";"charging_station";"";"Uzbekistan";"Toshkent Shahri";"N/A";"N/A";"";"2";"";"";"OOO ""TOK BOR""";"";"";"";"";"";"";"";"UZ057";"";"";"";"TOK BOR";"";"";"yes"
"12069632164";"41.2882115";"69.285275";"charging_station";"";"Uzbekistan";"Toshkent Shahri";"N/A";"N/A";"";"2";"";"";"OOO ""TOK BOR""";"";"";"";"";"";"";"";"UZ042";"";"";"";"TOK BOR";"";"";"yes"
"12069632165";"41.3478679";"69.2858634";"charging_station";"";"Uzbekistan";"Toshkent";"N/A";"N/A";"";"2";"";"";"OOO ""TOK BOR""";"";"";"";"";"";"";"";"UZ049";"";"";"";"TOK BOR";"";"";"yes"
"12069670485";"41.3562022";"69.33509";"charging_station";"";"Uzbekistan";"Toshkent";"N/A";"N/A";"";"2";"";"";"OOO ""TOK BOR""";"";"";"";"";"";"";"";"UZ062";"";"";"";"TOK BOR";"";"";"yes"
"12069683077";"41.3664907";"69.2862819";"charging_station";"";"Uzbekistan";"Toshkent";"N/A";"N/A";"";"2";"";"";"OOO ""TOK BOR""";"";"";"";"";"";"";"";"UZ063";"";"";"";"TOK BOR";"";"";"yes"
"12069753912";"41.25488";"69.196869";"charging_station";"";"Uzbekistan";"Toshkent Shahri";"N/A";"N/A";"";"2";"";"";"OOO ""TOK BOR""";"";"";"";"";"";"";"";"UZ070";"";"";"";"TOK BOR";"";"";"yes"
"12069767514";"41.2043016";"69.2366796";"charging_station";"";"Uzbekistan";"Toshkent Shahri";"N/A";"N/A";"";"2";"";"";"OOO ""TOK BOR""";"";"";"";"";"";"";"";"UZ069";"";"";"";"TOK BOR";"";"";"yes"
"12069805291";"41.3235762";"69.2831593";"charging_station";"";"Uzbekistan";"Toshkent Shahri";"N/A";"N/A";"";"2";"";"";"OOO ""TOK BOR""";"";"";"";"";"";"";"";"UZ074";"";"";"";"TOK BOR";"";"";"yes"
"12070952545";"41.27284";"69.1692094";"charging_station";"";"Uzbekistan";"Toshkent Shahri";"N/A";"N/A";"";"2";"";"";"OOO ""TOK BOR""";"";"";"";"";"";"";"";"UZ087";"";"";"";"TOK BOR";"";"";"yes"
"12070970476";"41.3108809";"69.28276";"charging_station";"";"Uzbekistan";"Toshkent Shahri";"N/A";"N/A";"";"4";"";"";"OOO ""TOK BOR""";"";"";"";"";"";"";"";"UZ084     UZ087";"";"";"";"TOK BOR";"";"";"yes"
"12071107556";"41.2716364";"69.2021885";"charging_station";"";"Uzbekistan";"Toshkent Shahri";"N/A";"N/A";"";"2";"";"";"OOO ""TOK BOR""";"";"";"";"";"";"";"";"UZ100";"";"";"";"TOK BOR";"";"";"yes"
"12071126325";"41.3641193";"69.3333181";"charging_station";"";"Uzbekistan";"Toshkent";"N/A";"N/A";"";"2";"";"";"OOO ""TOK BOR""";"";"";"";"";"";"";"";"UZ102";"";"";"";"TOK BOR";"";"";"yes"
"12071169477";"41.2880598";"69.2493087";"charging_station";"";"Uzbekistan";"Toshkent Shahri";"N/A";"N/A";"";"2";"";"";"OOO ""TOK BOR""";"";"";"";"";"";"";"";"UZ105";"";"";"";"TOK BOR";"";"";"yes"
"12071255863";"41.2799399";"69.2690291";"charging_station";"";"Uzbekistan";"Toshkent Shahri";"N/A";"N/A";"";"4";"";"";"OOO ""TOK BOR""";"";"";"";"";"";"";"";"UZ106     UZ107";"";"";"";"TOK BOR";"";"";"yes"
"12071284786";"41.320925";"69.3633907";"charging_station";"";"Uzbekistan";"Toshkent";"N/A";"N/A";"";"4";"";"";"OOO ""TOK BOR""";"";"";"";"";"";"";"";"UZ108";"";"";"";"TOK BOR";"";"";"yes"
"12071294607";"41.3662553";"69.3166741";"charging_station";"";"Uzbekistan";"Toshkent";"N/A";"N/A";"";"2";"";"";"OOO ""TOK BOR""";"";"";"";"";"";"";"";"UZ109";"";"";"";"TOK BOR";"";"";"yes"
"12071294646";"41.265237";"69.2434756";"charging_station";"";"Uzbekistan";"Toshkent Shahri";"N/A";"N/A";"";"2";"";"";"OOO ""TOK BOR""";"";"";"";"";"";"";"";"UZ112";"";"";"";"TOK BOR";"";"";"yes"
"12071294690";"41.3072638";"69.3519717";"charging_station";"";"Uzbekistan";"Toshkent";"N/A";"N/A";"";"2";"";"";"OOO ""TOK BOR""";"";"";"";"";"";"";"";"UZ110";"";"";"";"TOK BOR";"";"";"yes"
"12071315538";"41.3866827";"69.4583379";"charging_station";"";"Uzbekistan";"Toshkent";"N/A";"N/A";"";"2";"";"";"OOO ""TOK BOR""";"";"";"";"";"";"";"";"UZ111";"";"";"";"TOK BOR";"";"";"yes"
"12071321717";"41.3593979";"69.2782921";"charging_station";"";"Uzbekistan";"Toshkent";"N/A";"N/A";"";"2";"";"";"OOO ""TOK BOR""";"";"";"";"";"";"";"";"UZ113";"";"";"";"TOK BOR";"";"";"yes"
"12071325659";"41.3041223";"69.306612";"charging_station";"";"Uzbekistan";"Toshkent Shahri";"N/A";"N/A";"";"2";"";"";"OOO ""TOK BOR""";"";"";"";"";"";"";"";"UZ115";"";"";"";"TOK BOR";"";"";"yes"
"12071342244";"41.2271483";"69.1474997";"charging_station";"";"Uzbekistan";"Toshkent";"N/A";"N/A";"";"2";"";"";"OOO ""TOK BOR""";"";"";"";"";"";"";"";"UZ114";"";"";"";"TOK BOR";"";"";"yes"
"12071375486";"41.3050612";"69.2526558";"charging_station";"";"Uzbekistan";"Toshkent Shahri";"N/A";"N/A";"";"4";"";"";"OOO ""TOK BOR""";"";"";"";"";"";"";"";"UZ116";"";"";"";"TOK BOR";"";"";"yes"
"12071379218";"41.2411148";"69.2124239";"charging_station";"";"Uzbekistan";"Toshkent Shahri";"N/A";"N/A";"";"2";"";"";"OOO ""TOK BOR""";"";"";"";"";"";"";"";"UZ120";"";"";"";"TOK BOR";"";"";"yes"
"12071435487";"41.2407739";"69.2121592";"charging_station";"";"Uzbekistan";"Toshkent Shahri";"N/A";"N/A";"";"1";"";"";"OOO ""TOK BOR""";"";"";"";"";"";"";"";"UZ122";"";"";"";"TOK BOR";"";"";"yes"
"12071494085";"41.3439819";"69.1992198";"charging_station";"";"Uzbekistan";"Toshkent Shahri";"N/A";"N/A";"";"2";"";"";"OOO ""TOK BOR""";"";"";"";"";"";"";"";"UZ125";"";"";"";"TOK BOR";"";"";"yes"
"12071499155";"41.3454501";"69.2045005";"charging_station";"";"Uzbekistan";"Toshkent Shahri";"N/A";"N/A";"";"2";"";"";"OOO ""TOK BOR""";"";"";"";"";"";"";"";"UZ129";"";"";"";"TOK BOR";"";"";"yes"
"12071499156";"41.3437186";"69.2054716";"charging_station";"";"Uzbekistan";"Toshkent Shahri";"N/A";"N/A";"";"2";"";"";"OOO ""TOK BOR""";"";"";"";"";"";"";"";"UZ130";"";"";"";"TOK BOR";"";"";"yes"
"12072811382";"41.3309027";"69.2714633";"charging_station";"";"Uzbekistan";"Toshkent Shahri";"N/A";"N/A";"";"3";"";"";"OOO ""TOK BOR""";"";"";"";"";"";"";"";"UZ135";"";"";"";"TOK BOR";"";"";"yes"
"12072849240";"41.309847";"69.2723733";"charging_station";"";"Uzbekistan";"Toshkent Shahri";"N/A";"N/A";"";"4";"";"";"OOO ""TOK BOR""";"";"";"";"";"";"";"";"UZ138";"";"";"";"TOK BOR";"";"";"yes"
"12072867767";"41.2928733";"69.2107505";"charging_station";"";"Uzbekistan";"Toshkent Shahri";"N/A";"N/A";"";"4";"";"";"OOO ""TOK BOR""";"";"";"";"";"";"";"";"UZ145          UZ194";"";"";"";"TOK BOR";"";"";"yes"
"12072867768";"41.2926686";"69.2106272";"charging_station";"";"Uzbekistan";"Toshkent Shahri";"N/A";"N/A";"";"1";"";"";"OOO ""TOK BOR""";"";"";"";"";"";"";"";"UZ403";"";"";"";"TOK BOR";"";"";"yes"
"12072898184";"41.203558";"69.2349113";"charging_station";"";"Uzbekistan";"Toshkent Shahri";"N/A";"N/A";"";"2";"";"";"OOO ""TOK BOR""";"";"";"";"";"";"";"";"UZ144";"";"";"";"TOK BOR";"";"";"yes"
"12072927752";"41.3088302";"69.2424588";"charging_station";"";"Uzbekistan";"Toshkent Shahri";"N/A";"N/A";"";"4";"";"";"OOO ""TOK BOR""";"";"";"";"";"";"";"";"UZ149;UZ197";"";"";"";"TOK BOR";"";"";"yes"
"12072927753";"41.3089227";"69.2427518";"charging_station";"";"Uzbekistan";"Toshkent Shahri";"N/A";"N/A";"";"1";"";"";"OOO ""TOK BOR""";"";"";"";"";"";"";"";"UZ412";"";"";"";"TOK BOR";"";"";"yes"
"12072935395";"41.2976773";"69.1750805";"charging_station";"";"Uzbekistan";"Toshkent Shahri";"N/A";"N/A";"";"2";"";"";"OOO ""TOK BOR""";"";"";"";"";"";"";"";"UZ148";"";"";"";"TOK BOR";"";"";"yes"
"12072939858";"41.2480117";"69.3257127";"charging_station";"";"Uzbekistan";"Toshkent Shahri";"N/A";"N/A";"";"2";"";"";"OOO ""TOK BOR""";"";"";"";"";"";"";"";"UZ147";"";"";"";"TOK BOR";"";"";"yes"
"12072973186";"41.3066377";"69.3373879";"charging_station";"";"Uzbekistan";"Toshkent";"N/A";"N/A";"";"4";"";"";"OOO ""TOK BOR""";"";"";"";"";"";"";"";"UZ151 UZ152";"";"";"";"TOK BOR";"";"";"yes"
"12072973187";"41.3063637";"69.3376861";"charging_station";"";"Uzbekistan";"Toshkent";"N/A";"N/A";"";"2";"";"";"OOO ""TOK BOR""";"";"";"";"";"";"";"";"UZ257";"";"";"";"TOK BOR";"";"";"yes"
"12072979174";"41.3105166";"69.2688758";"charging_station";"";"Uzbekistan";"Toshkent Shahri";"N/A";"N/A";"";"2";"";"";"OOO ""TOK BOR""";"";"";"";"";"";"";"";"UZ154";"";"";"";"TOK BOR";"";"";"yes"
"12072982438";"41.2764836";"69.204628";"charging_station";"";"Uzbekistan";"Toshkent Shahri";"N/A";"N/A";"";"2";"";"";"OOO ""TOK BOR""";"";"";"";"";"";"";"";"UZ150";"";"";"";"TOK BOR";"";"";"yes"
"12073009940";"41.2719027";"69.2617028";"charging_station";"";"Uzbekistan";"Toshkent Shahri";"N/A";"N/A";"";"2";"";"";"OOO ""TOK BOR""";"";"";"";"";"";"";"";"UZ158";"";"";"";"TOK BOR";"";"";"yes"
"12073018191";"41.3378152";"69.222761";"charging_station";"";"Uzbekistan";"Toshkent Shahri";"N/A";"N/A";"";"2";"";"";"OOO ""TOK BOR""";"";"";"";"";"";"";"";"UZ160";"";"";"";"TOK BOR";"";"";"yes"
"12073177116";"41.2049058";"69.3235191";"charging_station";"";"Uzbekistan";"Toshkent Shahri";"N/A";"N/A";"";"1";"";"";"OOO ""TOK BOR""";"";"";"";"";"";"";"";"UZ411";"";"";"";"TOK BOR";"";"";"yes"
"12073230708";"41.3392806";"69.206335";"charging_station";"";"Uzbekistan";"Toshkent Shahri";"N/A";"N/A";"";"4";"";"";"OOO ""TOK BOR""";"";"";"";"";"";"";"";"UZ172";"";"";"";"TOK BOR";"";"";"yes"
"12073256815";"41.3255956";"69.335734";"charging_station";"";"Uzbekistan";"Toshkent";"N/A";"N/A";"";"2";"";"";"OOO ""TOK BOR""";"";"";"";"";"";"";"";"UZ175";"";"";"";"TOK BOR";"";"";"yes"
"12073286465";"41.2173109";"69.1989877";"charging_station";"";"Uzbekistan";"Toshkent Shahri";"N/A";"N/A";"";"2";"";"";"OOO ""TOK BOR""";"";"";"";"";"";"";"";"UZ181";"";"";"";"TOK BOR";"";"";"yes"
"12073314120";"41.3125689";"69.2940161";"charging_station";"";"Uzbekistan";"Toshkent Shahri";"N/A";"N/A";"";"5";"";"";"OOO ""TOK BOR""";"";"";"";"";"";"";"";"UZ178   UZ179   UZ398";"";"";"";"TOK BOR";"";"";"yes"
"12073320029";"41.2979578";"69.3116656";"charging_station";"";"Uzbekistan";"Toshkent Shahri";"N/A";"N/A";"";"2";"";"";"OOO ""TOK BOR""";"";"";"";"";"";"";"";"UZ180";"";"";"";"TOK BOR";"";"";"yes"
"12073336431";"41.328874";"69.4315966";"charging_station";"";"Uzbekistan";"Toshkent";"N/A";"N/A";"";"2";"";"";"OOO ""TOK BOR""";"";"";"";"";"";"";"";"UZ184";"";"";"";"TOK BOR";"";"";"yes"
"12073336432";"41.3287961";"69.4315322";"charging_station";"";"Uzbekistan";"Toshkent";"N/A";"N/A";"";"1";"";"";"OOO ""TOK BOR""";"";"";"";"";"";"";"";"UZ387";"";"";"";"TOK BOR";"";"";"yes"
"12073381251";"41.3120159";"69.3173134";"charging_station";"";"Uzbekistan";"Toshkent";"N/A";"N/A";"";"2";"";"";"OOO ""TOK BOR""";"";"";"";"";"";"";"";"UZ188";"";"";"";"TOK BOR";"";"";"yes"
"12073431672";"41.2562807";"69.1563085";"charging_station";"";"Uzbekistan";"Toshkent Shahri";"N/A";"N/A";"";"4";"";"";"OOO ""TOK BOR""";"";"";"";"";"";"";"";"UZ191 UZ192";"";"";"";"TOK BOR";"";"";"yes"
"12073432516";"41.3242706";"69.2960818";"charging_station";"";"Uzbekistan";"Toshkent";"N/A";"N/A";"";"4";"";"";"OOO ""TOK BOR""";"";"";"";"";"";"";"";"UZ195";"";"";"";"TOK BOR";"";"";"yes"
"12074560300";"41.304015";"69.3051662";"charging_station";"";"Uzbekistan";"Toshkent Shahri";"N/A";"N/A";"";"5";"";"";"OOO ""TOK BOR""";"";"";"";"";"";"";"";"UZ198 UZ199 UZ200";"";"";"";"TOK BOR";"";"";"yes"
"12074560301";"41.3039336";"69.3053539";"charging_station";"";"Uzbekistan";"Toshkent Shahri";"N/A";"N/A";"";"1";"";"";"OOO ""TOK BOR""";"";"";"";"";"";"";"";"UZ502";"";"";"";"TOK BOR";"";"";"yes"
"12074699576";"41.3045793";"69.3036732";"charging_station";"";"Uzbekistan";"Toshkent Shahri";"N/A";"N/A";"";"2";"";"";"OOO ""TOK BOR""";"";"";"";"";"";"";"";"UZ216";"";"";"";"TOK BOR";"";"";"yes"
"12074707454";"41.2523047";"69.3222085";"charging_station";"";"Uzbekistan";"Toshkent Shahri";"N/A";"N/A";"";"2";"";"";"OOO ""TOK BOR""";"";"";"";"";"";"";"";"UZ215";"";"";"";"TOK BOR";"";"";"yes"
"12074717893";"41.2915404";"69.2845547";"charging_station";"";"Uzbekistan";"Toshkent Shahri";"N/A";"N/A";"";"2";"";"";"OOO ""TOK BOR""";"";"";"";"";"";"";"";"UZ217";"";"";"";"TOK BOR";"";"";"yes"
"12074767280";"41.2601102";"69.2233408";"charging_station";"";"Uzbekistan";"Toshkent Shahri";"N/A";"N/A";"";"2";"";"";"OOO ""TOK BOR""";"";"";"";"";"";"";"";"UZ222";"";"";"";"TOK BOR";"";"";"yes"
"12074808404";"41.3558907";"69.2307531";"charging_station";"";"Uzbekistan";"Toshkent Shahri";"N/A";"N/A";"";"4";"";"";"OOO ""TOK BOR""";"";"";"";"";"";"";"";"UZ236 UZ237";"";"";"";"TOK BOR";"";"";"yes"
"12074955468";"41.2864511";"69.2742263";"charging_station";"";"Uzbekistan";"Toshkent Shahri";"N/A";"N/A";"";"2";"";"";"OOO ""TOK BOR""";"";"";"";"";"";"";"";"UZ248";"";"";"";"TOK BOR";"";"";"yes"
"12074977078";"41.24184";"69.2129468";"charging_station";"";"Uzbekistan";"Toshkent Shahri";"N/A";"N/A";"";"2";"";"";"OOO ""TOK BOR""";"";"";"";"";"";"";"";"UZ249";"";"";"";"TOK BOR";"";"";"yes"
"12075147352";"41.2566365";"69.4316696";"charging_station";"";"Uzbekistan";"Toshkent Shahri";"N/A";"N/A";"";"3";"";"";"OOO ""TOK BOR""";"";"";"";"";"";"";"";"UZ354";"";"";"";"TOK BOR";"";"";"yes"
"12075156421";"41.2676024";"69.2420143";"charging_station";"";"Uzbekistan";"Toshkent Shahri";"N/A";"N/A";"";"2";"";"";"OOO ""TOK BOR""";"";"";"";"";"";"";"";"UZ353 UZ355";"";"";"";"TOK BOR";"";"";"yes"
"12079465501";"41.3537202";"69.3469909";"charging_station";"";"Uzbekistan";"Toshkent";"N/A";"N/A";"";"3";"";"";"OOO ""TOK BOR""";"";"";"";"";"";"";"";"UZ261";"";"";"";"TOK BOR";"";"";"yes"
"12079475883";"41.3508854";"69.3313682";"charging_station";"";"Uzbekistan";"Toshkent";"N/A";"N/A";"";"2";"";"";"OOO ""TOK BOR""";"";"";"";"";"";"";"";"UZ260";"";"";"";"TOK BOR";"";"";"yes"
"12079504242";"41.2236792";"69.2088571";"charging_station";"";"Uzbekistan";"Toshkent Shahri";"N/A";"N/A";"";"6";"";"";"OOO ""TOK BOR""";"";"";"";"";"";"";"";"UZ269 UZ270";"";"";"";"TOK BOR";"";"";"yes"
"12079535270";"41.3711523";"69.260818";"charging_station";"";"Uzbekistan";"Toshkent Shahri";"N/A";"N/A";"";"2";"";"";"OOO ""TOK BOR""";"";"";"";"";"";"";"";"UZ271";"";"";"";"TOK BOR";"";"";"yes"
"12079569049";"41.2782851";"69.2147423";"charging_station";"";"Uzbekistan";"Toshkent Shahri";"N/A";"N/A";"";"6";"";"";"OOO ""TOK BOR""";"";"";"";"";"";"";"";"UZ283 UZ283 UZ401 UZ402";"";"";"";"TOK BOR";"";"";"yes"
"12079569050";"41.3076662";"69.2692254";"charging_station";"";"Uzbekistan";"Toshkent Shahri";"N/A";"N/A";"";"6";"";"";"OOO ""TOK BOR""";"";"";"";"";"";"";"";"UZ286";"";"";"";"TOK BOR";"";"";"yes"
"12079595901";"41.2157526";"69.219496";"charging_station";"";"Uzbekistan";"Toshkent Shahri";"N/A";"N/A";"";"2";"";"";"OOO ""TOK BOR""";"";"";"";"";"";"";"";"UZ289";"";"";"";"TOK BOR";"";"";"yes"
"12079622088";"41.2849099";"69.1850036";"charging_station";"";"Uzbekistan";"Toshkent Shahri";"N/A";"N/A";"";"6";"";"";"OOO ""TOK BOR""";"";"";"";"";"";"";"";"UZ295 UZ296";"";"";"";"TOK BOR";"";"";"yes"
"12079656043";"41.3556003";"69.3757679";"charging_station";"";"Uzbekistan";"Toshkent";"N/A";"N/A";"";"6";"";"";"OOO ""TOK BOR""";"";"";"";"";"";"";"";"UZ305 UZ306";"";"";"";"TOK BOR";"";"";"yes"
"12079659279";"41.4020071";"69.2041049";"charging_station";"";"Kazakhstan";"Ongtustik Qazaqstan";"N/A";"N/A";"";"2";"";"";"OOO ""TOK BOR""";"";"";"";"";"";"";"";"UZ302";"";"";"";"TOK BOR";"";"";"yes"
"12079762739";"41.3616841";"69.2894254";"charging_station";"";"Uzbekistan";"Toshkent";"N/A";"N/A";"";"2";"";"";"OOO ""TOK BOR""";"";"";"";"";"";"";"";"UZ308";"";"";"";"TOK BOR";"";"";"yes"
"12079767728";"41.3081684";"69.1933699";"charging_station";"";"Uzbekistan";"Toshkent Shahri";"N/A";"N/A";"";"2";"";"";"OOO ""TOK BOR""";"";"";"";"";"";"";"";"UZ309";"";"";"";"TOK BOR";"";"";"yes"
"12079784691";"41.3612568";"69.302134";"charging_station";"";"Uzbekistan";"Toshkent";"N/A";"N/A";"";"2";"";"";"OOO ""TOK BOR""";"";"";"";"";"";"";"";"UZ310";"";"";"";"TOK BOR";"";"";"yes"
"12079853363";"41.3001513";"69.2037694";"charging_station";"";"Uzbekistan";"Toshkent Shahri";"N/A";"N/A";"";"2";"";"";"OOO ""TOK BOR""";"";"";"";"";"";"";"";"UZ322";"";"";"";"TOK BOR";"";"";"yes"
"12079914211";"41.2511854";"69.3557501";"charging_station";"";"Uzbekistan";"Toshkent Shahri";"N/A";"N/A";"";"5";"";"";"OOO ""TOK BOR""";"";"";"";"";"";"";"";"UZ327";"";"";"";"TOK BOR";"";"";"yes"
"12079944284";"41.3582557";"69.3365934";"charging_station";"";"Uzbekistan";"Toshkent";"N/A";"N/A";"";"2";"";"";"OOO ""TOK BOR""";"";"";"";"";"";"";"";"UZ332";"";"";"";"TOK BOR";"";"";"yes"
"12079964920";"41.2951973";"69.2252966";"charging_station";"";"Uzbekistan";"Toshkent Shahri";"N/A";"N/A";"";"3";"";"";"OOO ""TOK BOR""";"";"";"";"";"";"";"";"UZ331";"";"";"";"TOK BOR";"";"";"yes"
"12079985832";"41.3273149";"69.3249303";"charging_station";"";"Uzbekistan";"Toshkent";"N/A";"N/A";"";"2";"";"";"OOO ""TOK BOR""";"";"";"";"";"";"";"";"UZ333";"";"";"";"TOK BOR";"";"";"yes"
"12079986956";"41.3217233";"69.2831198";"charging_station";"";"Uzbekistan";"Toshkent Shahri";"N/A";"N/A";"";"4";"";"";"OOO ""TOK BOR""";"";"";"";"";"";"";"";"UZ335 UZ336";"";"";"";"TOK BOR";"";"";"yes"
"12080122878";"41.2476481";"69.208243";"charging_station";"";"Uzbekistan";"Toshkent Shahri";"N/A";"N/A";"";"2";"";"";"OOO ""TOK BOR""";"";"";"";"";"";"";"";"UZ391";"";"";"";"TOK BOR";"";"";"yes"
"12082162744";"41.2368851";"69.2092898";"charging_station";"";"Uzbekistan";"Toshkent Shahri";"N/A";"N/A";"";"3";"";"";"OOO ""TOK BOR""";"";"";"";"";"";"";"";"UZ399";"";"";"";"TOK BOR";"";"";"yes"
"12082266250";"41.333334";"69.3750066";"charging_station";"";"Uzbekistan";"Toshkent";"N/A";"N/A";"";"3";"";"";"OOO ""TOK BOR""";"";"";"";"";"";"";"";"UZ430";"";"";"";"TOK BOR";"";"";"yes"
"12082364171";"41.3675071";"69.3271093";"charging_station";"";"Uzbekistan";"Toshkent";"N/A";"N/A";"";"2";"";"";"OOO ""TOK BOR""";"";"";"";"";"";"";"";"UZ438";"";"";"";"TOK BOR";"";"";"yes"
"12082384115";"41.3474676";"69.2809129";"charging_station";"";"Uzbekistan";"Toshkent";"N/A";"N/A";"";"3";"";"";"OOO ""TOK BOR""";"";"";"";"";"";"";"";"UZ448";"";"";"";"TOK BOR";"";"";"yes"
"12082457232";"41.2153454";"69.215668";"charging_station";"";"Uzbekistan";"Toshkent Shahri";"N/A";"N/A";"";"1";"";"";"OOO ""TOK BOR""";"";"";"";"";"";"";"";"UZ453";"";"";"";"TOK BOR";"";"";"yes"
"12082598114";"41.3720579";"69.3230498";"charging_station";"";"Uzbekistan";"Toshkent";"N/A";"N/A";"";"1";"";"";"OOO ""TOK BOR""";"";"";"";"";"";"";"";"UZ460";"";"";"";"TOK BOR";"";"";"yes"
"12082603320";"41.3131105";"69.2501882";"charging_station";"";"Uzbekistan";"Toshkent Shahri";"N/A";"N/A";"";"4";"";"";"OOO ""TOK BOR""";"";"";"";"";"";"";"";"UZ461 UZ462";"";"";"";"TOK BOR";"";"";"yes"
"12082761273";"41.289932";"69.3209883";"charging_station";"";"Uzbekistan";"Toshkent Shahri";"N/A";"N/A";"";"3";"";"";"OOO ""TOK BOR""";"";"";"";"";"";"";"";"UZ476";"";"";"";"TOK BOR";"";"";"yes"
"12082776092";"41.3045123";"69.2830068";"charging_station";"";"Uzbekistan";"Toshkent Shahri";"N/A";"N/A";"";"2";"";"";"OOO ""TOK BOR""";"";"";"";"";"";"";"";"UZ478";"";"";"";"TOK BOR";"";"";"yes"
"12082788795";"41.3196404";"69.227126";"charging_station";"";"Uzbekistan";"Toshkent Shahri";"N/A";"N/A";"";"2";"";"";"OOO ""TOK BOR""";"";"";"";"";"";"";"";"UZ479";"";"";"";"TOK BOR";"";"";"yes"
"12082824804";"41.3195116";"69.2503737";"charging_station";"";"Uzbekistan";"Toshkent Shahri";"N/A";"N/A";"";"12";"";"";"OOO ""TOK BOR""";"";"";"";"";"";"";"";"UZ488 UZ489 UZ490 UZ491";"";"";"";"TOK BOR";"";"";"yes"
"12082863153";"41.3372665";"69.3151527";"charging_station";"";"Uzbekistan";"Toshkent";"N/A";"N/A";"";"3";"";"";"OOO ""TOK BOR""";"";"";"";"";"";"";"";"UZ499";"";"";"";"TOK BOR";"";"";"yes"
"12082895118";"41.2522727";"69.2520847";"charging_station";"";"Uzbekistan";"Toshkent Shahri";"N/A";"N/A";"";"2";"";"";"OOO ""TOK BOR""";"";"";"";"";"";"";"";"UZ507";"";"";"";"TOK BOR";"";"";"yes"
"12082899747";"41.2828283";"69.3027089";"charging_station";"";"Uzbekistan";"Toshkent Shahri";"N/A";"N/A";"";"1";"";"";"OOO ""TOK BOR""";"";"";"";"";"";"";"";"UZ503";"";"";"";"TOK BOR";"";"";"yes"
"12082908098";"41.2371839";"69.2135043";"charging_station";"";"Uzbekistan";"Toshkent Shahri";"N/A";"N/A";"";"3";"";"";"OOO ""TOK BOR""";"";"";"";"";"";"";"";"UZ508";"";"";"";"TOK BOR";"";"";"yes"
"12084382380";"41.3013568";"69.2477239";"charging_station";"";"Uzbekistan";"Toshkent Shahri";"N/A";"N/A";"";"2";"";"";"OOO ""TOK BOR""";"";"";"";"";"";"";"";"UZ515 UZ516";"";"";"";"TOK BOR";"";"";"yes"
"12084385340";"41.3513114";"69.2461512";"charging_station";"";"Uzbekistan";"Toshkent Shahri";"N/A";"N/A";"";"2";"";"";"OOO ""TOK BOR""";"";"";"";"";"";"";"";"UZ517 UZ518";"";"";"";"TOK BOR";"";"";"yes"
"12084447954";"41.2264993";"69.127567";"charging_station";"";"Uzbekistan";"Toshkent";"N/A";"N/A";"";"1";"";"";"OOO ""TOK BOR""";"";"";"";"";"";"";"";"UZ533";"";"";"";"TOK BOR";"";"";"yes"
"12119990428";"41.2421187";"69.219269";"charging_station";"";"Uzbekistan";"Toshkent Shahri";"N/A";"N/A";"";"2";"";"";"OOO ""TOK BOR""";"";"";"";"";"";"";"";"UZ544";"";"";"";"TOK BOR";"";"";"yes"
"12119991360";"41.3037261";"69.3154754";"charging_station";"";"Uzbekistan";"Toshkent";"N/A";"N/A";"";"4";"";"";"OOO ""TOK BOR""";"";"";"";"";"";"";"";"UZ545";"";"";"";"TOK BOR";"";"";"yes"
"12121476693";"41.3600264";"69.2850496";"charging_station";"";"Uzbekistan";"Toshkent";"N/A";"N/A";"";"2";"";"";"TOSHELECTROAPPARAT";"";"";"";"";"";"";"";"";"";"";"";"GreenTE АО ""НЭС""";"";"";"yes"
"12121483354";"41.2939178";"69.2645549";"charging_station";"";"Uzbekistan";"Toshkent Shahri";"N/A";"N/A";"";"2";"";"";"OOO ""TOK BOR""";"";"";"";"";"";"";"";"UZ549";"";"";"";"TOK BOR";"";"";"yes"
"12121497623";"41.2766858";"69.2451189";"charging_station";"";"Uzbekistan";"Toshkent Shahri";"N/A";"N/A";"";"3";"";"";"OOO ""TOK BOR""";"";"";"";"";"";"";"";"UZ550";"";"";"";"TOK BOR";"";"";"yes"
"12121503167";"41.3665372";"69.2868364";"charging_station";"";"Uzbekistan";"Toshkent";"N/A";"N/A";"";"4";"";"";"OOO ""TOK BOR""";"";"";"";"";"";"";"";"UZ551";"";"";"";"TOK BOR";"";"";"yes"
"12125937640";"41.3123786";"69.2833726";"charging_station";"";"Uzbekistan";"Toshkent Shahri";"N/A";"N/A";"";"6";"";"";"OOO ""TOK BOR""";"";"";"";"";"";"";"";"UZ606";"";"";"";"TOK BOR";"";"";"yes"
"12137448771";"41.2868412";"69.3392981";"charging_station";"";"Uzbekistan";"Toshkent Shahri";"N/A";"N/A";"";"1";"";"";"OOO ""TOK BOR""";"";"";"";"";"";"";"";"UZ615";"";"";"";"TOK BOR";"";"";"yes"
"12137488356";"41.2636705";"69.2657676";"charging_station";"";"Uzbekistan";"Toshkent Shahri";"N/A";"N/A";"";"2";"";"";"OOO ""TOK BOR""";"";"";"";"";"";"";"";"UZ616 UZ617";"";"";"";"TOK BOR";"";"";"yes"
"12137499323";"41.2647278";"69.2674327";"charging_station";"";"Uzbekistan";"Toshkent Shahri";"N/A";"N/A";"";"2";"";"";"OOO ""TOK BOR""";"";"";"";"";"";"";"";"UZ618 UZ619";"";"";"";"TOK BOR";"";"";"yes"
"12141256825";"41.3034907";"69.2334457";"charging_station";"";"Uzbekistan";"Toshkent Shahri";"N/A";"N/A";"";"2";"";"";"OOO ""TOK BOR""";"";"";"";"";"";"";"";"UZ557";"";"";"";"TOK BOR";"";"";"yes"
"12141294360";"41.3167413";"69.356655";"charging_station";"";"Uzbekistan";"Toshkent";"N/A";"N/A";"";"2";"";"";"OOO ""TOK BOR""";"";"";"";"";"";"";"";"UZ558";"";"";"";"TOK BOR";"";"";"yes"
"12141357739";"41.2807082";"69.2422535";"charging_station";"";"Uzbekistan";"Toshkent Shahri";"N/A";"N/A";"";"2";"";"";"OOO ""TOK BOR""";"";"";"";"";"";"";"";"";"";"";"";"TOK BOR";"";"";"yes"
"12154732902";"41.2776269";"69.2745135";"charging_station";"";"Uzbekistan";"Toshkent Shahri";"N/A";"N/A";"";"2";"";"";"OOO ""TOK BOR""";"";"";"";"";"";"";"";"UZ624 UZ558";"";"";"";"TOK BOR";"";"";"yes"
"12154762672";"41.3217551";"69.2946996";"charging_station";"";"Uzbekistan";"Toshkent Shahri";"N/A";"N/A";"";"3";"";"";"OOO ""TOK BOR""";"";"";"";"";"";"";"";"";"";"";"";"TOK BOR";"";"";"yes"
"12154775382";"41.2031763";"69.2141696";"charging_station";"";"Uzbekistan";"Toshkent Shahri";"N/A";"N/A";"";"2";"";"";"OOO ""TOK BOR""";"";"";"";"";"";"";"";"UZ561";"";"";"";"TOK BOR";"";"";"yes"
"12154784492";"41.3196931";"69.3013081";"charging_station";"";"Uzbekistan";"Toshkent";"N/A";"N/A";"";"2";"";"";"OOO ""TOK BOR""";"";"";"";"";"";"";"";"UZ563";"";"";"";"TOK BOR";"";"";"yes"
"12154814907";"41.3532355";"69.149121";"charging_station";"";"Kazakhstan";"Ongtustik Qazaqstan";"N/A";"N/A";"";"1";"";"";"OOO ""TOK BOR""";"";"";"";"";"";"";"";"UZ625";"";"";"";"TOK BOR";"";"";"yes"
"12234571861";"41.3552002";"69.3445035";"charging_station";"";"Uzbekistan";"Toshkent";"N/A";"N/A";"";"3";"";"";"ИП ""TOSHELECTROAPPARAT""";"";"";"";"";"";"";"";"";"";"";"";"Tezroq Locomotiv";"";"";"yes"
"12280791513";"41.3241075";"69.1577145";"charging_station";"";"Uzbekistan";"Toshkent Shahri";"N/A";"N/A";"";"2";"";"";"ИП ООО ""TOSHELECTROAPPARAT""";"";"";"";"";"";"";"";"";"";"";"";"Tezroq";"";"";"yes"
"12350528552";"41.3728376";"69.3107387";"charging_station";"";"Uzbekistan";"Toshkent";"N/A";"N/A";"";"2";"";"";"";"";"";"";"";"";"";"";"";"";"";"";"ND CHARGER";"2100 UZS";"";"yes"
"12350528553";"41.3728";"69.3107605";"charging_station";"";"Uzbekistan";"Toshkent";"N/A";"N/A";"";"2";"";"";"";"";"";"";"";"";"";"";"";"";"";"";"ND CHARGER";"2100 UZS";"";"yes"
"12696039539";"41.2264107";"69.2364857";"charging_station";"";"Uzbekistan";"Toshkent Shahri";"N/A";"N/A";"";"";"";"";"Tezroq";"";"";"";"";"";"";"";"+998880171088";"";"";"";"Tezroq";"";"";""
"12749708189";"41.3560393";"69.203884";"charging_station";"";"Uzbekistan";"Toshkent Shahri";"N/A";"N/A";"";"2";"";"";"OOO ""PRO-TOK""";"";"";"";"";"";"";"";"";"";"";"";"PRO-TOK";"";"";"yes"
"12749741806";"41.3416935";"69.3369718";"charging_station";"";"Uzbekistan";"Toshkent";"N/A";"N/A";"";"5";"";"";"OOO ""PRO-TOK""";"";"";"";"";"";"";"";"";"";"";"";"PRO-TOK";"";"";"yes"
"12909543164";"41.2779199";"69.2168874";"charging_station";"";"Uzbekistan";"Toshkent Shahri";"N/A";"N/A";"";"";"";"";"";"";"";"";"";"";"";"";"";"";"";"";"";"";"";""
"12917887415";"41.2871239";"69.2434692";"charging_station";"";"Uzbekistan";"Toshkent Shahri";"N/A";"N/A";"";"4";"";"";"";"";"";"";"";"";"";"";"";"";"";"";"";"";"";""
"4189023791";"41.4591388";"69.5379576";"charging_station";"";"Uzbekistan";"Toshkent";"N/A";"N/A";"";"";"";"";"";"";"";"";"";"";"";"";"";"";"";"";"";"";"";""
"12073278518";"41.3996134";"69.5549272";"charging_station";"";"Uzbekistan";"Toshkent";"N/A";"N/A";"";"2";"";"";"OOO ""TOK BOR""";"";"";"";"";"";"";"";"UZ176";"";"";"";"TOK BOR";"";"";"yes"
"12074777756";"41.4894427";"69.9433735";"charging_station";"";"Uzbekistan";"Toshkent";"N/A";"N/A";"";"2";"";"";"OOO ""TOK BOR""";"";"";"";"";"";"";"";"UZ224";"";"";"";"TOK BOR";"";"";"yes"
"12074785920";"41.4872967";"69.9415397";"charging_station";"";"Uzbekistan";"Toshkent";"N/A";"N/A";"";"2";"";"";"OOO ""TOK BOR""";"";"";"";"";"";"";"";"UZ226";"";"";"";"TOK BOR";"";"";"yes"
"12074801938";"41.514142";"69.9481317";"charging_station";"";"Uzbekistan";"Toshkent";"N/A";"N/A";"";"8";"";"";"OOO ""TOK BOR""";"";"";"";"";"";"";"";"UZ230 UZ231 UZ232 UZ233 UZ234 UZ235";"";"";"";"TOK BOR";"";"";"yes"
"12075140533";"41.6225551";"69.9448603";"charging_station";"";"Uzbekistan";"Toshkent";"N/A";"N/A";"";"3";"";"";"OOO ""TOK BOR""";"";"";"";"";"";"";"";"UZ351 UZ339";"";"";"";"TOK BOR";"";"";"yes"
"12082232562";"41.6229067";"69.9344863";"charging_station";"";"Uzbekistan";"Toshkent";"N/A";"N/A";"";"5";"";"";"OOO ""TOK BOR""";"";"";"";"";"";"";"";"UZ422 UZ423";"";"";"";"TOK BOR";"";"";"yes"
"12082374906";"41.4932945";"69.588472";"charging_station";"";"Uzbekistan";"Toshkent";"N/A";"N/A";"";"2";"";"";"OOO ""TOK BOR""";"";"";"";"";"";"";"";"UZ446";"";"";"";"TOK BOR";"";"";"yes"
"12082977606";"41.6384909";"69.9465018";"charging_station";"";"Uzbekistan";"Toshkent";"N/A";"N/A";"";"1";"";"";"OOO ""TOK BOR""";"";"";"";"";"";"";"";"UZ511";"";"";"";"TOK BOR";"";"";"yes"
"12084361670";"41.5192208";"69.9523904";"charging_station";"";"Uzbekistan";"Toshkent";"N/A";"N/A";"";"1";"";"";"OOO ""TOK BOR""";"";"";"";"";"";"";"";"UZ514";"";"";"";"TOK BOR";"";"";"yes"
"12084385615";"41.5154891";"69.9600237";"charging_station";"";"Uzbekistan";"Toshkent";"N/A";"N/A";"";"1";"";"";"OOO ""TOK BOR""";"";"";"";"";"";"";"";"UZ519";"";"";"";"TOK BOR";"";"";"yes"
"12084419476";"41.5721636";"69.8096238";"charging_station";"";"Uzbekistan";"Toshkent";"N/A";"N/A";"";"4";"";"";"OOO ""TOK BOR""";"";"";"";"";"";"";"";"UZ522";"";"";"";"TOK BOR";"";"";"yes"
"12120018415";"41.5596179";"69.8282016";"charging_station";"";"Uzbekistan";"Toshkent";"N/A";"N/A";"";"3";"";"";"OOO ""TOK BOR""";"";"";"";"";"";"";"";"UZ547";"";"";"";"TOK BOR";"";"";"yes"
"12137343418";"41.4868095";"69.9443802";"charging_station";"";"Uzbekistan";"Toshkent";"N/A";"N/A";"";"1";"";"";"OOO ""TOK BOR""";"";"";"";"";"";"";"";"UZ609";"";"";"";"TOK BOR";"";"";"yes"
"12137344411";"41.4870612";"69.9425184";"charging_station";"";"Uzbekistan";"Toshkent";"N/A";"N/A";"";"1";"";"";"OOO ""TOK BOR""";"";"";"";"";"";"";"";"UZ608";"";"";"";"TOK BOR";"";"";"yes"
"12137365488";"41.5143103";"69.9482274";"charging_station";"";"Uzbekistan";"Toshkent";"N/A";"N/A";"";"2";"";"";"OOO ""TOK BOR""";"";"";"";"";"";"";"";"UZ611";"";"";"";"TOK BOR";"";"";"yes"
"12069605254";"41.5755908";"70.0209964";"charging_station";"";"Uzbekistan";"Toshkent";"N/A";"N/A";"";"2";"";"";"OOO ""TOK BOR""";"";"";"";"";"";"";"";"UZ044";"";"";"";"TOK BOR";"";"";"yes"
"12082234818";"41.5921304";"70.0627685";"charging_station";"";"Uzbekistan";"Toshkent";"N/A";"N/A";"";"3";"";"";"OOO ""TOK BOR""";"";"";"";"";"";"";"";"UZ428";"";"";"";"TOK BOR";"";"";"yes"
"12082261803";"41.5500873";"70.0273527";"charging_station";"";"Uzbekistan";"Toshkent";"N/A";"N/A";"";"1";"";"";"OOO ""TOK BOR""";"";"";"";"";"";"";"";"UZ429";"";"";"";"TOK BOR";"";"";"yes"
"12082904058";"41.5323934";"70.0285184";"charging_station";"";"Uzbekistan";"Toshkent";"N/A";"N/A";"";"3";"";"";"OOO ""TOK BOR""";"";"";"";"";"";"";"";"UZ510";"";"";"";"TOK BOR";"";"";"yes"
"12079545659";"41.215786";"71.529348";"charging_station";"";"Uzbekistan";"Namangan";"N/A";"N/A";"";"2";"";"";"OOO ""TOK BOR""";"";"";"";"";"";"";"";"UZ279";"";"";"";"TOK BOR";"";"";"yes"
"11898190185";"41.8233143";"60.8708918";"charging_station";"";"Uzbekistan";"Karakalpakstan";"N/A";"N/A";"";"2";"";"";"";"";"";"";"";"";"";"";"";"";"";"";"";"";"";"yes"
"12684603496";"41.6994199";"60.5267781";"charging_station";"";"Uzbekistan";"Xorazm";"N/A";"N/A";"";"";"";"";"tezroq";"";"";"";"";"";"";"";"+998880171088";"";"";"";"Tezroq";"";"";""
"12071048546";"42.1506093";"63.5642239";"charging_station";"Uchkuduk District";"Uzbekistan";"Navoiy";"N/A";"N/A";"";"1";"";"";"OOO ""TOK BOR""";"";"";"";"";"";"";"";"UZ099";"";"";"";"TOK BOR";"";"";"yes"
"10866675325";"42.4453112";"59.6288482";"charging_station";"";"Uzbekistan";"Karakalpakstan";"N/A";"N/A";"";"2";"";"";"OOO ""TOK BOR""";"";"";"";"";"";"";"";"UZ095";"";"";"";"TOK BOR";"";"";"yes"
"10873415521";"42.4667368";"59.5919243";"charging_station";"";"Uzbekistan";"Karakalpakstan";"N/A";"N/A";"";"";"";"";"";"";"";"";"";"";"";"";"";"";"";"";"Megawatt Energy";"";"";"yes"
"12119548375";"42.4257982";"59.6391964";"charging_station";"";"Uzbekistan";"Karakalpakstan";"N/A";"N/A";"";"2";"";"";"TOSHELECTROAPPARAT";"";"";"";"";"";"";"";"";"";"";"";"Tezroq NUKUSELECTROAPPARAT";"";"";"yes"
"12698745129";"42.4672409";"59.5926013";"charging_station";"";"Uzbekistan";"Karakalpakstan";"N/A";"N/A";"";"";"";"";"";"";"";"";"";"";"";"";"";"";"";"";"";"";"";""
"12739198808";"42.4719886";"59.6031126";"charging_station";"";"Uzbekistan";"Karakalpakstan";"N/A";"N/A";"";"";"";"";"";"";"";"";"";"";"";"";"";"";"";"";"Megawatt";"";"";""
"10866675326";"43.7829759";"59.030146";"charging_station";"";"Uzbekistan";"Karakalpakstan";"N/A";"N/A";"";"1";"";"";"OOO ""TOK BOR""";"";"";"";"";"";"";"";"UZ094";"";"";"";"TOK BOR";"";"";"yes"
"12069616383";"39.6798611";"66.9384989";"charging_station";"";"Uzbekistan";"Samarqand";"N/A";"N/A";"";"4";"";"";"OOO ""TOK BOR""";"";"";"";"";"";"";"";"UZ033";"";"";"";"TOK BOR";"";"";"yes"
"12069736803";"39.6736824";"66.9675607";"charging_station";"";"Uzbekistan";"Samarqand";"N/A";"N/A";"";"2";"";"";"OOO ""TOK BOR""";"";"";"";"";"";"";"";"UZ071";"";"";"";"TOK BOR";"";"";"yes"
"12082606305";"39.8627655";"66.778771";"charging_station";"";"Uzbekistan";"Samarqand";"N/A";"N/A";"";"2";"";"";"OOO ""TOK BOR""";"";"";"";"";"";"";"";"UZ467";"";"";"";"TOK BOR";"";"";"yes"
"12082630532";"39.6811277";"66.9347017";"charging_station";"";"Uzbekistan";"Samarqand";"N/A";"N/A";"";"4";"";"";"OOO ""TOK BOR""";"";"";"";"";"";"";"";"UZ472";"";"";"";"TOK BOR";"";"";"yes"
