"id";"lat";"lon";"amenity";"city";"state";"country";"scraped_country_code";"scraped_country_name";"authentication:nfc";"capacity";"capacity:car";"motorcar";"operator";"operator:wikidata";"socket:schuko";"socket:schuko:current";"socket:schuko:voltage";"socket:type2";"socket:type2:current";"socket:type2:voltage";"ref";"addr:housenumber";"addr:street";"addr:postcode";"brand";"charge";"opening_hours";"fee"
"10169300870";"10.5459646";"-85.6939897";"charging_station";"";"Costa Rica";"Guanacaste";"N/A";"N/A";"";"";"";"";"";"";"";"";"";"";"";"";"";"";"";"";"";"";"";""
"9870624547";"10.6330658";"-85.4433586";"charging_station";"";"Costa Rica";"Guanacaste";"N/A";"N/A";"";"";"";"";"ICE";"";"";"";"";"";"";"";"";"";"";"";"";"";"";""
"9687359023";"10.545122";"-84.8928119";"charging_station";"Canton de Tilaran";"Costa Rica";"Guanacaste";"N/A";"N/A";"";"";"";"";"ICE";"";"";"";"";"";"";"";"";"";"";"";"";"";"";""
"9687359031";"10.4915118";"-84.7115558";"charging_station";"";"Costa Rica";"Alajuela";"N/A";"N/A";"";"";"";"";"";"";"";"";"";"";"";"";"";"";"";"";"";"";"";""
"9687359032";"10.4914946";"-84.7221307";"charging_station";"";"Costa Rica";"Alajuela";"N/A";"N/A";"";"";"";"";"";"";"";"";"";"";"";"";"";"";"";"";"";"";"";""
"9687359231";"10.4851673";"-84.6815842";"charging_station";"";"Costa Rica";"Alajuela";"N/A";"N/A";"";"";"";"";"";"";"";"";"";"";"";"";"";"";"";"";"";"";"";""
"10112216151";"10.4986241";"-84.6861692";"charging_station";"";"Costa Rica";"Alajuela";"N/A";"N/A";"";"";"";"";"";"";"";"";"";"";"";"";"";"";"";"";"";"";"";""
"11380439690";"10.5025634";"-84.6782579";"charging_station";"";"Costa Rica";"Alajuela";"N/A";"N/A";"";"1";"";"";"Hotel Arenal Manoa";"";"";"";"";"";"";"";"";"";"";"";"";"";"24/7";"no"
"9687359235";"10.4696241";"-84.6540735";"charging_station";"";"Costa Rica";"Alajuela";"N/A";"N/A";"";"";"";"";"";"";"";"";"";"";"";"";"";"";"";"";"";"";"";""
"9687359236";"10.4724395";"-84.6440683";"charging_station";"";"Costa Rica";"Alajuela";"N/A";"N/A";"";"";"";"";"";"";"";"";"";"";"";"";"";"";"";"";"";"";"";""
"11384425691";"10.4715538";"-84.6447572";"charging_station";"";"Costa Rica";"Alajuela";"N/A";"N/A";"";"";"";"no";"";"";"";"";"";"";"";"";"";"";"";"";"";"";"";"no"
"11847894772";"10.6243643";"-84.5262207";"charging_station";"";"Costa Rica";"Alajuela";"N/A";"N/A";"";"";"";"";"Coopelesca";"";"";"";"";"";"";"";"";"";"";"";"";"";"";"yes"
"9687358968";"10.4522987";"-84.0117307";"charging_station";"";"Costa Rica";"Heredia";"N/A";"N/A";"";"";"";"";"";"";"";"";"";"";"";"";"";"";"";"";"";"";"";""
"9014326117";"10.687515";"-74.7476826";"charging_station";"";"Colombia";"Magdalena";"N/A";"N/A";"";"";"";"";"";"";"";"";"";"";"";"";"";"";"";"";"";"";"";""
"12780228156";"10.5022232";"-66.8507495";"charging_station";"Municipio Chacao";"Venezuela";"Miranda";"N/A";"N/A";"";"1";"";"customers";"Swing Energy";"";"";"";"";"1";"";"";"";"";"";"";"Swing Energy";"";"Mo-Su 10:00-23:00";"no"
"12781059660";"10.4645985";"-66.9779252";"charging_station";"Municipio Libertador";"Venezuela";"Capital";"N/A";"N/A";"";"1";"";"yes";"Swing Energy";"";"";"";"";"1";"";"";"";"";"";"";"Swing Energy";"";"Mo-Fr 06:00-21:00; Sa 07:00-17:00";"no"
"12785082977";"10.5022091";"-66.850495";"charging_station";"Municipio Chacao";"Venezuela";"Miranda";"N/A";"N/A";"";"1";"";"customers";"Vencharger";"";"";"";"";"1";"";"";"";"";"";"";"Vencharger";"";"Mo-Sa 11:30-24:00;Su 12:30-22:00";"no"
"12785162844";"10.5117704";"-66.8963769";"charging_station";"Municipio Libertador";"Venezuela";"Capital";"N/A";"N/A";"";"1";"";"yes";"Vencharger";"";"";"";"";"1";"";"";"";"";"";"";"Vencharger";"";"24/7";"no"
"12785162845";"10.4670127";"-66.8709683";"charging_station";"Municipio Libertador";"Venezuela";"Capital";"N/A";"N/A";"";"1";"";"yes";"Vencharger";"";"";"";"";"1";"";"";"";"";"";"";"Vencharger";"";"Mo-Su 06:00-23:00";"no"
"12785195316";"10.4861774";"-66.8543715";"charging_station";"Municipio Chacao";"Venezuela";"Miranda";"N/A";"N/A";"";"1";"";"yes";"Vencharger";"";"";"";"";"1";"";"";"";"";"";"";"Vencharger";"";"24/7";"no"
"12785195317";"10.4862163";"-66.8543722";"charging_station";"Municipio Chacao";"Venezuela";"Miranda";"N/A";"N/A";"";"1";"";"yes";"Vencharger";"";"";"";"";"1";"";"";"";"";"";"";"Vencharger";"";"24/7";"no"
"1380575644";"";"";"charging_station";"N/A";"N/A";"N/A";"N/A";"N/A";"";"9";"";"yes";"Swing Energy";"";"";"";"";"3";"";"";"";"";"";"";"Swing Energy";"";"24/7";"no"
"12781972658";"10.5966244";"-67.0010724";"";"";"Venezuela";"Vargas";"N/A";"N/A";"";"";"";"";"";"";"";"";"";"";"";"";"";"";"";"";"";"";"";""
"12781972659";"10.5966268";"-67.0010177";"";"";"Venezuela";"Vargas";"N/A";"N/A";"";"";"";"";"";"";"";"";"";"";"";"";"";"";"";"";"";"";"";""
"12781972660";"10.5963734";"-67.0010067";"";"";"Venezuela";"Vargas";"N/A";"N/A";"";"";"";"";"";"";"";"";"";"";"";"";"";"";"";"";"";"";"";""
"12781972661";"10.5963711";"-67.0010614";"";"";"Venezuela";"Vargas";"N/A";"N/A";"";"";"";"";"";"";"";"";"";"";"";"";"";"";"";"";"";"";"";""
"1382691947";"";"";"charging_station";"N/A";"N/A";"N/A";"N/A";"N/A";"";"4";"";"yes";"Swing Energy";"";"";"";"";"";"";"";"";"";"";"";"Swing Energy";"";"24/7";"no"
"12801564830";"10.9173602";"-63.9672248";"";"Municipio Diaz";"Venezuela";"Nueva Esparta";"N/A";"N/A";"";"";"";"";"";"";"";"";"";"";"";"";"";"";"";"";"";"";"";""
"12801564831";"10.9173686";"-63.9671809";"";"Municipio Diaz";"Venezuela";"Nueva Esparta";"N/A";"N/A";"";"";"";"";"";"";"";"";"";"";"";"";"";"";"";"";"";"";"";""
"12801564832";"10.9172928";"-63.9671658";"";"Municipio Diaz";"Venezuela";"Nueva Esparta";"N/A";"N/A";"";"";"";"";"";"";"";"";"";"";"";"";"";"";"";"";"";"";"";""
"12801564833";"10.9172843";"-63.9672097";"";"Municipio Diaz";"Venezuela";"Nueva Esparta";"N/A";"N/A";"";"";"";"";"";"";"";"";"";"";"";"";"";"";"";"";"";"";"";""
"4487703890";"10.602081";"-61.3398823";"charging_station";"";"Trinidad and Tobago";"Tunapuna/Piarco";"N/A";"N/A";"";"";"";"";"";"";"";"";"";"";"";"";"";"";"";"";"";"";"";""
"12399678440";"10.7917583";"0.1982084";"charging_station";"";"Togo";"Savanes";"N/A";"N/A";"";"";"";"";"";"";"";"";"";"";"";"";"";"";"";"";"";"";"";""
"12399695103";"10.8225877";"0.1967652";"charging_station";"";"Togo";"Savanes";"N/A";"N/A";"";"";"";"";"";"";"";"";"";"";"";"";"";"";"";"";"";"";"";""
"12399697894";"10.8855774";"0.2475174";"charging_station";"";"Togo";"Savanes";"N/A";"N/A";"";"";"";"";"";"";"";"";"";"";"";"";"";"";"";"";"";"";"";""
"7123744187";"10.6488315";"76.0710605";"charging_station";"Thrissur District";"India";"Kerala";"N/A";"N/A";"";"";"";"";"";"";"";"";"";"";"";"";"";"";"";"";"";"";"";""
"11574632419";"10.5352175";"76.2156115";"charging_station";"Thrissur District";"India";"Kerala";"N/A";"N/A";"";"2";"";"";"";"";"";"";"";"";"";"";"";"";"";"";"OLA Electric";"";"";""
"12128379950";"10.7821549";"75.9362932";"charging_station";"Malappuram";"India";"Kerala";"N/A";"N/A";"";"";"";"";"";"";"";"";"";"";"";"";"";"";"";"";"";"";"";""
"12183518228";"10.7727816";"75.9471268";"charging_station";"Malappuram";"India";"Kerala";"N/A";"N/A";"";"";"";"";"";"";"";"";"";"";"";"";"";"";"";"";"";"";"";""
"12450672051";"10.7292683";"75.9472621";"charging_station";"Malappuram";"India";"Kerala";"N/A";"N/A";"";"3";"";"";"";"";"";"";"";"";"";"";"";"";"";"";"Ola fast charger";"";"24/7";"no"
"1387453961";"";"";"charging_station";"N/A";"N/A";"N/A";"N/A";"N/A";"";"";"";"";"Kerala State Electricity Board";"Q6393422";"";"";"";"";"";"";"";"";"";"";"";"";"";""
"1388052885";"";"";"charging_station";"N/A";"N/A";"N/A";"N/A";"N/A";"";"";"";"";"Kerala State Electricity Board";"Q6393422";"";"";"";"";"";"";"";"";"";"";"";"";"";""
"12843654901";"10.6327751";"76.0856378";"";"Thrissur District";"India";"Kerala";"N/A";"N/A";"";"";"";"";"";"";"";"";"";"";"";"";"";"";"";"";"";"";"";""
"12843654902";"10.632873";"76.0856688";"";"Thrissur District";"India";"Kerala";"N/A";"N/A";"";"";"";"";"";"";"";"";"";"";"";"";"";"";"";"";"";"";"";""
"12843654903";"10.6327906";"76.0858447";"";"Thrissur District";"India";"Kerala";"N/A";"N/A";"";"";"";"";"";"";"";"";"";"";"";"";"";"";"";"";"";"";"";""
"12843654904";"10.6326712";"76.0857913";"";"Thrissur District";"India";"Kerala";"N/A";"N/A";"";"";"";"";"";"";"";"";"";"";"";"";"";"";"";"";"";"";"";""
"3739716306";"10.6572736";"76.2606634";"";"Thrissur District";"India";"Kerala";"N/A";"N/A";"";"";"";"";"";"";"";"";"";"";"";"";"";"";"";"";"";"";"";""
"12849282699";"10.657325";"76.2605101";"";"Thrissur District";"India";"Kerala";"N/A";"N/A";"";"";"";"";"";"";"";"";"";"";"";"";"";"";"";"";"";"";"";""
"12849282700";"10.6570442";"76.2604416";"";"Thrissur District";"India";"Kerala";"N/A";"N/A";"";"";"";"";"";"";"";"";"";"";"";"";"";"";"";"";"";"";"";""
"12849288901";"10.6570003";"76.2605933";"";"Thrissur District";"India";"Kerala";"N/A";"N/A";"";"";"";"";"";"";"";"";"";"";"";"";"";"";"";"";"";"";"";""
"11111611044";"10.5972682";"76.4872287";"charging_station";"Thrissur District";"India";"Kerala";"N/A";"N/A";"";"";"";"";"";"";"";"";"";"";"";"";"";"";"";"";"KSEB Charging Station";"";"";""
"11157574366";"10.7740371";"76.6982216";"charging_station";"Palakkad district";"India";"Kerala";"N/A";"N/A";"";"";"";"";"";"";"";"";"";"";"";"";"";"";"";"";"";"";"";""
"12197027554";"10.7702552";"76.6377821";"charging_station";"Palakkad district";"India";"Kerala";"N/A";"N/A";"";"";"";"";"Ather";"";"";"";"";"";"";"";"";"";"";"";"Ather Grid Charging Stationed";"";"";""
"12791449753";"10.7736633";"76.6647262";"charging_station";"Palakkad district";"India";"Kerala";"N/A";"N/A";"";"";"";"";"Jio Bp";"";"";"";"";"";"";"";"";"";"";"";"Pulse";"";"";"yes"
"12828589994";"10.7719508";"76.65726";"charging_station";"Palakkad district";"India";"Kerala";"N/A";"N/A";"";"30";"";"";"";"";"";"";"";"";"";"";"";"";"";"";"Esygo";"";"";""
"8919511936";"10.8559725";"76.8624485";"charging_station";"Coimbatore";"India";"Tamil Nadu";"N/A";"N/A";"";"50";"";"";"Zeon";"";"";"";"";"";"";"";"";"";"";"";"";"";"";"yes"
"4411359189";"10.5108989";"99.1065494";"charging_station";"";"Thailand";"Chumphon";"N/A";"N/A";"";"";"";"";"PTT";"";"";"";"";"";"";"";"";"";"";"";"";"";"";""
"9587618739";"10.8695365";"106.6157273";"charging_station";"";"Vietnam";"Ho Chi Minh City";"N/A";"N/A";"";"";"";"";"";"";"";"";"";"";"";"";"";"";"";"";"";"";"";""
"12839151406";"10.5345592";"106.4102917";"charging_station";"";"Vietnam";"Long An";"N/A";"N/A";"";"";"";"";"";"";"";"";"";"";"";"";"";"";"";"";"Vinfast";"";"";""
"1156672840";"";"";"charging_station";"N/A";"N/A";"N/A";"N/A";"N/A";"";"";"";"";"";"";"";"";"";"";"";"";"";"";"";"";"";"";"";""
"1222752686";"";"";"charging_station";"N/A";"N/A";"N/A";"N/A";"N/A";"";"";"";"";"";"";"";"";"";"";"";"";"";"";"";"";"VinFast";"";"";"yes"
"10755504927";"10.7912679";"106.7128314";"";"";"Vietnam";"Ho Chi Minh City";"N/A";"N/A";"";"";"";"";"";"";"";"";"";"";"";"";"";"";"";"";"";"";"";""
"10755504928";"10.7912724";"106.7128205";"";"";"Vietnam";"Ho Chi Minh City";"N/A";"N/A";"";"";"";"";"";"";"";"";"";"";"";"";"";"";"";"";"";"";"";""
"10756457718";"10.7912632";"106.7128296";"";"";"Vietnam";"Ho Chi Minh City";"N/A";"N/A";"";"";"";"";"";"";"";"";"";"";"";"";"";"";"";"";"";"";"";""
"10756458809";"10.7912674";"106.7128188";"";"";"Vietnam";"Ho Chi Minh City";"N/A";"N/A";"";"";"";"";"";"";"";"";"";"";"";"";"";"";"";"";"";"";"";""
"11341371343";"10.8387919";"106.8329958";"";"";"Vietnam";"Ho Chi Minh City";"N/A";"N/A";"";"";"";"";"";"";"";"";"";"";"";"";"";"";"";"";"";"";"";""
"11341371344";"10.8387369";"106.8330159";"";"";"Vietnam";"Ho Chi Minh City";"N/A";"N/A";"";"";"";"";"";"";"";"";"";"";"";"";"";"";"";"";"";"";"";""
"11341371345";"10.838821";"106.833254";"";"";"Vietnam";"Ho Chi Minh City";"N/A";"N/A";"";"";"";"";"";"";"";"";"";"";"";"";"";"";"";"";"";"";"";""
"11341371346";"10.8388749";"106.8332311";"";"";"Vietnam";"Ho Chi Minh City";"N/A";"N/A";"";"";"";"";"";"";"";"";"";"";"";"";"";"";"";"";"";"";"";""
"1222753571";"";"";"charging_station";"N/A";"N/A";"N/A";"N/A";"N/A";"";"";"";"";"";"";"";"";"";"";"";"";"";"";"";"";"VinFast";"";"";""
"1223356296";"";"";"charging_station";"N/A";"N/A";"N/A";"N/A";"N/A";"";"";"";"";"VinFast";"";"";"";"";"";"";"";"";"";"";"";"VinFast";"";"";""
"1308942233";"";"";"charging_station";"N/A";"N/A";"N/A";"N/A";"N/A";"";"";"";"";"VinFast";"";"";"";"";"";"";"";"";"";"";"";"VinFast";"";"";""
"11347595662";"10.8361767";"106.8427235";"";"";"Vietnam";"Ho Chi Minh City";"N/A";"N/A";"";"";"";"";"";"";"";"";"";"";"";"";"";"";"";"";"";"";"";""
"11347595663";"10.8361587";"106.8426869";"";"";"Vietnam";"Ho Chi Minh City";"N/A";"N/A";"";"";"";"";"";"";"";"";"";"";"";"";"";"";"";"";"";"";"";""
"11347595664";"10.8363604";"106.8421268";"";"";"Vietnam";"Ho Chi Minh City";"N/A";"N/A";"";"";"";"";"";"";"";"";"";"";"";"";"";"";"";"";"";"";"";""
"367725355";"10.8378291";"106.839076";"";"";"Vietnam";"Ho Chi Minh City";"N/A";"N/A";"";"";"";"";"";"";"";"";"";"";"";"";"";"";"";"";"";"";"";""
"11341407858";"10.837928";"106.8379478";"";"";"Vietnam";"Ho Chi Minh City";"N/A";"N/A";"";"";"";"";"";"";"";"";"";"";"";"";"";"";"";"";"";"";"";""
"11341407859";"10.8375174";"106.8389539";"";"";"Vietnam";"Ho Chi Minh City";"N/A";"N/A";"";"";"";"";"";"";"";"";"";"";"";"";"";"";"";"";"";"";"";""
"11341407860";"10.8382525";"106.8380927";"";"";"Vietnam";"Ho Chi Minh City";"N/A";"N/A";"";"";"";"";"";"";"";"";"";"";"";"";"";"";"";"";"";"";"";""
"11347588688";"10.8368348";"106.8429482";"";"";"Vietnam";"Ho Chi Minh City";"N/A";"N/A";"";"";"";"";"";"";"";"";"";"";"";"";"";"";"";"";"";"";"";""
"11347595661";"10.836914";"106.8427063";"";"";"Vietnam";"Ho Chi Minh City";"N/A";"N/A";"";"";"";"";"";"";"";"";"";"";"";"";"";"";"";"";"";"";"";""
"11347595665";"10.836705";"106.8422568";"";"";"Vietnam";"Ho Chi Minh City";"N/A";"N/A";"";"";"";"";"";"";"";"";"";"";"";"";"";"";"";"";"";"";"";""
"11347595666";"10.836563";"106.8426592";"";"";"Vietnam";"Ho Chi Minh City";"N/A";"N/A";"";"";"";"";"";"";"";"";"";"";"";"";"";"";"";"";"";"";"";""
"11347595667";"10.8367143";"106.8426361";"";"";"Vietnam";"Ho Chi Minh City";"N/A";"N/A";"";"";"";"";"";"";"";"";"";"";"";"";"";"";"";"";"";"";"";""
"11347595668";"10.8366902";"106.8427054";"";"";"Vietnam";"Ho Chi Minh City";"N/A";"N/A";"";"";"";"";"";"";"";"";"";"";"";"";"";"";"";"";"";"";"";""
"12121502304";"10.8375118";"106.8398625";"";"";"Vietnam";"Ho Chi Minh City";"N/A";"N/A";"";"";"";"";"";"";"";"";"";"";"";"";"";"";"";"";"";"";"";""
"12121502305";"10.8374753";"106.8399453";"";"";"Vietnam";"Ho Chi Minh City";"N/A";"N/A";"";"";"";"";"";"";"";"";"";"";"";"";"";"";"";"";"";"";"";""
"12121502306";"10.8371871";"106.8398137";"";"";"Vietnam";"Ho Chi Minh City";"N/A";"N/A";"";"";"";"";"";"";"";"";"";"";"";"";"";"";"";"";"";"";"";""
"12121502307";"10.8372237";"106.8397308";"";"";"Vietnam";"Ho Chi Minh City";"N/A";"N/A";"";"";"";"";"";"";"";"";"";"";"";"";"";"";"";"";"";"";"";""
"6351432586";"10.4747509";"121.9188435";"charging_station";"Province of Antique";"Philippines";"Western Visayas";"N/A";"N/A";"";"";"";"";"";"";"";"";"";"";"";"";"";"";"";"";"";"";"";""
"6351432587";"10.4748828";"121.9187296";"charging_station";"Province of Antique";"Philippines";"Western Visayas";"N/A";"N/A";"";"";"";"";"";"";"";"";"";"";"";"";"";"";"";"";"";"";"";""
"12463388588";"10.7173128";"122.5472106";"charging_station";"Province of Iloilo";"Philippines";"Western Visayas";"N/A";"N/A";"";"";"";"";"MG Philippines";"";"";"";"";"";"";"";"";"";"";"";"EV Charging Station";"";"";""
"11898838069";"11.1734289";"-73.7988582";"charging_station";"";"Colombia";"Magdalena";"N/A";"N/A";"";"";"";"";"";"";"";"";"";"";"";"";"";"";"";"";"";"";"";""
"12801564842";"11.1300822";"-63.8476226";"charging_station";"Municipio Antolin del Campo";"Venezuela";"Nueva Esparta";"N/A";"N/A";"";"1";"";"customers";"Swing Energy";"";"";"";"";"1";"";"";"";"";"";"";"Swing Energy";"";"Mo-Su 10:00-23:00";"no"
"9204462345";"11.3300012";"76.902597";"charging_station";"Coimbatore";"India";"Tamil Nadu";"N/A";"N/A";"yes";"";"";"yes";"veev";"";"";"";"";"";"";"";"";"";"";"";"";"";"24/7";"yes"
"9204495608";"11.022827";"76.9515651";"charging_station";"Coimbatore";"India";"Tamil Nadu";"N/A";"N/A";"yes";"2";"";"yes";"tata power";"";"";"";"";"";"";"";"";"";"";"";"";"";"24/7";"yes"
"9508125095";"11.1380148";"76.9405241";"charging_station";"Coimbatore";"India";"Tamil Nadu";"N/A";"N/A";"";"1";"";"yes";"Ather Grid";"";"";"";"";"";"";"";"";"";"";"";"";"";"24/7";""
"9527221544";"11.3217865";"76.9162515";"charging_station";"Coimbatore";"India";"Tamil Nadu";"N/A";"N/A";"";"2";"";"yes";"veev";"";"";"";"";"";"";"";"";"";"";"";"";"";"24/7";"yes"
"10596152553";"11.1824544";"77.2845422";"charging_station";"Tiruppur";"India";"Tamil Nadu";"N/A";"N/A";"";"";"";"yes";"";"";"";"";"";"";"";"";"";"";"Avinashi - Tirupur - Palladam - Pollachi";"";"relux";"";"24/7";"yes"
"10917018646";"11.2870573";"76.9637875";"charging_station";"Coimbatore";"India";"Tamil Nadu";"N/A";"N/A";"";"";"";"yes";"Ather grid";"";"";"";"";"";"";"";"";"";"";"";"Ather";"";"24/7";"yes"
"11536826351";"11.2789059";"76.9478415";"charging_station";"Coimbatore";"India";"Tamil Nadu";"N/A";"N/A";"";"";"";"yes";"";"";"";"";"";"";"";"";"";"";"";"";"jio-bp pulse ev charging station";"";"24/7";"yes"
"10573903209";"11.3021696";"77.600583";"charging_station";"Erode";"India";"Tamil Nadu";"N/A";"N/A";"";"";"";"yes";"";"";"";"";"";"";"";"";"";"";"";"";"relux";"";"24/7";"yes"
"12090459397";"11.3718054";"77.647312";"charging_station";"Erode";"India";"Tamil Nadu";"N/A";"N/A";"";"120";"";"";"Zeon";"";"";"";"";"";"";"";"";"";"";"";"Zeon Charging";"";"";""
"11329202535";"10.9664144";"106.85481";"charging_station";"";"Vietnam";"Dong Nai";"N/A";"N/A";"";"";"";"";"";"";"";"";"";"";"";"";"";"1135";"Đường Nguyễn Ái Quốc";"810000";"VinFast";"";"05:30-21:30";""
"6036048187";"11.3236914";"108.8135745";"charging_station";"";"Vietnam";"Binh Thuan";"N/A";"N/A";"";"";"";"";"Nhiệt điện vĩnh tân";"";"";"";"";"";"";"";"";"";"";"";"";"";"";""
"10916618777";"11.3596597";"108.8776653";"charging_station";"";"Vietnam";"Ninh Thuan";"N/A";"N/A";"";"";"";"";"PVOIL";"";"";"";"";"";"";"";"";"";"";"";"VinFast";"";"";""
"4526344489";"11.4243652";"122.9187167";"charging_station";"Province of Capiz";"Philippines";"Western Visayas";"N/A";"N/A";"";"";"";"";"";"";"";"";"";"";"";"";"";"";"";"";"";"";"";""
"4178080489";"11.8585277";"-15.6071306";"charging_station";"";"Guinea-Bissau";"Bissau";"N/A";"N/A";"";"";"";"";"";"";"";"";"";"";"";"";"";"";"";"";"";"";"";""
"4178157905";"11.8585173";"-15.6071526";"charging_station";"";"Guinea-Bissau";"Bissau";"N/A";"N/A";"";"";"";"";"";"";"";"";"";"";"";"";"";"";"";"";"";"";"";""
"4487251090";"11.860565";"-15.582192";"charging_station";"";"Guinea-Bissau";"Bissau";"N/A";"N/A";"";"";"";"";"ELTON";"";"";"";"";"";"";"";"";"";"";"";"";"";"";""
"4487251290";"11.861663";"-15.623502";"charging_station";"";"Guinea-Bissau";"Bissau";"N/A";"N/A";"";"";"";"";"GALP LÍBIA";"";"";"";"";"";"";"";"";"";"";"";"";"";"";""
"3160194917";"11.4624824";"-12.610384";"charging_station";"Lelouma Prefecture";"Guinea";"Labe";"N/A";"N/A";"";"";"";"";"";"";"";"";"";"";"";"";"";"";"";"";"";"";"";""
"12719573101";"11.62295";"43.1450739";"charging_station";"";"Djibouti";"Djibouti";"N/A";"N/A";"";"";"";"";"";"";"";"";"";"";"";"";"";"";"";"";"";"";"";""
"8919501650";"11.6828829";"78.1260507";"charging_station";"Salem";"India";"Tamil Nadu";"N/A";"N/A";"";"25";"";"";"Tata Power EZ Charge";"";"";"";"";"";"";"";"";"";"";"";"";"";"";""
"9780694390";"11.5193364";"77.9350619";"charging_station";"Salem";"India";"Tamil Nadu";"N/A";"N/A";"";"50";"";"";"Zeon Network";"";"";"";"";"";"";"";"";"";"";"";"";"";"";""
"9780784996";"11.7783495";"78.1987759";"charging_station";"Salem";"India";"Tamil Nadu";"N/A";"N/A";"";"22";"";"";"Zeon Network";"";"";"";"";"";"";"";"";"";"";"";"";"";"";""
"9956403209";"11.7553892";"78.0509746";"charging_station";"Salem";"India";"Tamil Nadu";"N/A";"N/A";"";"";"";"";"Zeon Network";"";"";"";"";"";"";"";"";"";"";"";"";"";"";""
"9956542246";"11.4925016";"78.1536802";"charging_station";"Namakkal";"India";"Tamil Nadu";"N/A";"N/A";"";"50";"";"";"Zeon Network";"";"";"";"";"yes";"";"";"";"";"";"";"";"";"";"no"
"12793391154";"11.7410487";"78.0502782";"charging_station";"Salem";"India";"Tamil Nadu";"N/A";"N/A";"";"";"";"";"";"";"";"";"";"";"";"";"";"";"";"";"go ec";"";"";"yes"
"6798115385";"11.7702394";"104.4099452";"charging_station";"";"Cambodia";"Kampong Speu";"N/A";"N/A";"";"";"";"";"Solar Panel Station";"";"";"";"";"";"";"";"";"";"";"";"";"";"";""
"12588857469";"11.5525959";"104.9425563";"charging_station";"";"Cambodia";"Phnom Penh";"N/A";"N/A";"";"";"";"";"";"";"";"";"";"";"";"";"";"";"";"";"";"";"";""
"12670246354";"11.6488936";"107.2187814";"charging_station";"";"Vietnam";"Lam Dong";"N/A";"N/A";"";"";"";"yes";"";"";"";"";"";"";"";"";"";"";"";"";"";"";"";""
