"id";"lat";"lon";"amenity";"city";"state";"country";"scraped_country_code";"scraped_country_name";"authentication:nfc";"capacity";"capacity:car";"motorcar";"operator";"operator:wikidata";"socket:schuko";"socket:schuko:current";"socket:schuko:voltage";"socket:type2";"socket:type2:current";"socket:type2:voltage";"ref";"addr:housenumber";"addr:street";"addr:postcode";"brand";"charge";"opening_hours";"fee"
"4530210290";"21.6518798";"39.1580476";"charging_station";"";"Saudi Arabia";"Makkah";"N/A";"N/A";"";"";"";"";"";"";"";"";"";"";"";"";"";"";"";"";"";"";"";""
"11443435731";"21.6167738";"39.1717101";"charging_station";"";"Saudi Arabia";"Makkah";"N/A";"N/A";"";"";"";"";"Electromin";"";"";"";"";"";"";"";"";"";"";"";"";"";"Fr 17:00-21:00; Mo-Th,Sa-Su 09:00-22:00";""
"11443435761";"21.6328515";"39.1634542";"charging_station";"";"Saudi Arabia";"Makkah";"N/A";"N/A";"";"";"";"";"Electromin";"";"";"";"";"";"";"";"";"";"";"";"";"";"Fr 17:00-21:00; Mo-Th,Sa-Su 09:00-22:00";""
"11443435763";"21.5819473";"39.1506492";"charging_station";"";"Saudi Arabia";"Makkah";"N/A";"N/A";"";"";"";"";"Electromin";"";"";"";"";"";"";"";"";"";"";"";"";"";"Fr 17:00-21:00; Mo-Th,Sa-Su 09:00-22:00";""
"11443435764";"21.7463561";"39.1482621";"charging_station";"";"Saudi Arabia";"Makkah";"N/A";"N/A";"";"";"";"";"Electromin";"";"";"";"";"";"";"";"";"";"";"";"";"";"Fr 17:00-21:00; Mo-Th,Sa-Su 09:00-22:00";""
"11443435765";"21.5986844";"39.1920626";"charging_station";"";"Saudi Arabia";"Makkah";"N/A";"N/A";"";"";"";"";"Electromin";"";"";"";"";"";"";"";"";"";"";"";"";"";"Fr 17:00-21:00; Mo-Th,Sa-Su 09:00-22:00";""
"11443450170";"21.5809718";"39.2296726";"charging_station";"";"Saudi Arabia";"Makkah";"N/A";"N/A";"";"";"";"";"Electromin";"";"";"";"";"";"";"";"";"";"";"";"";"";"Fr 17:00-21:00; Mo-Th,Sa-Su 09:00-22:00";""
"11443450174";"21.5273968";"39.2157143";"charging_station";"";"Saudi Arabia";"Makkah";"N/A";"N/A";"";"";"";"";"Electromin";"";"";"";"";"";"";"";"";"";"";"";"";"";"Fr 17:00-21:00; Mo-Th,Sa-Su 09:00-22:00";""
"11443450183";"21.7691848";"39.1945517";"charging_station";"";"Saudi Arabia";"Makkah";"N/A";"N/A";"";"";"";"";"Electromin";"";"";"";"";"";"";"";"";"";"";"";"";"";"Fr 17:00-21:00; Mo-Th,Sa-Su 09:00-22:00";""
"11443450186";"21.5882446";"39.2058223";"charging_station";"";"Saudi Arabia";"Makkah";"N/A";"N/A";"";"";"";"";"Electromin";"";"";"";"";"";"";"";"";"";"";"";"";"";"Fr 17:00-21:00; Mo-Th,Sa-Su 09:00-22:00";""
"11443450187";"21.604505";"39.2108595";"charging_station";"";"Saudi Arabia";"Makkah";"N/A";"N/A";"";"";"";"";"Electromin";"";"";"";"";"";"";"";"";"";"";"";"";"";"Fr 17:00-21:00; Mo-Th,Sa-Su 09:00-22:00";""
"11443450198";"21.805478";"39.1503166";"charging_station";"";"Saudi Arabia";"Makkah";"N/A";"N/A";"";"";"";"";"Electromin";"";"";"";"";"";"";"";"";"";"";"";"";"";"Fr 17:00-21:00; Mo-Th,Sa-Su 09:00-22:00";""
"11443450218";"21.5631273";"39.2125386";"charging_station";"";"Saudi Arabia";"Makkah";"N/A";"N/A";"";"";"";"";"Electromin";"";"";"";"";"";"";"";"";"";"";"";"";"";"Mo-Th,Sa-Su 09:00-21:00";""
"11443450222";"21.6047992";"39.1093111";"charging_station";"";"Saudi Arabia";"Makkah";"N/A";"N/A";"";"";"";"";"Electromin";"";"";"";"";"";"";"";"";"";"";"";"";"";"Mo-Su 09:00-22:00";""
"11443450224";"21.6043903";"39.1092843";"charging_station";"";"Saudi Arabia";"Makkah";"N/A";"N/A";"";"";"";"";"Electromin";"";"";"";"";"";"";"";"";"";"";"";"";"";"Mo-Su 09:00-22:00";""
"11443450225";"21.6031484";"39.1093486";"charging_station";"";"Saudi Arabia";"Makkah";"N/A";"N/A";"";"";"";"";"Electromin";"";"";"";"";"";"";"";"";"";"";"";"";"";"Mo-Su 09:00-22:00";""
"11443450230";"21.6251121";"39.1284353";"charging_station";"";"Saudi Arabia";"Makkah";"N/A";"N/A";"";"";"";"";"Electromin";"";"";"";"";"";"";"";"";"";"";"";"";"";"Fr 17:00-21:00; Mo-Th,Sa-Su 09:00-22:00";""
"12875893945";"21.6330998";"39.1551115";"charging_station";"";"Saudi Arabia";"Makkah";"N/A";"N/A";"";"8";"";"";"Tesla";"Q478214";"";"";"";"";"";"";"";"";"";"";"Tesla Supercharger";"";"";"yes"
"11443450169";"21.6146343";"39.6927936";"charging_station";"";"Saudi Arabia";"Makkah";"N/A";"N/A";"";"";"";"";"Electromin";"";"";"";"";"";"";"";"";"";"";"";"";"";"Fr 17:00-21:00; Mo-Th,Sa-Su 09:00-22:00";""
"11443450207";"21.5260495";"39.7883123";"charging_station";"";"Saudi Arabia";"Makkah";"N/A";"N/A";"";"";"";"";"Electromin";"";"";"";"";"";"";"";"";"";"";"";"";"";"Mo-Su 09:00-22:00";""
"4424783792";"21.4554775";"39.8783259";"charging_station";"";"Saudi Arabia";"Makkah";"N/A";"N/A";"";"";"";"";"";"";"";"";"";"";"";"";"";"";"";"";"";"";"";""
"11443450171";"21.4748454";"39.9192148";"charging_station";"";"Saudi Arabia";"Makkah";"N/A";"N/A";"";"";"";"";"Electromin";"";"";"";"";"";"";"";"";"";"";"";"";"";"Fr 17:00-21:00; Mo-Th,Sa-Su 09:00-22:00";""
"5313946722";"21.929811";"97.822348";"charging_station";"";"Myanmar";"Shan";"N/A";"N/A";"";"";"";"";"";"";"";"";"";"";"";"";"";"";"";"";"";"";"";""
"10023518306";"21.4541876";"105.6453057";"charging_station";"";"Vietnam";"Vinh Phuc";"N/A";"N/A";"";"";"";"yes";"";"";"";"";"";"";"";"";"";"";"";"";"VinFast";"";"";"yes"
"10009230749";"21.5997966";"108.3335692";"charging_station";"";"Vietnam";"Quang Ninh";"N/A";"N/A";"";"20";"";"yes";"北部湾港防城港码头有限公司";"";"";"";"";"";"";"";"";"";"";"";"";"";"24/7";"no"
"12827628978";"21.5297497";"108.2315809";"charging_station";"";"Vietnam";"Quang Ninh";"N/A";"N/A";"";"20";"";"yes";"广西中飏建筑废弃物再生技术有限责任公司";"";"";"";"";"";"";"";"";"";"";"";"";"1.4069 CNY/kWh";"24/7";"yes"
"7680445779";"21.7855204";"108.3817612";"charging_station";"";"China";"Guangxi Zhuangzu Zizhiqu";"N/A";"N/A";"";"4";"";"yes";"";"";"";"";"";"";"";"";"";"";"";"";"";"";"";"yes"
"8836084702";"21.7671823";"108.3526642";"charging_station";"";"China";"Guangxi Zhuangzu Zizhiqu";"N/A";"N/A";"";"2";"";"yes";"";"";"";"";"";"";"";"";"";"";"";"";"";"";"24/7";"yes"
"9951813560";"21.6150583";"108.3433847";"charging_station";"";"Vietnam";"Quang Ninh";"N/A";"N/A";"";"";"";"";"";"";"";"";"";"";"";"";"";"";"";"";"";"";"";""
"9998845968";"21.7026591";"108.3699439";"charging_station";"";"China";"Guangxi Zhuangzu Zizhiqu";"N/A";"N/A";"";"4";"";"yes";"江苏云快充新能源科技有限公司";"";"";"";"";"";"";"";"";"";"";"";"";"1.26 CNY/kWh";"24/7";"yes"
"10002299822";"21.6447327";"108.3497871";"charging_station";"";"Vietnam";"Quang Ninh";"N/A";"N/A";"";"16";"";"yes";"广西防城港超大运输有限责任公司";"";"";"";"";"";"";"";"";"";"";"";"防城港超大充电站";"1.29 CNY/kWh";"24/7";"yes"
"10002299823";"21.6446318";"108.348902";"charging_station";"";"Vietnam";"Quang Ninh";"N/A";"N/A";"";"16";"";"yes";"广西防城港超大运输有限责任公司";"";"";"";"";"";"";"";"";"";"";"";"防城港超大充电站";"1.29 CNY/kWh";"24/7";"yes"
"10004627579";"21.6862385";"108.3454205";"charging_station";"";"China";"Guangxi Zhuangzu Zizhiqu";"N/A";"N/A";"";"6";"";"yes";"柳州特来电新能源有限公司";"";"";"";"";"";"";"";"";"";"";"";"";"1.45 CNY/kWh";"24/7";"yes"
"10005484033";"21.6900536";"108.3596054";"charging_station";"";"China";"Guangxi Zhuangzu Zizhiqu";"N/A";"N/A";"";"4";"";"yes";"";"";"";"";"";"";"";"";"";"";"";"";"NIO Power";"1.41 CNY/kWh";"24/7";"yes"
"10005484036";"21.6950755";"108.3608285";"charging_station";"";"China";"Guangxi Zhuangzu Zizhiqu";"N/A";"N/A";"";"2";"";"yes";"防城港市中蓝环保科技有限公司";"";"";"";"";"";"";"";"";"";"";"";"";"1.38 CNY/kWh";"24/7";"yes"
"10005484037";"21.7153782";"108.3726147";"charging_station";"";"China";"Guangxi Zhuangzu Zizhiqu";"N/A";"N/A";"";"4";"";"";"防城港市城投红树林汽车投资有限责任公司";"";"";"";"";"";"";"";"";"";"";"";"";"1.10 CNY/kWh";"24/7";"yes"
"10005484038";"21.7172315";"108.370758";"charging_station";"";"China";"Guangxi Zhuangzu Zizhiqu";"N/A";"N/A";"";"8";"";"yes";"防城港市城投红树林汽车投资有限责任公司";"";"";"";"";"";"";"";"";"";"";"";"";"1.10 CNY/kWh";"24/7";"yes"
"10005484039";"21.7382915";"108.3632129";"charging_station";"";"China";"Guangxi Zhuangzu Zizhiqu";"N/A";"N/A";"";"2";"";"yes";"江苏云快充新能源科技有限公司";"";"";"";"";"";"";"";"";"";"";"";"";"1.10 CNY/kWh";"24/7";"yes"
"10005484040";"21.6825391";"108.3555552";"charging_station";"";"China";"Guangxi Zhuangzu Zizhiqu";"N/A";"N/A";"";"2";"";"yes";"防城港市数字生活科技有限公司";"";"";"";"";"";"";"";"";"";"";"";"";"1.23 CNY/kWh";"24/7";"yes"
"10005484042";"21.7152325";"108.3734867";"charging_station";"";"China";"Guangxi Zhuangzu Zizhiqu";"N/A";"N/A";"";"54";"";"yes";"广西防城港超大运输有限责任公司";"";"";"";"";"";"";"";"";"";"";"";"防城港超大充电站";"1.29 CNY/kWh";"24/7";"yes"
"10008228138";"21.7889721";"108.3860329";"charging_station";"";"China";"Guangxi Zhuangzu Zizhiqu";"N/A";"N/A";"";"6";"";"yes";"南方电网广西电动汽车服务有限公司";"";"";"";"";"";"";"";"";"";"";"";"南网电动";"1.36 CNY/kWh";"24/7";"yes"
"10008228139";"21.7773";"108.3704603";"charging_station";"";"China";"Guangxi Zhuangzu Zizhiqu";"N/A";"N/A";"";"4";"";"yes";"南方电网广西电动汽车服务有限公司";"";"";"";"";"";"";"";"";"";"";"";"南网电动";"1.10 CNY/kWh";"24/7";"yes"
"10008228140";"21.7641804";"108.3568487";"charging_station";"";"China";"Guangxi Zhuangzu Zizhiqu";"N/A";"N/A";"";"4";"";"yes";"广西电网有限责任公司防城港供电局";"";"";"";"";"";"";"";"";"";"";"";"";"1.08 CNY/kWh";"24/7";"yes"
"10008228141";"21.718392";"108.3595879";"charging_station";"";"China";"Guangxi Zhuangzu Zizhiqu";"N/A";"N/A";"";"12";"";"yes";"南方电网广西电动汽车服务有限公司";"";"";"";"";"";"";"";"";"";"";"";"";"1.05 CNY/kWh";"08:00-18:00";"yes"
"10008228142";"21.687291";"108.3547886";"charging_station";"";"China";"Guangxi Zhuangzu Zizhiqu";"N/A";"N/A";"";"6";"";"yes";"广西电网有限责任公司防城港供电局";"";"";"";"";"";"";"";"";"";"";"";"";"1.08 CNY/kWh";"24/7";"yes"
"10008228143";"21.7545796";"108.3548568";"charging_station";"";"China";"Guangxi Zhuangzu Zizhiqu";"N/A";"N/A";"";"3";"";"yes";"江苏云快充新能源科技有限公司";"";"";"";"";"";"";"";"";"";"";"";"";"1.15 CNY/kWh";"24/7";"yes"
"10008228144";"21.7529982";"108.3526902";"charging_station";"";"China";"Guangxi Zhuangzu Zizhiqu";"N/A";"N/A";"";"18";"";"yes";"广西防城港超大运输有限责任公司";"";"";"";"";"";"";"";"";"";"";"";"防城港超大充电站";"1.29 CNY/kWh";"24/7";"yes"
"10008228145";"21.7495936";"108.3535235";"charging_station";"";"China";"Guangxi Zhuangzu Zizhiqu";"N/A";"N/A";"";"4";"";"yes";"防城港市数字生活科技有限公司";"";"";"";"";"";"";"";"";"";"";"";"";"1.20 CNY/kWh";"24/7";"yes"
"10008228146";"21.7479356";"108.3593935";"charging_station";"";"China";"Guangxi Zhuangzu Zizhiqu";"N/A";"N/A";"";"10";"";"yes";"防城港市数字生活科技有限公司";"";"";"";"";"";"";"";"";"";"";"";"";"1.20 CNY/kWh";"24/7";"yes"
"10008228147";"21.7151265";"108.3660185";"charging_station";"";"China";"Guangxi Zhuangzu Zizhiqu";"N/A";"N/A";"";"3";"";"yes";"防城港市数字生活科技有限公司";"";"";"";"";"";"";"";"";"";"";"";"";"1.10 CNY/kWh";"24/7";"yes"
"10008228148";"21.77528";"108.3512435";"charging_station";"";"China";"Guangxi Zhuangzu Zizhiqu";"N/A";"N/A";"";"4";"";"yes";"防城港市数字生活科技有限公司";"";"";"";"";"";"";"";"";"";"";"";"";"1.10 CNY/kWh";"24/7";"yes"
"10009041852";"21.6800517";"108.4033978";"charging_station";"";"China";"Guangxi Zhuangzu Zizhiqu";"N/A";"N/A";"";"14";"";"";"长沙凯瑞重工机械有限公司";"";"";"";"";"";"";"";"";"";"";"";"特来电";"";"24/7";"no"
"10009041853";"21.6684487";"108.4014398";"charging_station";"";"China";"Guangxi Zhuangzu Zizhiqu";"N/A";"N/A";"";"6";"";"";"广西盛隆冶金有限公司";"";"";"";"";"";"";"";"";"";"";"";"特来电";"";"24/7";"no"
"10009041854";"21.6948537";"108.4034273";"charging_station";"";"China";"Guangxi Zhuangzu Zizhiqu";"N/A";"N/A";"";"6";"";"yes";"广西电网有限责任公司防城港供电局";"";"";"";"";"";"";"";"";"";"";"";"";"1.08 CNY/kWh";"08:00-18:00";"yes"
"10009041855";"21.6937534";"108.3932651";"charging_station";"";"China";"Guangxi Zhuangzu Zizhiqu";"N/A";"N/A";"";"12";"";"yes";"南方电网广西电动汽车服务有限公司";"";"";"";"";"";"";"";"";"";"";"";"";"1.07 CNY/kWh";"24/7";"yes"
"10009230743";"21.6122155";"108.3343577";"charging_station";"";"Vietnam";"Quang Ninh";"N/A";"N/A";"";"4";"";"yes";"深圳市车电网络有限公司";"";"";"";"";"";"";"";"";"";"";"";"";"1.20 CNY/kWh";"24/7";"yes"
"10009230744";"21.612208";"108.3357659";"charging_station";"";"Vietnam";"Quang Ninh";"N/A";"N/A";"";"4";"";"yes";"深圳市车电网络有限公司";"";"";"";"";"";"";"";"";"";"";"";"";"1.20 CNY/kWh";"24/7";"yes"
"10009230745";"21.6158313";"108.338711";"charging_station";"";"Vietnam";"Quang Ninh";"N/A";"N/A";"";"4";"";"yes";"深圳市车电网络有限公司";"";"";"";"";"";"";"";"";"";"";"";"";"1.20 CNY/kWh";"24/7";"yes"
"10009230746";"21.6195292";"108.338664";"charging_station";"";"Vietnam";"Quang Ninh";"N/A";"N/A";"";"4";"";"yes";"深圳市车电网络有限公司";"";"";"";"";"";"";"";"";"";"";"";"";"1.20 CNY/kWh";"24/7";"yes"
"10009230747";"21.6181129";"108.3432224";"charging_station";"";"Vietnam";"Quang Ninh";"N/A";"N/A";"";"4";"";"yes";"深圳市车电网络有限公司";"";"";"";"";"";"";"";"";"";"";"";"";"1.20 CNY/kWh";"24/7";"yes"
"10009230748";"21.6115098";"108.3398321";"charging_station";"";"Vietnam";"Quang Ninh";"N/A";"N/A";"";"4";"";"yes";"";"";"";"";"";"";"";"";"";"";"";"";"";"1.70 CNY/kWh";"24/7";"yes"
"10009230750";"21.655389";"108.3813286";"charging_station";"";"China";"Guangxi Zhuangzu Zizhiqu";"N/A";"N/A";"";"1";"";"yes";"防城港市中蓝环保科技有限公司";"";"";"";"";"";"";"";"";"";"";"";"";"1.38 CNY/kWh";"24/7";"yes"
"10009230751";"21.6264137";"108.3533022";"charging_station";"";"Vietnam";"Quang Ninh";"N/A";"N/A";"";"4";"";"yes";"防城港市数字生活科技有限公司";"";"";"";"";"";"";"";"";"";"";"";"";"0.835 CNY/kWh";"24/7";"yes"
"10009230752";"21.6268456";"108.3551389";"charging_station";"";"Vietnam";"Quang Ninh";"N/A";"N/A";"";"5";"";"yes";"江苏云快充新能源科技有限公司";"";"";"";"";"";"";"";"";"";"";"";"";"1.25 CNY/kWh";"24/7";"yes"
"10009230753";"21.6274996";"108.3516861";"charging_station";"";"Vietnam";"Quang Ninh";"N/A";"N/A";"";"5";"";"yes";"广西电网有限责任公司防城港供电局";"";"";"";"";"";"";"";"";"";"";"";"";"1.08 CNY/kWh";"08:00-20:00";"yes"
"10009230754";"21.653801";"108.3736816";"charging_station";"";"China";"Guangxi Zhuangzu Zizhiqu";"N/A";"N/A";"";"4";"";"yes";"雄安联行";"";"";"";"";"";"";"";"";"";"";"";"";"1.45 CNY/kWh";"24/7";"yes"
"10009230755";"21.6739905";"108.36444";"charging_station";"";"China";"Guangxi Zhuangzu Zizhiqu";"N/A";"N/A";"";"4";"";"yes";"南方电网广西电动汽车服务有限公司";"";"";"";"";"";"";"";"";"";"";"";"";"1.36 CNY/kWh";"24/7";"yes"
"10017858165";"21.7685354";"108.3572269";"charging_station";"";"China";"Guangxi Zhuangzu Zizhiqu";"N/A";"N/A";"";"5";"";"yes";"广西南宁智博电子科技有限公司";"";"";"";"";"";"";"";"";"";"";"";"";"1.362 CNY/kWh";"24/7";"yes"
"10049051618";"21.6884423";"108.3566482";"charging_station";"";"China";"Guangxi Zhuangzu Zizhiqu";"N/A";"N/A";"";"4";"";"yes";"防城港市最集智能科技有限公司";"";"";"";"";"";"";"";"";"";"";"";"";"";"24/7";"yes"
"10160976850";"21.6438395";"108.3464954";"charging_station";"";"Vietnam";"Quang Ninh";"N/A";"N/A";"";"10";"";"yes";"全享通（海南）能源科技有限公司";"";"";"";"";"";"";"";"";"";"";"";"";"";"";""
"10572749043";"21.6516548";"108.3505562";"charging_station";"";"Vietnam";"Quang Ninh";"N/A";"N/A";"";"";"";"";"";"";"";"";"";"";"";"";"";"";"";"";"";"";"";""
"11030026460";"21.6186858";"108.3375274";"charging_station";"";"Vietnam";"Quang Ninh";"N/A";"N/A";"";"7";"";"yes";"";"";"";"";"";"";"";"";"";"";"";"";"";"";"24/7";"yes"
"12253360502";"21.6706809";"108.366449";"charging_station";"";"China";"Guangxi Zhuangzu Zizhiqu";"N/A";"N/A";"";"";"";"";"";"";"";"";"";"";"";"";"";"";"";"";"";"";"";""
"12855598265";"21.7047543";"108.3586777";"charging_station";"";"China";"Guangxi Zhuangzu Zizhiqu";"N/A";"N/A";"";"";"";"yes";"";"";"";"";"";"";"";"";"";"68";"金花茶大道";"";"";"";"";""
"12849374973";"21.6571565";"110.8130633";"charging_station";"";"China";"Guangdong";"N/A";"N/A";"";"";"";"";"";"";"";"";"";"";"";"";"";"";"";"";"驿充电";"";"";""
"8383002694";"21.894941";"110.8514855";"charging_station";"";"China";"Guangdong";"N/A";"N/A";"";"2";"";"";"众源投资";"";"";"";"";"";"";"";"";"";"";"";"";"";"";""
"8386078248";"21.8948804";"110.8431186";"charging_station";"";"China";"Guangdong";"N/A";"N/A";"";"2";"";"";"中国南方电网";"";"";"";"";"";"";"";"";"";"";"";"";"";"";"yes"
"8459424779";"21.9193983";"110.8533713";"charging_station";"";"China";"Guangdong";"N/A";"N/A";"";"";"";"";"";"";"";"";"";"";"";"";"";"";"";"";"";"";"";""
"8463504320";"21.6439142";"110.9236025";"charging_station";"";"China";"Guangdong";"N/A";"N/A";"";"18";"";"";"茂名交通建设投资集团有限公司";"";"";"";"";"";"";"";"";"";"";"";"";"";"";""
"8598941229";"21.9149049";"110.8595916";"charging_station";"";"China";"Guangdong";"N/A";"N/A";"";"";"";"";"";"";"";"";"";"";"";"";"";"";"";"";"";"";"";""
"8835599668";"21.9045939";"110.8447095";"charging_station";"";"China";"Guangdong";"N/A";"N/A";"";"4";"";"";"";"";"";"";"";"";"";"";"";"";"";"";"";"";"";"yes"
"8913627047";"21.6661016";"110.9563141";"charging_station";"";"China";"Guangdong";"N/A";"N/A";"";"";"";"";"";"";"";"";"";"";"";"";"";"";"";"";"";"";"";"yes"
"9087844274";"21.920288";"110.8738432";"charging_station";"";"China";"Guangdong";"N/A";"N/A";"";"";"";"";"";"";"";"";"";"";"";"";"";"";"";"";"";"";"";""
"9087844275";"21.920303";"110.8738786";"charging_station";"";"China";"Guangdong";"N/A";"N/A";"";"";"";"";"";"";"";"";"";"";"";"";"";"";"";"";"";"";"";""
"11158350030";"21.7796092";"111.5932883";"charging_station";"";"China";"Guangdong";"N/A";"N/A";"";"";"";"";"";"";"";"";"";"";"";"";"";"";"";"";"NIO Power";"";"";""
"12500571861";"21.8211922";"112.1029559";"charging_station";"";"China";"Guangdong";"N/A";"N/A";"";"";"";"";"广东交通集团";"";"";"";"";"";"";"";"";"";"";"";"";"";"";""
"12500571867";"21.8199532";"112.1031377";"charging_station";"";"China";"Guangdong";"N/A";"N/A";"";"";"";"";"";"";"";"";"";"";"";"";"";"";"";"";"";"";"";""
"3664119588";"22.0626837";"-159.3210235";"charging_station";"Kauai County";"United States";"Hawaii";"N/A";"N/A";"";"2";"";"";"";"";"";"";"";"";"";"";"";"";"";"";"";"";"24/7";"no"
"4350884426";"22.0824083";"-100.8956283";"charging_station";"";"Mexico";"San Luis Potosi";"N/A";"N/A";"";"";"";"";"polimeros nacionales";"";"";"";"";"";"";"";"";"";"";"";"";"";"";""
"4353278099";"22.0816673";"-100.8919976";"charging_station";"";"Mexico";"San Luis Potosi";"N/A";"N/A";"";"";"";"";"POLNAC";"";"";"";"";"";"";"";"";"";"";"";"";"";"";""
"4353381790";"22.0861393";"-100.8802118";"charging_station";"";"Mexico";"San Luis Potosi";"N/A";"N/A";"";"";"";"";"gasolinera de pozos";"";"";"";"";"";"";"";"";"";"";"";"";"";"";""
"7922395240";"22.1266288";"-100.9223186";"charging_station";"Soledad de Graciano Sanchez";"Mexico";"San Luis Potosi";"N/A";"N/A";"";"";"";"";"";"";"";"";"";"";"";"";"";"";"";"";"";"";"";""
"9248370301";"22.1382519";"-101.0303325";"charging_station";"Mexquitic de Carmona";"Mexico";"San Luis Potosi";"N/A";"N/A";"";"";"";"";"Tesla, Inc.";"Q478214";"";"";"";"";"";"";"";"";"";"";"Tesla Supercharger";"";"";""
"9248370302";"22.1381993";"-101.0303";"charging_station";"Mexquitic de Carmona";"Mexico";"San Luis Potosi";"N/A";"N/A";"";"";"";"";"Tesla, Inc.";"Q478214";"";"";"";"";"";"";"";"";"";"";"Tesla Supercharger";"";"";""
"12841613802";"21.9935367";"31.1519867";"charging_station";"";"Egypt";"Aswan";"N/A";"N/A";"";"";"";"";"";"";"";"";"";"";"";"";"";"";"";"";"";"";"";""
"11443435759";"22.107952";"39.3104339";"charging_station";"";"Saudi Arabia";"Makkah";"N/A";"N/A";"";"";"";"";"Electromin";"";"";"";"";"";"";"";"";"";"";"";"";"";"Fr 17:00-21:00; Mo-Th,Sa-Su 09:00-22:00";""
"1385715146";"";"";"charging_station";"N/A";"N/A";"N/A";"N/A";"N/A";"";"2";"";"";"ChargeZone";"";"";"";"";"";"";"";"GJ0101";"";"";"";"ChargeZone";"21 INR/kWH";"";"yes"
"1385850870";"";"";"charging_station";"N/A";"N/A";"N/A";"N/A";"N/A";"";"60";"";"";"";"";"";"";"";"";"";"";"";"";"";"";"ChargeZone";"";"Mo-Su 00:00-24:00";"yes"
"12830937672";"22.3247245";"73.170528";"";"Vadodara";"India";"Gujarat";"N/A";"N/A";"";"";"";"";"";"";"";"";"";"";"";"";"";"";"";"";"";"";"";""
"12830937677";"22.3246944";"73.1704511";"";"Vadodara";"India";"Gujarat";"N/A";"N/A";"";"";"";"";"";"";"";"";"";"";"";"";"";"";"";"";"";"";"";""
"12830937679";"22.3248099";"73.1704885";"";"Vadodara";"India";"Gujarat";"N/A";"N/A";"";"";"";"";"";"";"";"";"";"";"";"";"";"";"";"";"";"";"";""
"12830937680";"22.32478";"73.170412";"";"Vadodara";"India";"Gujarat";"N/A";"N/A";"";"";"";"";"";"";"";"";"";"";"";"";"";"";"";"";"";"";"";""
"12830937685";"22.3247602";"73.1705117";"";"Vadodara";"India";"Gujarat";"N/A";"N/A";"";"";"";"";"";"";"";"";"";"";"";"";"";"";"";"";"";"";"";""
"12829715802";"22.3327771";"73.2163305";"";"Vadodara";"India";"Gujarat";"N/A";"N/A";"";"";"";"";"";"";"";"";"";"";"";"";"";"";"";"";"";"";"";""
"12829715803";"22.3327341";"73.2163899";"";"Vadodara";"India";"Gujarat";"N/A";"N/A";"";"";"";"";"";"";"";"";"";"";"";"";"";"";"";"";"";"";"";""
"12829715804";"22.3326826";"73.2163463";"";"Vadodara";"India";"Gujarat";"N/A";"N/A";"";"";"";"";"";"";"";"";"";"";"";"";"";"";"";"";"";"";"";""
"12829715805";"22.3327256";"73.2162869";"";"Vadodara";"India";"Gujarat";"N/A";"N/A";"";"";"";"";"";"";"";"";"";"";"";"";"";"";"";"";"";"";"";""
"6961224186";"22.0480776";"96.0199076";"charging_station";"";"Myanmar";"Mandalay";"N/A";"N/A";"";"";"";"";"";"";"";"";"";"";"";"";"";"";"";"";"";"";"";""
"11393966619";"22.0541812";"108.1382078";"charging_station";"";"China";"Guangxi Zhuangzu Zizhiqu";"N/A";"N/A";"";"10";"";"";"";"";"";"";"";"";"";"";"";"";"";"";"";"";"24/7";""
"11393966620";"22.0546983";"108.1393826";"charging_station";"";"China";"Guangxi Zhuangzu Zizhiqu";"N/A";"N/A";"";"10";"";"";"";"";"";"";"";"";"";"";"";"";"";"";"";"";"24/7";""
"8857191373";"22.0190207";"110.8098315";"charging_station";"";"China";"Guangdong";"N/A";"N/A";"";"2";"";"";"";"";"";"";"";"";"";"";"";"";"";"";"";"";"";""
"11387178717";"22.072327";"112.2184435";"charging_station";"";"China";"Guangdong";"N/A";"N/A";"";"8";"";"";"";"";"";"";"";"";"";"";"";"";"";"";"";"";"";""
"11387178719";"22.0722673";"112.2182335";"charging_station";"";"China";"Guangdong";"N/A";"N/A";"";"6";"";"";"Tesla, Inc.";"";"";"";"";"";"";"";"";"";"";"";"Tesla, Inc.";"";"";""
"11651505723";"22.2324458";"112.8088784";"charging_station";"";"China";"Guangdong";"N/A";"N/A";"";"";"";"";"";"";"";"";"";"";"";"";"";"";"";"";"小鹏";"";"";""
"11677133086";"22.248736";"113.1902018";"charging_station";"";"China";"Guangdong";"N/A";"N/A";"";"";"";"";"";"";"";"";"";"";"";"";"";"";"";"";"";"";"";""
"2561573393";"22.1906387";"113.5329084";"charging_station";"";"China";"Guangdong";"N/A";"N/A";"";"";"";"";"";"";"";"";"";"";"";"";"";"";"";"";"";"";"";""
"8060657227";"22.2743089";"113.5287101";"charging_station";"";"China";"Guangdong";"N/A";"N/A";"";"";"";"";"";"";"";"";"";"";"";"";"";"";"";"";"";"";"";""
"8060662751";"22.2277995";"113.5029475";"charging_station";"";"China";"Guangdong";"N/A";"N/A";"";"";"";"";"";"";"";"";"";"";"";"";"";"";"";"";"";"";"";""
"9744944889";"22.1910885";"113.5511678";"charging_station";"";"Macao";"Macau";"N/A";"N/A";"";"4";"";"";"澳電 CEM";"";"";"";"";"";"";"";"";"";"";"";"";"";"";""
"9744944890";"22.1889551";"113.5534021";"charging_station";"";"Macao";"Macau";"N/A";"N/A";"";"4";"";"";"澳電 CEM";"";"";"";"";"";"";"";"";"";"";"";"";"";"";""
"9744955925";"22.2047569";"113.5524084";"charging_station";"";"Macao";"Macau";"N/A";"N/A";"";"4";"";"";"澳電 CEM";"";"";"";"";"";"";"";"";"";"";"";"";"";"";""
"9744956141";"22.1627175";"113.5415948";"charging_station";"";"Macao";"Macau";"N/A";"N/A";"";"4";"";"";"";"";"";"";"";"";"";"";"";"";"";"";"";"";"";""
"11081032780";"22.145782";"113.5648144";"charging_station";"";"Macao";"Macau";"N/A";"N/A";"";"";"";"";"";"";"";"";"";"";"";"";"";"";"";"";"Tesla, Inc.";"";"";""
"11081032781";"22.1483061";"113.5621214";"charging_station";"";"Macao";"Macau";"N/A";"N/A";"";"";"";"";"";"";"";"";"";"";"";"";"";"";"";"";"Tesla";"";"";""
"11081032782";"22.1434268";"113.5622073";"charging_station";"";"Macao";"Macau";"N/A";"N/A";"";"";"";"";"";"";"";"";"";"";"";"";"";"";"";"";"Tesla, Inc.";"";"";""
"11081032783";"22.1416431";"113.5622502";"charging_station";"";"Macao";"Macau";"N/A";"N/A";"";"";"";"";"Tesla, Inc.";"Q478214";"";"";"";"";"";"";"";"";"";"";"Tesla Supercharger";"";"";""
"11081032784";"22.1391792";"113.5735857";"charging_station";"";"Macao";"Macau";"N/A";"N/A";"";"";"";"";"Tesla, Inc.";"Q478214";"";"";"";"";"";"";"";"";"";"";"Tesla Supercharger";"";"";""
"11081032785";"22.1392706";"113.5739677";"charging_station";"";"Macao";"Macau";"N/A";"N/A";"";"";"";"";"";"";"";"";"";"";"";"";"";"";"";"";"Tesla, Inc.";"";"";""
"11081032786";"22.1799922";"113.5381009";"charging_station";"";"Macao";"Macau";"N/A";"N/A";"";"";"";"";"Tesla, Inc.";"Q478214";"";"";"";"";"";"";"";"";"";"";"Tesla Supercharger";"";"";""
"11081032787";"22.1906296";"113.5562681";"charging_station";"";"Macao";"Macau";"N/A";"N/A";"";"";"";"";"Tesla, Inc.";"Q478214";"";"";"";"";"";"";"";"";"";"";"Tesla Supercharger";"";"";""
"11158351417";"22.1375215";"113.4692297";"charging_station";"";"China";"Guangdong";"N/A";"N/A";"";"";"";"";"";"";"";"";"";"";"";"";"";"";"";"";"NIO Power";"";"";""
"11299152801";"22.3634212";"113.5585896";"charging_station";"";"China";"Guangdong";"N/A";"N/A";"";"";"";"";"";"";"";"";"";"";"";"";"";"";"";"";"NIO Power";"";"";""
"11935314209";"22.2308225";"113.5482773";"charging_station";"";"China";"Guangdong";"N/A";"N/A";"";"";"";"";"";"";"";"";"";"";"";"";"";"";"";"";"南方电网汽车充电站";"";"";""
"12617889333";"22.3604622";"113.5922652";"charging_station";"";"China";"Guangdong";"N/A";"N/A";"";"";"";"";"";"";"";"";"";"";"";"";"";"";"";"";"";"";"";""
"12623513918";"22.2565644";"113.5231872";"charging_station";"";"China";"Guangdong";"N/A";"N/A";"";"";"";"";"";"";"";"";"";"";"";"";"";"";"";"";"";"";"";""
"12709057535";"22.1328349";"113.3636831";"charging_station";"";"China";"Guangdong";"N/A";"N/A";"";"";"";"";"";"";"";"";"";"";"";"";"";"";"";"";"";"";"";"yes"
"12709057538";"22.1315672";"113.3619499";"charging_station";"";"China";"Guangdong";"N/A";"N/A";"";"";"";"";"";"";"";"";"";"";"";"";"";"";"";"";"";"";"";"yes"
"12862372151";"22.1282921";"113.3641301";"charging_station";"";"China";"Guangdong";"N/A";"N/A";"";"";"";"";"";"";"";"";"";"";"";"";"";"";"";"";"";"";"";""
"1130783692";"";"";"charging_station";"N/A";"N/A";"N/A";"N/A";"N/A";"";"";"";"";"";"";"";"";"";"";"";"";"";"";"";"";"";"";"";""
"1151511780";"";"";"charging_station";"N/A";"N/A";"N/A";"N/A";"N/A";"";"";"";"";"";"";"";"";"";"";"";"";"";"";"";"";"电动汽车快充站";"";"";""
"1315845883";"";"";"charging_station";"N/A";"N/A";"N/A";"N/A";"N/A";"";"";"";"";"";"";"";"";"";"";"";"";"";"";"";"";"";"";"";""
"1317090465";"";"";"charging_station";"N/A";"N/A";"N/A";"N/A";"N/A";"";"";"";"";"";"";"";"";"";"";"";"";"";"";"";"";"";"";"";""
"1347727592";"";"";"charging_station";"N/A";"N/A";"N/A";"N/A";"N/A";"";"";"";"";"中国南方电网有限公司";"";"";"";"";"";"";"";"";"";"";"";"";"";"";""
"1352493358";"";"";"charging_station";"N/A";"N/A";"N/A";"N/A";"N/A";"";"";"";"";"";"";"";"";"";"";"";"";"";"";"";"";"";"";"";""
"1352493359";"";"";"charging_station";"N/A";"N/A";"N/A";"N/A";"N/A";"";"";"";"";"";"";"";"";"";"";"";"";"";"";"";"";"";"";"";""
"1352493366";"";"";"charging_station";"N/A";"N/A";"N/A";"N/A";"N/A";"";"";"";"";"";"";"";"";"";"";"";"";"";"";"";"";"";"";"";"yes"
"1353057151";"";"";"charging_station";"N/A";"N/A";"N/A";"N/A";"N/A";"";"";"";"";"";"";"";"";"";"";"";"";"";"";"";"";"";"";"";""
"1360771865";"";"";"charging_station";"N/A";"N/A";"N/A";"N/A";"N/A";"";"";"";"";"中国南方电网有限公司";"";"";"";"";"";"";"";"";"";"";"";"";"";"";""
"1360771866";"";"";"charging_station";"N/A";"N/A";"N/A";"N/A";"N/A";"";"";"";"";"中国南方电网有限公司";"";"";"";"";"";"";"";"";"";"";"";"";"";"";""
"1365658985";"";"";"charging_station";"N/A";"N/A";"N/A";"N/A";"N/A";"";"";"";"";"";"";"";"";"";"";"";"";"";"";"";"";"";"";"";""
"1367620558";"";"";"charging_station";"N/A";"N/A";"N/A";"N/A";"N/A";"";"";"";"";"";"";"";"";"";"";"";"";"";"";"";"";"";"";"";"yes"
"1370501145";"";"";"charging_station";"N/A";"N/A";"N/A";"N/A";"N/A";"";"8";"";"";"";"";"";"";"";"";"";"";"";"";"";"";"";"";"";""
"1377413871";"";"";"charging_station";"N/A";"N/A";"N/A";"N/A";"N/A";"";"";"";"";"";"";"";"";"";"";"";"";"";"";"";"";"";"";"";"yes"
"1382712778";"";"";"charging_station";"N/A";"N/A";"N/A";"N/A";"N/A";"";"";"";"";"";"";"";"";"";"";"";"";"";"";"";"";"";"";"";"yes"
"8414393902";"22.1367003";"113.3507907";"";"";"China";"Guangdong";"N/A";"N/A";"";"";"";"";"";"";"";"";"";"";"";"";"";"";"";"";"";"";"";""
"12753971653";"22.1364187";"113.3510317";"";"";"China";"Guangdong";"N/A";"N/A";"";"";"";"";"";"";"";"";"";"";"";"";"";"";"";"";"";"";"";""
"12753971654";"22.1363856";"113.3509866";"";"";"China";"Guangdong";"N/A";"N/A";"";"";"";"";"";"";"";"";"";"";"";"";"";"";"";"";"";"";"";""
"12753971655";"22.1366673";"113.3507457";"";"";"China";"Guangdong";"N/A";"N/A";"";"";"";"";"";"";"";"";"";"";"";"";"";"";"";"";"";"";"";""
"12753971656";"22.1363929";"113.3509965";"";"";"China";"Guangdong";"N/A";"N/A";"";"";"";"";"";"";"";"";"";"";"";"";"";"";"";"";"";"";"";""
"12801782046";"22.0984508";"113.3729848";"";"";"China";"Guangdong";"N/A";"N/A";"";"";"";"";"";"";"";"";"";"";"";"";"";"";"";"";"";"";"";""
"12801782047";"22.0984065";"113.3729972";"";"";"China";"Guangdong";"N/A";"N/A";"";"";"";"";"";"";"";"";"";"";"";"";"";"";"";"";"";"";"";""
"12801782048";"22.0984716";"113.3732671";"";"";"China";"Guangdong";"N/A";"N/A";"";"";"";"";"";"";"";"";"";"";"";"";"";"";"";"";"";"";"";""
"12801782049";"22.0985158";"113.3732547";"";"";"China";"Guangdong";"N/A";"N/A";"";"";"";"";"";"";"";"";"";"";"";"";"";"";"";"";"";"";"";""
"12513926313";"22.1150448";"113.3614041";"";"";"China";"Guangdong";"N/A";"N/A";"";"";"";"";"";"";"";"";"";"";"";"";"";"";"";"";"";"";"";""
"12513926314";"22.1151127";"113.3614511";"";"";"China";"Guangdong";"N/A";"N/A";"";"";"";"";"";"";"";"";"";"";"";"";"";"";"";"";"";"";"";""
"12513926307";"22.1155031";"113.3614412";"";"";"China";"Guangdong";"N/A";"N/A";"";"";"";"";"";"";"";"";"";"";"";"";"";"";"";"";"";"";"";""
"12513926308";"22.1154423";"113.3613129";"";"";"China";"Guangdong";"N/A";"N/A";"";"";"";"";"";"";"";"";"";"";"";"";"";"";"";"";"";"";"";""
"12513926309";"22.115375";"113.36135";"";"";"China";"Guangdong";"N/A";"N/A";"";"";"";"";"";"";"";"";"";"";"";"";"";"";"";"";"";"";"";""
"12513926310";"22.1154357";"113.3614784";"";"";"China";"Guangdong";"N/A";"N/A";"";"";"";"";"";"";"";"";"";"";"";"";"";"";"";"";"";"";"";""
"12513926311";"22.1152241";"113.3612634";"";"";"China";"Guangdong";"N/A";"N/A";"";"";"";"";"";"";"";"";"";"";"";"";"";"";"";"";"";"";"";""
"12513926312";"22.1151561";"113.3612164";"";"";"China";"Guangdong";"N/A";"N/A";"";"";"";"";"";"";"";"";"";"";"";"";"";"";"";"";"";"";"";""
"12513926337";"22.1230475";"113.3551389";"";"";"China";"Guangdong";"N/A";"N/A";"";"";"";"";"";"";"";"";"";"";"";"";"";"";"";"";"";"";"";""
"12513926338";"22.1228955";"113.354915";"";"";"China";"Guangdong";"N/A";"N/A";"";"";"";"";"";"";"";"";"";"";"";"";"";"";"";"";"";"";"";""
"12513926339";"22.122853";"113.3549487";"";"";"China";"Guangdong";"N/A";"N/A";"";"";"";"";"";"";"";"";"";"";"";"";"";"";"";"";"";"";"";""
"12513926340";"22.123005";"113.3551725";"";"";"China";"Guangdong";"N/A";"N/A";"";"";"";"";"";"";"";"";"";"";"";"";"";"";"";"";"";"";"";""
"12519625862";"22.1306655";"113.3620175";"";"";"China";"Guangdong";"N/A";"N/A";"";"";"";"";"";"";"";"";"";"";"";"";"";"";"";"";"";"";"";""
"12519625863";"22.1305305";"113.3618387";"";"";"China";"Guangdong";"N/A";"N/A";"";"";"";"";"";"";"";"";"";"";"";"";"";"";"";"";"";"";"";""
"12519625864";"22.1304982";"113.3618671";"";"";"China";"Guangdong";"N/A";"N/A";"";"";"";"";"";"";"";"";"";"";"";"";"";"";"";"";"";"";"";""
"12519625865";"22.1306332";"113.3620459";"";"";"China";"Guangdong";"N/A";"N/A";"";"";"";"";"";"";"";"";"";"";"";"";"";"";"";"";"";"";"";""
"12646890086";"22.1289722";"113.3621361";"";"";"China";"Guangdong";"N/A";"N/A";"";"";"";"";"";"";"";"";"";"";"";"";"";"";"";"";"";"";"";""
"12646890087";"22.1289373";"113.3620938";"";"";"China";"Guangdong";"N/A";"N/A";"";"";"";"";"";"";"";"";"";"";"";"";"";"";"";"";"";"";"";""
"12646890090";"22.1287449";"113.3622783";"";"";"China";"Guangdong";"N/A";"N/A";"";"";"";"";"";"";"";"";"";"";"";"";"";"";"";"";"";"";"";""
"12646890091";"22.1287797";"113.3623206";"";"";"China";"Guangdong";"N/A";"N/A";"";"";"";"";"";"";"";"";"";"";"";"";"";"";"";"";"";"";"";""
"12666243956";"22.1325199";"113.3629584";"";"";"China";"Guangdong";"N/A";"N/A";"";"";"";"";"";"";"";"";"";"";"";"";"";"";"";"";"";"";"";""
"12666243957";"22.132485";"113.362916";"";"";"China";"Guangdong";"N/A";"N/A";"";"";"";"";"";"";"";"";"";"";"";"";"";"";"";"";"";"";"";""
"12666243958";"22.1323695";"113.3630268";"";"";"China";"Guangdong";"N/A";"N/A";"";"";"";"";"";"";"";"";"";"";"";"";"";"";"";"";"";"";"";""
"12666243959";"22.1323463";"113.3630688";"";"";"China";"Guangdong";"N/A";"N/A";"";"";"";"";"";"";"";"";"";"";"";"";"";"";"";"";"";"";"";""
"12666243960";"22.132349";"113.3631108";"";"";"China";"Guangdong";"N/A";"N/A";"";"";"";"";"";"";"";"";"";"";"";"";"";"";"";"";"";"";"";""
"12666243961";"22.1323681";"113.3631491";"";"";"China";"Guangdong";"N/A";"N/A";"";"";"";"";"";"";"";"";"";"";"";"";"";"";"";"";"";"";"";""
"12666243962";"22.1324205";"113.363213";"";"";"China";"Guangdong";"N/A";"N/A";"";"";"";"";"";"";"";"";"";"";"";"";"";"";"";"";"";"";"";""
"12666243963";"22.1324629";"113.3631724";"";"";"China";"Guangdong";"N/A";"N/A";"";"";"";"";"";"";"";"";"";"";"";"";"";"";"";"";"";"";"";""
"12666243964";"22.1324063";"113.3631034";"";"";"China";"Guangdong";"N/A";"N/A";"";"";"";"";"";"";"";"";"";"";"";"";"";"";"";"";"";"";"";""
"12666243965";"22.1323988";"113.3630857";"";"";"China";"Guangdong";"N/A";"N/A";"";"";"";"";"";"";"";"";"";"";"";"";"";"";"";"";"";"";"";""
"12666243966";"22.1324063";"113.3630673";"";"";"China";"Guangdong";"N/A";"N/A";"";"";"";"";"";"";"";"";"";"";"";"";"";"";"";"";"";"";"";""
"12459758773";"22.1366237";"113.3651618";"";"";"China";"Guangdong";"N/A";"N/A";"";"";"";"";"";"";"";"";"";"";"";"";"";"";"";"";"";"";"";""
"12692728002";"22.1365996";"113.3651152";"";"";"China";"Guangdong";"N/A";"N/A";"";"";"";"";"";"";"";"";"";"";"";"";"";"";"";"";"";"";"";""
"12692728044";"22.136449";"113.3652673";"";"";"China";"Guangdong";"N/A";"N/A";"";"";"";"";"";"";"";"";"";"";"";"";"";"";"";"";"";"";"";""
"12692728045";"22.136425";"113.3652211";"";"";"China";"Guangdong";"N/A";"N/A";"";"";"";"";"";"";"";"";"";"";"";"";"";"";"";"";"";"";"";""
"12597164985";"22.1470485";"113.3567415";"";"";"China";"Guangdong";"N/A";"N/A";"";"";"";"";"";"";"";"";"";"";"";"";"";"";"";"";"";"";"";""
"12597164986";"22.1469211";"113.3567268";"";"";"China";"Guangdong";"N/A";"N/A";"";"";"";"";"";"";"";"";"";"";"";"";"";"";"";"";"";"";"";""
"12597164987";"22.1468399";"113.3575479";"";"";"China";"Guangdong";"N/A";"N/A";"";"";"";"";"";"";"";"";"";"";"";"";"";"";"";"";"";"";"";""
"12597164988";"22.1469674";"113.3575626";"";"";"China";"Guangdong";"N/A";"N/A";"";"";"";"";"";"";"";"";"";"";"";"";"";"";"";"";"";"";"";""
"12597164989";"22.1473553";"113.3567492";"";"";"China";"Guangdong";"N/A";"N/A";"";"";"";"";"";"";"";"";"";"";"";"";"";"";"";"";"";"";"";""
"12597164990";"22.1472316";"113.3567477";"";"";"China";"Guangdong";"N/A";"N/A";"";"";"";"";"";"";"";"";"";"";"";"";"";"";"";"";"";"";"";""
"12597164991";"22.1472247";"113.3574059";"";"";"China";"Guangdong";"N/A";"N/A";"";"";"";"";"";"";"";"";"";"";"";"";"";"";"";"";"";"";"";""
"12597164992";"22.1473483";"113.3574074";"";"";"China";"Guangdong";"N/A";"N/A";"";"";"";"";"";"";"";"";"";"";"";"";"";"";"";"";"";"";"";""
"12466531710";"22.147752";"113.358022";"";"";"China";"Guangdong";"N/A";"N/A";"";"";"";"";"";"";"";"";"";"";"";"";"";"";"";"";"";"";"";""
"12466531711";"22.1475942";"113.3579621";"";"";"China";"Guangdong";"N/A";"N/A";"";"";"";"";"";"";"";"";"";"";"";"";"";"";"";"";"";"";"";""
"12466531712";"22.1477435";"113.3583635";"";"";"China";"Guangdong";"N/A";"N/A";"";"";"";"";"";"";"";"";"";"";"";"";"";"";"";"";"";"";"";""
"12466531674";"22.1479051";"113.358422";"";"";"China";"Guangdong";"N/A";"N/A";"";"";"";"";"";"";"";"";"";"";"";"";"";"";"";"";"";"";"";""
"12179565063";"22.1397078";"113.575465";"";"";"Macao";"Macau";"N/A";"N/A";"";"";"";"";"";"";"";"";"";"";"";"";"";"";"";"";"";"";"";""
"12179565064";"22.1397962";"113.5756878";"";"";"Macao";"Macau";"N/A";"N/A";"";"";"";"";"";"";"";"";"";"";"";"";"";"";"";"";"";"";"";""
"12179565065";"22.139839";"113.5757688";"";"";"Macao";"Macau";"N/A";"N/A";"";"";"";"";"";"";"";"";"";"";"";"";"";"";"";"";"";"";"";""
"12179565066";"22.1398658";"113.5757832";"";"";"Macao";"Macau";"N/A";"N/A";"";"";"";"";"";"";"";"";"";"";"";"";"";"";"";"";"";"";"";""
"12179565067";"22.1396193";"113.5759105";"";"";"Macao";"Macau";"N/A";"N/A";"";"";"";"";"";"";"";"";"";"";"";"";"";"";"";"";"";"";"";""
"12179565068";"22.139555";"113.5757312";"";"";"Macao";"Macau";"N/A";"N/A";"";"";"";"";"";"";"";"";"";"";"";"";"";"";"";"";"";"";"";""
"12179565069";"22.1395631";"113.5756213";"";"";"Macao";"Macau";"N/A";"N/A";"";"";"";"";"";"";"";"";"";"";"";"";"";"";"";"";"";"";"";""
"12179565070";"22.1395985";"113.5755137";"";"";"Macao";"Macau";"N/A";"N/A";"";"";"";"";"";"";"";"";"";"";"";"";"";"";"";"";"";"";"";""
"12179565071";"22.1395719";"113.5757829";"";"";"Macao";"Macau";"N/A";"N/A";"";"";"";"";"";"";"";"";"";"";"";"";"";"";"";"";"";"";"";""
"12189670225";"22.2776435";"113.457194";"";"";"China";"Guangdong";"N/A";"N/A";"";"";"";"";"";"";"";"";"";"";"";"";"";"";"";"";"";"";"";""
"12189670226";"22.2778019";"113.4574152";"";"";"China";"Guangdong";"N/A";"N/A";"";"";"";"";"";"";"";"";"";"";"";"";"";"";"";"";"";"";"";""
"12189670227";"22.2777393";"113.4574676";"";"";"China";"Guangdong";"N/A";"N/A";"";"";"";"";"";"";"";"";"";"";"";"";"";"";"";"";"";"";"";""
"12189670228";"22.2775809";"113.4572463";"";"";"China";"Guangdong";"N/A";"N/A";"";"";"";"";"";"";"";"";"";"";"";"";"";"";"";"";"";"";"";""
"10538388070";"22.3668462";"113.5412116";"";"";"China";"Guangdong";"N/A";"N/A";"";"";"";"";"";"";"";"";"";"";"";"";"";"";"";"";"";"";"";""
"10538388071";"22.3668493";"113.5415442";"";"";"China";"Guangdong";"N/A";"N/A";"";"";"";"";"";"";"";"";"";"";"";"";"";"";"";"";"";"";"";""
"10538388072";"22.3667533";"113.5415438";"";"";"China";"Guangdong";"N/A";"N/A";"";"";"";"";"";"";"";"";"";"";"";"";"";"";"";"";"";"";"";""
"10538388073";"22.3667551";"113.5412101";"";"";"China";"Guangdong";"N/A";"N/A";"";"";"";"";"";"";"";"";"";"";"";"";"";"";"";"";"";"";"";""
"10712181619";"22.3816387";"113.562429";"";"";"China";"Guangdong";"N/A";"N/A";"";"";"";"";"";"";"";"";"";"";"";"";"";"";"";"";"";"";"";""
"10712181620";"22.38145";"113.5622906";"";"";"China";"Guangdong";"N/A";"N/A";"";"";"";"";"";"";"";"";"";"";"";"";"";"";"";"";"";"";"";""
"10712181621";"22.3814911";"113.5622001";"";"";"China";"Guangdong";"N/A";"N/A";"";"";"";"";"";"";"";"";"";"";"";"";"";"";"";"";"";"";"";""
"10712181622";"22.3816387";"113.5622888";"";"";"China";"Guangdong";"N/A";"N/A";"";"";"";"";"";"";"";"";"";"";"";"";"";"";"";"";"";"";"";""
"10712181623";"22.3816207";"113.5623119";"";"";"China";"Guangdong";"N/A";"N/A";"";"";"";"";"";"";"";"";"";"";"";"";"";"";"";"";"";"";"";""
"10712181624";"22.3816453";"113.5623385";"";"";"China";"Guangdong";"N/A";"N/A";"";"";"";"";"";"";"";"";"";"";"";"";"";"";"";"";"";"";"";""
"10712181625";"22.3816371";"113.5623829";"";"";"China";"Guangdong";"N/A";"N/A";"";"";"";"";"";"";"";"";"";"";"";"";"";"";"";"";"";"";"";""
"10712181626";"22.3816666";"113.5623917";"";"";"China";"Guangdong";"N/A";"N/A";"";"";"";"";"";"";"";"";"";"";"";"";"";"";"";"";"";"";"";""
"3048485207";"22.2744615";"114.1719528";"charging_station";"";"Hong Kong";"Wanchai";"N/A";"N/A";"";"6";"";"";"Tesla, Inc.";"Q478214";"";"";"";"";"";"";"";"";"";"";"Tesla Supercharger";"";"24/7";""
"3048486643";"22.3070277";"114.2125211";"charging_station";"";"Hong Kong";"Kowloon City";"N/A";"N/A";"";"4";"";"";"Tesla Motors Inc.";"";"";"";"";"";"";"";"";"";"";"";"";"";"24/7";""
"3494444748";"22.313317";"113.9278032";"charging_station";"";"Hong Kong";"";"N/A";"N/A";"";"";"";"";"";"";"";"";"";"";"";"";"";"";"";"";"";"";"";""
"4146664482";"22.42795";"114.21035";"charging_station";"";"Hong Kong";"Tai Po";"N/A";"N/A";"";"6";"";"";"Tesla";"Q478214";"";"";"";"";"";"";"";"";"Science Park East Avenue";"";"Tesla Supercharger";"";"24/7";""
"4146664484";"22.28633";"114.21315";"charging_station";"";"Hong Kong";"Wanchai";"N/A";"N/A";"";"6";"";"";"Swire Properties";"";"";"";"";"";"";"";"";"";"";"";"";"";"";"no"
"4149058097";"22.28717";"114.21757";"charging_station";"";"Hong Kong";"Kowloon City";"N/A";"N/A";"";"1";"";"";"HK Electric";"";"";"";"";"";"";"";"";"";"";"";"";"";"";"yes"
"4465879200";"22.2899427";"113.9406604";"charging_station";"";"Hong Kong";"";"N/A";"N/A";"";"";"";"";"";"";"";"";"";"";"";"";"";"";"";"";"";"";"";""
"4465879201";"22.2866626";"113.9423152";"charging_station";"";"Hong Kong";"";"N/A";"N/A";"";"";"";"";"";"";"";"";"";"";"";"";"";"";"";"";"";"";"";""
"4468487783";"22.325978";"114.204138";"charging_station";"";"Hong Kong";"Kowloon City";"N/A";"N/A";"";"4";"";"";"EMSD";"";"";"";"";"4";"";"";"";"";"";"";"";"";"";"no"
"4485269880";"22.282269";"114.160407";"charging_station";"";"Hong Kong";"Central and Western";"N/A";"N/A";"";"3";"";"";"HK Electric";"";"";"";"";"3";"";"";"";"";"";"";"";"";"";"yes"
"4485269881";"22.28232";"114.16024";"charging_station";"";"Hong Kong";"Central and Western";"N/A";"N/A";"";"1";"";"";"HK Electric";"";"";"";"";"";"";"";"";"";"";"";"";"";"";"yes"
"4490696931";"22.2876039";"114.2121827";"charging_station";"";"Hong Kong";"Wanchai";"N/A";"N/A";"";"4";"";"";"Tesla, Inc.";"Q478214";"";"";"";"";"";"";"";"";"";"";"Tesla Supercharger";"";"24/7";"no"
"4490696932";"22.287552";"114.2133741";"charging_station";"";"Hong Kong";"Wanchai";"N/A";"N/A";"";"2";"";"";"HKEV";"";"";"";"";"2";"";"";"";"";"";"";"";"";"";"no"
"4494583707";"22.28269";"114.16037";"charging_station";"";"Hong Kong";"Central and Western";"N/A";"N/A";"no";"8";"";"yes";"Cornerstone Technologies";"";"";"";"";"8";"";"220 V";"";"";"";"";"";"";"24/7";"no"
"4494583708";"22.28605";"114.15725";"charging_station";"";"Hong Kong";"";"N/A";"N/A";"";"2";"";"";"HKEV";"";"";"";"";"2";"";"";"";"";"";"";"";"";"";"no"
"4496874731";"22.2842391";"114.2163129";"charging_station";"";"Hong Kong";"Wanchai";"N/A";"N/A";"";"2";"";"";"HKEV";"";"";"";"";"";"";"";"";"";"";"";"";"";"";"yes"
"4496874732";"22.2857";"114.15855";"charging_station";"";"Hong Kong";"";"N/A";"N/A";"";"2";"";"";"HKEV";"";"";"";"";"2";"";"";"";"";"";"";"";"";"";"no"
"4498499634";"22.2977317";"114.1731074";"charging_station";"";"Hong Kong";"Wanchai";"N/A";"N/A";"";"2";"";"";"HKEV";"";"";"";"";"1";"";"";"";"";"";"";"";"";"";"no"
"6276315570";"22.3076773";"114.1620062";"charging_station";"";"Hong Kong";"";"N/A";"N/A";"";"";"";"";"";"";"";"";"";"";"";"";"";"";"";"";"";"";"";""
"7075865406";"22.3683614";"114.1135645";"charging_station";"";"Hong Kong";"Tsuen Wan";"N/A";"N/A";"";"";"";"";"";"";"";"";"";"";"";"";"";"";"";"";"";"";"";"yes"
"9137033564";"22.3859816";"114.1875752";"charging_station";"";"Hong Kong";"Sha Tin";"N/A";"N/A";"";"2";"";"";"";"";"";"";"";"";"";"";"";"";"";"";"";"";"";""
"9137060800";"22.3859395";"114.1871179";"charging_station";"";"Hong Kong";"Sha Tin";"N/A";"N/A";"";"";"";"";"";"";"";"";"";"";"";"";"";"";"";"";"";"";"";""
"9137071059";"22.3822627";"114.1900851";"charging_station";"";"Hong Kong";"Sha Tin";"N/A";"N/A";"";"3";"";"";"";"";"";"";"";"";"";"";"";"";"";"";"";"";"";""
"9171217633";"22.2894766";"114.1443319";"charging_station";"";"Hong Kong";"";"N/A";"N/A";"";"12";"";"";"";"";"";"";"";"";"";"";"";"";"";"";"";"";"";""
"9171217675";"22.2898615";"114.1433912";"charging_station";"";"Hong Kong";"";"N/A";"N/A";"";"6";"";"";"";"";"";"";"";"";"";"";"";"";"";"";"";"";"";""
"9311605252";"22.3076955";"114.2574093";"charging_station";"";"Hong Kong";"Kowloon City";"N/A";"N/A";"";"1";"";"";"";"";"";"";"";"";"";"";"";"";"";"";"Tesla, Inc.";"";"";""
"9311625198";"22.3180098";"113.9341075";"charging_station";"";"Hong Kong";"Tuen Mun";"N/A";"N/A";"";"";"";"";"";"";"";"";"";"";"";"";"";"";"";"";"";"";"";""
"9311638892";"22.3821751";"114.2722703";"charging_station";"";"Hong Kong";"Sai Kung";"N/A";"N/A";"";"";"";"";"";"";"";"";"";"";"";"";"";"";"";"";"";"";"";""
"9311638893";"22.383998";"114.2767186";"charging_station";"";"Hong Kong";"Sai Kung";"N/A";"N/A";"";"";"";"";"";"";"";"";"";"";"";"";"";"";"";"";"";"";"";""
"9311647841";"22.3162126";"113.9523158";"charging_station";"";"Hong Kong";"Tuen Mun";"N/A";"N/A";"";"";"";"";"";"";"";"";"";"";"";"";"";"";"";"";"";"";"";""
"9311647842";"22.3160715";"113.9529622";"charging_station";"";"Hong Kong";"Tuen Mun";"N/A";"N/A";"";"";"";"";"";"";"";"";"";"";"";"";"";"";"";"";"";"";"";""
"9311656760";"22.2902742";"113.9405918";"charging_station";"";"Hong Kong";"";"N/A";"N/A";"";"";"";"";"";"";"";"";"";"";"";"";"";"";"";"";"";"";"";""
"9311657922";"22.310916";"114.2582816";"charging_station";"";"Hong Kong";"Sai Kung";"N/A";"N/A";"";"";"";"";"Tesla, Inc.";"Q478214";"";"";"";"";"";"";"";"";"";"";"Tesla Supercharger";"";"";""
"9311657923";"22.310983";"114.2585431";"charging_station";"";"Hong Kong";"Sai Kung";"N/A";"N/A";"";"";"";"";"";"";"";"";"";"";"";"";"";"";"";"";"";"";"";""
"9311663056";"22.316227";"114.0483511";"charging_station";"";"Hong Kong";"Tsuen Wan";"N/A";"N/A";"";"";"";"";"";"";"";"";"";"";"";"";"";"";"";"";"Tesla, Inc.";"";"";""
"9311670691";"22.3077463";"114.2573917";"charging_station";"";"Hong Kong";"Kowloon City";"N/A";"N/A";"";"";"";"";"";"";"";"";"";"";"";"";"";"";"";"";"";"";"";""
"9311672424";"22.2812476";"113.9356948";"charging_station";"";"Hong Kong";"";"N/A";"N/A";"";"";"";"";"";"";"";"";"";"";"";"";"";"";"";"";"";"";"";""
"9311672425";"22.2821287";"113.9359603";"charging_station";"";"Hong Kong";"";"N/A";"N/A";"";"";"";"";"";"";"";"";"";"";"";"";"";"";"";"";"";"";"";""
"9311680422";"22.3022557";"114.2618";"charging_station";"";"Hong Kong";"Kowloon City";"N/A";"N/A";"";"";"";"";"";"";"";"";"";"";"";"";"";"";"";"";"";"";"";""
"9311685807";"22.3221949";"114.2557416";"charging_station";"";"Hong Kong";"Sai Kung";"N/A";"N/A";"";"";"";"";"";"";"";"";"";"";"";"";"";"";"";"";"";"";"";""
"9625276717";"22.3922132";"114.1944502";"charging_station";"";"Hong Kong";"Sha Tin";"N/A";"N/A";"";"6";"";"";"Tesla, Inc.";"Q478214";"";"";"";"";"";"";"";"";"";"";"Tesla Supercharger";"";"";""
"9625283805";"22.3164327";"114.2138088";"charging_station";"";"Hong Kong";"Kowloon City";"N/A";"N/A";"";"3";"";"";"Tesla, Inc.";"Q478214";"";"";"";"";"";"";"";"";"";"";"Tesla Supercharger";"";"";""
"9671960196";"22.3361541";"114.142714";"charging_station";"";"Hong Kong";"Sham Shui Po";"N/A";"N/A";"";"";"";"";"";"";"";"";"";"";"";"";"";"";"";"";"";"";"";""
"10127919002";"22.2819776";"114.1620566";"charging_station";"";"Hong Kong";"Central and Western";"N/A";"N/A";"no";"26";"";"yes";"Cornerstone Technologies";"";"";"";"";"30";"32 A";"220 V";"";"";"";"";"";"";"24/7";"no"
"10130063111";"22.2856864";"114.1581765";"charging_station";"";"Hong Kong";"";"N/A";"N/A";"";"3";"";"yes";"";"";"";"";"";"";"";"";"";"";"";"";"Tesla, Inc.";"";"";""
"10651164697";"22.4446166";"114.0404878";"charging_station";"";"Hong Kong";"Yuen Long";"N/A";"N/A";"";"";"";"";"";"";"";"";"";"";"";"";"";"";"";"";"";"";"";""
"10676302101";"22.252209";"113.8632084";"charging_station";"";"Hong Kong";"";"N/A";"N/A";"";"4";"";"yes";"Cornerstone Technologies";"";"";"";"";"1";"";"";"";"";"";"";"";"";"24/7";""
"12233725034";"22.3205843";"113.9444322";"charging_station";"";"Hong Kong";"Tuen Mun";"N/A";"N/A";"";"";"";"";"";"";"";"";"";"";"";"";"";"";"";"";"";"";"";""
"12249917454";"22.2364996";"114.1664229";"charging_station";"";"Hong Kong";"Wanchai";"N/A";"N/A";"";"";"";"";"Tesla, Inc.";"Q478214";"";"";"";"";"";"";"";"";"";"";"Tesla, Inc.";"";"";""
"12430053994";"22.2939191";"114.269919";"charging_station";"";"Hong Kong";"Sai Kung";"N/A";"N/A";"";"9";"";"";"";"";"";"";"";"";"";"";"";"";"";"";"";"";"";""
"12462540427";"22.3716551";"114.1078544";"charging_station";"";"Hong Kong";"Tsuen Wan";"N/A";"N/A";"";"5";"";"";"";"";"";"";"";"5";"";"";"";"";"";"";"";"";"";"yes"
"12641959798";"22.3968522";"113.9686518";"charging_station";"";"Hong Kong";"Tuen Mun";"N/A";"N/A";"";"";"";"";"Tesla, Inc.";"Q478214";"";"";"";"";"";"";"";"";"";"";"Tesla Supercharger";"";"";""
"1307456251";"";"";"charging_station";"N/A";"N/A";"N/A";"N/A";"N/A";"";"8";"";"";"";"";"";"";"";"";"";"";"";"";"";"";"";"";"";""
"12107967955";"22.3132331";"113.9165923";"";"";"Hong Kong";"";"N/A";"N/A";"";"";"";"";"";"";"";"";"";"";"";"";"";"";"";"";"";"";"";""
"12107967956";"22.3131567";"113.9165391";"";"";"Hong Kong";"";"N/A";"N/A";"";"";"";"";"";"";"";"";"";"";"";"";"";"";"";"";"";"";"";""
"12107967957";"22.3133146";"113.9162743";"";"";"Hong Kong";"";"N/A";"N/A";"";"";"";"";"";"";"";"";"";"";"";"";"";"";"";"";"";"";"";""
"12107967958";"22.3133911";"113.9163276";"";"";"Hong Kong";"";"N/A";"N/A";"";"";"";"";"";"";"";"";"";"";"";"";"";"";"";"";"";"";"";""
"7362267899";"22.1991671";"120.6897245";"charging_station";"";"Taiwan";"Taiwan";"N/A";"N/A";"";"";"";"";"Gogoro 電池交換站";"Q19880591";"";"";"";"";"";"";"";"53";"舊庄路";"";"Gogoro 電池交換站";"";"";""
"7362267900";"22.3827671";"120.5957685";"charging_station";"Pingtung";"Taiwan";"Taiwan";"N/A";"N/A";"";"";"";"";"英屬開曼群島商睿能新動力股份有限公司台灣分公司";"";"";"";"";"";"";"";"";"143";"中山路二段";"";"Gogoro Network";"";"";""
"12841027045";"22.0462156";"120.6969844";"charging_station";"";"Taiwan";"Taiwan";"N/A";"N/A";"";"";"";"";"";"";"";"";"";"";"";"";"";"";"";"";"";"";"";""
"7362267901";"22.2916162";"120.8811502";"charging_station";"";"Taiwan";"Taiwan";"N/A";"N/A";"";"";"";"";"Gogoro 電池交換站";"Q19880591";"";"";"";"";"";"";"";"216";"森永";"";"Gogoro 電池交換站";"";"";""
"7362267902";"22.341632";"120.8948502";"charging_station";"";"Taiwan";"Taiwan";"N/A";"N/A";"";"";"";"";"Gogoro 電池交換站";"Q19880591";"";"";"";"";"";"";"";"8";"尚武路";"";"Gogoro 電池交換站";"";"";""
"9433284617";"22.9214162";"-109.8296691";"charging_station";"";"Mexico";"Baja California Sur";"N/A";"N/A";"";"";"";"yes";"";"";"";"";"";"";"";"";"";"";"";"";"";"";"";""
"11443435768";"22.7985114";"39.0344292";"charging_station";"";"Saudi Arabia";"Makkah";"N/A";"N/A";"";"";"";"";"Electromin";"";"";"";"";"";"";"";"";"";"";"";"";"";"Fr 17:00-21:00; Mo-Th,Sa-Su 09:00-22:00";""
"9793208900";"22.4628605";"72.1589043";"charging_station";"Ahmadabad";"India";"Gujarat";"N/A";"N/A";"";"";"";"";"";"";"";"";"";"";"";"";"";"";"";"";"";"";"";""
"12946107084";"22.4701255";"88.309999";"charging_station";"South 24 Paraganas";"India";"West Bengal";"N/A";"N/A";"";"";"";"";"";"";"";"";"";"";"";"";"";"";"";"";"Hero Electric Charging Station";"";"";""
"9717918117";"22.5408647";"88.3680476";"charging_station";"Kolkata";"India";"West Bengal";"N/A";"N/A";"";"";"";"";"";"";"";"";"";"";"";"";"";"";"";"";"";"";"24/7";""
"9717920317";"22.5665448";"88.3521064";"charging_station";"Kolkata";"India";"West Bengal";"N/A";"N/A";"";"";"";"";"";"";"";"";"";"";"";"";"";"1";"Chittaranjan Avenue";"700072";"";"";"";""
"9717923217";"22.5475251";"88.3495487";"charging_station";"Kolkata";"India";"West Bengal";"N/A";"N/A";"";"";"";"";"";"";"";"";"";"";"";"";"";"43";"Jawaharlal Nehru Road";"700071";"";"";"24/7";""
"9717925317";"22.5813902";"88.3421409";"charging_station";"Kolkata";"India";"West Bengal";"N/A";"N/A";"";"";"";"";"";"";"";"";"";"";"";"";"";"";"";"";"";"";"24/7";""
"10115952217";"22.6075228";"88.3922575";"charging_station";"North 24 Parganas";"India";"West Bengal";"N/A";"N/A";"";"";"";"";"";"";"";"";"";"";"";"";"";"";"";"";"";"";"24/7";""
"10115962717";"22.5093598";"88.3674117";"charging_station";"Kolkata";"India";"West Bengal";"N/A";"N/A";"";"";"";"";"CESC";"";"";"";"";"";"";"";"";"";"Dhakuria Bridge";"";"";"";"24/7";""
"10553919109";"22.5942498";"88.4719544";"charging_station";"North 24 Parganas";"India";"West Bengal";"N/A";"N/A";"";"";"";"";"";"";"";"";"";"";"";"";"";"";"NH-34";"700156";"";"";"";""
"10553919709";"22.5994781";"88.4719664";"charging_station";"North 24 Parganas";"India";"West Bengal";"N/A";"N/A";"";"";"";"";"";"";"";"";"";"";"";"";"";"";"";"";"";"";"";""
"10553919710";"22.5845228";"88.4908908";"charging_station";"North 24 Parganas";"India";"West Bengal";"N/A";"N/A";"";"";"";"";"";"";"";"";"";"";"";"";"";"";"Ecospace Seating Area Path2";"700135";"";"";"";""
"10553924809";"22.5785223";"88.4529998";"charging_station";"North 24 Parganas";"India";"West Bengal";"N/A";"N/A";"";"";"";"";"";"";"";"";"";"";"";"";"";"";"";"";"";"";"";""
"10553925409";"22.5785173";"88.4526568";"charging_station";"North 24 Parganas";"India";"West Bengal";"N/A";"N/A";"";"";"";"";"";"";"";"";"";"";"";"";"";"";"action area 1";"700156";"";"";"24/7";""
"10553967709";"22.5815869";"88.4481696";"charging_station";"North 24 Parganas";"India";"West Bengal";"N/A";"N/A";"";"";"";"";"";"";"";"";"";"";"";"";"";"";"Street Number 30";"700059";"";"";"24/7";""
"10554039609";"22.6606704";"88.4418053";"charging_station";"North 24 Parganas";"India";"West Bengal";"N/A";"N/A";"";"";"";"";"";"";"";"";"";"";"";"";"";"";"Jessore Road";"700079";"";"";"24/7";""
"10554040909";"22.6308074";"88.4217376";"charging_station";"North 24 Parganas";"India";"West Bengal";"N/A";"N/A";"";"";"";"";"";"";"";"";"";"";"";"";"";"111a";"RBC Road";"700028";"";"";"24/7";""
"10564291409";"22.6256458";"88.4131756";"charging_station";"North 24 Parganas";"India";"West Bengal";"N/A";"N/A";"";"";"";"";"";"";"";"";"";"";"";"";"";"292";"R N Guha Road";"700028";"";"";"24/7";""
"12880786515";"22.5682609";"88.472598";"charging_station";"North 24 Parganas";"India";"West Bengal";"N/A";"N/A";"";"";"";"";"Jio BP Pulse";"";"";"";"";"";"";"";"";"";"";"";"Jio BP Pulse";"";"";""
"11939845203";"22.5300812";"100.3391271";"charging_station";"";"China";"Yunnan";"N/A";"N/A";"";"";"";"";"";"";"";"";"";"";"";"";"";"";"";"";"";"";"";""
"12538538091";"22.8191912";"107.0261478";"charging_station";"";"China";"Guangxi Zhuangzu Zizhiqu";"N/A";"N/A";"";"";"";"";"";"";"";"";"";"";"";"";"";"";"";"";"";"";"";""
"12538538105";"22.820939";"107.0281997";"charging_station";"";"China";"Guangxi Zhuangzu Zizhiqu";"N/A";"N/A";"";"";"";"";"";"";"";"";"";"";"";"";"";"";"";"";"";"";"";""
"9360411055";"22.7579892";"108.3145102";"charging_station";"";"China";"Guangxi Zhuangzu Zizhiqu";"N/A";"N/A";"";"3";"";"";"广西交投石油";"";"";"";"";"";"";"";"";"";"";"";"";"";"";""
"11250488305";"22.7663696";"108.3058563";"charging_station";"";"China";"Guangxi Zhuangzu Zizhiqu";"N/A";"N/A";"";"";"";"";"";"";"";"";"";"";"";"";"";"";"";"";"";"";"";""
"12662814646";"22.6026407";"108.1826024";"charging_station";"";"China";"Guangxi Zhuangzu Zizhiqu";"N/A";"N/A";"";"60";"";"yes";"柳州特来电新能源有限公司";"";"";"";"";"";"";"";"";"";"";"";"";"1.36 CNY/kWh";"24/7";"yes"
"9199183907";"22.7595604";"108.4790079";"charging_station";"";"China";"Guangxi Zhuangzu Zizhiqu";"N/A";"N/A";"";"";"";"";"";"";"";"";"";"";"";"";"";"";"";"";"";"";"";""
"9199183908";"22.7592295";"108.4545537";"charging_station";"";"China";"Guangxi Zhuangzu Zizhiqu";"N/A";"N/A";"";"";"";"";"";"";"";"";"";"";"";"";"";"";"";"";"";"";"";""
"9199183909";"22.7857733";"108.4554769";"charging_station";"";"China";"Guangxi Zhuangzu Zizhiqu";"N/A";"N/A";"";"";"";"";"";"";"";"";"";"";"";"";"";"";"";"";"";"";"";""
"9199183910";"22.7748644";"108.4673672";"charging_station";"";"China";"Guangxi Zhuangzu Zizhiqu";"N/A";"N/A";"";"";"";"";"";"";"";"";"";"";"";"";"";"";"";"";"";"";"";""
"9199183911";"22.7772091";"108.4280106";"charging_station";"";"China";"Guangxi Zhuangzu Zizhiqu";"N/A";"N/A";"";"";"";"";"";"";"";"";"";"";"";"";"";"";"";"";"";"";"";""
"9199183912";"22.7473621";"108.4128079";"charging_station";"";"China";"Guangxi Zhuangzu Zizhiqu";"N/A";"N/A";"";"";"";"";"";"";"";"";"";"";"";"";"";"";"";"";"";"";"";""
"9257564382";"22.7638757";"108.4815654";"charging_station";"";"China";"Guangxi Zhuangzu Zizhiqu";"N/A";"N/A";"";"";"";"";"";"";"";"";"";"";"";"";"";"";"";"";"";"";"";""
"10991197551";"22.7632703";"108.3933341";"charging_station";"";"China";"Guangxi Zhuangzu Zizhiqu";"N/A";"N/A";"";"";"";"";"";"";"";"";"";"";"";"";"";"";"";"";"NIO Power";"";"";""
"11001322496";"22.8090445";"108.3336081";"charging_station";"";"China";"Guangxi Zhuangzu Zizhiqu";"N/A";"N/A";"";"6";"";"yes";"";"";"";"";"";"";"";"";"";"";"";"";"";"";"24/7";"yes"
"11152009641";"22.8652364";"108.3389277";"charging_station";"";"China";"Guangxi Zhuangzu Zizhiqu";"N/A";"N/A";"";"";"";"";"";"";"";"";"";"";"";"";"";"";"";"";"NIO Power";"";"";""
"11218310337";"22.7690535";"108.4295209";"charging_station";"";"China";"Guangxi Zhuangzu Zizhiqu";"N/A";"N/A";"";"18";"";"";"天天快充";"";"";"";"";"";"";"";"";"";"";"";"";"";"";"yes"
"11231240964";"22.7682674";"108.4200302";"charging_station";"";"China";"Guangxi Zhuangzu Zizhiqu";"N/A";"N/A";"";"";"";"";"";"";"";"";"";"";"";"";"";"";"";"";"";"";"";""
"12222467261";"22.7703271";"108.4363261";"charging_station";"";"China";"Guangxi Zhuangzu Zizhiqu";"N/A";"N/A";"";"";"";"";"中国石油";"";"";"";"";"";"";"";"";"";"";"";"中国石油";"";"";"yes"
"12388234630";"22.7523651";"108.385372";"charging_station";"";"China";"Guangxi Zhuangzu Zizhiqu";"N/A";"N/A";"";"";"";"";"";"";"";"";"";"";"";"";"";"";"";"";"";"";"";""
"12549050789";"22.7777037";"108.4398271";"charging_station";"";"China";"Guangxi Zhuangzu Zizhiqu";"N/A";"N/A";"";"";"";"";"";"";"";"";"";"";"";"";"";"";"";"";"快满鑫易胜龙华充电站";"";"";""
"12896426619";"22.7950534";"108.3659045";"charging_station";"";"China";"Guangxi Zhuangzu Zizhiqu";"N/A";"N/A";"";"";"";"";"";"";"";"";"";"";"";"";"";"";"";"";"";"";"";""
"1187633834";"";"";"charging_station";"N/A";"N/A";"N/A";"N/A";"N/A";"";"";"";"";"";"";"";"";"";"";"";"";"";"";"";"";"";"";"";""
"1212196155";"";"";"charging_station";"N/A";"N/A";"N/A";"N/A";"N/A";"";"";"";"";"";"";"";"";"";"";"";"";"";"";"";"";"南方电网";"";"";""
"11230729897";"22.802257";"108.4022902";"";"";"China";"Guangxi Zhuangzu Zizhiqu";"N/A";"N/A";"";"";"";"";"";"";"";"";"";"";"";"";"";"";"";"";"";"";"";""
"11230729898";"22.8022726";"108.4026415";"";"";"China";"Guangxi Zhuangzu Zizhiqu";"N/A";"N/A";"";"";"";"";"";"";"";"";"";"";"";"";"";"";"";"";"";"";"";""
"11230729899";"22.8019772";"108.4027093";"";"";"China";"Guangxi Zhuangzu Zizhiqu";"N/A";"N/A";"";"";"";"";"";"";"";"";"";"";"";"";"";"";"";"";"";"";"";""
"11230729900";"22.8019872";"108.4023164";"";"";"China";"Guangxi Zhuangzu Zizhiqu";"N/A";"N/A";"";"";"";"";"";"";"";"";"";"";"";"";"";"";"";"";"";"";"";""
"11027993648";"22.8240365";"108.419212";"";"";"China";"Guangxi Zhuangzu Zizhiqu";"N/A";"N/A";"";"";"";"";"";"";"";"";"";"";"";"";"";"";"";"";"";"";"";""
"11027993649";"22.8243723";"108.4202493";"";"";"China";"Guangxi Zhuangzu Zizhiqu";"N/A";"N/A";"";"";"";"";"";"";"";"";"";"";"";"";"";"";"";"";"";"";"";""
"11027993650";"22.8245541";"108.4203088";"";"";"China";"Guangxi Zhuangzu Zizhiqu";"N/A";"N/A";"";"";"";"";"";"";"";"";"";"";"";"";"";"";"";"";"";"";"";""
"11027993651";"22.8247117";"108.4202279";"";"";"China";"Guangxi Zhuangzu Zizhiqu";"N/A";"N/A";"";"";"";"";"";"";"";"";"";"";"";"";"";"";"";"";"";"";"";""
"11027993652";"22.8248438";"108.420127";"";"";"China";"Guangxi Zhuangzu Zizhiqu";"N/A";"N/A";"";"";"";"";"";"";"";"";"";"";"";"";"";"";"";"";"";"";"";""
"11027993653";"22.8249588";"108.4204975";"";"";"China";"Guangxi Zhuangzu Zizhiqu";"N/A";"N/A";"";"";"";"";"";"";"";"";"";"";"";"";"";"";"";"";"";"";"";""
"11027993654";"22.8243184";"108.4203805";"";"";"China";"Guangxi Zhuangzu Zizhiqu";"N/A";"N/A";"";"";"";"";"";"";"";"";"";"";"";"";"";"";"";"";"";"";"";""
"11027993655";"22.8242644";"108.4203419";"";"";"China";"Guangxi Zhuangzu Zizhiqu";"N/A";"N/A";"";"";"";"";"";"";"";"";"";"";"";"";"";"";"";"";"";"";"";""
"11027993656";"22.8242346";"108.4202256";"";"";"China";"Guangxi Zhuangzu Zizhiqu";"N/A";"N/A";"";"";"";"";"";"";"";"";"";"";"";"";"";"";"";"";"";"";"";""
"11027993657";"22.8240841";"108.4196926";"";"";"China";"Guangxi Zhuangzu Zizhiqu";"N/A";"N/A";"";"";"";"";"";"";"";"";"";"";"";"";"";"";"";"";"";"";"";""
"11027993658";"22.8239535";"108.4192482";"";"";"China";"Guangxi Zhuangzu Zizhiqu";"N/A";"N/A";"";"";"";"";"";"";"";"";"";"";"";"";"";"";"";"";"";"";"";""
"12323052388";"22.6575395";"110.1790048";"charging_station";"";"China";"Guangxi Zhuangzu Zizhiqu";"N/A";"N/A";"";"";"";"";"南方电网";"";"";"";"";"";"";"";"";"";"";"";"玉林市市场监督管理局停车场充电站";"";"";""
"1392262676";"";"";"charging_station";"N/A";"N/A";"N/A";"N/A";"N/A";"";"";"";"";"";"";"";"";"";"";"";"";"";"";"";"";"";"";"";""
"12888012724";"22.7977591";"111.5649857";"";"";"China";"Guangdong";"N/A";"N/A";"";"";"";"";"";"";"";"";"";"";"";"";"";"";"";"";"";"";"";""
"12888012725";"22.7976967";"111.5649197";"";"";"China";"Guangdong";"N/A";"N/A";"";"";"";"";"";"";"";"";"";"";"";"";"";"";"";"";"";"";"";""
"12888012726";"22.7975688";"111.5650753";"";"";"China";"Guangdong";"N/A";"N/A";"";"";"";"";"";"";"";"";"";"";"";"";"";"";"";"";"";"";"";""
"12888012727";"22.7976234";"111.5651346";"";"";"China";"Guangdong";"N/A";"N/A";"";"";"";"";"";"";"";"";"";"";"";"";"";"";"";"";"";"";"";""
"7174632015";"22.6987874";"112.2199565";"charging_station";"";"China";"Guangdong";"N/A";"N/A";"";"";"";"";"";"";"";"";"";"";"";"";"";"";"";"";"";"";"";""
"8437855382";"22.6937221";"112.2142696";"charging_station";"";"China";"Guangdong";"N/A";"N/A";"";"";"";"";"";"";"";"";"";"";"";"";"";"";"";"";"";"";"";""
"8463613877";"22.5939446";"112.2221615";"charging_station";"";"China";"Guangdong";"N/A";"N/A";"";"";"";"";"";"";"";"";"";"";"";"";"";"";"";"";"";"";"";""
"8664646961";"22.7016953";"112.1998657";"charging_station";"";"China";"Guangdong";"N/A";"N/A";"";"";"";"";"";"";"";"";"";"";"";"";"";"";"";"";"";"";"";""
"8700479298";"22.7143954";"112.1927798";"charging_station";"";"China";"Guangdong";"N/A";"N/A";"";"";"";"";"";"";"";"";"";"";"";"";"";"";"";"";"";"";"";""
"9979946804";"22.5621167";"112.2905651";"charging_station";"";"China";"Guangdong";"N/A";"N/A";"";"";"";"";"";"";"";"";"";"";"";"";"";"";"";"";"";"";"";""
"9351680472";"22.9492588";"112.6910683";"charging_station";"";"China";"Guangdong";"N/A";"N/A";"";"";"";"";"";"";"";"";"";"";"";"";"";"";"";"";"";"";"";""
"9351620778";"22.6967505";"113.0188701";"charging_station";"";"China";"Guangdong";"N/A";"N/A";"";"";"";"";"";"";"";"";"";"";"";"";"";"";"";"";"";"";"";""
"9351620779";"22.6988645";"113.0169104";"charging_station";"";"China";"Guangdong";"N/A";"N/A";"";"";"";"";"";"";"";"";"";"";"";"";"";"";"";"";"";"";"";""
"10815605205";"22.8024039";"113.3008999";"charging_station";"";"China";"Guangdong";"N/A";"N/A";"";"";"";"";"";"";"";"";"";"";"";"";"";"";"";"";"蔚来换电站";"";"";""
"11050964180";"22.599902";"113.1988227";"charging_station";"";"China";"Guangdong";"N/A";"N/A";"";"";"";"";"";"";"";"";"";"";"";"";"";"";"";"";"NIO Power";"";"";""
"11781708752";"22.5998015";"113.0907526";"charging_station";"";"China";"Guangdong";"N/A";"N/A";"";"";"";"";"";"";"";"";"";"";"";"";"";"";"";"";"";"";"";""
"11800679502";"22.570395";"113.0986449";"charging_station";"";"China";"Guangdong";"N/A";"N/A";"";"";"";"";"";"";"";"";"";"";"";"";"";"";"";"";"";"";"";""
"11800689124";"22.5892382";"113.1013169";"charging_station";"";"China";"Guangdong";"N/A";"N/A";"";"";"";"";"";"";"";"";"";"";"";"";"";"";"";"";"";"";"";""
"7486004259";"22.7007303";"113.8056197";"charging_station";"";"China";"Guangdong";"N/A";"N/A";"";"";"";"";"";"";"";"";"";"";"";"";"";"六巷7号";"";"";"";"";"";""
"7486050125";"22.7000782";"113.8061821";"charging_station";"";"China";"Guangdong";"N/A";"N/A";"";"";"";"";"";"";"";"";"";"";"";"";"";"二巷2号";"";"";"";"";"";""
"8595119501";"22.6489538";"113.5993396";"charging_station";"";"China";"Guangdong";"N/A";"N/A";"";"";"";"yes";"";"";"";"";"";"";"";"";"";"";"";"";"";"";"";""
"12251699160";"22.701687";"113.8053086";"charging_station";"";"China";"Guangdong";"N/A";"N/A";"";"";"";"";"";"";"";"";"";"";"";"";"";"";"";"";"";"";"";""
"12251699161";"22.7014377";"113.8043561";"charging_station";"";"China";"Guangdong";"N/A";"N/A";"";"";"";"";"";"";"";"";"";"";"";"";"";"";"";"";"";"";"";""
"12774691151";"22.9465624";"113.4037225";"charging_station";"";"China";"Guangdong";"N/A";"N/A";"";"6";"";"";"";"";"";"";"";"";"";"";"";"";"";"";"理想超充站 广州番禺傍雁路";"";"";""
"12774691152";"22.9393676";"113.4113806";"charging_station";"";"China";"Guangdong";"N/A";"N/A";"";"10";"";"";"";"";"";"";"";"";"";"";"";"";"";"";"福源充电站";"";"";""
"12774691153";"22.9386794";"113.4224077";"charging_station";"";"China";"Guangdong";"N/A";"N/A";"";"36";"";"";"";"";"";"";"";"";"";"";"";"";"";"";"禺快充石基站 c区";"";"";""
"12774691154";"22.9421313";"113.4402352";"charging_station";"";"China";"Guangdong";"N/A";"N/A";"";"24";"";"";"";"";"";"";"";"";"";"";"";"";"";"";"星星充电 中海达超充电站";"";"";""
"12777982601";"22.9414406";"113.368519";"charging_station";"";"China";"Guangdong";"N/A";"N/A";"";"10";"";"";"";"";"";"";"";"";"";"";"";"";"";"";"星星充电-德胜广场充电站";"";"";""
"12777982602";"22.94123";"113.3765097";"charging_station";"";"China";"Guangdong";"N/A";"N/A";"";"4";"";"";"";"";"";"";"";"";"";"";"";"";"";"";"星星充电-番禺大厦充电站";"";"";""
"1349691970";"";"";"charging_station";"N/A";"N/A";"N/A";"N/A";"N/A";"";"";"";"";"";"";"";"";"";"";"";"";"";"";"";"";"";"";"";""
"12485773206";"22.7371194";"113.7702631";"";"";"China";"Guangdong";"N/A";"N/A";"";"";"";"";"";"";"";"";"";"";"";"";"";"";"";"";"";"";"";""
"12485773207";"22.7371527";"113.7704779";"";"";"China";"Guangdong";"N/A";"N/A";"";"";"";"";"";"";"";"";"";"";"";"";"";"";"";"";"";"";"";""
"12485773220";"22.7364615";"113.7704943";"";"";"China";"Guangdong";"N/A";"N/A";"";"";"";"";"";"";"";"";"";"";"";"";"";"";"";"";"";"";"";""
"12485773221";"22.7364765";"113.7704254";"";"";"China";"Guangdong";"N/A";"N/A";"";"";"";"";"";"";"";"";"";"";"";"";"";"";"";"";"";"";"";""
"12485773222";"22.7365034";"113.7703635";"";"";"China";"Guangdong";"N/A";"N/A";"";"";"";"";"";"";"";"";"";"";"";"";"";"";"";"";"";"";"";""
"12485773223";"22.7365627";"113.7703168";"";"";"China";"Guangdong";"N/A";"N/A";"";"";"";"";"";"";"";"";"";"";"";"";"";"";"";"";"";"";"";""
"12485773224";"22.7366251";"113.770297";"";"";"China";"Guangdong";"N/A";"N/A";"";"";"";"";"";"";"";"";"";"";"";"";"";"";"";"";"";"";"";""
"12485773225";"22.7367166";"113.7702748";"";"";"China";"Guangdong";"N/A";"N/A";"";"";"";"";"";"";"";"";"";"";"";"";"";"";"";"";"";"";"";""
"12485773226";"22.7369158";"113.7702608";"";"";"China";"Guangdong";"N/A";"N/A";"";"";"";"";"";"";"";"";"";"";"";"";"";"";"";"";"";"";"";""
"12485773208";"22.7372033";"113.7706285";"";"";"China";"Guangdong";"N/A";"N/A";"";"";"";"";"";"";"";"";"";"";"";"";"";"";"";"";"";"";"";""
"12485773209";"22.7372486";"113.7706974";"";"";"China";"Guangdong";"N/A";"N/A";"";"";"";"";"";"";"";"";"";"";"";"";"";"";"";"";"";"";"";""
"12485773210";"22.7373089";"113.7707009";"";"";"China";"Guangdong";"N/A";"N/A";"";"";"";"";"";"";"";"";"";"";"";"";"";"";"";"";"";"";"";""
"12485773211";"22.7373799";"113.7707056";"";"";"China";"Guangdong";"N/A";"N/A";"";"";"";"";"";"";"";"";"";"";"";"";"";"";"";"";"";"";"";""
"12485773212";"22.7376061";"113.7706904";"";"";"China";"Guangdong";"N/A";"N/A";"";"";"";"";"";"";"";"";"";"";"";"";"";"";"";"";"";"";"";""
"12485773213";"22.7376136";"113.7707593";"";"";"China";"Guangdong";"N/A";"N/A";"";"";"";"";"";"";"";"";"";"";"";"";"";"";"";"";"";"";"";""
"12485773214";"22.7376599";"113.7707581";"";"";"China";"Guangdong";"N/A";"N/A";"";"";"";"";"";"";"";"";"";"";"";"";"";"";"";"";"";"";"";""
"12485773215";"22.7376717";"113.771015";"";"";"China";"Guangdong";"N/A";"N/A";"";"";"";"";"";"";"";"";"";"";"";"";"";"";"";"";"";"";"";""
"12485773216";"22.7367543";"113.7710944";"";"";"China";"Guangdong";"N/A";"N/A";"";"";"";"";"";"";"";"";"";"";"";"";"";"";"";"";"";"";"";""
"12485773217";"22.736539";"113.7711341";"";"";"China";"Guangdong";"N/A";"N/A";"";"";"";"";"";"";"";"";"";"";"";"";"";"";"";"";"";"";"";""
"12485773218";"22.7364776";"113.7706752";"";"";"China";"Guangdong";"N/A";"N/A";"";"";"";"";"";"";"";"";"";"";"";"";"";"";"";"";"";"";"";""
"12485773219";"22.736441";"113.7706659";"";"";"China";"Guangdong";"N/A";"N/A";"";"";"";"";"";"";"";"";"";"";"";"";"";"";"";"";"";"";"";""
"2957309739";"22.5285433";"113.9626296";"charging_station";"";"China";"Guangdong";"N/A";"N/A";"";"";"";"";"";"";"";"";"";"";"";"";"";"";"";"";"";"";"";""
"3070333381";"22.6218447";"114.0495169";"charging_station";"";"China";"Guangdong";"N/A";"N/A";"";"6";"";"yes";"Tesla";"Q478214";"";"";"";"";"";"";"";"";"";"";"Tesla Supercharger";"";"24/7";""
"4146795602";"22.5427189";"114.0234903";"charging_station";"Shenzhen";"China";"Guangdong";"N/A";"N/A";"";"";"";"";"Potevio";"";"";"";"";"";"";"";"";"";"";"";"";"";"";""
"4146795603";"22.564008";"114.0330746";"charging_station";"Shenzhen";"China";"Guangdong";"N/A";"N/A";"";"";"";"";"Potevio";"";"";"";"";"";"";"";"";"";"";"";"";"";"";""
"4327602190";"22.627394";"114.0517597";"charging_station";"";"China";"Guangdong";"N/A";"N/A";"";"";"";"";"";"";"";"";"";"";"";"";"";"";"";"";"";"";"";""
"5176676359";"22.5516904";"113.8735497";"charging_station";"";"China";"Guangdong";"N/A";"N/A";"";"";"";"";"";"";"";"";"";"";"";"";"";"";"";"";"";"";"";""
"5436760387";"22.5593668";"114.2337943";"charging_station";"";"China";"Guangdong";"N/A";"N/A";"";"";"";"";"";"";"";"";"";"";"";"";"";"";"";"";"";"";"";""
"5616290280";"22.5228751";"113.9448869";"charging_station";"";"China";"Guangdong";"N/A";"N/A";"";"";"";"yes";"";"";"";"";"";"";"";"";"";"";"";"";"";"";"24/7";"yes"
"7510706890";"22.5489793";"113.9952332";"charging_station";"";"China";"Guangdong";"N/A";"N/A";"";"";"";"yes";"";"";"";"";"";"";"";"";"";"";"";"";"";"";"";""
"7510706891";"22.5488224";"113.9952531";"charging_station";"";"China";"Guangdong";"N/A";"N/A";"";"";"";"yes";"";"";"";"";"";"";"";"";"";"";"";"";"";"";"";""
"7510706892";"22.5483359";"113.9952355";"charging_station";"";"China";"Guangdong";"N/A";"N/A";"";"";"";"yes";"";"";"";"";"";"";"";"";"";"";"";"";"";"";"";""
"7510706893";"22.5484809";"113.9952883";"charging_station";"";"China";"Guangdong";"N/A";"N/A";"";"";"";"yes";"";"";"";"";"";"";"";"";"";"";"";"";"";"";"";""
"7510706894";"22.5486336";"113.9953197";"charging_station";"";"China";"Guangdong";"N/A";"N/A";"";"";"";"yes";"";"";"";"";"";"";"";"";"";"";"";"";"";"";"";""
"7510706895";"22.5485756";"113.9945404";"charging_station";"";"China";"Guangdong";"N/A";"N/A";"";"";"";"yes";"";"";"";"";"";"";"";"";"";"";"";"";"";"";"";""
"7510706896";"22.5487107";"113.9946215";"charging_station";"";"China";"Guangdong";"N/A";"N/A";"";"";"";"yes";"";"";"";"";"";"";"";"";"";"";"";"";"";"";"";""
"7510706897";"22.5488408";"113.9947195";"charging_station";"";"China";"Guangdong";"N/A";"N/A";"";"";"";"yes";"";"";"";"";"";"";"";"";"";"";"";"";"";"";"";""
"7510706898";"22.5489723";"113.9948144";"charging_station";"";"China";"Guangdong";"N/A";"N/A";"";"";"";"yes";"";"";"";"";"";"";"";"";"";"";"";"";"";"";"";""
"9419666733";"22.6151681";"114.033771";"charging_station";"";"China";"Guangdong";"N/A";"N/A";"";"10";"";"";"";"";"";"";"";"";"";"";"";"";"";"";"";"100min/1cny";"";"yes"
"9419666734";"22.6149082";"114.0349914";"charging_station";"";"China";"Guangdong";"N/A";"N/A";"";"10";"";"";"";"";"";"";"";"";"";"";"";"";"";"";"";"100min/1cny";"";"yes"
"9419709303";"22.621874";"114.0663713";"charging_station";"";"China";"Guangdong";"N/A";"N/A";"";"";"";"";"";"";"";"";"";"";"";"";"";"";"";"";"";"";"";""
"9419709304";"22.6369908";"114.0502432";"charging_station";"";"China";"Guangdong";"N/A";"N/A";"";"50";"";"";"";"";"";"";"";"";"";"";"";"";"";"";"";"100min/1cny";"";"yes"
"10779807184";"22.7449705";"114.1618424";"charging_station";"";"China";"Guangdong";"N/A";"N/A";"";"";"";"";"";"";"";"";"";"";"";"";"";"";"";"";"";"";"";""
"10779807185";"22.7449601";"114.161897";"charging_station";"";"China";"Guangdong";"N/A";"N/A";"";"";"";"";"";"";"";"";"";"";"";"";"";"";"";"";"";"";"";""
"10779807186";"22.7449392";"114.1619535";"charging_station";"";"China";"Guangdong";"N/A";"N/A";"";"";"";"";"";"";"";"";"";"";"";"";"";"";"";"";"";"";"";""
"11599009347";"22.6258258";"114.018503";"charging_station";"";"China";"Guangdong";"N/A";"N/A";"";"1";"";"";"";"";"";"";"";"";"";"";"";"";"";"";"NIO Power";"";"";""
"11599009348";"22.6096792";"114.0171832";"charging_station";"";"China";"Guangdong";"N/A";"N/A";"";"";"";"";"";"";"";"";"";"";"";"";"";"";"";"";"NIO Power";"";"";""
"11672526705";"22.5475764";"114.1323417";"charging_station";"";"China";"Guangdong";"N/A";"N/A";"";"";"";"";"";"";"";"";"";"";"";"";"";"";"";"";"";"";"";""
"11676016521";"22.5511925";"114.0931277";"charging_station";"Shenzhen";"China";"Guangdong";"N/A";"N/A";"";"";"";"";"";"";"";"";"";"";"";"";"";"";"";"";"";"";"";""
"11847993004";"22.7793457";"114.1103378";"charging_station";"";"China";"Guangdong";"N/A";"N/A";"";"";"";"";"";"";"";"";"";"";"";"";"";"";"";"";"美华智充汽车";"";"";""
"11991836095";"22.5562967";"113.9784044";"charging_station";"";"China";"Guangdong";"N/A";"N/A";"";"";"";"";"";"";"";"";"";"";"";"";"";"";"";"";"特斯拉";"";"";""
"11991836096";"22.5560723";"113.9786557";"charging_station";"";"China";"Guangdong";"N/A";"N/A";"";"";"";"";"";"";"";"";"";"";"";"";"";"";"";"";"开迈斯";"";"";""
"12190068801";"22.6058777";"113.9956508";"charging_station";"";"China";"Guangdong";"N/A";"N/A";"";"";"";"";"";"";"";"";"";"";"";"";"";"";"";"";"";"";"24/7";""
"12350722555";"22.9077941";"114.0522111";"charging_station";"";"China";"Guangdong";"N/A";"N/A";"";"";"";"";"";"";"";"";"";"";"";"";"";"";"";"";"";"";"";""
"12350722556";"22.9077641";"114.0521918";"charging_station";"";"China";"Guangdong";"N/A";"N/A";"";"";"";"";"";"";"";"";"";"";"";"";"";"";"";"";"";"";"";""
"12350722557";"22.9076699";"114.0521227";"charging_station";"";"China";"Guangdong";"N/A";"N/A";"";"";"";"";"";"";"";"";"";"";"";"";"";"";"";"";"";"";"";""
"12350722558";"22.9077051";"114.0521477";"charging_station";"";"China";"Guangdong";"N/A";"N/A";"";"";"";"";"";"";"";"";"";"";"";"";"";"";"";"";"";"";"";""
"12350722559";"22.9077347";"114.0521706";"charging_station";"";"China";"Guangdong";"N/A";"N/A";"";"";"";"";"";"";"";"";"";"";"";"";"";"";"";"";"";"";"";""
"12350722560";"22.9078226";"114.0522315";"charging_station";"";"China";"Guangdong";"N/A";"N/A";"";"";"";"";"";"";"";"";"";"";"";"";"";"";"";"";"";"";"";""
"12451293542";"22.5484968";"114.1309344";"charging_station";"";"China";"Guangdong";"N/A";"N/A";"";"";"";"";"";"";"";"";"";"";"";"";"";"";"";"";"";"";"";""
"12500404432";"22.52261";"113.944795";"charging_station";"";"China";"Guangdong";"N/A";"N/A";"";"";"";"";"";"";"";"";"";"";"";"";"";"";"";"";"NIO Power";"";"";""
"12726113809";"22.8819402";"114.028195";"charging_station";"";"China";"Guangdong";"N/A";"N/A";"";"";"";"";"";"";"";"";"";"";"";"";"";"";"";"";"南方电网";"";"";""
"12759266556";"22.7834236";"113.9459472";"charging_station";"";"China";"Guangdong";"N/A";"N/A";"";"";"";"";"";"";"";"";"";"";"";"";"";"";"";"";"小桔充电站";"";"";""
"952594873";"";"";"charging_station";"N/A";"N/A";"N/A";"N/A";"N/A";"";"";"";"";"";"";"";"";"";"";"";"";"";"";"";"";"";"";"";""
"1133115868";"";"";"charging_station";"N/A";"N/A";"N/A";"N/A";"N/A";"";"";"";"";"";"";"";"";"";"";"";"";"";"";"";"";"";"";"";"yes"
"1290954016";"";"";"charging_station";"N/A";"N/A";"N/A";"N/A";"N/A";"";"";"";"";"";"";"";"";"";"";"";"";"";"";"";"";"";"";"";""
"1349467473";"";"";"charging_station";"N/A";"N/A";"N/A";"N/A";"N/A";"";"";"";"";"恒誉";"";"";"";"";"";"";"";"";"";"";"";"恒誉";"";"";""
"11969145426";"22.504613";"114.0511806";"";"Shenzhen";"China";"Guangdong";"N/A";"N/A";"";"";"";"";"";"";"";"";"";"";"";"";"";"";"";"";"";"";"";""
"11969145427";"22.5046332";"114.0513338";"";"Shenzhen";"China";"Guangdong";"N/A";"N/A";"";"";"";"";"";"";"";"";"";"";"";"";"";"";"";"";"";"";"";""
"11969145428";"22.5042602";"114.0514125";"";"Shenzhen";"China";"Guangdong";"N/A";"N/A";"";"";"";"";"";"";"";"";"";"";"";"";"";"";"";"";"";"";"";""
"11969145429";"22.5042308";"114.0512407";"";"Shenzhen";"China";"Guangdong";"N/A";"N/A";"";"";"";"";"";"";"";"";"";"";"";"";"";"";"";"";"";"";"";""
"12483600477";"22.5787799";"113.9114409";"";"";"China";"Guangdong";"N/A";"N/A";"";"";"";"";"";"";"";"";"";"";"";"";"";"";"";"";"";"";"";""
"12483600478";"22.5777717";"113.9124475";"";"";"China";"Guangdong";"N/A";"N/A";"";"";"";"";"";"";"";"";"";"";"";"";"";"";"";"";"";"";"";""
"12483600479";"22.5781896";"113.9129383";"";"";"China";"Guangdong";"N/A";"N/A";"";"";"";"";"";"";"";"";"";"";"";"";"";"";"";"";"";"";"";""
"12483600480";"22.5791976";"113.9119315";"";"";"China";"Guangdong";"N/A";"N/A";"";"";"";"";"";"";"";"";"";"";"";"";"";"";"";"";"";"";"";""
"12483600482";"22.5783284";"113.9118917";"";"";"China";"Guangdong";"N/A";"N/A";"";"";"";"";"";"";"";"";"";"";"";"";"";"";"";"";"";"";"";""
"10564843782";"22.6645665";"113.9945342";"";"";"China";"Guangdong";"N/A";"N/A";"";"";"";"";"";"";"";"";"";"";"";"";"";"";"";"";"";"";"";""
"10564843783";"22.664218";"113.9941453";"";"";"China";"Guangdong";"N/A";"N/A";"";"";"";"";"";"";"";"";"";"";"";"";"";"";"";"";"";"";"";""
"10564843787";"22.6640116";"113.9945087";"";"";"China";"Guangdong";"N/A";"N/A";"";"";"";"";"";"";"";"";"";"";"";"";"";"";"";"";"";"";"";""
"10564843788";"22.6639929";"113.9946702";"";"";"China";"Guangdong";"N/A";"N/A";"";"";"";"";"";"";"";"";"";"";"";"";"";"";"";"";"";"";"";""
"10564843789";"22.6639791";"113.9948393";"";"";"China";"Guangdong";"N/A";"N/A";"";"";"";"";"";"";"";"";"";"";"";"";"";"";"";"";"";"";"";""
"10564843790";"22.6639576";"113.995005";"";"";"China";"Guangdong";"N/A";"N/A";"";"";"";"";"";"";"";"";"";"";"";"";"";"";"";"";"";"";"";""
"10564843791";"22.6639424";"113.9951471";"";"";"China";"Guangdong";"N/A";"N/A";"";"";"";"";"";"";"";"";"";"";"";"";"";"";"";"";"";"";"";""
"10759414265";"22.6639609";"113.9952422";"";"";"China";"Guangdong";"N/A";"N/A";"";"";"";"";"";"";"";"";"";"";"";"";"";"";"";"";"";"";"";""
"10759414266";"22.6640671";"113.9943111";"";"";"China";"Guangdong";"N/A";"N/A";"";"";"";"";"";"";"";"";"";"";"";"";"";"";"";"";"";"";"";""
"10759414267";"22.6641236";"113.9942095";"";"";"China";"Guangdong";"N/A";"N/A";"";"";"";"";"";"";"";"";"";"";"";"";"";"";"";"";"";"";"";""
"10759414268";"22.6641676";"113.9941511";"";"";"China";"Guangdong";"N/A";"N/A";"";"";"";"";"";"";"";"";"";"";"";"";"";"";"";"";"";"";"";""
"10815824871";"22.6639409";"113.9952233";"";"";"China";"Guangdong";"N/A";"N/A";"";"";"";"";"";"";"";"";"";"";"";"";"";"";"";"";"";"";"";""
"11229974700";"22.6644747";"113.9946567";"";"";"China";"Guangdong";"N/A";"N/A";"";"";"";"";"";"";"";"";"";"";"";"";"";"";"";"";"";"";"";""
"8816895890";"22.6157235";"114.1568538";"";"";"China";"Guangdong";"N/A";"N/A";"";"";"";"";"";"";"";"";"";"";"";"";"";"";"";"";"";"";"";""
"8816895891";"22.6152544";"114.157175";"";"";"China";"Guangdong";"N/A";"N/A";"";"";"";"";"";"";"";"";"";"";"";"";"";"";"";"";"";"";"";""
"8816895892";"22.6155809";"114.1579027";"";"";"China";"Guangdong";"N/A";"N/A";"";"";"";"";"";"";"";"";"";"";"";"";"";"";"";"";"";"";"";""
"8816895893";"22.6160801";"114.157549";"";"";"China";"Guangdong";"N/A";"N/A";"";"";"";"";"";"";"";"";"";"";"";"";"";"";"";"";"";"";"";""
"9927423413";"22.748854";"114.4862537";"charging_station";"";"China";"Guangdong";"N/A";"N/A";"";"23";"";"";"";"";"";"";"";"";"";"";"";"";"";"";"";"";"";""
"9927423414";"22.7512236";"114.4874972";"charging_station";"";"China";"Guangdong";"N/A";"N/A";"";"6";"";"";"";"";"";"";"";"";"";"";"";"";"";"";"";"";"";""
"9991109477";"22.7894269";"114.4899902";"charging_station";"";"China";"Guangdong";"N/A";"N/A";"";"";"";"";"";"";"";"";"";"";"";"";"";"";"";"";"";"";"";""
"11520852672";"22.5320582";"114.5241676";"charging_station";"";"China";"Guangdong";"N/A";"N/A";"";"";"";"";"";"";"";"";"";"";"";"";"";"";"";"";"";"";"";""
"1272968985";"";"";"charging_station";"N/A";"N/A";"N/A";"N/A";"N/A";"";"8";"";"";"小藍";"";"";"";"";"";"";"";"";"";"";"";"";"";"";""
"11821221106";"22.8145344";"114.5205633";"";"";"China";"Guangdong";"N/A";"N/A";"";"";"";"";"";"";"";"";"";"";"";"";"";"";"";"";"";"";"";""
"11821221107";"22.8145408";"114.5206908";"";"";"China";"Guangdong";"N/A";"N/A";"";"";"";"";"";"";"";"";"";"";"";"";"";"";"";"";"";"";"";""
"11821221108";"22.8142864";"114.5207505";"";"";"China";"Guangdong";"N/A";"N/A";"";"";"";"";"";"";"";"";"";"";"";"";"";"";"";"";"";"";"";""
"11821221109";"22.8142563";"114.5206388";"";"";"China";"Guangdong";"N/A";"N/A";"";"";"";"";"";"";"";"";"";"";"";"";"";"";"";"";"";"";"";""
"11821221110";"22.8143185";"114.5205673";"";"";"China";"Guangdong";"N/A";"N/A";"";"";"";"";"";"";"";"";"";"";"";"";"";"";"";"";"";"";"";""
"12784213793";"22.8144779";"114.5206926";"";"";"China";"Guangdong";"N/A";"N/A";"";"";"";"";"";"";"";"";"";"";"";"";"";"";"";"";"";"";"";""
"12784213794";"22.8143511";"114.5207288";"";"";"China";"Guangdong";"N/A";"N/A";"";"";"";"";"";"";"";"";"";"";"";"";"";"";"";"";"";"";"";""
"11207743658";"22.8189401";"114.9275186";"charging_station";"";"China";"Guangdong";"N/A";"N/A";"";"";"";"";"";"";"";"";"";"";"";"";"";"";"";"";"";"";"";""
"10708679892";"22.8836698";"120.2477926";"charging_station";"Tainan";"Taiwan";"Taiwan";"N/A";"N/A";"";"";"";"";"Gogoro 電池交換站";"Q19880591";"";"";"";"";"";"";"";"";"";"";"Gogoro 電池交換站";"";"";""
"10708689159";"22.8836236";"120.2478533";"charging_station";"Tainan";"Taiwan";"Taiwan";"N/A";"N/A";"";"";"";"";"Gogoro 電池交換站";"Q19880591";"";"";"";"";"";"";"";"";"";"";"Gogoro 電池交換站";"";"";""
"11928231180";"22.5977629";"120.3077186";"charging_station";"";"Taiwan";"Kaohsiung";"N/A";"N/A";"";"";"";"";"Gogoro 電池交換站";"Q19880591";"";"";"";"";"";"";"";"";"";"";"Gogoro 電池交換站";"";"";""
"12373004228";"22.6234395";"120.294183";"charging_station";"";"Taiwan";"Kaohsiung";"N/A";"N/A";"";"";"";"";"光陽機車";"";"";"";"";"";"";"";"";"";"";"";"Ionex光陽電動車";"";"";""
"12854631905";"22.6241255";"120.2694972";"charging_station";"";"Taiwan";"Kaohsiung";"N/A";"N/A";"";"";"";"";"";"";"";"";"";"";"";"";"";"";"";"";"";"";"";""
"5659688025";"22.5951699";"120.6082927";"charging_station";"Pingtung";"Taiwan";"Taiwan";"N/A";"N/A";"";"";"";"";"萬金停車場";"";"";"";"";"";"";"";"";"";"";"";"";"";"";""
"6297010606";"22.6592239";"120.5584246";"charging_station";"Pingtung";"Taiwan";"Taiwan";"N/A";"N/A";"";"";"";"";"";"";"";"";"";"";"";"";"";"";"";"";"";"";"";"no"
"7362267903";"22.6129544";"121.0068252";"charging_station";"";"Taiwan";"Taiwan";"N/A";"N/A";"";"";"";"";"Gogoro 電池交換站";"Q19880591";"";"";"";"";"";"";"";"157";"太麻里街";"";"Gogoro 電池交換站";"";"";""
"7362267905";"22.7420968";"121.1379499";"charging_station";"";"Taiwan";"Taiwan";"N/A";"N/A";"";"";"";"";"Gogoro 電池交換站";"Q19880591";"";"";"";"";"";"";"";"89";"漢陽南路";"";"Gogoro 電池交換站";"";"";""
"7362267907";"22.7552258";"121.144778";"charging_station";"";"Taiwan";"Taiwan";"N/A";"N/A";"";"";"";"";"Gogoro 電池交換站";"Q19880591";"";"";"";"";"";"";"";"191之1";"新生路";"";"Gogoro 電池交換站";"";"";""
"7362267908";"22.8529643";"121.0922716";"charging_station";"Taitung";"Taiwan";"Taiwan";"N/A";"N/A";"";"";"";"";"英屬開曼群島商睿能新動力股份有限公司台灣分公司";"";"";"";"";"";"";"";"";"32";"忠孝路";"";"Gogoro Network";"";"";""
"4377408110";"22.9980293";"-105.8550313";"charging_station";"Rosario";"Mexico";"Sinaloa";"N/A";"N/A";"";"";"";"";"";"";"";"";"";"";"";"";"";"";"";"";"";"";"";""
