"id";"lat";"lon";"amenity";"city";"state";"country";"scraped_country_code";"scraped_country_name";"authentication:nfc";"capacity";"capacity:car";"motorcar";"operator";"operator:wikidata";"socket:schuko";"socket:schuko:current";"socket:schuko:voltage";"socket:type2";"socket:type2:current";"socket:type2:voltage";"ref";"addr:housenumber";"addr:street";"addr:postcode";"brand";"charge";"opening_hours";"fee"
"6802736326";"-34.7359962";"-71.0400268";"charging_station";"Provincia de Colchagua";"Chile";"O'Higgins";"N/A";"N/A";"";"2";"";"";"Copec";"";"";"";"";"";"";"";"";"";"";"";"";"";"24/7";""
"6802755078";"-34.5074585";"-70.9225385";"charging_station";"Provincia de Cachapoal";"Chile";"O'Higgins";"N/A";"N/A";"";"2";"";"";"Copec";"";"";"";"";"";"";"";"";"";"";"";"";"";"24/7";""
"12884411731";"-34.770475";"-71.0431158";"charging_station";"Provincia de Colchagua";"Chile";"O'Higgins";"N/A";"N/A";"";"2";"";"";"Enel X";"Q5376815";"";"";"";"";"";"";"";"";"";"";"Enel X";"";"";""
"4742788021";"-34.8060571";"-64.3708086";"charging_station";"";"Argentina";"Cordoba";"N/A";"N/A";"";"";"";"";"ypf";"";"";"";"";"";"";"";"";"";"";"";"";"";"";""
"5494390122";"-34.5568586";"-58.8512581";"charging_station";"Partido de General Rodriguez";"Argentina";"Buenos Aires";"N/A";"N/A";"";"";"";"";"Wall-Mart";"";"";"";"";"";"";"";"";"";"";"";"";"";"";""
"4571251290";"-34.6364052";"-58.6805459";"charging_station";"";"Argentina";"Buenos Aires";"N/A";"N/A";"";"";"";"";"La Colonial";"";"";"";"";"";"";"";"";"";"";"";"";"";"";""
"5015324983";"-34.5744202";"-58.4214796";"charging_station";"";"Argentina";"Buenos Aires F.D.";"N/A";"N/A";"";"";"";"";"ACA Palermo";"";"";"";"";"";"";"";"";"";"";"";"";"";"";""
"9221498905";"-34.6853121";"-58.3042712";"charging_station";"Partido de Quilmes";"Argentina";"Buenos Aires";"N/A";"N/A";"";"";"";"";"YPF OPESSA AUBASA SUR";"";"";"";"";"";"";"";"";"";"";"";"";"";"";"yes"
"9221537974";"-34.6853277";"-58.3041998";"charging_station";"Partido de Quilmes";"Argentina";"Buenos Aires";"N/A";"N/A";"";"";"";"";"YPF";"";"";"";"";"";"";"";"";"";"";"";"";"";"";"yes"
"9221537975";"-34.6845804";"-58.3046039";"charging_station";"Partido de Quilmes";"Argentina";"Buenos Aires";"N/A";"N/A";"";"";"";"";"YPF";"";"";"";"";"";"";"";"";"";"";"";"";"";"";"yes"
"9221537976";"-34.6845916";"-58.3045395";"charging_station";"Partido de Quilmes";"Argentina";"Buenos Aires";"N/A";"N/A";"";"";"";"";"YPF";"";"";"";"";"";"";"";"";"";"";"";"";"";"";"yes"
"9221640745";"-34.5784738";"-58.4063504";"charging_station";"";"Argentina";"Buenos Aires F.D.";"N/A";"N/A";"";"1";"";"";"Axion";"";"";"";"";"";"";"";"";"";"";"";"";"";"";""
"9995929735";"-34.812203";"-58.5405224";"charging_station";"Partido de Ezeiza";"Argentina";"Buenos Aires";"N/A";"N/A";"";"";"";"";"";"";"";"";"";"";"";"";"";"";"";"";"";"";"";""
"9995929736";"-34.8122273";"-58.5405192";"charging_station";"Partido de Ezeiza";"Argentina";"Buenos Aires";"N/A";"N/A";"";"";"";"";"";"";"";"";"";"";"";"";"";"";"";"";"";"";"";""
"11808842870";"-34.5804497";"-58.3982985";"charging_station";"";"Argentina";"Buenos Aires F.D.";"N/A";"N/A";"";"2";"";"yes";"Audi";"";"";"";"";"";"";"";"";"";"";"";"";"";"24/7";"yes"
"11867592947";"-34.5865703";"-58.5193317";"charging_station";"Partido de General San Martin";"Argentina";"Buenos Aires";"N/A";"N/A";"";"";"";"";"";"";"";"";"";"2";"";"";"";"";"";"";"ChargeboxNet";"";"";""
"12249199370";"-34.5735087";"-58.5064612";"charging_station";"Partido de General San Martin";"Argentina";"Buenos Aires";"N/A";"N/A";"";"2";"";"";"Shell Recharge Solutions";"Q105883058";"";"";"";"";"";"";"";"";"";"";"";"";"";""
"12387173876";"-34.6810812";"-58.4506068";"charging_station";"";"Argentina";"Buenos Aires F.D.";"N/A";"N/A";"";"2";"";"";"";"";"";"";"";"";"";"";"";"";"";"";"";"";"";""
"12674278400";"-34.551355";"-58.4376466";"charging_station";"";"Argentina";"Buenos Aires F.D.";"N/A";"N/A";"";"";"";"";"";"";"";"";"";"";"";"";"";"";"";"";"YPF";"";"";""
"12709235025";"-34.6223226";"-58.4028241";"charging_station";"";"Argentina";"Buenos Aires F.D.";"N/A";"N/A";"";"";"";"yes";"Electro Universo";"";"";"";"";"";"";"";"";"";"";"";"";"";"";""
"9221579754";"-34.9170875";"-57.9510896";"charging_station";"Partido de La Plata";"Argentina";"Buenos Aires";"N/A";"N/A";"";"";"";"";"";"";"";"";"";"";"";"";"";"";"";"";"";"";"";""
"5993656481";"-34.5590781";"-56.7448552";"charging_station";"";"Uruguay";"San Jose";"N/A";"N/A";"";"1";"";"";"UTE";"";"";"";"";"";"";"";"";"";"";"";"";"";"";""
"5993435965";"-34.8448807";"-56.0200731";"charging_station";"";"Uruguay";"Canelones";"N/A";"N/A";"";"1";"";"";"UTE";"";"";"";"";"";"";"";"";"";"Ruta 101 km 19";"";"";"";"";""
"5993456591";"-34.8961764";"-56.1404073";"charging_station";"";"Uruguay";"Montevideo";"N/A";"N/A";"";"2";"";"";"UTE";"";"";"";"";"";"";"";"";"3463";"José Leguizamón";"";"";"";"";""
"5993811519";"-34.8851983";"-56.1953647";"charging_station";"";"Uruguay";"Montevideo";"N/A";"N/A";"";"1";"";"";"UTE";"";"";"";"";"";"";"";"";"";"General Fausto Aguilar";"";"";"";"";""
"11090569589";"-34.9146473";"-56.1854513";"charging_station";"";"Uruguay";"Montevideo";"N/A";"N/A";"";"1";"";"yes";"";"";"";"";"";"";"";"";"";"";"";"";"";"";"24/7";"yes"
"11090569590";"-34.9146516";"-56.1855217";"charging_station";"";"Uruguay";"Montevideo";"N/A";"N/A";"";"1";"";"yes";"";"";"";"";"";"";"";"";"";"";"";"";"";"";"24/7";"yes"
"11090569591";"-34.9146559";"-56.1855921";"charging_station";"";"Uruguay";"Montevideo";"N/A";"N/A";"";"1";"";"yes";"";"";"";"";"";"";"";"";"";"";"";"";"";"";"24/7";"yes"
"11090569592";"-34.9146602";"-56.1856625";"charging_station";"";"Uruguay";"Montevideo";"N/A";"N/A";"";"1";"";"yes";"";"";"";"";"";"";"";"";"";"";"";"";"";"";"24/7";"yes"
"11296502607";"-34.9128143";"-56.1696685";"charging_station";"";"Uruguay";"Montevideo";"N/A";"N/A";"";"1";"";"yes";"UTE";"";"";"";"";"";"";"";"";"";"";"";"";"";"24/7";"yes"
"11296502608";"-34.9128273";"-56.169685";"charging_station";"";"Uruguay";"Montevideo";"N/A";"N/A";"";"1";"";"yes";"UTE";"";"";"";"";"";"";"";"";"";"";"";"";"";"24/7";"yes"
"11296502609";"-34.9128403";"-56.1697015";"charging_station";"";"Uruguay";"Montevideo";"N/A";"N/A";"";"1";"";"yes";"UTE";"";"";"";"";"";"";"";"";"";"";"";"";"";"24/7";"yes"
"11296502610";"-34.9128534";"-56.169718";"charging_station";"";"Uruguay";"Montevideo";"N/A";"N/A";"";"1";"";"yes";"UTE";"";"";"";"";"";"";"";"";"";"";"";"";"";"24/7";"yes"
"11296502612";"-34.9063853";"-56.1854922";"charging_station";"";"Uruguay";"Montevideo";"N/A";"N/A";"";"1";"";"yes";"UTE";"";"";"";"";"";"";"";"";"";"";"";"";"";"24/7";"yes"
"11296502613";"-34.9063274";"-56.1854986";"charging_station";"";"Uruguay";"Montevideo";"N/A";"N/A";"";"1";"";"yes";"UTE";"";"";"";"";"";"";"";"";"";"";"";"";"";"24/7";"yes"
"11296502614";"-34.9062115";"-56.1855114";"charging_station";"";"Uruguay";"Montevideo";"N/A";"N/A";"";"1";"";"yes";"UTE";"";"";"";"";"";"";"";"";"";"";"";"";"";"24/7";"yes"
"11296502615";"-34.9062694";"-56.185505";"charging_station";"";"Uruguay";"Montevideo";"N/A";"N/A";"";"1";"";"yes";"UTE";"";"";"";"";"";"";"";"";"";"";"";"";"";"24/7";"yes"
"11296502616";"-34.9061536";"-56.1855178";"charging_station";"";"Uruguay";"Montevideo";"N/A";"N/A";"";"1";"";"yes";"UTE";"";"";"";"";"";"";"";"";"";"";"";"";"";"24/7";"yes"
"11296502617";"-34.9060957";"-56.1855242";"charging_station";"";"Uruguay";"Montevideo";"N/A";"N/A";"";"1";"";"yes";"UTE";"";"";"";"";"";"";"";"";"";"";"";"";"";"24/7";"yes"
"5993426377";"-34.7702022";"-55.5762156";"charging_station";"";"Uruguay";"Canelones";"N/A";"N/A";"";"1";"";"";"UTE";"";"";"";"";"";"";"";"";"";"Ruta Interbalnearia General Líber Seregni";"";"";"";"";""
"5993352114";"-34.9332525";"-54.9418481";"charging_station";"";"Uruguay";"Maldonado";"N/A";"N/A";"";"1";"";"";"UTE";"";"";"";"";"";"";"";"";"";"";"";"";"";"";""
"5993361151";"-34.9674762";"-54.9518508";"charging_station";"";"Uruguay";"Maldonado";"N/A";"N/A";"";"1";"";"";"UTE";"";"";"";"";"";"";"";"";"";"";"";"";"";"";""
"5993389637";"-34.4963435";"-54.3273222";"charging_station";"";"Uruguay";"Rocha";"N/A";"N/A";"";"1";"";"";"UTE";"";"";"";"";"";"";"";"";"";"Ruta 9 Coronel Leonardo Olivera";"27000";"";"";"";""
"12608965812";"-34.428298";"-72.0403122";"charging_station";"Provincia de Colchagua";"Chile";"O'Higgins";"N/A";"N/A";"";"2";"";"";"Enel X";"Q5376815";"";"";"";"";"";"";"";"";"";"";"Enel X";"";"";""
"12803403478";"-34.2659731";"-70.8103709";"charging_station";"Provincia de Cachapoal";"Chile";"O'Higgins";"N/A";"N/A";"";"3";"";"";"Enel X";"Q5376815";"";"";"";"";"";"";"";"";"";"";"Enel X";"";"";"no"
"6802719162";"-34.0160987";"-70.7029833";"charging_station";"Provincia de Cachapoal";"Chile";"O'Higgins";"N/A";"N/A";"";"2";"";"";"Copec";"";"";"";"";"";"";"";"";"";"";"";"";"";"24/7";""
"6802766860";"-34.0122212";"-70.7037572";"charging_station";"Provincia de Cachapoal";"Chile";"O'Higgins";"N/A";"N/A";"";"2";"";"";"Copec";"";"";"";"";"";"";"";"";"";"";"";"";"";"24/7";""
"7786298372";"-34.168846";"-70.7256907";"charging_station";"Provincia de Cachapoal";"Chile";"O'Higgins";"N/A";"N/A";"";"3";"";"";"CGE";"";"";"";"";"";"";"";"";"";"";"";"";"";"";"yes"
"12627315266";"-34.185916";"-70.7573482";"charging_station";"Provincia de Cachapoal";"Chile";"O'Higgins";"N/A";"N/A";"";"3";"";"";"Enel X";"Q5376815";"";"";"";"";"";"";"";"";"";"";"Enel X";"";"";""
"12658495226";"-34.1763384";"-70.7047654";"charging_station";"Provincia de Cachapoal";"Chile";"O'Higgins";"N/A";"N/A";"";"4";"";"";"Enel X";"Q5376815";"";"";"";"";"";"";"";"";"";"";"Enel X";"";"";""
"12803507621";"-34.1566435";"-70.7295139";"charging_station";"Provincia de Cachapoal";"Chile";"O'Higgins";"N/A";"N/A";"";"2";"";"";"";"";"";"";"";"";"";"";"";"";"";"";"";"";"";""
"12803507625";"-34.1725512";"-70.7216078";"charging_station";"Provincia de Cachapoal";"Chile";"O'Higgins";"N/A";"N/A";"";"3";"";"";"Enel X";"Q5376815";"";"";"";"";"";"";"";"";"";"";"Enel X";"";"";""
"9221573763";"-34.4755812";"-58.4997824";"charging_station";"Partido de San Isidro";"Argentina";"Buenos Aires";"N/A";"N/A";"";"";"";"";"";"";"";"";"";"";"";"";"";"";"";"";"";"";"";""
"12247524907";"-34.4295773";"-58.6819254";"charging_station";"";"Argentina";"Buenos Aires";"N/A";"N/A";"";"2";"";"";"";"";"";"";"";"";"";"";"";"";"";"";"Scame";"";"";""
"12583082441";"-34.3992879";"-58.6466228";"charging_station";"";"Argentina";"Buenos Aires";"N/A";"N/A";"";"";"";"yes";"";"";"";"";"";"2";"";"";"";"";"";"";"";"";"";""
"5993689288";"-34.4717493";"-57.8418434";"charging_station";"";"Uruguay";"Colonia";"N/A";"N/A";"";"1";"";"";"UTE";"";"";"";"";"";"";"";"";"";"";"";"";"";"";""
"5993680014";"-34.3225732";"-57.3499464";"charging_station";"";"Uruguay";"Colonia";"N/A";"N/A";"";"1";"";"";"UTE";"";"";"";"";"";"";"";"";"";"";"";"";"";"";""
"7560665898";"-34.0020321";"-53.5520893";"charging_station";"";"Uruguay";"Rocha";"N/A";"N/A";"";"1";"";"yes";"UTE";"";"";"";"";"1";"";"";"";"";"";"";"";"";"24/7";"yes"
"11049298972";"-34.0958936";"20.9636166";"charging_station";"Eden District Municipality";"South Africa";"Western Cape";"N/A";"N/A";"";"2";"";"";"Rubicon";"";"";"";"";"2";"150";"500";"";"";"";"";"Audi";"";"";"yes"
"4554309891";"-33.6089708";"-71.6227765";"charging_station";"San Antonio Province";"Chile";"Valparaiso";"N/A";"N/A";"";"";"";"";"Copec";"";"";"";"";"";"";"";"";"";"";"";"";"";"";""
"6802782413";"-33.6467108";"-71.6246068";"charging_station";"San Antonio Province";"Chile";"Valparaiso";"N/A";"N/A";"";"2";"";"";"Copec";"Q1130956";"";"";"";"";"";"";"";"";"";"";"";"";"24/7";""
"12607926410";"-33.8972946";"-71.453861";"charging_station";"Provincia de Melipilla";"Chile";"Santiago Metropolitan";"N/A";"N/A";"";"1";"";"";"Copec";"Q1130956";"";"";"";"";"";"";"";"";"";"";"";"";"";""
"6806718722";"-33.5113018";"-70.8041633";"charging_station";"Provincia de Santiago";"Chile";"Santiago Metropolitan";"N/A";"N/A";"";"37";"";"";"";"";"";"";"";"";"";"";"";"";"";"";"";"";"";""
"9121457466";"-33.6301107";"-70.7615711";"charging_station";"Provincia de Maipo";"Chile";"Santiago Metropolitan";"N/A";"N/A";"";"1";"";"";"Copec";"Q1130956";"";"";"";"";"";"";"";"";"";"";"";"";"";""
"10724347848";"-33.5224707";"-70.8038876";"charging_station";"Provincia de Santiago";"Chile";"Santiago Metropolitan";"N/A";"N/A";"";"110";"";"";"Copec";"Q1130956";"";"";"";"";"";"";"";"";"";"";"";"";"";""
"6804275675";"-33.5000716";"-70.616603";"charging_station";"Provincia de Santiago";"Chile";"Santiago Metropolitan";"N/A";"N/A";"";"2";"";"";"Enel X";"Q5376815";"";"";"";"2";"";"";"";"";"";"";"Enel X";"";"";""
"8842344364";"-33.4943584";"-70.7055131";"charging_station";"Provincia de Santiago";"Chile";"Santiago Metropolitan";"N/A";"N/A";"";"1";"";"yes";"Copec";"Q1130956";"";"";"";"";"";"";"";"";"";"";"";"";"";""
"10735958230";"-33.6081581";"-70.6314064";"charging_station";"Provincia de Santiago";"Chile";"Santiago Metropolitan";"N/A";"N/A";"";"";"";"";"Enel X";"Q5376815";"";"";"";"";"";"";"";"";"";"";"Enel X";"";"";""
"10742142662";"-33.6331772";"-70.6106722";"charging_station";"Provincia de Cordillera";"Chile";"Santiago Metropolitan";"N/A";"N/A";"";"13";"";"";"STP Santiago";"";"";"";"";"";"";"";"";"";"";"";"Engie";"";"";""
"10823517346";"-33.4900762";"-70.5937147";"charging_station";"Provincia de Santiago";"Chile";"Santiago Metropolitan";"N/A";"N/A";"";"";"";"";"Copec";"Q1130956";"";"";"";"";"";"";"";"";"";"";"";"";"";""
"11038473596";"-33.9064886";"-70.733177";"charging_station";"Provincia de Maipo";"Chile";"Santiago Metropolitan";"N/A";"N/A";"";"2";"";"";"Enel X";"Q5376815";"";"";"";"";"";"";"";"";"";"";"Enel X";"";"";"yes"
"11173349323";"-33.512128";"-70.6569316";"charging_station";"Provincia de Santiago";"Chile";"Santiago Metropolitan";"N/A";"N/A";"";"";"";"";"Enel X";"Q5376815";"";"";"";"";"";"";"";"";"";"";"Enel X";"";"";""
"11558524380";"-33.5956321";"-70.7077351";"charging_station";"Provincia de Maipo";"Chile";"Santiago Metropolitan";"N/A";"N/A";"";"1";"";"";"";"";"";"";"";"";"";"";"";"";"";"";"Temob";"";"";"no"
"12505397001";"-33.9715415";"-70.7074864";"charging_station";"Provincia de Cachapoal";"Chile";"O'Higgins";"N/A";"N/A";"";"";"";"";"Enel X";"Q5376815";"";"";"";"";"";"";"";"";"";"";"Enel X";"";"";""
"12550233695";"-33.539589";"-70.6656643";"charging_station";"Provincia de Santiago";"Chile";"Santiago Metropolitan";"N/A";"N/A";"";"";"";"";"Enel X";"Q5376815";"";"";"";"";"";"";"";"";"";"";"Enel X";"";"";""
"12673045694";"-33.6860468";"-70.7260726";"charging_station";"Provincia de Maipo";"Chile";"Santiago Metropolitan";"N/A";"N/A";"";"1";"";"";"Shell";"Q110716465";"";"";"";"";"";"";"";"";"";"";"";"";"";""
"12673045695";"-33.6819773";"-70.726579";"charging_station";"Provincia de Maipo";"Chile";"Santiago Metropolitan";"N/A";"N/A";"";"1";"";"";"Shell";"Q110716465";"";"";"";"";"";"";"";"";"";"";"";"";"";""
"12723647958";"-33.6330177";"-70.7141404";"charging_station";"Provincia de Maipo";"Chile";"Santiago Metropolitan";"N/A";"N/A";"";"";"";"";"Copec";"Q1130956";"";"";"";"";"";"";"";"";"";"";"";"";"";""
"12796258202";"-33.4863097";"-70.5587902";"charging_station";"Provincia de Santiago";"Chile";"Santiago Metropolitan";"N/A";"N/A";"";"";"";"";"Enel X";"Q5376815";"";"";"";"";"";"";"";"";"";"";"Enel X";"";"";""
"12798020726";"-33.5701968";"-70.5829418";"charging_station";"Provincia de Cordillera";"Chile";"Santiago Metropolitan";"N/A";"N/A";"";"2";"";"";"Copec";"Q1130956";"";"";"";"";"";"";"";"";"";"";"";"";"";""
"1169230524";"";"";"charging_station";"N/A";"N/A";"N/A";"N/A";"N/A";"";"18";"";"";"Enel X";"Q5376815";"";"";"";"36";"";"";"";"";"";"";"Enel X";"";"";""
"1169230525";"";"";"charging_station";"N/A";"N/A";"N/A";"N/A";"N/A";"";"24";"";"";"Enel X";"Q5376815";"";"";"";"48";"";"";"";"";"";"";"Enel X";"";"";""
"1169230526";"";"";"charging_station";"N/A";"N/A";"N/A";"N/A";"N/A";"";"13";"";"";"Enel X";"Q5376815";"";"";"";"26";"";"";"";"";"";"";"Enel X";"";"";""
"10872738411";"-33.4858908";"-70.5220712";"";"Provincia de Santiago";"Chile";"Santiago Metropolitan";"N/A";"N/A";"";"";"";"";"";"";"";"";"";"";"";"";"";"";"";"";"";"";"";""
"10872738416";"-33.4857614";"-70.5222264";"";"Provincia de Santiago";"Chile";"Santiago Metropolitan";"N/A";"N/A";"";"";"";"";"";"";"";"";"";"";"";"";"";"";"";"";"";"";"";""
"10872738417";"-33.4858736";"-70.5221678";"";"Provincia de Santiago";"Chile";"Santiago Metropolitan";"N/A";"N/A";"";"";"";"";"";"";"";"";"";"";"";"";"";"";"";"";"";"";"";""
"10872738418";"-33.4859357";"-70.5220728";"";"Provincia de Santiago";"Chile";"Santiago Metropolitan";"N/A";"N/A";"";"";"";"";"";"";"";"";"";"";"";"";"";"";"";"";"";"";"";""
"10872738419";"-33.4857349";"-70.5223975";"";"Provincia de Santiago";"Chile";"Santiago Metropolitan";"N/A";"N/A";"";"";"";"";"";"";"";"";"";"";"";"";"";"";"";"";"";"";"";""
"10872738420";"-33.4856927";"-70.5223151";"";"Provincia de Santiago";"Chile";"Santiago Metropolitan";"N/A";"N/A";"";"";"";"";"";"";"";"";"";"";"";"";"";"";"";"";"";"";"";""
"10872738429";"-33.4856927";"-70.5225955";"";"Provincia de Santiago";"Chile";"Santiago Metropolitan";"N/A";"N/A";"";"";"";"";"";"";"";"";"";"";"";"";"";"";"";"";"";"";"";""
"10872738430";"-33.4857508";"-70.5224545";"";"Provincia de Santiago";"Chile";"Santiago Metropolitan";"N/A";"N/A";"";"";"";"";"";"";"";"";"";"";"";"";"";"";"";"";"";"";"";""
"10872738412";"-33.4852224";"-70.5221076";"";"Provincia de Santiago";"Chile";"Santiago Metropolitan";"N/A";"N/A";"";"";"";"";"";"";"";"";"";"";"";"";"";"";"";"";"";"";"";""
"10872738413";"-33.4849529";"-70.5221298";"";"Provincia de Santiago";"Chile";"Santiago Metropolitan";"N/A";"N/A";"";"";"";"";"";"";"";"";"";"";"";"";"";"";"";"";"";"";"";""
"10872738414";"-33.4848327";"-70.5223151";"";"Provincia de Santiago";"Chile";"Santiago Metropolitan";"N/A";"N/A";"";"";"";"";"";"";"";"";"";"";"";"";"";"";"";"";"";"";"";""
"10872738415";"-33.485159";"-70.522293";"";"Provincia de Santiago";"Chile";"Santiago Metropolitan";"N/A";"N/A";"";"";"";"";"";"";"";"";"";"";"";"";"";"";"";"";"";"";"";""
"10872738421";"-33.4855738";"-70.5223199";"";"Provincia de Santiago";"Chile";"Santiago Metropolitan";"N/A";"N/A";"";"";"";"";"";"";"";"";"";"";"";"";"";"";"";"";"";"";"";""
"10872738422";"-33.4850428";"-70.5223848";"";"Provincia de Santiago";"Chile";"Santiago Metropolitan";"N/A";"N/A";"";"";"";"";"";"";"";"";"";"";"";"";"";"";"";"";"";"";"";""
"10872738423";"-33.4849701";"-70.522426";"";"Provincia de Santiago";"Chile";"Santiago Metropolitan";"N/A";"N/A";"";"";"";"";"";"";"";"";"";"";"";"";"";"";"";"";"";"";"";""
"10872738424";"-33.4849186";"-70.5225099";"";"Provincia de Santiago";"Chile";"Santiago Metropolitan";"N/A";"N/A";"";"";"";"";"";"";"";"";"";"";"";"";"";"";"";"";"";"";"";""
"10872738425";"-33.4849899";"-70.5225986";"";"Provincia de Santiago";"Chile";"Santiago Metropolitan";"N/A";"N/A";"";"";"";"";"";"";"";"";"";"";"";"";"";"";"";"";"";"";"";""
"10872738426";"-33.4850824";"-70.5226762";"";"Provincia de Santiago";"Chile";"Santiago Metropolitan";"N/A";"N/A";"";"";"";"";"";"";"";"";"";"";"";"";"";"";"";"";"";"";"";""
"10872738427";"-33.4852026";"-70.5226335";"";"Provincia de Santiago";"Chile";"Santiago Metropolitan";"N/A";"N/A";"";"";"";"";"";"";"";"";"";"";"";"";"";"";"";"";"";"";"";""
"10872738428";"-33.4855289";"-70.5226129";"";"Provincia de Santiago";"Chile";"Santiago Metropolitan";"N/A";"N/A";"";"";"";"";"";"";"";"";"";"";"";"";"";"";"";"";"";"";"";""
"10872738431";"-33.4855091";"-70.5229091";"";"Provincia de Santiago";"Chile";"Santiago Metropolitan";"N/A";"N/A";"";"";"";"";"";"";"";"";"";"";"";"";"";"";"";"";"";"";"";""
"10872738432";"-33.4853849";"-70.5230817";"";"Provincia de Santiago";"Chile";"Santiago Metropolitan";"N/A";"N/A";"";"";"";"";"";"";"";"";"";"";"";"";"";"";"";"";"";"";"";""
"10872738433";"-33.4853505";"-70.5231102";"";"Provincia de Santiago";"Chile";"Santiago Metropolitan";"N/A";"N/A";"";"";"";"";"";"";"";"";"";"";"";"";"";"";"";"";"";"";"";""
"10872738434";"-33.4849107";"-70.523134";"";"Provincia de Santiago";"Chile";"Santiago Metropolitan";"N/A";"N/A";"";"";"";"";"";"";"";"";"";"";"";"";"";"";"";"";"";"";"";""
"10872738435";"-33.4849067";"-70.5229613";"";"Provincia de Santiago";"Chile";"Santiago Metropolitan";"N/A";"N/A";"";"";"";"";"";"";"";"";"";"";"";"";"";"";"";"";"";"";"";""
"10872738436";"-33.4852753";"-70.5229518";"";"Provincia de Santiago";"Chile";"Santiago Metropolitan";"N/A";"N/A";"";"";"";"";"";"";"";"";"";"";"";"";"";"";"";"";"";"";"";""
"10872738437";"-33.4853334";"-70.5229392";"";"Provincia de Santiago";"Chile";"Santiago Metropolitan";"N/A";"N/A";"";"";"";"";"";"";"";"";"";"";"";"";"";"";"";"";"";"";"";""
"10872738438";"-33.4854087";"-70.5228188";"";"Provincia de Santiago";"Chile";"Santiago Metropolitan";"N/A";"N/A";"";"";"";"";"";"";"";"";"";"";"";"";"";"";"";"";"";"";"";""
"8345749453";"-33.7745481";"-61.9592533";"charging_station";"";"Argentina";"Santa Fe";"N/A";"N/A";"";"";"";"";"";"";"";"";"";"";"";"";"";"";"";"";"";"";"";""
"4575142389";"-33.8497884";"-59.5474311";"charging_station";"Partido de Baradero";"Argentina";"Buenos Aires";"N/A";"N/A";"";"";"";"";"Petrobras GNC";"";"";"";"";"";"";"";"";"";"";"";"";"";"";""
"6450901117";"-33.0448935";"-71.4223767";"charging_station";"Provincia de Marga Marga";"Chile";"Valparaiso";"N/A";"N/A";"";"";"";"";"";"";"";"";"";"";"";"";"";"";"";"";"";"";"";""
"6802785314";"-33.1285861";"-71.5625856";"charging_station";"Provincia de Valparaiso";"Chile";"Valparaiso";"N/A";"N/A";"";"2";"";"";"Copec";"";"";"";"";"";"";"";"";"";"";"";"";"";"24/7";""
"6804220830";"-33.017065";"-71.5507183";"charging_station";"Provincia de Valparaiso";"Chile";"Valparaiso";"N/A";"N/A";"";"1";"";"";"Copec";"Q1130956";"";"";"";"";"";"";"";"";"";"";"";"";"";""
"9234022820";"-33.0452371";"-71.4381264";"charging_station";"Provincia de Marga Marga";"Chile";"Valparaiso";"N/A";"N/A";"";"1";"";"";"Chilquinta";"";"";"";"";"";"";"";"";"";"";"";"";"";"";""
"9958063488";"-33.0137979";"-71.5498929";"charging_station";"Provincia de Valparaiso";"Chile";"Valparaiso";"N/A";"N/A";"";"";"";"";"";"";"";"";"";"";"";"";"";"";"";"";"";"";"";""
"12398476918";"-33.1326198";"-71.5641351";"charging_station";"Provincia de Valparaiso";"Chile";"Valparaiso";"N/A";"N/A";"";"4";"";"";"Tesla, Inc.";"Q478214";"";"";"";"";"";"";"";"4650";"Avenida Lomas de la Luz";"";"Tesla Supercharger";"";"";""
"573378580";"";"";"charging_station";"N/A";"N/A";"N/A";"N/A";"N/A";"";"";"";"";"";"";"";"";"";"";"";"";"";"";"";"";"";"";"";""
"5507118484";"-33.042577";"-71.6048219";"";"Provincia de Valparaiso";"Chile";"Valparaiso";"N/A";"N/A";"";"";"";"";"";"";"";"";"";"";"";"";"";"";"";"";"";"";"";""
"5507118485";"-33.0425825";"-71.6047703";"";"Provincia de Valparaiso";"Chile";"Valparaiso";"N/A";"N/A";"";"";"";"";"";"";"";"";"";"";"";"";"";"";"";"";"";"";"";""
"5507118486";"-33.0426545";"-71.6047843";"";"Provincia de Valparaiso";"Chile";"Valparaiso";"N/A";"N/A";"";"";"";"";"";"";"";"";"";"";"";"";"";"";"";"";"";"";"";""
"5507118487";"-33.0426491";"-71.6048348";"";"Provincia de Valparaiso";"Chile";"Valparaiso";"N/A";"N/A";"";"";"";"";"";"";"";"";"";"";"";"";"";"";"";"";"";"";"";""
"6802767546";"-33.2162585";"-70.7669532";"charging_station";"Provincia de Chacabuco";"Chile";"Santiago Metropolitan";"N/A";"N/A";"";"2";"";"";"Copec";"";"";"";"";"";"";"";"";"";"";"";"";"";"24/7";""
"6802780224";"-33.4341101";"-70.8102774";"charging_station";"Provincia de Santiago";"Chile";"Santiago Metropolitan";"N/A";"N/A";"";"1";"";"";"Copec";"Q1130956";"";"";"";"1";"";"";"";"";"";"";"";"";"24/7";""
"6804262033";"-33.4551327";"-70.8031015";"charging_station";"Provincia de Santiago";"Chile";"Santiago Metropolitan";"N/A";"N/A";"";"2";"";"";"Enel X";"Q5376815";"";"";"";"2";"";"";"";"";"";"";"Enel X";"";"";""
"9644692982";"-33.3987146";"-70.7948344";"charging_station";"Provincia de Santiago";"Chile";"Santiago Metropolitan";"N/A";"N/A";"";"6";"";"";"Enel X";"Q5376815";"";"";"";"";"";"";"";"";"";"";"Enel X";"";"";""
"10733536818";"-33.4438285";"-70.7769004";"charging_station";"Provincia de Santiago";"Chile";"Santiago Metropolitan";"N/A";"N/A";"";"";"";"";"Enel X";"Q5376815";"";"";"";"";"";"";"";"";"";"";"Enel X";"";"";""
"10733536819";"-33.4297228";"-70.7836864";"charging_station";"Provincia de Santiago";"Chile";"Santiago Metropolitan";"N/A";"N/A";"";"";"";"";"Enel X";"Q5376815";"";"";"";"";"";"";"";"";"";"";"Enel X";"";"";"yes"
"1169229741";"";"";"charging_station";"N/A";"N/A";"N/A";"N/A";"N/A";"";"74";"";"";"Enel";"";"";"";"";"";"";"";"";"";"";"";"";"";"";""
"10872710072";"-33.4710512";"-70.76397";"";"Provincia de Santiago";"Chile";"Santiago Metropolitan";"N/A";"N/A";"";"";"";"";"";"";"";"";"";"";"";"";"";"";"";"";"";"";"";""
"10872710073";"-33.4711721";"-70.7638949";"";"Provincia de Santiago";"Chile";"Santiago Metropolitan";"N/A";"N/A";"";"";"";"";"";"";"";"";"";"";"";"";"";"";"";"";"";"";"";""
"10872710074";"-33.4705892";"-70.762598";"";"Provincia de Santiago";"Chile";"Santiago Metropolitan";"N/A";"N/A";"";"";"";"";"";"";"";"";"";"";"";"";"";"";"";"";"";"";"";""
"10872710075";"-33.4704583";"-70.7626839";"";"Provincia de Santiago";"Chile";"Santiago Metropolitan";"N/A";"N/A";"";"";"";"";"";"";"";"";"";"";"";"";"";"";"";"";"";"";"";""
"3487504389";"-33.4423388";"-70.6551213";"charging_station";"Provincia de Santiago";"Chile";"Santiago Metropolitan";"N/A";"N/A";"";"2";"";"yes";"Enel X";"Q5376815";"";"";"";"1";"";"";"";"";"";"";"Enel X";"";"";""
"4538667989";"-33.4743188";"-70.6827737";"charging_station";"Provincia de Santiago";"Chile";"Santiago Metropolitan";"N/A";"N/A";"";"";"";"";"Socosur";"";"";"";"";"";"";"";"";"";"";"";"";"";"";""
"5010217227";"-33.3987354";"-70.5870519";"charging_station";"Provincia de Santiago";"Chile";"Santiago Metropolitan";"N/A";"N/A";"";"";"";"";"Enel X";"Q5376815";"";"";"";"";"";"";"";"";"";"";"Enel X";"";"";""
"6802777813";"-33.3824903";"-70.5893849";"charging_station";"Provincia de Santiago";"Chile";"Santiago Metropolitan";"N/A";"N/A";"";"1";"";"";"Copec";"Q1130956";"";"";"";"";"";"";"";"";"";"";"";"";"24/7";""
"6804236557";"-33.4090127";"-70.5452215";"charging_station";"Provincia de Santiago";"Chile";"Santiago Metropolitan";"N/A";"N/A";"";"1";"";"";"Shell";"Q110716465";"";"";"";"";"";"";"";"";"";"";"";"";"";""
"6804299856";"-33.4378594";"-70.6471922";"charging_station";"Provincia de Santiago";"Chile";"Santiago Metropolitan";"N/A";"N/A";"";"2";"";"";"Enel X";"Q5376815";"";"";"";"1";"";"";"";"";"";"";"Enel X";"";"24/7";""
"6804301032";"-33.4138014";"-70.6204146";"charging_station";"Provincia de Santiago";"Chile";"Santiago Metropolitan";"N/A";"N/A";"";"2";"";"";"Enel X";"Q5376815";"";"";"";"2";"";"";"";"";"";"";"Enel X";"";"";""
"6804364644";"-33.3702064";"-70.6639075";"charging_station";"Provincia de Chacabuco";"Chile";"Santiago Metropolitan";"N/A";"N/A";"";"2";"";"";"";"";"";"";"";"8";"";"";"";"";"";"";"";"";"";""
"8439408942";"-33.4151093";"-70.6173708";"charging_station";"Provincia de Santiago";"Chile";"Santiago Metropolitan";"N/A";"N/A";"";"2";"";"";"Enel X";"Q5376815";"";"";"";"";"";"";"";"";"";"";"Enel X";"";"";""
"9892721223";"-33.4299311";"-70.7377712";"charging_station";"Provincia de Santiago";"Chile";"Santiago Metropolitan";"N/A";"N/A";"";"1";"";"";"Copec Voltex";"";"";"";"";"";"";"";"";"";"";"";"";"";"";"yes"
"10733636653";"-33.4030266";"-70.7312256";"charging_station";"Provincia de Santiago";"Chile";"Santiago Metropolitan";"N/A";"N/A";"";"17";"";"";"Copec";"Q1130956";"";"";"";"";"";"";"";"";"";"";"Enel X";"";"";""
"10778532248";"-33.4033333";"-70.5787666";"charging_station";"Provincia de Santiago";"Chile";"Santiago Metropolitan";"N/A";"N/A";"";"170";"";"";"Enel X";"Q5376815";"";"";"";"";"";"";"";"5413";"Avenida Presidente Kennedy";"";"Enel X";"";"";""
"10822802787";"-33.4542123";"-70.6865034";"charging_station";"Provincia de Santiago";"Chile";"Santiago Metropolitan";"N/A";"N/A";"";"";"";"";"Copec";"Q1130956";"";"";"";"";"";"";"";"";"";"";"Copec Voltex";"";"";""
"10825572257";"-33.3801621";"-70.5852148";"charging_station";"Provincia de Santiago";"Chile";"Santiago Metropolitan";"N/A";"N/A";"";"2";"";"";"Enel X";"Q5376815";"";"";"";"";"";"";"";"";"";"";"Enel X";"";"";""
"11045612754";"-33.3750917";"-70.5320812";"charging_station";"Provincia de Santiago";"Chile";"Santiago Metropolitan";"N/A";"N/A";"";"4";"";"";"Copec";"Q1130956";"";"";"";"";"";"";"";"";"";"";"Voltex";"";"";"yes"
"11831525684";"-33.4042602";"-70.5799754";"charging_station";"Provincia de Santiago";"Chile";"Santiago Metropolitan";"N/A";"N/A";"";"";"";"";"Enel X";"Q5376815";"";"";"";"";"";"";"";"";"";"";"Enel X";"";"";""
"11949130888";"-33.4560614";"-70.7052042";"charging_station";"Provincia de Santiago";"Chile";"Santiago Metropolitan";"N/A";"N/A";"";"103";"";"";"Enel X";"Q5376815";"";"";"";"";"";"";"";"";"";"";"Enel X";"";"";""
"12089310043";"-33.417353";"-70.6073318";"charging_station";"Provincia de Santiago";"Chile";"Santiago Metropolitan";"N/A";"N/A";"";"";"";"";"Enel X";"Q5376815";"";"";"";"";"";"";"";"";"";"";"Enel X";"";"";""
"12089840965";"-33.4034351";"-70.5724252";"charging_station";"Provincia de Santiago";"Chile";"Santiago Metropolitan";"N/A";"N/A";"";"10";"";"";"Enel X";"Q5376815";"";"";"";"";"";"";"";"";"";"";"Enel X";"";"";""
"12170483150";"-33.3896163";"-70.5700283";"charging_station";"Provincia de Santiago";"Chile";"Santiago Metropolitan";"N/A";"N/A";"";"";"";"";"Tesla";"";"";"";"";"";"";"";"";"";"";"";"";"";"";""
"12170505585";"-33.3866467";"-70.567688";"charging_station";"Provincia de Santiago";"Chile";"Santiago Metropolitan";"N/A";"N/A";"";"";"";"";"Enelx";"";"";"";"";"";"";"";"";"";"";"";"";"";"";""
"12374984799";"-33.2789315";"-70.6285136";"charging_station";"Provincia de Chacabuco";"Chile";"Santiago Metropolitan";"N/A";"N/A";"";"";"";"";"Enel X";"Q5376815";"";"";"";"";"";"";"";"";"";"";"Enel X";"";"";""
"12518950344";"-33.3886408";"-70.5394702";"charging_station";"Provincia de Santiago";"Chile";"Santiago Metropolitan";"N/A";"N/A";"";"";"";"";"Enel X";"Q5376815";"";"";"";"";"";"";"";"";"";"";"Enel X";"";"";""
"12537865986";"-33.2368372";"-70.7587981";"charging_station";"Provincia de Chacabuco";"Chile";"Santiago Metropolitan";"N/A";"N/A";"";"3";"";"";"Enel X";"Q5376815";"";"";"";"";"";"";"";"";"";"";"Enel X";"";"";"yes"
"12550253877";"-33.3821231";"-70.5895621";"charging_station";"Provincia de Santiago";"Chile";"Santiago Metropolitan";"N/A";"N/A";"";"6";"";"";"Copec";"Q1130956";"";"";"";"";"";"";"";"";"";"";"";"";"";"yes"
"12550253878";"-33.394275";"-70.6207967";"charging_station";"Provincia de Santiago";"Chile";"Santiago Metropolitan";"N/A";"N/A";"";"2";"";"";"Enel X";"Q5376815";"";"";"";"";"";"";"";"";"";"";"Enel X";"";"";""
"12554862198";"-33.330896";"-70.7032255";"charging_station";"Provincia de Chacabuco";"Chile";"Santiago Metropolitan";"N/A";"N/A";"";"4";"";"";"Tesla, Inc.";"Q478214";"";"";"";"";"";"";"";"500";"San Ignacio";"";"Tesla Supercharger";"";"";"yes"
"12554887525";"-33.285891";"-70.6763459";"charging_station";"Provincia de Chacabuco";"Chile";"Santiago Metropolitan";"N/A";"N/A";"";"1";"";"";"Copec";"Q1130956";"";"";"";"";"";"";"";"";"";"";"";"";"";""
"12554887527";"-33.2856526";"-70.6775673";"charging_station";"Provincia de Chacabuco";"Chile";"Santiago Metropolitan";"N/A";"N/A";"";"";"";"";"Enel X";"Q5376815";"";"";"";"";"";"";"";"";"";"";"Enel X";"";"";""
"12557424702";"-33.306853";"-70.663361";"charging_station";"Provincia de Chacabuco";"Chile";"Santiago Metropolitan";"N/A";"N/A";"";"1";"";"";"Copec";"Q1130956";"";"";"";"";"";"";"";"";"";"";"";"";"";""
"12585954983";"-33.417288";"-70.6003513";"charging_station";"Provincia de Santiago";"Chile";"Santiago Metropolitan";"N/A";"N/A";"";"";"";"";"Enel X";"Q5376815";"";"";"";"";"";"";"";"";"";"";"Enel X";"";"";""
"12673540393";"-33.4064545";"-70.7005387";"charging_station";"Provincia de Santiago";"Chile";"Santiago Metropolitan";"N/A";"N/A";"";"3";"";"";"Enel X";"Q5376815";"";"";"";"";"";"";"";"";"";"";"Enel X";"";"";""
"12723432011";"-33.4742127";"-70.7403208";"charging_station";"Provincia de Santiago";"Chile";"Santiago Metropolitan";"N/A";"N/A";"";"2";"";"";"Copec";"Q1130956";"";"";"";"";"";"";"";"";"";"";"";"";"";""
"12805210131";"-33.3770109";"-70.5713851";"charging_station";"Provincia de Santiago";"Chile";"Santiago Metropolitan";"N/A";"N/A";"";"2";"";"";"Enel X";"Q5376815";"";"";"";"";"";"";"";"";"";"";"Enel X";"";"";""
"12805210132";"-33.3799708";"-70.5697682";"charging_station";"Provincia de Santiago";"Chile";"Santiago Metropolitan";"N/A";"N/A";"";"3";"";"";"Enel X";"Q5376815";"";"";"";"";"";"";"";"";"";"";"Enel X";"";"";""
"5361135021";"-33.1345786";"-59.3336463";"charging_station";"Departamento de Gualeguay";"Argentina";"Entre Rios";"N/A";"N/A";"";"";"";"";"Estacion transfo. Enersa";"";"";"";"";"";"";"";"";"";"";"";"";"";"";""
"9221586613";"-33.0173636";"-58.5234897";"charging_station";"";"Argentina";"Entre Rios";"N/A";"N/A";"";"";"";"";"";"";"";"";"";"";"";"";"";"";"";"";"";"";"";""
"10582285056";"-32.9507136";"-71.5376798";"charging_station";"Provincia de Valparaiso";"Chile";"Valparaiso";"N/A";"N/A";"";"";"";"";"Shell";"";"";"";"";"1";"";"";"";"";"";"";"";"";"";""
"12036883732";"-32.9660815";"-71.5294166";"charging_station";"Provincia de Valparaiso";"Chile";"Valparaiso";"N/A";"N/A";"";"";"";"";"Enel X";"Q5376815";"";"";"";"";"";"";"";"80";"Dublé Almeyda";"";"Enel X";"";"";""
"6804185467";"-32.8420136";"-71.0027314";"charging_station";"Provincia de San Felipe";"Chile";"Valparaiso";"N/A";"N/A";"";"1";"";"";"Copec";"Q1130956";"";"";"";"";"";"";"";"";"";"";"";"";"";""
"6804219233";"-32.8271962";"-71.131096";"charging_station";"Provincia de Quillota";"Chile";"Valparaiso";"N/A";"N/A";"";"1";"";"";"Copec";"";"";"";"";"";"";"";"";"";"";"";"";"";"";""
"6928326692";"-32.8782127";"-71.2470847";"charging_station";"Provincia de Quillota";"Chile";"Valparaiso";"N/A";"N/A";"";"";"";"";"Chilquínta";"";"";"";"";"";"";"";"";"";"";"";"";"";"";""
"12890184603";"-32.8350063";"-70.604244";"charging_station";"Provincia de Los Andes";"Chile";"Valparaiso";"N/A";"N/A";"";"2";"";"";"Enel X";"Q5376815";"";"";"";"";"";"";"";"";"";"";"Enel X";"";"";""
"12198858177";"-32.6949773";"-62.1083494";"charging_station";"";"Argentina";"Cordoba";"N/A";"N/A";"";"";"";"";"Renault";"Q6686";"";"";"";"";"";"";"";"";"";"";"Renault";"";"";""
"12605544202";"-32.6589848";"-62.123644";"charging_station";"";"Argentina";"Cordoba";"N/A";"N/A";"";"";"";"";"";"";"";"";"";"";"";"";"";"";"";"";"";"";"";""
"6497633653";"-32.6524744";"-60.8227326";"charging_station";"Departamento de San Lorenzo";"Argentina";"Santa Fe";"N/A";"N/A";"";"1";"";"";"Empresa Provincial de la Energía Santa Fe";"";"";"";"";"";"";"";"02";"";"";"";"";"";"";"no"
"8980776203";"-32.933966";"-60.820158";"charging_station";"";"Argentina";"Santa Fe";"N/A";"N/A";"";"2";"";"yes";"Shell Recharge Solutions";"Q105883058";"";"";"";"1";"";"";"";"";"";"";"Shell";"";"24/7";"yes"
"9045751925";"-32.922512";"-60.8031729";"charging_station";"";"Argentina";"Santa Fe";"N/A";"N/A";"";"1";"";"yes";"Sux Solar SRL";"";"";"";"";"1";"";"";"";"";"";"";"";"";"24/7";"no"
"11240085828";"-32.929367";"-60.8051285";"charging_station";"";"Argentina";"Santa Fe";"N/A";"N/A";"";"3";"";"yes";"YPF";"";"";"";"";"1";"";"";"";"";"";"";"";"";"24/7";"yes"
"11705763078";"-32.9301509";"-60.7270598";"charging_station";"";"Argentina";"Santa Fe";"N/A";"N/A";"";"2";"";"yes";"YPF";"";"";"";"";"1";"";"";"33";"";"";"";"";"";"";"yes"
"12557855202";"-32.9498938";"-60.6556917";"charging_station";"Departamento de Rosario";"Argentina";"Santa Fe";"N/A";"N/A";"";"1";"";"yes";"Empresa Provincial de la Energía de Santa Fe";"";"";"";"";"2";"";"";"01";"";"";"";"";"";"24/7";"yes"
