"id";"lat";"lon";"amenity";"city";"state";"country";"scraped_country_code";"scraped_country_name";"authentication:nfc";"capacity";"capacity:car";"motorcar";"operator";"operator:wikidata";"socket:schuko";"socket:schuko:current";"socket:schuko:voltage";"socket:type2";"socket:type2:current";"socket:type2:voltage";"ref";"addr:housenumber";"addr:street";"addr:postcode";"brand";"charge";"opening_hours";"fee"
"12041064795";"-37.1293905";"142.5238179";"charging_station";"Northern Grampians";"Australia";"Victoria";"N/A";"N/A";"";"2";"";"";"";"";"";"";"";"2";"";"";"";"";"";"";"NRMA Parks and Resorts";"";"";""
"7110814863";"-37.2833721";"142.9339235";"charging_station";"Ararat";"Australia";"Victoria";"N/A";"N/A";"";"";"";"";"";"";"";"";"";"";"";"";"";"";"";"";"Tesla, Inc.";"";"";""
"9278772628";"-37.1955356";"142.6092866";"charging_station";"Northern Grampians";"Australia";"Victoria";"N/A";"N/A";"";"2";"";"";"EVUp";"";"";"";"";"";"";"";"";"";"";"";"";"";"";""
"11117784408";"-37.2820305";"142.929698";"charging_station";"Ararat";"Australia";"Victoria";"N/A";"N/A";"";"";"";"";"Evie Networks";"Q105795220";"";"";"";"";"";"";"";"";"";"";"";"";"";""
"11957053879";"-37.2850838";"142.9263732";"charging_station";"Ararat";"Australia";"Victoria";"N/A";"N/A";"";"4";"";"";"NRMA";"Q6955173";"";"";"";"";"";"";"";"";"";"";"";"";"";""
"10923455696";"-37.1827429";"143.3995223";"charging_station";"Central Goldfields";"Australia";"Victoria";"N/A";"N/A";"";"";"";"";"Exploren";"Q130278349";"";"";"";"";"";"";"";"";"";"";"";"";"";"yes"
"10977915310";"-37.428802";"143.3830103";"charging_station";"Ballarat North";"Australia";"Victoria";"N/A";"N/A";"";"";"";"";"Evie Networks";"Q105795220";"";"";"";"";"";"";"";"";"";"";"";"";"";""
"4332305132";"-37.5753648";"143.8664155";"charging_station";"Ballarat North";"Australia";"Victoria";"N/A";"N/A";"";"";"";"";"";"";"";"";"";"";"";"";"";"";"";"";"";"";"";""
"4559150341";"-37.5346311";"143.8226401";"charging_station";"Ballarat North";"Australia";"Victoria";"N/A";"N/A";"";"6";"";"";"Tesla, Inc.";"Q478214";"";"";"";"";"";"";"";"";"";"";"Tesla Supercharger";"";"";""
"6294718962";"-37.4438844";"143.8905143";"charging_station";"";"Australia";"Victoria";"N/A";"N/A";"";"2";"";"";"RACV";"";"";"";"";"";"";"";"";"";"";"";"";"";"";"no"
"7370307097";"-37.5613256";"143.8623024";"charging_station";"";"Australia";"Victoria";"N/A";"N/A";"";"";"";"";"Chargefox";"Q105775824";"";"";"";"";"";"";"";"";"";"";"";"";"";""
"10042338532";"-37.5647424";"143.934527";"charging_station";"";"Australia";"Victoria";"N/A";"N/A";"";"4";"";"";"Evie Networks";"Q105795220";"";"";"";"";"";"";"";"";"";"";"";"";"";"yes"
"11073160376";"-37.5351644";"143.8237383";"charging_station";"Ballarat North";"Australia";"Victoria";"N/A";"N/A";"";"7";"";"";"Chargefox";"";"";"";"";"";"";"";"";"";"";"";"";"";"";"no"
"11085593508";"-37.5429448";"143.784678";"charging_station";"Ballarat North";"Australia";"Victoria";"N/A";"N/A";"";"";"";"";"Tesla, Inc.";"Q478214";"";"";"";"";"";"";"";"";"";"";"Tesla Supercharger";"";"";""
"11176002637";"-37.4224534";"143.8945183";"charging_station";"";"Australia";"Victoria";"N/A";"N/A";"";"";"";"";"Chargefox";"Q105775824";"";"";"";"";"";"";"";"";"";"";"";"";"";""
"11963662376";"-37.599214";"143.8402152";"charging_station";"Ballarat North";"Australia";"Victoria";"N/A";"N/A";"";"2";"";"";"Chargefox";"Q105775824";"";"";"";"2";"";"";"";"";"";"";"";"";"";""
"12040972514";"-37.5283523";"143.857618";"charging_station";"Ballarat North";"Australia";"Victoria";"N/A";"N/A";"";"6";"";"";"Chargefox";"Q105775824";"";"";"";"6";"";"";"";"";"";"";"";"";"";""
"12624294788";"-37.5675407";"143.8567311";"charging_station";"Ballarat North";"Australia";"Victoria";"N/A";"N/A";"";"";"";"";"Chargefox";"Q105775824";"";"";"";"2";"";"";"";"";"";"";"";"";"";""
"7104312656";"-37.3426377";"144.1423321";"charging_station";"Mount Alexander";"Australia";"Victoria";"N/A";"N/A";"";"2";"";"";"Chargefox";"Q105775824";"";"";"";"";"";"";"";"";"";"";"";"";"24/7";"no"
"9058276006";"-37.2470045";"144.4524935";"charging_station";"Mount Alexander";"Australia";"Victoria";"N/A";"N/A";"";"2";"";"";"Central Victorian Greenhouse Alliance";"Q106320329";"";"";"";"";"";"";"";"1A";"Hutton Street";"";"Charging the Regions";"";"24/7";"yes"
"9150530738";"-37.3558374";"144.528833";"charging_station";"Hume";"Australia";"Victoria";"N/A";"N/A";"";"2";"";"";"Central Victorian Greenhouse Alliance";"Q106320329";"";"";"";"";"";"";"";"";"";"";"Charging the Regions";"";"";""
"11021194892";"-37.4232451";"144.5624714";"charging_station";"Hume";"Australia";"Victoria";"N/A";"N/A";"";"";"";"";"Evie Networks";"Q105795220";"";"";"";"";"";"";"";"";"";"";"";"";"";""
"11175994294";"-37.3090229";"144.1403106";"charging_station";"Mount Alexander";"Australia";"Victoria";"N/A";"N/A";"";"";"";"";"Chargefox";"Q105775824";"";"";"";"";"";"";"";"";"";"";"";"";"";""
"11228046134";"-37.2490363";"144.4522173";"charging_station";"Mount Alexander";"Australia";"Victoria";"N/A";"N/A";"";"";"";"";"Evie Networks";"Q105795220";"";"";"";"";"";"";"";"";"";"";"";"";"";""
"12099984536";"-37.3885479";"144.3253891";"charging_station";"Moorabool";"Australia";"Victoria";"N/A";"N/A";"";"";"";"";"Chargefox";"Q105775824";"";"";"";"";"";"";"";"";"";"";"";"";"";""
"12751635764";"-37.3491687";"144.1412771";"charging_station";"Mount Alexander";"Australia";"Victoria";"N/A";"N/A";"";"2";"";"";"Exploren";"Q130278349";"";"";"";"2";"";"";"";"";"";"";"";"";"";""
"9750631071";"-37.6163187";"144.9148371";"charging_station";"Hume";"Australia";"Victoria";"N/A";"N/A";"";"";"";"";"";"";"";"";"";"";"";"";"";"";"";"";"";"";"";""
"10770496461";"-37.2025703";"145.0489327";"charging_station";"Whittlesea";"Australia";"Victoria";"N/A";"N/A";"";"";"";"";"";"";"";"";"";"1";"";"";"";"";"";"";"";"";"";""
"10770515438";"-37.2943539";"144.9523451";"charging_station";"Whittlesea";"Australia";"Victoria";"N/A";"N/A";"";"";"";"";"";"";"";"";"";"1";"";"";"";"";"";"";"";"";"";""
"10778861141";"-37.565088";"144.8938508";"charging_station";"Hume";"Australia";"Victoria";"N/A";"N/A";"";"1";"";"";"ChargePoint";"Q5176149";"";"";"";"";"";"";"";"";"";"";"ChargePoint";"";"";"yes"
"10779001859";"-37.5302783";"144.8805475";"charging_station";"Hume";"Australia";"Victoria";"N/A";"N/A";"";"2";"";"";"";"";"";"";"";"";"";"";"";"";"";"";"EVlink";"";"";""
"10807822822";"-37.5811281";"144.7243495";"charging_station";"Hume";"Australia";"Victoria";"N/A";"N/A";"";"";"";"";"Get Electric";"";"";"";"";"";"";"";"";"";"";"";"";"";"";"yes"
"10909787138";"-37.5345631";"144.898136";"charging_station";"Hume";"Australia";"Victoria";"N/A";"N/A";"";"";"";"";"BP Pulse";"Q39057719";"";"";"";"";"";"";"";"";"";"";"BP Pulse";"";"";""
"11043868290";"-37.2775677";"144.7350086";"charging_station";"Hume";"Australia";"Victoria";"N/A";"N/A";"";"";"";"";"Evie Networks";"Q105795220";"";"";"";"";"";"";"";"";"";"";"";"";"";""
"11430520548";"-37.4138766";"144.9791857";"charging_station";"Whittlesea";"Australia";"Victoria";"N/A";"N/A";"";"2";"";"";"Evie Networks";"Q105795220";"";"";"";"";"";"";"";"";"";"";"";"";"";""
"11434440056";"-37.2863602";"144.9474012";"charging_station";"Whittlesea";"Australia";"Victoria";"N/A";"N/A";"";"6";"";"";"Tesla, Inc.";"Q478214";"";"";"";"";"";"";"";"";"";"";"Tesla Supercharger";"";"";""
"12011130955";"-37.3453772";"144.7439047";"charging_station";"Hume";"Australia";"Victoria";"N/A";"N/A";"";"";"";"";"Evie Networks";"Q105795220";"";"";"";"";"";"";"";"";"";"";"";"";"";""
"12099989743";"-37.5808568";"144.7271811";"charging_station";"Hume";"Australia";"Victoria";"N/A";"N/A";"";"";"";"";"Chargefox";"Q105775824";"";"";"";"8";"";"";"";"";"";"";"";"";"";""
"12292802183";"-37.5818043";"144.7290403";"charging_station";"Hume";"Australia";"Victoria";"N/A";"N/A";"";"";"";"";"Evie Networks";"Q105795220";"";"";"";"";"";"";"";"";"";"";"";"";"";""
"12439686470";"-37.3588186";"145.0263713";"charging_station";"Whittlesea";"Australia";"Victoria";"N/A";"N/A";"";"";"";"";"NRMA";"Q6955173";"";"";"";"";"";"";"";"";"";"";"";"";"";""
"12809394435";"-37.3592512";"145.0263113";"charging_station";"Whittlesea";"Australia";"Victoria";"N/A";"N/A";"";"4";"";"";"NRMA";"Q6955173";"";"";"";"";"";"";"";"";"";"";"";"";"";""
"8597596498";"-37.2100102";"145.4261508";"charging_station";"Murrindindi";"Australia";"Victoria";"N/A";"N/A";"";"4";"";"yes";"Tesla, Inc.";"Q478214";"";"";"";"";"";"";"";"";"";"";"Tesla Supercharger";"";"";"yes"
"10956385611";"-37.5105817";"145.1183979";"charging_station";"Whittlesea";"Australia";"Victoria";"N/A";"N/A";"";"1";"";"yes";"";"";"";"";"";"";"";"";"";"";"";"";"";"";"24/7";"yes"
"12204828994";"-37.5301348";"145.3407412";"charging_station";"Nillumbik";"Australia";"Victoria";"N/A";"N/A";"";"";"";"";"";"";"";"";"";"1";"";"";"";"";"";"";"";"";"";""
"12204831925";"-37.5314941";"145.3395526";"charging_station";"Nillumbik";"Australia";"Victoria";"N/A";"N/A";"";"";"";"";"";"";"";"";"";"1";"";"";"";"";"";"";"";"";"";""
"11049292149";"-37.1919518";"145.7111581";"charging_station";"Murrindindi";"Australia";"Victoria";"N/A";"N/A";"";"2";"";"yes";"Evie Networks";"Q105795220";"";"";"";"";"";"";"";"";"";"";"";"";"24/7";"yes"
"12901334847";"-37.3018407";"146.1378135";"charging_station";"Mansfield";"Australia";"Victoria";"N/A";"N/A";"";"";"";"";"Exploren";"Q130278349";"";"";"";"2";"";"";"";"";"";"";"";"";"";""
"12477914114";"-37.5007061";"148.1715681";"charging_station";"East Gippsland";"Australia";"Victoria";"N/A";"N/A";"";"";"";"";"Chargefox";"Q105775824";"";"";"";"";"";"";"";"";"";"";"";"";"";""
"12564192749";"-37.498803";"148.1720657";"charging_station";"East Gippsland";"Australia";"Victoria";"N/A";"N/A";"";"";"";"";"Chargefox";"Q105775824";"";"";"";"";"";"";"";"";"";"";"";"";"";""
"10118356075";"-37.5650496";"149.1519705";"charging_station";"Bombala";"Australia";"New South Wales";"N/A";"N/A";"";"";"";"";"Central Victorian Greenhouse Alliance";"Q106320329";"";"";"";"";"";"";"";"";"";"";"Charging the Regions";"";"";""
"10172694522";"-37.5650916";"149.1520346";"charging_station";"Bombala";"Australia";"New South Wales";"N/A";"N/A";"";"";"";"";"Tesla";"Q478214";"";"";"";"";"";"";"";"";"";"";"Tesla Supercharger";"";"";""
"12564202178";"-37.5580193";"149.7582614";"charging_station";"Bega Valley";"Australia";"New South Wales";"N/A";"N/A";"";"";"";"";"Central Victorian Greenhouse Alliance";"Q106320329";"";"";"";"";"";"";"";"";"";"";"Charging the Regions";"";"";""
"9443650730";"-37.1927504";"174.9836267";"charging_station";"Auckland";"New Zealand";"Auckland";"N/A";"N/A";"";"6";"";"";"ChargeNet NZ";"Q105872959";"";"";"";"";"";"";"";"";"";"";"";"0.85 NZD/kWh";"";"yes"
"9966813322";"-37.2455278";"175.0230109";"charging_station";"Auckland";"New Zealand";"Auckland";"N/A";"N/A";"";"2";"";"";"";"";"";"";"";"2";"";"";"";"";"";"";"";"";"";"no"
"9966813365";"-37.2455365";"175.0210345";"charging_station";"Auckland";"New Zealand";"Auckland";"N/A";"N/A";"";"1";"";"";"OpenLoop";"Q113289213";"";"";"";"";"";"";"";"";"";"";"OpenLoop";"";"24/7";"no"
"9967036905";"-37.3547393";"175.0805265";"charging_station";"Waikato District";"New Zealand";"Waikato";"N/A";"N/A";"";"2";"";"";"OpenLoop";"Q113289213";"";"";"";"1";"";"";"";"";"";"";"";"";"24/7";"no"
"8359908028";"-37.6228775";"175.2036136";"charging_station";"Waikato District";"New Zealand";"Waikato";"N/A";"N/A";"";"2";"";"";"";"";"";"";"";"1";"";"";"";"";"";"";"";"";"";""
"8474121320";"-37.1391845";"175.5431175";"charging_station";"Thames-Coromandel District";"New Zealand";"Waikato";"N/A";"N/A";"";"1";"";"";"ChargeNet NZ";"Q105872959";"";"";"";"";"";"";"";"";"";"";"";"25c/kWh + 25c/minute";"24/7";"yes"
"9971886850";"-37.4125911";"175.1274273";"charging_station";"Waikato District";"New Zealand";"Waikato";"N/A";"N/A";"";"2";"";"yes";"OpenLoop";"Q113289213";"";"";"";"";"";"";"";"35";"Wayside Road";"3782";"OpenLoop";"";"24/7";"no"
"8474125717";"-37.3932177";"175.8389018";"charging_station";"Hauraki District";"New Zealand";"Waikato";"N/A";"N/A";"";"2";"";"";"ChargeNet NZ";"Q105872959";"";"";"";"";"";"";"";"";"";"";"";"0.80/kWh";"";"yes"
"9976962546";"-37.2036724";"175.8738427";"charging_station";"Thames-Coromandel District";"New Zealand";"Waikato";"N/A";"N/A";"yes";"1";"";"";"ChargeNet NZ";"Q105872959";"";"";"";"";"";"";"";"";"";"";"";"$0.25/kWh + $0.25/minute";"";"yes"
"10175460966";"-37.5391318";"175.9338588";"charging_station";"Western Bay of Plenty District";"New Zealand";"Bay of Plenty";"N/A";"N/A";"";"4";"";"";"Meridian Energy";"Q6819305";"";"";"";"4";"";"";"";"";"";"";"Zero";"";"";""
"6800929056";"-36.8327076";"-73.0574849";"charging_station";"Provincia de Concepcion";"Chile";"Biobio";"N/A";"N/A";"";"1";"";"";"Copec";"";"";"";"";"1";"";"";"";"";"";"";"";"";"24/7";""
"6804217921";"-36.8293826";"-73.058938";"charging_station";"Provincia de Concepcion";"Chile";"Biobio";"N/A";"N/A";"";"2";"";"";"Enel";"";"";"";"";"2";"";"";"";"";"";"";"";"";"24/7";""
"6804217922";"-36.8300659";"-73.0578831";"charging_station";"Provincia de Concepcion";"Chile";"Biobio";"N/A";"N/A";"";"1";"";"";"CGE";"";"";"";"";"1";"";"";"";"";"";"";"";"";"";""
"6804248379";"-36.8248523";"-73.0451347";"charging_station";"Provincia de Concepcion";"Chile";"Biobio";"N/A";"N/A";"";"2";"";"";"";"";"";"";"";"";"";"";"";"";"";"";"";"";"";""
"8149556581";"-36.7772734";"-73.0600076";"charging_station";"Provincia de Concepcion";"Chile";"Biobio";"N/A";"N/A";"";"2";"";"";"CGE";"";"";"";"";"";"";"";"";"";"";"";"";"";"";""
"4872694222";"-37.096259";"-72.563986";"charging_station";"Provincia de Biobio";"Chile";"Biobio";"N/A";"N/A";"";"";"";"";"ABASTIBLE";"";"";"";"";"";"";"";"";"";"";"";"";"";"";""
"4328678789";"-37.0403966";"-72.3912205";"charging_station";"Provincia de Biobio";"Chile";"Biobio";"N/A";"N/A";"";"";"";"";"romana certificada";"";"";"";"";"";"";"";"";"";"";"";"";"";"";""
"4403340090";"-37.0404259";"-72.3978302";"charging_station";"Provincia de Biobio";"Chile";"Biobio";"N/A";"N/A";"";"";"";"";"";"";"";"";"";"";"";"";"";"";"";"";"";"";"";""
"6802717284";"-36.6343726";"-72.1945754";"charging_station";"Provincia de Nuble";"Chile";"Biobio";"N/A";"N/A";"";"2";"";"";"Copec";"";"";"";"";"";"";"";"";"";"";"";"";"";"24/7";""
"10852770114";"-37.0651449";"-57.8376739";"charging_station";"";"Argentina";"Buenos Aires";"N/A";"N/A";"";"";"";"";"";"";"";"";"";"";"";"";"";"";"";"";"";"";"";""
"10852736609";"-37.1091496";"-56.8785392";"charging_station";"";"Argentina";"Buenos Aires";"N/A";"N/A";"";"";"";"";"";"";"";"";"";"";"";"";"";"";"";"";"";"";"";""
"12585363305";"-37.1099651";"-56.8700972";"charging_station";"";"Argentina";"Buenos Aires";"N/A";"N/A";"";"2";"";"yes";"A.C.A. Pinamar";"";"";"";"";"2";"";"";"";"";"";"";"";"";"";""
"11365424991";"-36.8391079";"139.8438335";"charging_station";"Tatiara";"Australia";"South Australia";"N/A";"N/A";"";"";"";"";"Chargefox";"Q105775824";"";"";"";"";"";"";"";"";"";"";"";"";"";""
"11386821436";"-36.9570803";"140.7429382";"charging_station";"Naracoorte and Lucindale";"Australia";"South Australia";"N/A";"N/A";"";"";"";"";"Chargefox";"Q105775824";"";"";"";"";"";"";"";"";"";"";"";"";"";""
"10182377477";"-37.0366955";"141.2965659";"charging_station";"Naracoorte and Lucindale";"Australia";"South Australia";"N/A";"N/A";"";"";"";"";"Central Victorian Greenhouse Alliance";"Q106320329";"";"";"";"";"";"";"";"";"";"";"Charging the Regions";"";"";""
"8028020165";"-36.7111262";"142.201977";"charging_station";"Horsham";"Australia";"Victoria";"N/A";"N/A";"";"8";"";"";"Chargefox";"Q105775824";"";"";"";"";"";"";"";"";"";"";"";"0.60 AUD/kWh";"";"yes"
"9314985309";"-36.7158552";"142.1964354";"charging_station";"Horsham";"Australia";"Victoria";"N/A";"N/A";"";"3";"";"";"Tesla";"Q478214";"";"";"";"";"";"";"";"";"";"";"Tesla Supercharger";"";"";""
"11367720683";"-37.0568641";"142.7810413";"charging_station";"Northern Grampians";"Australia";"Victoria";"N/A";"N/A";"";"";"";"";"Evie Networks";"Q105795220";"";"";"";"";"";"";"";"";"";"";"";"";"";""
"11395749542";"-37.0546434";"142.7814323";"charging_station";"Northern Grampians";"Australia";"Victoria";"N/A";"N/A";"";"";"";"";"Tesla, Inc.";"Q478214";"";"";"";"";"";"";"";"";"";"";"Tesla Supercharger";"";"";""
"11228098627";"-37.0899146";"143.4745278";"charging_station";"Central Goldfields";"Australia";"Victoria";"N/A";"N/A";"";"";"";"";"Evie Networks";"Q105795220";"";"";"";"";"";"";"";"";"";"";"";"";"";""
"8280062891";"-37.0508473";"143.741488";"charging_station";"Central Goldfields";"Australia";"Victoria";"N/A";"N/A";"";"2";"";"";"Central Victorian Greenhouse Alliance";"Q106320329";"";"";"";"";"";"";"";"";"";"";"Charging the Regions";"";"";""
"8848048175";"-36.7405105";"143.9001993";"charging_station";"Central Goldfields";"Australia";"Victoria";"N/A";"N/A";"";"";"";"";"Central Victorian Greenhouse Alliance";"Q106320329";"";"";"";"";"";"";"";"";"";"";"Charging the Regions";"";"";""
"6816255780";"-36.7745651";"144.3064633";"charging_station";"Greater Bendigo";"Australia";"Victoria";"N/A";"N/A";"";"6";"";"";"Tesla, Inc.";"Q478214";"";"";"";"";"";"";"";"";"";"";"Tesla Supercharger";"";"";""
"8645337003";"-36.9986135";"144.2609648";"charging_station";"Mount Alexander";"Australia";"Victoria";"N/A";"N/A";"";"";"";"";"Central Victorian Greenhouse Alliance";"Q106320329";"";"";"";"";"";"";"";"";"";"";"Charging the Regions";"";"";""
"9058291617";"-37.0667926";"144.217816";"charging_station";"Mount Alexander";"Australia";"Victoria";"N/A";"N/A";"";"";"";"";"Central Victorian Greenhouse Alliance";"Q106320329";"";"";"";"";"";"";"";"";"";"";"Charging the Regions";"";"";""
"11278409135";"-36.7569325";"144.2766532";"charging_station";"Greater Bendigo";"Australia";"Victoria";"N/A";"N/A";"";"4";"";"";"Central Victorian Greenhouse Alliance";"Q106320329";"";"";"";"";"";"";"";"";"";"";"Charging the Regions";"";"";""
"11548535146";"-36.7533323";"144.294362";"charging_station";"Greater Bendigo";"Australia";"Victoria";"N/A";"N/A";"";"2";"";"yes";"Chargefox";"Q105775824";"";"";"";"";"";"";"8086";"";"";"";"";"";"24/7";"yes"
"12872507191";"-36.7345527";"144.1334235";"charging_station";"Greater Bendigo";"Australia";"Victoria";"N/A";"N/A";"";"4";"";"";"NRMA";"Q6955173";"";"";"";"";"";"";"";"";"";"";"";"";"";""
"12885984005";"-36.76352";"144.279593";"charging_station";"Greater Bendigo";"Australia";"Victoria";"N/A";"N/A";"";"";"";"";"Evie Networks";"Q105795220";"";"";"";"";"";"";"";"";"";"";"";"";"";""
"11363471775";"-36.923434";"144.7099486";"charging_station";"Greater Bendigo";"Australia";"Victoria";"N/A";"N/A";"";"";"";"";"Evie Networks";"Q105795220";"";"";"";"";"";"";"";"";"";"";"";"";"";""
"4027662399";"-36.7527958";"145.5734088";"charging_station";"Greater Shepparton";"Australia";"Victoria";"N/A";"N/A";"";"6";"";"";"Tesla";"Q478214";"";"";"";"";"";"";"";"";"";"3666";"Tesla Supercharger";"";"24/7";""
"7612243561";"-36.9074894";"145.2398046";"charging_station";"Murrindindi";"Australia";"Victoria";"N/A";"N/A";"";"2";"";"";"Evie Networks";"Q105795220";"";"";"";"";"";"";"";"";"";"";"";"";"";""
"10925645681";"-36.784243";"145.154243";"charging_station";"Greater Shepparton";"Australia";"Victoria";"N/A";"N/A";"";"";"";"";"Evie Networks";"Q105795220";"";"";"";"";"";"";"";"";"";"";"";"";"";""
"12284557087";"-37.0280503";"145.1428994";"charging_station";"Murrindindi";"Australia";"Victoria";"N/A";"N/A";"";"";"";"";"Chargefox";"Q105775824";"";"";"";"";"";"";"";"";"";"";"";"";"";""
"6012351152";"-36.743036";"145.5909893";"charging_station";"Greater Shepparton";"Australia";"Victoria";"N/A";"N/A";"";"4";"";"";"Chargefox";"Q105775824";"";"";"";"";"";"";"";"";"";"3666";"";"";"24/7";""
"10925614395";"-36.7291804";"146.9621128";"charging_station";"Alpine";"Australia";"Victoria";"N/A";"N/A";"";"2";"";"yes";"Evie Networks";"Q105795220";"";"";"";"";"";"";"";"";"";"";"";"";"24/7";"yes"
"12078136343";"-36.7275865";"146.9581559";"charging_station";"Alpine";"Australia";"Victoria";"N/A";"N/A";"";"4";"";"";"Tesla";"Q478214";"";"";"";"";"";"";"";"";"";"";"Tesla Supercharger";"";"";""
"11507767364";"-36.8616367";"147.2771317";"charging_station";"Alpine";"Australia";"Victoria";"N/A";"N/A";"";"22";"";"";"Chargefox";"Q105775824";"";"";"";"4";"";"";"";"";"";"";"";"";"";"yes"
"10205558112";"-37.1010408";"147.5912017";"charging_station";"Alpine";"Australia";"Victoria";"N/A";"N/A";"";"2";"";"yes";"Central Victorian Greenhouse Alliance";"Q106320329";"";"";"";"";"";"";"";"";"";"";"Charging the Regions";"";"24/7";"yes"
"6711862737";"-36.6731502";"149.8431789";"charging_station";"Bega Valley";"Australia";"New South Wales";"N/A";"N/A";"";"2";"";"";"NRMA";"Q6955173";"";"";"";"";"";"";"";"";"";"";"";"";"";""
"9121818285";"-36.8951652";"149.9120037";"charging_station";"Bega Valley";"Australia";"New South Wales";"N/A";"N/A";"";"";"";"";"";"";"";"";"";"";"";"";"";"1";"Elizabeth Street";"";"Tesla, Inc.";"";"";""
"12284563526";"-36.6968576";"149.8415044";"charging_station";"Bega Valley";"Australia";"New South Wales";"N/A";"N/A";"";"";"";"";"Chargefox";"Q105775824";"";"";"";"";"";"";"";"";"";"";"";"";"";"yes"
"6493220785";"-36.774465";"174.5543017";"charging_station";"Auckland";"New Zealand";"Auckland";"N/A";"N/A";"";"2";"";"";"Vector";"Q7917807";"";"";"";"";"";"";"";"";"";"";"";"";"";""
"3272423873";"-36.9154318";"174.8403869";"charging_station";"Auckland";"New Zealand";"Auckland";"N/A";"N/A";"";"2";"";"";"JuicePoint";"";"";"";"";"";"";"";"";"";"";"";"";"";"";"no"
"4060829602";"-36.8692733";"174.7748249";"charging_station";"Auckland";"New Zealand";"Auckland";"N/A";"N/A";"";"";"";"";"Vector";"Q7917807";"";"";"";"1";"";"";"";"";"";"";"";"";"";""
"4064397756";"-36.8647607";"174.7740125";"charging_station";"Auckland";"New Zealand";"Auckland";"N/A";"N/A";"";"";"";"";"Vector";"Q7917807";"";"";"";"";"";"";"";"";"";"";"";"";"";""
"5291156679";"-37.0488878";"174.9327321";"charging_station";"Auckland";"New Zealand";"Auckland";"N/A";"N/A";"";"1";"";"yes";"Vector";"Q7917807";"";"";"";"";"";"";"";"";"";"";"";"";"";""
"5589544368";"-36.8494599";"174.7751802";"charging_station";"Auckland";"New Zealand";"Auckland";"N/A";"N/A";"";"2";"";"";"Z Energy";"Q8063337";"";"";"";"";"";"";"";"";"";"";"";"";"";"yes"
"5589642430";"-36.8454681";"174.7625068";"charging_station";"Auckland";"New Zealand";"Auckland";"N/A";"N/A";"";"4";"";"";"Vector";"Q7917807";"";"";"";"";"";"";"";"";"";"";"";"";"";""
"5589646353";"-36.8898866";"174.7949976";"charging_station";"Auckland";"New Zealand";"Auckland";"N/A";"N/A";"";"";"";"";"ChargeNet NZ";"Q105872959";"";"";"";"";"";"";"";"";"";"";"";"";"";""
"5628325586";"-36.9311806";"174.9104003";"charging_station";"Auckland";"New Zealand";"Auckland";"N/A";"N/A";"";"";"";"";"ChargeNet NZ";"Q105872959";"";"";"";"";"";"";"";"";"";"";"";"";"";""
"5628337413";"-36.9021412";"174.8961727";"charging_station";"Auckland";"New Zealand";"Auckland";"N/A";"N/A";"";"";"";"yes";"Vector";"Q7917807";"";"";"";"";"";"";"";"";"";"";"";"";"";"no"
"5629712188";"-36.8576079";"174.62969";"charging_station";"Auckland";"New Zealand";"Auckland";"N/A";"N/A";"";"2";"";"yes";"ChargeNet NZ";"Q105872959";"";"";"";"";"";"";"";"";"";"";"";"";"";""
"5629717797";"-36.7462989";"174.734936";"charging_station";"Auckland";"New Zealand";"Auckland";"N/A";"N/A";"";"2";"";"yes";"Vector";"Q7917807";"";"";"";"";"";"";"";"";"";"";"";"";"";""
"6078350912";"-36.9342492";"174.8784376";"charging_station";"Auckland";"New Zealand";"Auckland";"N/A";"N/A";"";"";"";"yes";"";"";"";"";"";"";"";"";"";"";"";"";"";"";"";""
"6078350913";"-36.934256";"174.8784753";"charging_station";"Auckland";"New Zealand";"Auckland";"N/A";"N/A";"";"";"";"yes";"";"";"";"";"";"";"";"";"";"";"";"";"";"";"";""
"6078350914";"-36.9342608";"174.8785017";"charging_station";"Auckland";"New Zealand";"Auckland";"N/A";"N/A";"";"";"";"yes";"";"";"";"";"";"";"";"";"";"";"";"";"";"";"";""
"6078350915";"-36.934266";"174.8785306";"charging_station";"Auckland";"New Zealand";"Auckland";"N/A";"N/A";"";"";"";"yes";"";"";"";"";"";"";"";"";"";"";"";"";"";"";"";""
"6078350916";"-36.9342708";"174.8785573";"charging_station";"Auckland";"New Zealand";"Auckland";"N/A";"N/A";"";"";"";"yes";"";"";"";"";"";"";"";"";"";"";"";"";"";"";"";""
"6078350917";"-36.9342759";"174.8785856";"charging_station";"Auckland";"New Zealand";"Auckland";"N/A";"N/A";"";"";"";"yes";"";"";"";"";"";"";"";"";"";"";"";"";"";"";"";""
"6078350918";"-36.9342802";"174.8786095";"charging_station";"Auckland";"New Zealand";"Auckland";"N/A";"N/A";"";"";"";"yes";"";"";"";"";"";"";"";"";"";"";"";"";"";"";"";""
"6078350919";"-36.9342848";"174.8786351";"charging_station";"Auckland";"New Zealand";"Auckland";"N/A";"N/A";"";"";"";"yes";"";"";"";"";"";"";"";"";"";"";"";"";"";"";"";""
"6078350920";"-36.9342947";"174.8786896";"charging_station";"Auckland";"New Zealand";"Auckland";"N/A";"N/A";"";"";"";"yes";"";"";"";"";"";"";"";"";"";"";"";"";"";"";"";""
"6078350921";"-36.9342996";"174.8787171";"charging_station";"Auckland";"New Zealand";"Auckland";"N/A";"N/A";"";"";"";"yes";"";"";"";"";"";"";"";"";"";"";"";"";"";"";"";""
"6078350922";"-36.9343046";"174.8787446";"charging_station";"Auckland";"New Zealand";"Auckland";"N/A";"N/A";"";"";"";"yes";"";"";"";"";"";"";"";"";"";"";"";"";"";"";"";""
"6078350923";"-36.9343088";"174.8787681";"charging_station";"Auckland";"New Zealand";"Auckland";"N/A";"N/A";"";"";"";"yes";"";"";"";"";"";"";"";"";"";"";"";"";"";"";"";""
"6078350924";"-36.934314";"174.8787966";"charging_station";"Auckland";"New Zealand";"Auckland";"N/A";"N/A";"";"";"";"yes";"";"";"";"";"";"";"";"";"";"";"";"";"";"";"";""
"6078350925";"-36.9343194";"174.8788268";"charging_station";"Auckland";"New Zealand";"Auckland";"N/A";"N/A";"";"";"";"yes";"";"";"";"";"";"";"";"";"";"";"";"";"";"";"";""
"6169668779";"-36.9118639";"174.7699968";"charging_station";"Auckland";"New Zealand";"Auckland";"N/A";"N/A";"";"";"";"";"";"";"";"";"";"";"";"";"";"";"";"";"";"";"";""
"6169669627";"-36.9972601";"174.787746";"charging_station";"Auckland";"New Zealand";"Auckland";"N/A";"N/A";"";"2";"";"";"Vector";"Q7917807";"";"";"";"";"";"";"";"";"";"";"";"";"";"no"
"7232096256";"-36.7222322";"174.7060161";"charging_station";"Auckland";"New Zealand";"Auckland";"N/A";"N/A";"";"2";"";"";"Mitre 10 | Tesla";"";"";"";"";"";"";"";"";"";"";"";"Tesla, Inc.";"";"";"no"
"7639604464";"-37.0535465";"174.9319649";"charging_station";"Auckland";"New Zealand";"Auckland";"N/A";"N/A";"";"1";"";"";"ChargeNet NZ";"Q105872959";"";"";"";"";"";"";"";"";"";"";"";"";"";"yes"
"7983535974";"-36.9880584";"174.8793385";"charging_station";"Auckland";"New Zealand";"Auckland";"N/A";"N/A";"";"";"";"";"ChargeNet NZ";"Q105872959";"";"";"";"";"";"";"";"";"";"";"";"";"";""
"8163524634";"-36.8320404";"174.7957962";"charging_station";"Auckland";"New Zealand";"Auckland";"N/A";"N/A";"";"1";"";"";"Vector";"Q7917807";"";"";"";"";"";"";"";"";"";"";"";"";"";"no"
"8219422819";"-36.8445692";"174.7560691";"charging_station";"Auckland";"New Zealand";"Auckland";"N/A";"N/A";"";"";"";"";"NZ Bus";"";"";"";"";"";"";"";"";"";"";"";"";"";"";""
"8474125817";"-36.8979262";"174.8539554";"charging_station";"Auckland";"New Zealand";"Auckland";"N/A";"N/A";"";"";"";"";"";"";"";"";"";"";"";"";"";"";"";"";"";"";"";""
"8826249917";"-36.8115207";"174.7127073";"charging_station";"Auckland";"New Zealand";"Auckland";"N/A";"N/A";"";"";"";"";"";"";"";"";"";"";"";"";"";"";"";"";"";"";"";""
"9163422890";"-36.8445244";"174.7542477";"charging_station";"Auckland";"New Zealand";"Auckland";"N/A";"N/A";"";"";"";"";"";"";"";"";"";"17";"32";"";"";"";"";"";"";"";"";""
"9239022620";"-36.7930261";"175.0254313";"charging_station";"Auckland";"New Zealand";"Auckland";"N/A";"N/A";"";"";"";"";"";"";"";"";"";"yes";"";"";"";"";"";"";"";"";"";""
"9443669922";"-36.9909042";"174.8778297";"charging_station";"Auckland";"New Zealand";"Auckland";"N/A";"N/A";"";"6";"";"";"ChargeNet NZ";"Q105872959";"";"";"";"6";"";"";"";"";"";"";"";"";"";"no"
"9443669923";"-36.9989777";"174.8869101";"charging_station";"Auckland";"New Zealand";"Auckland";"N/A";"N/A";"";"";"";"";"Vector";"Q7917807";"";"";"";"";"";"";"";"";"";"";"";"";"";""
"9451928334";"-37.0356283";"174.907004";"charging_station";"Auckland";"New Zealand";"Auckland";"N/A";"N/A";"";"15";"";"";"";"";"";"";"";"";"";"";"";"";"";"";"";"";"";""
"9487563713";"-36.9121371";"174.6880512";"charging_station";"Auckland";"New Zealand";"Auckland";"N/A";"N/A";"";"";"";"";"Tesla, Inc.";"";"";"";"";"";"";"";"";"";"";"";"Tesla";"";"";""
"9826466651";"-36.9950035";"174.8662702";"charging_station";"Auckland";"New Zealand";"Auckland";"N/A";"N/A";"";"2";"";"";"Goodman Property Services (NZ) Ltd";"";"";"";"";"";"";"";"";"";"";"";"";"";"24/7";"yes"
"9892962751";"-36.8608083";"174.8283666";"charging_station";"Auckland";"New Zealand";"Auckland";"N/A";"N/A";"";"1";"";"";"ChargeNet NZ";"Q105872959";"";"";"";"";"";"";"";"";"";"";"";"";"";"yes"
"10048472987";"-36.9656811";"174.9141228";"charging_station";"Auckland";"New Zealand";"Auckland";"N/A";"N/A";"";"";"";"";"Todd Property Ormiston Town Centre Limited";"";"";"";"";"";"";"";"";"";"";"";"";"";"";""
"10048472988";"-36.9642864";"174.9124818";"charging_station";"Auckland";"New Zealand";"Auckland";"N/A";"N/A";"";"";"";"";"Todd Property Ormiston Town Centre Limited";"";"";"";"";"";"";"";"";"";"";"";"";"";"";""
"10180095091";"-36.8817009";"174.7840599";"charging_station";"Auckland";"New Zealand";"Auckland";"N/A";"N/A";"";"";"";"";"Meridian Energy";"Q6819305";"";"";"";"4";"";"";"";"";"";"";"Zero";"";"";""
"10185074300";"-36.8467052";"174.7335658";"charging_station";"Auckland";"New Zealand";"Auckland";"N/A";"N/A";"";"2";"";"";"Countdown";"";"";"";"";"2";"";"";"";"";"";"";"";"";"";"no"
"10202662966";"-36.9434588";"174.9004843";"charging_station";"Auckland";"New Zealand";"Auckland";"N/A";"N/A";"";"";"";"";"Batenburg Group Ltd";"";"";"";"";"";"";"";"";"";"";"";"";"";"";"yes"
"10202662967";"-36.9378257";"174.8746869";"charging_station";"Auckland";"New Zealand";"Auckland";"N/A";"N/A";"";"";"";"";"ChargeNet NZ";"Q105872959";"";"";"";"";"";"";"";"";"";"";"";"";"";"yes"
"10202702728";"-37.0750493";"174.9263061";"charging_station";"Auckland";"New Zealand";"Auckland";"N/A";"N/A";"";"2";"";"";"";"";"";"";"";"";"";"";"";"";"";"";"";"";"";""
"10202702729";"-37.0378801";"174.9077051";"charging_station";"Auckland";"New Zealand";"Auckland";"N/A";"N/A";"";"2";"";"";"";"";"";"";"";"";"";"";"";"";"";"";"";"";"";"no"
"10202702730";"-37.005641";"174.7913951";"charging_station";"Auckland";"New Zealand";"Auckland";"N/A";"N/A";"";"2";"";"";"";"";"";"";"";"";"";"";"";"";"";"";"";"";"";""
"10202702731";"-36.984453";"174.7837428";"charging_station";"Auckland";"New Zealand";"Auckland";"N/A";"N/A";"";"2";"";"";"";"";"";"";"";"";"";"";"";"";"";"";"";"";"";""
"10202702732";"-36.9834443";"174.7839073";"charging_station";"Auckland";"New Zealand";"Auckland";"N/A";"N/A";"";"2";"";"";"";"";"";"";"";"";"";"";"";"";"";"";"";"";"";"yes"
"10202702733";"-36.9789443";"174.7874471";"charging_station";"Auckland";"New Zealand";"Auckland";"N/A";"N/A";"";"4";"";"";"";"";"";"";"";"";"";"";"";"";"";"";"";"";"";""
"10202702734";"-36.97175";"174.7859959";"charging_station";"Auckland";"New Zealand";"Auckland";"N/A";"N/A";"";"2";"";"";"Naumi Hotel";"";"";"";"";"2";"";"";"";"";"";"";"";"";"";""
"10202702735";"-36.9617581";"174.8446167";"charging_station";"Auckland";"New Zealand";"Auckland";"N/A";"N/A";"";"4";"";"";"Hikotron";"Q113289003";"";"";"";"";"";"";"";"";"";"";"";"";"";"yes"
"10243575946";"-36.8198798";"174.6083285";"charging_station";"Auckland";"New Zealand";"Auckland";"N/A";"N/A";"";"";"";"";"ChargeNet NZ";"Q105872959";"";"";"";"";"";"";"";"";"";"";"";"";"";""
"10246227481";"-36.9943649";"174.8726741";"charging_station";"Auckland";"New Zealand";"Auckland";"N/A";"N/A";"";"1";"";"";"Jolt";"Q109783503";"";"";"";"";"";"";"";"";"";"";"";"";"";""
"10831201484";"-37.0307515";"174.8773386";"charging_station";"Auckland";"New Zealand";"Auckland";"N/A";"N/A";"";"";"";"";"BP";"Q152057";"";"";"";"";"";"";"";"";"";"";"bp";"";"";"yes"
"11024057346";"-36.9131747";"174.841387";"charging_station";"Auckland";"New Zealand";"Auckland";"N/A";"N/A";"";"6";"";"";"Tesla";"Q478214";"";"";"";"";"";"";"";"";"";"";"Tesla Supercharger";"";"";""
"11060751022";"-36.8612736";"174.7773845";"charging_station";"Auckland";"New Zealand";"Auckland";"N/A";"N/A";"";"";"";"";"Vector";"Q7917807";"";"";"";"";"";"";"";"";"";"";"";"";"";""
"11072900878";"-37.0389086";"174.9137962";"charging_station";"Auckland";"New Zealand";"Auckland";"N/A";"N/A";"";"";"";"";"BP";"Q152057";"";"";"";"";"";"";"";"";"";"";"";"";"";""
"11072921610";"-37.0015547";"174.8883295";"charging_station";"Auckland";"New Zealand";"Auckland";"N/A";"N/A";"";"";"";"";"BP";"Q152057";"";"";"";"";"";"";"";"";"";"";"";"";"";""
"11073047765";"-36.9909612";"174.8511621";"charging_station";"Auckland";"New Zealand";"Auckland";"N/A";"N/A";"";"";"";"";"kiwEV";"Q113807417";"";"";"";"";"";"";"";"";"";"";"";"";"";""
"11209919580";"-36.7222181";"174.7130902";"charging_station";"Auckland";"New Zealand";"Auckland";"N/A";"N/A";"";"";"";"";"AT";"Q4819567";"";"";"";"1";"";"";"OPL-93";"";"";"";"OpenLoop";"";"";""
"11330506468";"-36.9938865";"174.8786229";"charging_station";"Auckland";"New Zealand";"Auckland";"N/A";"N/A";"";"";"";"";"AT";"Q4819567";"";"";"";"1";"";"";"";"";"";"";"OpenLoop";"";"";""
"11359915981";"-36.8458853";"174.7754824";"charging_station";"Auckland";"New Zealand";"Auckland";"N/A";"N/A";"";"";"";"";"";"";"";"";"";"";"";"";"";"";"";"";"";"";"";""
"11468433877";"-36.7790515";"174.7458454";"charging_station";"Auckland";"New Zealand";"Auckland";"N/A";"N/A";"";"2";"";"";"ChargeNet NZ";"Q105872959";"";"";"";"";"";"";"";"";"";"";"";"";"";"yes"
"11795208864";"-36.8975974";"174.8493717";"charging_station";"Auckland";"New Zealand";"Auckland";"N/A";"N/A";"";"";"";"";"AT";"Q4819567";"";"";"";"";"";"";"";"";"";"";"OpenLoop";"";"";""
"11890612650";"-36.8440332";"174.7563825";"charging_station";"Auckland";"New Zealand";"Auckland";"N/A";"N/A";"";"";"";"";"NZ Bus";"";"";"";"";"";"";"";"";"";"";"";"";"";"";""
"11890612651";"-36.8440531";"174.7564715";"charging_station";"Auckland";"New Zealand";"Auckland";"N/A";"N/A";"";"";"";"";"NZ Bus";"";"";"";"";"";"";"";"";"";"";"";"";"";"";""
"11890612652";"-36.8440775";"174.7565604";"charging_station";"Auckland";"New Zealand";"Auckland";"N/A";"N/A";"";"";"";"";"NZ Bus";"";"";"";"";"";"";"";"";"";"";"";"";"";"";""
"11890612653";"-36.8441003";"174.7566565";"charging_station";"Auckland";"New Zealand";"Auckland";"N/A";"N/A";"";"";"";"";"NZ Bus";"";"";"";"";"";"";"";"";"";"";"";"";"";"";""
"11890612654";"-36.8441242";"174.7567423";"charging_station";"Auckland";"New Zealand";"Auckland";"N/A";"N/A";"";"";"";"";"NZ Bus";"";"";"";"";"";"";"";"";"";"";"";"";"";"";""
"11890612655";"-36.8441487";"174.7568364";"charging_station";"Auckland";"New Zealand";"Auckland";"N/A";"N/A";"";"";"";"";"NZ Bus";"";"";"";"";"";"";"";"";"";"";"";"";"";"";""
"12207923002";"-36.8634502";"174.6152632";"charging_station";"Auckland";"New Zealand";"Auckland";"N/A";"N/A";"";"2";"";"";"BP";"Q152057";"";"";"";"";"";"";"";"";"";"";"";"";"";""
"12751538922";"-36.9082855";"174.7354056";"charging_station";"Auckland";"New Zealand";"Auckland";"N/A";"N/A";"";"2";"";"yes";"ChargeNet NZ";"Q105872959";"";"";"";"";"";"";"";"";"";"";"";"0.85 NZD/kWh";"";"yes"
"12760778457";"-36.9173873";"174.7530779";"charging_station";"Auckland";"New Zealand";"Auckland";"N/A";"N/A";"";"";"";"";"Solsen on Olsen";"";"";"";"";"";"";"";"";"";"";"";"";"";"";""
"12798126696";"-36.7515335";"174.7283021";"charging_station";"Auckland";"New Zealand";"Auckland";"N/A";"N/A";"";"";"";"";"AT";"Q4819567";"";"";"";"";"";"";"";"";"";"";"";"";"";""
"1016765579";"";"";"charging_station";"N/A";"N/A";"N/A";"N/A";"N/A";"";"2";"";"";"Z Energy";"Q8063337";"";"";"";"";"";"";"";"";"";"";"Z";"";"";"yes"
"1077884632";"";"";"charging_station";"N/A";"N/A";"N/A";"N/A";"N/A";"";"";"";"";"Ports of Auckland";"Q1641895";"";"";"";"";"";"";"";"";"";"";"";"";"";""
"1309971181";"";"";"charging_station";"N/A";"N/A";"N/A";"N/A";"N/A";"";"1";"";"";"Jolt";"Q109783503";"";"";"";"";"";"";"";"";"";"";"Jolt";"";"";"yes"
"1309971775";"";"";"charging_station";"N/A";"N/A";"N/A";"N/A";"N/A";"";"1";"";"";"Jolt";"Q109783503";"";"";"";"";"";"";"";"";"";"";"JOLT";"";"";"yes"
"1315212863";"";"";"charging_station";"N/A";"N/A";"N/A";"N/A";"N/A";"";"1";"";"";"Jolt";"Q109783503";"";"";"";"";"";"";"";"";"";"";"JOLT";"";"";"yes"
"1315823588";"";"";"charging_station";"N/A";"N/A";"N/A";"N/A";"N/A";"";"1";"";"";"Jolt";"Q109783503";"";"";"";"";"";"";"";"";"";"";"JOLT";"";"";"yes"
"1315824519";"";"";"charging_station";"N/A";"N/A";"N/A";"N/A";"N/A";"";"3";"";"";"Z Energy";"Q8063337";"";"";"";"";"";"";"";"";"";"";"Z";"";"";"yes"
"1317989199";"";"";"charging_station";"N/A";"N/A";"N/A";"N/A";"N/A";"";"3";"";"";"Z Energy";"Q8063337";"";"";"";"";"";"";"";"";"";"";"Z";"";"";"yes"
"1349462503";"";"";"charging_station";"N/A";"N/A";"N/A";"N/A";"N/A";"";"1";"";"";"Jolt";"Q109783503";"";"";"";"";"";"";"";"";"";"";"Jolt";"";"";"yes"
"1349463899";"";"";"charging_station";"N/A";"N/A";"N/A";"N/A";"N/A";"";"1";"";"";"Jolt";"Q109783503";"";"";"";"";"";"";"";"";"";"";"Jolt";"";"";"yes"
"1358977474";"";"";"charging_station";"N/A";"N/A";"N/A";"N/A";"N/A";"";"1";"";"";"Jolt";"Q109783503";"";"";"";"";"";"";"";"";"";"";"Jolt";"";"";"yes"
"12197878661";"-36.9003356";"174.6531011";"";"Auckland";"New Zealand";"Auckland";"N/A";"N/A";"";"";"";"";"";"";"";"";"";"";"";"";"";"";"";"";"";"";"";""
"12197878662";"-36.9003606";"174.6531389";"";"Auckland";"New Zealand";"Auckland";"N/A";"N/A";"";"";"";"";"";"";"";"";"";"";"";"";"";"";"";"";"";"";"";""
"12197878663";"-36.9003486";"174.6531513";"";"Auckland";"New Zealand";"Auckland";"N/A";"N/A";"";"";"";"";"";"";"";"";"";"";"";"";"";"";"";"";"";"";"";""
"12197878664";"-36.9003607";"174.6531695";"";"Auckland";"New Zealand";"Auckland";"N/A";"N/A";"";"";"";"";"";"";"";"";"";"";"";"";"";"";"";"";"";"";"";""
"12197878665";"-36.9003261";"174.6532052";"";"Auckland";"New Zealand";"Auckland";"N/A";"N/A";"";"";"";"";"";"";"";"";"";"";"";"";"";"";"";"";"";"";"";""
"12197878666";"-36.9002848";"174.6531428";"";"Auckland";"New Zealand";"Auckland";"N/A";"N/A";"";"";"";"";"";"";"";"";"";"";"";"";"";"";"";"";"";"";"";""
"12197878667";"-36.900275";"174.6531529";"";"Auckland";"New Zealand";"Auckland";"N/A";"N/A";"";"";"";"";"";"";"";"";"";"";"";"";"";"";"";"";"";"";"";""
"12197878668";"-36.9002496";"174.6531144";"";"Auckland";"New Zealand";"Auckland";"N/A";"N/A";"";"";"";"";"";"";"";"";"";"";"";"";"";"";"";"";"";"";"";""
"12197878669";"-36.9002687";"174.6530947";"";"Auckland";"New Zealand";"Auckland";"N/A";"N/A";"";"";"";"";"";"";"";"";"";"";"";"";"";"";"";"";"";"";"";""
"12197878670";"-36.9002984";"174.6531396";"";"Auckland";"New Zealand";"Auckland";"N/A";"N/A";"";"";"";"";"";"";"";"";"";"";"";"";"";"";"";"";"";"";"";""
"12128722396";"-36.9112422";"174.6886412";"";"Auckland";"New Zealand";"Auckland";"N/A";"N/A";"";"";"";"";"";"";"";"";"";"";"";"";"";"";"";"";"";"";"";""
"12128722397";"-36.911255";"174.6886822";"";"Auckland";"New Zealand";"Auckland";"N/A";"N/A";"";"";"";"";"";"";"";"";"";"";"";"";"";"";"";"";"";"";"";""
"12128722398";"-36.9112813";"174.6886694";"";"Auckland";"New Zealand";"Auckland";"N/A";"N/A";"";"";"";"";"";"";"";"";"";"";"";"";"";"";"";"";"";"";"";""
"12128722399";"-36.9112685";"174.6886284";"";"Auckland";"New Zealand";"Auckland";"N/A";"N/A";"";"";"";"";"";"";"";"";"";"";"";"";"";"";"";"";"";"";"";""
"12128744703";"-36.9057289";"174.6864971";"";"Auckland";"New Zealand";"Auckland";"N/A";"N/A";"";"";"";"";"";"";"";"";"";"";"";"";"";"";"";"";"";"";"";""
"12128744704";"-36.9057535";"174.6865246";"";"Auckland";"New Zealand";"Auckland";"N/A";"N/A";"";"";"";"";"";"";"";"";"";"";"";"";"";"";"";"";"";"";"";""
"12128744705";"-36.9057785";"174.6864896";"";"Auckland";"New Zealand";"Auckland";"N/A";"N/A";"";"";"";"";"";"";"";"";"";"";"";"";"";"";"";"";"";"";"";""
"12128744706";"-36.9057539";"174.6864621";"";"Auckland";"New Zealand";"Auckland";"N/A";"N/A";"";"";"";"";"";"";"";"";"";"";"";"";"";"";"";"";"";"";"";""
"12173824913";"-36.9150113";"174.7561213";"";"Auckland";"New Zealand";"Auckland";"N/A";"N/A";"";"";"";"";"";"";"";"";"";"";"";"";"";"";"";"";"";"";"";""
"12173824914";"-36.9150553";"174.7560879";"";"Auckland";"New Zealand";"Auckland";"N/A";"N/A";"";"";"";"";"";"";"";"";"";"";"";"";"";"";"";"";"";"";"";""
"12173824915";"-36.9150677";"174.7561134";"";"Auckland";"New Zealand";"Auckland";"N/A";"N/A";"";"";"";"";"";"";"";"";"";"";"";"";"";"";"";"";"";"";"";""
"12173824916";"-36.9150237";"174.7561468";"";"Auckland";"New Zealand";"Auckland";"N/A";"N/A";"";"";"";"";"";"";"";"";"";"";"";"";"";"";"";"";"";"";"";""
"12179405656";"-36.8523322";"174.6504136";"";"Auckland";"New Zealand";"Auckland";"N/A";"N/A";"";"";"";"";"";"";"";"";"";"";"";"";"";"";"";"";"";"";"";""
"12179405657";"-36.85233";"174.6503203";"";"Auckland";"New Zealand";"Auckland";"N/A";"N/A";"";"";"";"";"";"";"";"";"";"";"";"";"";"";"";"";"";"";"";""
"12179405658";"-36.8524189";"174.650317";"";"Auckland";"New Zealand";"Auckland";"N/A";"N/A";"";"";"";"";"";"";"";"";"";"";"";"";"";"";"";"";"";"";"";""
"12179405659";"-36.8524212";"174.6504102";"";"Auckland";"New Zealand";"Auckland";"N/A";"N/A";"";"";"";"";"";"";"";"";"";"";"";"";"";"";"";"";"";"";"";""
"12179380215";"-36.843077";"174.6524504";"";"Auckland";"New Zealand";"Auckland";"N/A";"N/A";"";"";"";"";"";"";"";"";"";"";"";"";"";"";"";"";"";"";"";""
"12179380216";"-36.8430781";"174.6524784";"";"Auckland";"New Zealand";"Auckland";"N/A";"N/A";"";"";"";"";"";"";"";"";"";"";"";"";"";"";"";"";"";"";"";""
"12179380217";"-36.843125";"174.6524755";"";"Auckland";"New Zealand";"Auckland";"N/A";"N/A";"";"";"";"";"";"";"";"";"";"";"";"";"";"";"";"";"";"";"";""
"12179380218";"-36.8431242";"174.652447";"";"Auckland";"New Zealand";"Auckland";"N/A";"N/A";"";"";"";"";"";"";"";"";"";"";"";"";"";"";"";"";"";"";"";""
"9882557884";"-36.8428904";"174.7755621";"";"Auckland";"New Zealand";"Auckland";"N/A";"N/A";"";"";"";"";"";"";"";"";"";"";"";"";"";"";"";"";"";"";"";""
"9882557885";"-36.8429";"174.7755729";"";"Auckland";"New Zealand";"Auckland";"N/A";"N/A";"";"";"";"";"";"";"";"";"";"";"";"";"";"";"";"";"";"";"";""
"9882557886";"-36.8429081";"174.7755616";"";"Auckland";"New Zealand";"Auckland";"N/A";"N/A";"";"";"";"";"";"";"";"";"";"";"";"";"";"";"";"";"";"";"";""
"9882557887";"-36.8428984";"174.7755509";"";"Auckland";"New Zealand";"Auckland";"N/A";"N/A";"";"";"";"";"";"";"";"";"";"";"";"";"";"";"";"";"";"";"";""
"9378077805";"-36.8100595";"174.7380346";"";"Auckland";"New Zealand";"Auckland";"N/A";"N/A";"";"";"";"";"";"";"";"";"";"";"";"";"";"";"";"";"";"";"";""
"9378077806";"-36.8100607";"174.7381102";"";"Auckland";"New Zealand";"Auckland";"N/A";"N/A";"";"";"";"";"";"";"";"";"";"";"";"";"";"";"";"";"";"";"";""
"9378077807";"-36.8100088";"174.7381115";"";"Auckland";"New Zealand";"Auckland";"N/A";"N/A";"";"";"";"";"";"";"";"";"";"";"";"";"";"";"";"";"";"";"";""
"9378077808";"-36.8100076";"174.7380359";"";"Auckland";"New Zealand";"Auckland";"N/A";"N/A";"";"";"";"";"";"";"";"";"";"";"";"";"";"";"";"";"";"";"";""
"12578284154";"-36.8102874";"174.7372964";"";"Auckland";"New Zealand";"Auckland";"N/A";"N/A";"";"";"";"";"";"";"";"";"";"";"";"";"";"";"";"";"";"";"";""
"12578284155";"-36.8102519";"174.7372988";"";"Auckland";"New Zealand";"Auckland";"N/A";"N/A";"";"";"";"";"";"";"";"";"";"";"";"";"";"";"";"";"";"";"";""
"12578284156";"-36.8102496";"174.7372467";"";"Auckland";"New Zealand";"Auckland";"N/A";"N/A";"";"";"";"";"";"";"";"";"";"";"";"";"";"";"";"";"";"";"";""
"12578284157";"-36.8102851";"174.7372442";"";"Auckland";"New Zealand";"Auckland";"N/A";"N/A";"";"";"";"";"";"";"";"";"";"";"";"";"";"";"";"";"";"";"";""
"12483478656";"-36.7699922";"174.736581";"";"Auckland";"New Zealand";"Auckland";"N/A";"N/A";"";"";"";"";"";"";"";"";"";"";"";"";"";"";"";"";"";"";"";""
"12483478657";"-36.7700113";"174.7366465";"";"Auckland";"New Zealand";"Auckland";"N/A";"N/A";"";"";"";"";"";"";"";"";"";"";"";"";"";"";"";"";"";"";"";""
"12483478658";"-36.7700398";"174.7366336";"";"Auckland";"New Zealand";"Auckland";"N/A";"N/A";"";"";"";"";"";"";"";"";"";"";"";"";"";"";"";"";"";"";"";""
"12483478659";"-36.7700207";"174.7365681";"";"Auckland";"New Zealand";"Auckland";"N/A";"N/A";"";"";"";"";"";"";"";"";"";"";"";"";"";"";"";"";"";"";"";""
"12483511317";"-36.7688025";"174.7396577";"";"Auckland";"New Zealand";"Auckland";"N/A";"N/A";"";"";"";"";"";"";"";"";"";"";"";"";"";"";"";"";"";"";"";""
"12483511318";"-36.7688416";"174.7396825";"";"Auckland";"New Zealand";"Auckland";"N/A";"N/A";"";"";"";"";"";"";"";"";"";"";"";"";"";"";"";"";"";"";"";""
"12483511319";"-36.768858";"174.7396424";"";"Auckland";"New Zealand";"Auckland";"N/A";"N/A";"";"";"";"";"";"";"";"";"";"";"";"";"";"";"";"";"";"";"";""
"12483511320";"-36.7688188";"174.7396176";"";"Auckland";"New Zealand";"Auckland";"N/A";"N/A";"";"";"";"";"";"";"";"";"";"";"";"";"";"";"";"";"";"";"";""
"9979405504";"-36.7590067";"175.4987339";"charging_station";"Thames-Coromandel District";"New Zealand";"Waikato";"N/A";"N/A";"yes";"1";"";"";"ChargeNet NZ";"Q105872959";"";"";"";"";"";"";"";"54";"Woollams Avenue";"";"";"0.25 / kWh + 0.25 / minute";"24/7";"yes"
"9977019619";"-37.0008342";"175.8502043";"charging_station";"Thames-Coromandel District";"New Zealand";"Waikato";"N/A";"N/A";"";"1";"";"";"ChargeNet NZ";"Q105872959";"";"";"";"";"";"";"";"";"";"";"";"0.25 / kWh + 0.25 / minute";"";"yes"
"9979529556";"-36.834517";"175.7037449";"charging_station";"Thames-Coromandel District";"New Zealand";"Waikato";"N/A";"N/A";"";"1";"";"";"ChargeNet NZ";"Q105872959";"";"";"";"";"";"";"";"4";"Lee Street";"";"";"0.25 / kWh + 0.25 / minute";"24/7";"yes"
"6800900576";"-36.470131";"-72.0054668";"charging_station";"Provincia de Nuble";"Chile";"Biobio";"N/A";"N/A";"";"2";"";"";"Copec Voltex";"";"";"";"";"";"";"";"";"";"";"";"";"";"";""
"6800861268";"-36.1337163";"-71.8078164";"charging_station";"Provincia de Linares";"Chile";"Maule";"N/A";"N/A";"";"1";"";"";"Copec";"Q1130956";"";"";"";"1";"";"";"";"";"";"";"";"";"";""
"11395313482";"-36.2566857";"-57.7095778";"charging_station";"Partido de Dolores";"Argentina";"Buenos Aires";"N/A";"N/A";"";"";"";"";"";"";"";"";"";"";"";"";"";"";"";"";"";"";"";""
"11959660059";"-36.3089078";"140.7809209";"charging_station";"Tatiara";"Australia";"South Australia";"N/A";"N/A";"";"4";"";"";"Chargefox";"Q105775824";"";"";"";"1";"";"";"";"";"";"";"RAA";"";"";""
"11959671631";"-36.3084733";"140.7735722";"charging_station";"Tatiara";"Australia";"South Australia";"N/A";"N/A";"";"3";"";"";"Chargefox";"Q105775824";"";"";"";"3";"";"";"";"";"";"";"RAA";"";"";""
"12236553392";"-36.2977904";"140.7571193";"charging_station";"Tatiara";"Australia";"South Australia";"N/A";"N/A";"";"";"";"";"Tesla";"Q478214";"";"";"";"";"";"";"";"";"";"";"Tesla Supercharger";"";"";""
"10184551929";"-36.3777087";"141.2383789";"charging_station";"Tatiara";"Australia";"South Australia";"N/A";"N/A";"";"";"";"";"Evie Networks";"Q105795220";"";"";"";"";"";"";"";"";"";"";"";"";"";""
"9139174626";"-36.1423702";"141.9878017";"charging_station";"Horsham";"Australia";"Victoria";"N/A";"N/A";"";"";"";"";"Linga Network";"";"";"";"";"";"";"";"";"";"";"";"";"";"";""
"9139223343";"-36.4546128";"142.0260508";"charging_station";"Horsham";"Australia";"Victoria";"N/A";"N/A";"";"";"";"";"Linga Network";"";"";"";"";"1";"";"";"";"";"";"";"";"";"";""
"9712993934";"-36.3328407";"141.6495675";"charging_station";"Horsham";"Australia";"Victoria";"N/A";"N/A";"";"";"";"";"";"";"";"";"";"1";"";"";"";"";"";"";"";"";"";""
"12894174459";"-36.332681";"141.6514737";"charging_station";"Horsham";"Australia";"Victoria";"N/A";"N/A";"";"4";"";"";"Tesla";"Q478214";"";"";"";"";"";"";"";"";"";"";"Tesla Supercharger";"";"";""
"11021093600";"-36.2506357";"142.394036";"charging_station";"Horsham";"Australia";"Victoria";"N/A";"N/A";"";"";"";"";"Evie Networks";"Q105795220";"";"";"";"";"";"";"";"29";"Jamouneau Street";"3393";"";"";"";""
"11963684075";"-36.3713731";"142.9816961";"charging_station";"Northern Grampians";"Australia";"Victoria";"N/A";"N/A";"";"";"";"";"Evie Networks";"Q105795220";"";"";"";"";"";"";"";"";"";"";"";"";"";""
"11957170644";"-36.6152189";"143.2584564";"charging_station";"Central Goldfields";"Australia";"Victoria";"N/A";"N/A";"";"";"";"";"Evie Networks";"Q105795220";"";"";"";"";"";"";"";"";"";"";"";"";"";""
"8512844540";"-36.575759";"143.8676039";"charging_station";"Greater Bendigo";"Australia";"Victoria";"N/A";"N/A";"";"2";"";"";"Central Victorian Greenhouse Alliance";"Q106320329";"";"";"";"";"";"";"";"";"";"";"Charging the Regions";"";"";""
"9150566549";"-36.4179502";"143.6138978";"charging_station";"Central Goldfields";"Australia";"Victoria";"N/A";"N/A";"";"2";"";"";"Central Victorian Greenhouse Alliance";"Q106320329";"";"";"";"";"";"";"";"";"";"";"Charging the Regions";"";"";""
"8690279176";"-36.1271422";"144.7479998";"charging_station";"Campaspe";"Australia";"Victoria";"N/A";"N/A";"";"";"";"";"Central Victorian Greenhouse Alliance";"Q106320329";"";"";"";"";"";"";"";"";"";"";"Charging the Regions";"";"";""
"9150544914";"-36.3803048";"145.4003239";"charging_station";"Greater Shepparton";"Australia";"Victoria";"N/A";"N/A";"";"2";"";"";"Central Victorian Greenhouse Alliance";"Q106320329";"";"";"";"";"";"";"";"";"";"";"Charging the Regions";"";"";""
"10309600584";"-36.3843671";"145.4009851";"charging_station";"Greater Shepparton";"Australia";"Victoria";"N/A";"N/A";"";"6";"";"";"Tesla";"Q478214";"";"";"";"";"";"";"";"";"";"";"Tesla Supercharger";"";"";""
"11506870062";"-36.394603";"145.3598536";"charging_station";"Greater Shepparton";"Australia";"Victoria";"N/A";"N/A";"";"";"";"";"Central Victorian Greenhouse Alliance";"Q106320329";"";"";"";"";"";"";"";"";"";"";"Charging the Regions";"";"";""
"11506874164";"-36.4403466";"145.2262264";"charging_station";"Greater Shepparton";"Australia";"Victoria";"N/A";"N/A";"";"";"";"";"Chargefox";"Q105775824";"";"";"";"";"";"";"";"";"";"";"";"";"";""
"11276547806";"-36.5506276";"145.9842966";"charging_station";"Benalla";"Australia";"Victoria";"N/A";"N/A";"";"";"";"";"Evie Networks";"Q105795220";"";"";"";"";"";"";"";"";"";"";"";"";"";""
"10744208052";"-36.4400211";"146.2497942";"charging_station";"Wangaratta";"Australia";"Victoria";"N/A";"N/A";"";"";"";"";"BP Pulse";"Q39057719";"";"";"";"";"";"";"";"";"";"";"BP Pulse";"";"";""
"10744341618";"-36.354976";"146.3224917";"charging_station";"Wangaratta";"Australia";"Victoria";"N/A";"N/A";"";"";"";"";"Evie Networks";"Q105795220";"";"";"";"";"";"";"";"";"";"";"";"";"";""
"10778712392";"-36.4384716";"146.2481059";"charging_station";"Wangaratta";"Australia";"Victoria";"N/A";"N/A";"";"";"";"";"BP Pulse";"Q39057719";"";"";"";"";"";"";"";"";"";"";"BP Pulse";"";"";"no"
"11280883851";"-36.3530438";"146.3265843";"charging_station";"Wangaratta";"Australia";"Victoria";"N/A";"N/A";"";"";"";"";"Tesla";"Q478214";"";"";"";"";"";"";"";"";"";"";"Tesla Supercharger";"";"";""
"6456676767";"-36.5870197";"146.7592991";"charging_station";"Alpine";"Australia";"Victoria";"N/A";"N/A";"";"";"";"";"Tesla, Inc.";"Q478214";"";"";"";"";"";"";"";"";"";"";"Tesla Supercharger";"";"";""
"10048914044";"-36.3138529";"146.8386193";"charging_station";"Wodonga";"Australia";"Victoria";"N/A";"N/A";"";"";"";"";"";"";"";"";"";"";"";"";"";"";"";"";"";"";"";""
"11228085088";"-36.3580999";"146.6870107";"charging_station";"Wodonga";"Australia";"Victoria";"N/A";"N/A";"";"2";"";"yes";"Evie Networks";"Q105795220";"";"";"";"";"";"";"";"";"";"";"";"";"24/7";"yes"
"11572184459";"-36.3550727";"146.6859357";"charging_station";"Wodonga";"Australia";"Victoria";"N/A";"N/A";"";"6";"";"yes";"Tesla";"Q478214";"";"";"";"";"";"";"";"";"";"";"";"";"24/7";"yes"
"12818129073";"-36.149432";"146.6104903";"charging_station";"Corowa Shire";"Australia";"New South Wales";"N/A";"N/A";"";"";"";"";"Evie Networks";"Q105795220";"";"";"";"";"";"";"";"";"";"";"";"";"";""
"11367761844";"-36.1956744";"147.9063048";"charging_station";"Snowy River";"Australia";"New South Wales";"N/A";"N/A";"";"50kw";"";"";"Evie Networks";"Q105795220";"";"";"";"";"";"";"";"";"";"";"Tritium";"";"";"yes"
"8660513071";"-36.4459863";"148.4516049";"charging_station";"Snowy River";"Australia";"New South Wales";"N/A";"N/A";"";"";"";"";"";"";"";"";"";"";"";"";"";"";"";"";"Tesla, Inc.";"";"";""
"9069283087";"-36.4460208";"148.4516402";"charging_station";"Snowy River";"Australia";"New South Wales";"N/A";"N/A";"";"";"";"";"";"";"";"";"";"";"";"";"";"";"";"";"Tesla, Inc.";"";"";""
"9069321520";"-36.5049165";"148.3045413";"charging_station";"Snowy River";"Australia";"New South Wales";"N/A";"N/A";"";"";"";"";"";"";"";"";"";"";"";"";"";"";"";"";"Tesla";"";"";""
"9121831091";"-36.4459986";"148.4515931";"charging_station";"Snowy River";"Australia";"New South Wales";"N/A";"N/A";"";"";"";"";"";"";"";"";"";"";"";"";"";"";"";"";"Tesla, Inc.";"";"";""
"6460781765";"-36.4160168";"148.6197273";"charging_station";"Snowy River";"Australia";"New South Wales";"N/A";"N/A";"";"2";"";"";"NRMA";"Q6955173";"";"";"";"";"";"";"";"";"";"";"";"";"";"no"
"8660516388";"-36.4146819";"148.6165569";"charging_station";"Snowy River";"Australia";"New South Wales";"N/A";"N/A";"";"";"";"";"";"";"";"";"";"";"";"";"";"";"";"";"Tesla";"";"";""
"12398804433";"-36.4147593";"148.6180734";"charging_station";"Snowy River";"Australia";"New South Wales";"N/A";"N/A";"";"";"";"";"BP Pulse";"Q39057719";"";"";"";"";"";"";"";"";"";"";"BP Pulse";"";"";""
"6979040237";"-36.2355277";"149.1267896";"charging_station";"Cooma-Monaro";"Australia";"New South Wales";"N/A";"N/A";"";"";"";"";"Tesla";"Q478214";"";"";"";"";"";"";"";"";"";"";"Tesla Supercharger";"";"";""
"6979057721";"-36.2188825";"149.1336412";"charging_station";"Cooma-Monaro";"Australia";"New South Wales";"N/A";"N/A";"";"350";"";"";"Chargefox";"Q105775824";"";"";"";"";"";"";"";"";"";"";"";"";"";""
"12639666383";"-36.2329697";"149.1322401";"charging_station";"Cooma-Monaro";"Australia";"New South Wales";"N/A";"N/A";"";"10";"";"";"Tesla";"Q478214";"";"";"";"";"";"";"";"";"";"";"Tesla Supercharger";"";"";""
"5758577851";"-36.2231879";"150.1284524";"charging_station";"Eurobodalla";"Australia";"New South Wales";"N/A";"N/A";"";"";"";"";"Tesla, Inc.";"Q478214";"";"";"";"";"";"";"";"";"";"";"Tesla Supercharger";"";"";""
"5629742834";"-36.1609039";"174.4438574";"charging_station";"Auckland";"New Zealand";"Auckland";"N/A";"N/A";"";"";"";"yes";"ChargeNet NZ";"Q105872959";"";"";"";"";"";"";"";"";"";"";"";"";"";""
"9867203501";"-36.163806";"174.4435547";"charging_station";"Auckland";"New Zealand";"Auckland";"N/A";"N/A";"";"6";"";"";"ChargeNet NZ";"Q105872959";"";"";"";"";"";"";"";"";"";"";"";"$0.60 / kWh (minimum $0.35 / minute)";"";"yes"
"4379780492";"-36.622246";"174.6705033";"charging_station";"Auckland";"New Zealand";"Auckland";"N/A";"N/A";"";"2";"";"yes";"Vector";"Q7917807";"";"";"";"";"";"";"";"";"";"";"";"";"";""
"5629724273";"-36.5864571";"174.6947669";"charging_station";"Auckland";"New Zealand";"Auckland";"N/A";"N/A";"";"2";"";"yes";"ChargeNet NZ";"Q105872959";"";"";"";"";"";"";"";"";"";"";"";"DC $0.25 / kWh + $0.25 / minute";"24/7";"yes"
"7795659340";"-36.4193105";"174.7236009";"charging_station";"Auckland";"New Zealand";"Auckland";"N/A";"N/A";"";"";"";"";"";"";"";"";"";"";"";"";"";"";"";"";"";"";"";""
"10201521562";"-36.6060484";"174.6617991";"charging_station";"Auckland";"New Zealand";"Auckland";"N/A";"N/A";"";"4";"";"";"BP Pulse";"Q39057719";"";"";"";"";"";"";"";"";"";"";"BP Pulse";"";"";"yes"
"1319610580";"";"";"charging_station";"N/A";"N/A";"N/A";"N/A";"N/A";"";"2";"";"";"BP";"Q152057";"";"";"";"";"";"";"";"";"";"";"BP";"";"";"yes"
"12211651445";"-36.408957";"174.6597942";"";"Auckland";"New Zealand";"Auckland";"N/A";"N/A";"";"";"";"";"";"";"";"";"";"";"";"";"";"";"";"";"";"";"";""
"12211651446";"-36.4089454";"174.659845";"";"Auckland";"New Zealand";"Auckland";"N/A";"N/A";"";"";"";"";"";"";"";"";"";"";"";"";"";"";"";"";"";"";"";""
"12211651447";"-36.4088934";"174.6598265";"";"Auckland";"New Zealand";"Auckland";"N/A";"N/A";"";"";"";"";"";"";"";"";"";"";"";"";"";"";"";"";"";"";"";""
"12211651448";"-36.4089051";"174.6597758";"";"Auckland";"New Zealand";"Auckland";"N/A";"N/A";"";"";"";"";"";"";"";"";"";"";"";"";"";"";"";"";"";"";"";""
"11395345487";"-36.0952531";"-57.8108371";"charging_station";"Partido de Castelli";"Argentina";"Buenos Aires";"N/A";"N/A";"";"";"";"";"";"";"";"";"";"";"";"";"";"";"";"";"";"";"";""
